{"type":"Feature","properties":{"sourceId":"auvergne"},"geometry":{"type":"Polygon","coordinates":[[[2.168824,44.65398],[2.159542,44.66433],[2.16987,44.66864],[2.172388,44.67501],[2.157373,44.69504],[2.15341,44.69601],[2.138114,44.69042],[2.127776,44.69745],[2.12916,44.71034],[2.141982,44.71957],[2.148443,44.73357],[2.15096,44.74981],[2.144817,44.76269],[2.146439,44.76994],[2.162581,44.7766],[2.167762,44.78928],[2.162958,44.79916],[2.161405,44.81155],[2.13316,44.82549],[2.122419,44.84331],[2.11487,44.84709],[2.095954,44.86843],[2.090668,44.87026],[2.086831,44.88054],[2.081473,44.885],[2.083975,44.90514],[2.098829,44.90855],[2.101163,44.91318],[2.095988,44.92061],[2.074214,44.93287],[2.073569,44.94174],[2.076738,44.95237],[2.068763,44.96084],[2.0625912004697757,44.973065313722536],[2.091981,44.98218],[2.102615,44.97774],[2.11368,44.982],[2.133131,44.9825],[2.144673,44.99961],[2.143435,45.00676],[2.129898,45.01434],[2.124666,45.0215],[2.119165,45.02408],[2.112904,45.04155],[2.103406,45.04886],[2.103829,45.05933],[2.107663,45.06443],[2.121038,45.0669],[2.134157,45.0783],[2.143295,45.08176],[2.157628,45.08269],[2.166934,45.07839],[2.177381,45.07964],[2.177187,45.08623],[2.182835,45.09452],[2.184292,45.10731],[2.192976,45.11479],[2.184958,45.12687],[2.185595,45.13101],[2.203795,45.13666],[2.211686,45.1437],[2.216751,45.15619],[2.231015,45.15946],[2.235714,45.16575],[2.233218,45.17418],[2.223798,45.17349],[2.20338,45.18621],[2.20214,45.19982],[2.1941,45.20632],[2.200484,45.2185],[2.229346,45.24343],[2.242465,45.24615],[2.243899,45.26245],[2.260122,45.26837],[2.266631,45.28367],[2.27245,45.28673],[2.291016,45.28549],[2.318082,45.31924],[2.352676,45.32536],[2.3613,45.33432],[2.361068,45.33993],[2.356112,45.34743],[2.367312,45.3546],[2.369964,45.36712],[2.366857,45.37763],[2.371905,45.38746],[2.365856,45.39885],[2.354751,45.40686],[2.356049,45.41216],[2.369045,45.41341],[2.386149,45.40933],[2.391992,45.40586],[2.397371,45.3978],[2.420509,45.39441],[2.442355,45.38134],[2.465268,45.38087],[2.468049,45.37253],[2.476344,45.36767],[2.482184,45.36779],[2.488726,45.37681],[2.49832,45.37862],[2.506934,45.37602],[2.51697,45.38139],[2.523636,45.38],[2.530694,45.39161],[2.524041,45.4045],[2.51649,45.40568],[2.506325,45.41304],[2.494902,45.41673],[2.492699,45.42038],[2.498559,45.44204],[2.504952,45.44753],[2.502481,45.456],[2.508699,45.46196],[2.512179,45.47235],[2.510536,45.48231],[2.516584,45.4929],[2.511458,45.50372],[2.515068,45.51091],[2.522804,45.51685],[2.520193,45.55191],[2.516828,45.55641],[2.508269,45.55601],[2.495823,45.56112],[2.493568,45.56965],[2.480026,45.57779],[2.468876,45.59696],[2.482376,45.60975],[2.481937,45.62138],[2.486965,45.63564],[2.517325,45.63699],[2.522881,45.6404],[2.523376,45.64799],[2.529257,45.65304],[2.530729,45.66009],[2.523384,45.66239],[2.51769,45.66817],[2.519984,45.67356],[2.530976,45.68123],[2.529268,45.69578],[2.523028,45.70095],[2.525981,45.71138],[2.516027,45.71767],[2.510547,45.72629],[2.497311,45.73683],[2.486588,45.75023],[2.475448,45.75104],[2.469863,45.75873],[2.455245,45.76384],[2.444067,45.76297],[2.437003,45.76994],[2.434724,45.78769],[2.428881,45.79673],[2.418499,45.80226],[2.415781,45.80894],[2.396708,45.82243],[2.39533,45.82667],[2.404408,45.83512],[2.415653,45.8315],[2.43175,45.83183],[2.437454,45.84247],[2.448658,45.84347],[2.452138,45.84834],[2.45155,45.8551],[2.448199,45.85951],[2.450148,45.86311],[2.465306,45.86498],[2.471335,45.86887],[2.478784,45.86207],[2.493783,45.86179],[2.507796,45.88175],[2.515185,45.88332],[2.528843,45.89543],[2.54264,45.89911],[2.554915,45.90962],[2.555263,45.91546],[2.547158,45.91972],[2.54682,45.92619],[2.555432,45.93445],[2.5582,45.94151],[2.57156,45.94579],[2.571173,45.95539],[2.6091,45.96408],[2.61384,45.9714],[2.610409,45.97951],[2.598837,45.98873],[2.596252,45.99413],[2.604899,46.01849],[2.604939,46.03439],[2.574801,46.04931],[2.555456,46.08174],[2.552322,46.11222],[2.560258,46.12294],[2.569292,46.14383],[2.562491,46.17354],[2.552981,46.17986],[2.542152,46.17916],[2.531222,46.18727],[2.527255,46.20331],[2.528414,46.20855],[2.519056,46.2245],[2.517969,46.24038],[2.511259,46.24268],[2.504492,46.24908],[2.49081,46.25371],[2.481023,46.27022],[2.482507,46.28235],[2.475939,46.2843],[2.471297,46.29018],[2.444549,46.29737],[2.432279,46.29752],[2.426423,46.29088],[2.422301,46.29115],[2.420408,46.29438],[2.423235,46.30063],[2.42199,46.31136],[2.39232,46.33261],[2.385781,46.33445],[2.37854,46.33028],[2.36869,46.3158],[2.35553,46.32815],[2.337284,46.32741],[2.322168,46.33366],[2.314143,46.34073],[2.312042,46.34899],[2.314376,46.35428],[2.325882,46.3636],[2.33959,46.36269],[2.337176,46.37544],[2.331931,46.38118],[2.314233,46.37875],[2.298836,46.38644],[2.290125,46.38611],[2.283261,46.40661],[2.283373,46.42155],[2.275408,46.42481],[2.2744978818608064,46.4249555700195],[2.274475,46.42538],[2.280743,46.43686],[2.281263,46.45096],[2.298892,46.47382],[2.30565,46.47793],[2.316728,46.47206],[2.321449,46.47277],[2.326154,46.48032],[2.322173,46.49173],[2.332931,46.50323],[2.36443,46.52045],[2.412126,46.5229],[2.42104,46.52802],[2.429137,46.52895],[2.440823,46.52762],[2.446776,46.52335],[2.469671,46.52913],[2.481936,46.53495],[2.49603,46.53603],[2.501603,46.52507],[2.507841,46.52577],[2.5111,46.53035],[2.519957,46.53351],[2.531917,46.53185],[2.53329,46.5261],[2.537183,46.52408],[2.570198,46.53693],[2.582691,46.5451],[2.604008,46.55221],[2.606432,46.5566],[2.600441,46.56492],[2.604705,46.57172],[2.599244,46.58088],[2.598646,46.58842],[2.592864,46.59137],[2.580177,46.59122],[2.574963,46.60324],[2.566202,46.6083],[2.56828,46.61181],[2.581819,46.61751],[2.582392,46.62743],[2.589695,46.63203],[2.592984,46.63812],[2.589539,46.64455],[2.565318,46.6508],[2.564229,46.65391],[2.5691,46.6611],[2.597805,46.66914],[2.606485,46.6739],[2.61199,46.6644],[2.623724,46.66126],[2.627221,46.66821],[2.617306,46.67979],[2.621689,46.69155],[2.635304,46.69424],[2.647449,46.69303],[2.654492,46.69939],[2.666577,46.70391],[2.670181,46.71054],[2.681232,46.71672],[2.682855,46.72357],[2.69697,46.72664],[2.703037,46.74085],[2.713654,46.74727],[2.721901,46.74644],[2.728488,46.7515],[2.73411,46.74968],[2.742054,46.74291],[2.747294,46.73048],[2.761873,46.72319],[2.77001,46.72558],[2.779683,46.72463],[2.792918,46.73706],[2.826647,46.73801],[2.838697,46.73131],[2.842886,46.74445],[2.859506,46.75636],[2.872973,46.76203],[2.874938,46.77062],[2.905082,46.78101],[2.906067,46.7891],[2.911644,46.79305],[2.930978,46.79827],[2.94746,46.7947],[2.958586,46.80637],[2.967744,46.80668],[2.984013,46.80514],[2.993953,46.79975],[3.017316,46.80248],[3.025883,46.79754],[3.032845,46.79699],[3.038541,46.78727],[3.040696,46.7727],[3.050155,46.76033],[3.063734,46.75077],[3.088322,46.73864],[3.130246,46.72967],[3.166302,46.69592],[3.198303,46.68291],[3.213999,46.68525],[3.223303,46.69087],[3.227672,46.69872],[3.257447,46.70972],[3.270169,46.71922],[3.287922,46.71664],[3.301849,46.71843],[3.305654,46.70598],[3.316593,46.69173],[3.344909,46.68751],[3.365544,46.69412],[3.37288,46.70137],[3.378506,46.71526],[3.390279,46.71741],[3.410132,46.71389],[3.421597,46.71645],[3.436019,46.71392],[3.433116,46.70168],[3.435729,46.69637],[3.447825,46.69505],[3.455293,46.69088],[3.457215,46.67521],[3.451418,46.66925],[3.450494,46.66384],[3.459814,46.65524],[3.482253,46.65538],[3.484438,46.6625],[3.507202,46.67767],[3.510224,46.68508],[3.530407,46.69162],[3.537767,46.68916],[3.543043,46.68238],[3.553189,46.68707],[3.554395,46.69216],[3.545181,46.70751],[3.545293,46.72328],[3.554861,46.72405],[3.564802,46.71878],[3.576506,46.7261],[3.58346,46.72114],[3.591705,46.72488],[3.592311,46.729],[3.573416,46.74945],[3.587736,46.7638],[3.593081,46.76416],[3.600489,46.75449],[3.624588,46.7565],[3.632358,46.7521],[3.626602,46.73835],[3.639136,46.72718],[3.641131,46.7103],[3.655771,46.70891],[3.657371,46.70575],[3.654595,46.69967],[3.658045,46.69018],[3.673668,46.68524],[3.675562,46.68174],[3.674329,46.67395],[3.697939,46.66293],[3.711412,46.63691],[3.725743,46.62821],[3.726545,46.62308],[3.718921,46.61345],[3.719269,46.60926],[3.73498,46.60677],[3.739844,46.60245],[3.737771,46.59468],[3.745677,46.56612],[3.742372,46.55761],[3.735637,46.55065],[3.740405,46.54362],[3.753293,46.5389],[3.773735,46.54102],[3.779299,46.53814],[3.78215,46.53114],[3.796303,46.52951],[3.804719,46.52252],[3.838966,46.53396],[3.848302,46.52582],[3.846606,46.52018],[3.848437,46.51653],[3.858139,46.51782],[3.866714,46.51278],[3.863943,46.49587],[3.87021,46.49068],[3.891406,46.48482],[3.900198,46.49374],[3.910352,46.49832],[3.920648,46.49822],[3.932662,46.49392],[3.954186,46.49448],[3.960332,46.49118],[3.959311,46.48173],[3.976078,46.48201],[3.982047,46.476],[4.000274,46.46704],[4.004086,46.45948],[4.001139,46.45195],[4.008047,46.44243],[3.996714,46.43456],[3.99811,46.42495],[3.988384,46.4179],[3.990905,46.40786],[3.980944,46.39738],[3.985867,46.38228],[3.994264,46.37188],[3.988491,46.33274],[3.991098,46.33005],[4.003845,46.33048],[4.006639,46.32876],[4.005736,46.32555],[3.993726,46.31922],[3.98926,46.31238],[3.97087,46.31851],[3.953354,46.31619],[3.950128,46.30346],[3.94572,46.29797],[3.934365,46.29404],[3.915098,46.29424],[3.904845,46.29142],[3.897912,46.28329],[3.901512,46.27391],[3.87837,46.27118],[3.869017,46.26019],[3.859462,46.26136],[3.811329,46.25497],[3.808176,46.25154],[3.809483,46.2419],[3.803246,46.23615],[3.781721,46.24108],[3.772068,46.23737],[3.774715,46.2304],[3.78685,46.22237],[3.798875,46.20775],[3.792166,46.19902],[3.792701,46.18778],[3.811079,46.16455],[3.809437,46.15964],[3.796443,46.15382],[3.794209,46.15041],[3.804634,46.13104],[3.799739,46.12393],[3.799857,46.11574],[3.825113,46.09043],[3.82231,46.0791],[3.817162,46.0676],[3.811005,46.06193],[3.809044,46.05376],[3.811272,46.04513],[3.816054,46.04011],[3.818684,46.02012],[3.824714,46.01419],[3.828973,46.00345],[3.834147,45.99942],[3.8275,45.99322],[3.824915,45.98577],[3.799473,45.98041],[3.788078,45.97063],[3.77597,45.96914],[3.77193,45.97321],[3.760569,45.9759],[3.747022,45.96449],[3.735125,45.96422],[3.714814,45.97114],[3.70611,45.96643],[3.708467,45.95618],[3.696511,45.94601],[3.696576,45.93462],[3.725386,45.92365],[3.732077,45.91465],[3.74212,45.91037],[3.756834,45.88613],[3.741275,45.87106],[3.731616,45.86562],[3.73051,45.85471],[3.724576,45.84963],[3.730893,45.83111],[3.723825,45.81952],[3.72399,45.81233],[3.713624,45.79787],[3.699577,45.79337],[3.698423,45.7892],[3.702015,45.78558],[3.711252,45.78593],[3.732963,45.77673],[3.741214,45.76644],[3.733016,45.75855],[3.733656,45.75378],[3.745636,45.74679],[3.750656,45.7495],[3.76004,45.7483],[3.77151,45.73022],[3.782531,45.72628],[3.781095,45.71831],[3.785472,45.70777],[3.779501,45.69876],[3.779755,45.69389],[3.796716,45.67644],[3.804485,45.66137],[3.819553,45.64867],[3.82637,45.63422],[3.838342,45.62927],[3.859583,45.62699],[3.864022,45.62351],[3.86508,45.61706],[3.884116,45.60502],[3.909024,45.59992],[3.91847,45.59002],[3.936647,45.58034],[3.947515,45.56405],[3.95672,45.55676],[3.95672,45.5529],[3.949964,45.54374],[3.956704,45.53211],[3.964839,45.50697],[3.986824,45.49648],[3.988074,45.48577],[3.985378,45.48115],[3.972374,45.47434],[3.970044,45.47047],[3.975776,45.46029],[3.974117,45.45425],[3.976757,45.44642],[3.96754,45.44267],[3.963023,45.43257],[3.93784,45.42737],[3.914309,45.4178],[3.91154,45.41037],[3.903512,45.40735],[3.896151,45.3984],[3.894493,45.39167],[3.898181,45.38141],[3.895553,45.37009],[3.907889,45.33999],[3.914785,45.34345],[3.911536,45.35162],[3.913425,45.35582],[3.930211,45.36371],[3.934499,45.37345],[3.948039,45.37882],[3.959466,45.37391],[3.973848,45.3784],[3.98444,45.37602],[3.997351,45.35978],[4.005052,45.35688],[4.013687,45.34117],[4.018867,45.34294],[4.020127,45.35185],[4.030707,45.3519],[4.035659,45.35627],[4.044125,45.35829],[4.059067,45.3523],[4.064364,45.34233],[4.068648,45.34032],[4.073219,45.34325],[4.072776,45.3525],[4.080139,45.36068],[4.102949,45.36144],[4.110116,45.36821],[4.119206,45.37198],[4.14908,45.36894],[4.150873,45.37382],[4.141845,45.38297],[4.144582,45.38685],[4.178034,45.39527],[4.198464,45.38641],[4.215658,45.38758],[4.225087,45.39223],[4.233544,45.39137],[4.251069,45.38447],[4.258235,45.37614],[4.272158,45.377],[4.273442,45.36639],[4.276567,45.36366],[4.28884,45.3643],[4.293969,45.36976],[4.303785,45.37055],[4.307218,45.37367],[4.317837,45.37339],[4.33642,45.37016],[4.34905,45.36359],[4.360751,45.35265],[4.369497,45.33561],[4.348556,45.32598],[4.340831,45.31817],[4.35397,45.30694],[4.373836,45.30239],[4.359784,45.27809],[4.366269,45.26588],[4.378498,45.26588],[4.384106,45.26284],[4.400179,45.27194],[4.417228,45.27746],[4.434336,45.2778],[4.446223,45.26329],[4.469726,45.24997],[4.474381,45.24198],[4.48528,45.23815],[4.492907,45.22344],[4.488827,45.21446],[4.48094,45.21095],[4.482391,45.19351],[4.47398,45.17715],[4.462468,45.17261],[4.458473,45.16543],[4.451447,45.1613],[4.446313,45.14527],[4.450312,45.13201],[4.459944,45.12346],[4.458719,45.11686],[4.447145,45.11626],[4.443429,45.10996],[4.435237,45.10632],[4.42419,45.11641],[4.42609,45.12785],[4.418651,45.13598],[4.409266,45.13824],[4.395866,45.13656],[4.388108,45.14014],[4.379913,45.1384],[4.376587,45.13081],[4.378413,45.12726],[4.402257,45.11997],[4.40154,45.10422],[4.387156,45.09924],[4.374518,45.10147],[4.368848,45.09891],[4.366515,45.09398],[4.368831,45.08762],[4.364207,45.08481],[4.36254,45.07866],[4.352891,45.0734],[4.350849,45.0694],[4.361306,45.05877],[4.379402,45.05657],[4.384882,45.04607],[4.38165,45.03527],[4.360611,45.03175],[4.352664,45.02549],[4.347471,45.02636],[4.341234,45.02336],[4.318879,45.02768],[4.308325,45.02085],[4.295094,45.00483],[4.294309,44.99652],[4.309589,44.98769],[4.315784,44.98017],[4.316021,44.97148],[4.313462,44.9695],[4.303924,44.96854],[4.294634,44.96411],[4.279546,44.96417],[4.253483,44.95636],[4.237003,44.96477],[4.227503,44.96204],[4.223888,44.95581],[4.225672,44.94783],[4.218886,44.9327],[4.20569,44.92474],[4.186356,44.906],[4.183579,44.88935],[4.180201,44.8843],[4.165836,44.8789],[4.160762,44.87241],[4.133681,44.87107],[4.113832,44.87617],[4.092886,44.86784],[4.070507,44.86422],[4.05497,44.86972],[4.046893,44.86761],[4.038282,44.8697],[4.028151,44.85728],[4.026677,44.84578],[4.031491,44.83848],[4.029963,44.83082],[4.013959,44.82456],[4.00738,44.82513],[4.001072,44.8173],[3.992979,44.818],[3.99102,44.81047],[3.987223,44.80874],[3.980315,44.80939],[3.969343,44.81526],[3.959536,44.82509],[3.950164,44.82277],[3.944726,44.81602],[3.944544,44.80716],[3.939841,44.79549],[3.9298,44.78948],[3.926375,44.78314],[3.924595,44.77585],[3.926488,44.76784],[3.914979,44.76278],[3.902922,44.7613],[3.900397,44.75711],[3.901578,44.75168],[3.894245,44.74882],[3.878,44.75378],[3.872752,44.75256],[3.86281,44.74147],[3.833595,44.74653],[3.827386,44.75545],[3.837436,44.76643],[3.835142,44.77133],[3.824349,44.7714],[3.808321,44.76293],[3.800722,44.76993],[3.801126,44.77563],[3.796333,44.78437],[3.783847,44.79225],[3.760214,44.79921],[3.756121,44.80595],[3.757814,44.81292],[3.74788,44.82163],[3.742361,44.83271],[3.721087,44.82826],[3.707015,44.83367],[3.698001,44.82832],[3.662667,44.82746],[3.655275,44.83656],[3.666368,44.8434],[3.667421,44.85355],[3.653735,44.87089],[3.639379,44.87551],[3.627585,44.87569],[3.615091,44.87174],[3.606065,44.87587],[3.599851,44.87444],[3.598498,44.87046],[3.601449,44.85948],[3.595866,44.84831],[3.596839,44.84062],[3.592238,44.83516],[3.590184,44.82413],[3.578208,44.82314],[3.570926,44.83179],[3.566341,44.82997],[3.562169,44.82238],[3.538313,44.82549],[3.513316,44.82228],[3.501555,44.81763],[3.491046,44.80463],[3.477846,44.8071],[3.467314,44.82165],[3.454029,44.82752],[3.455378,44.8391],[3.435982,44.85699],[3.433916,44.87756],[3.417202,44.89519],[3.414491,44.90917],[3.410656,44.91528],[3.413007,44.92912],[3.408387,44.94745],[3.3997,44.95454],[3.390328,44.94832],[3.380947,44.95204],[3.369682,44.95892],[3.369572,44.96627],[3.364612,44.969],[3.35609,44.9528],[3.337074,44.95253],[3.321775,44.94465],[3.313427,44.93567],[3.301536,44.93624],[3.286752,44.92393],[3.26835,44.92603],[3.259981,44.93033],[3.257481,44.93589],[3.253595,44.93547],[3.249846,44.92707],[3.251807,44.91472],[3.233627,44.90905],[3.23133,44.90606],[3.230667,44.89781],[3.239866,44.88861],[3.239973,44.88498],[3.229093,44.88162],[3.215882,44.87186],[3.199273,44.87118],[3.192227,44.8599],[3.184373,44.85979],[3.172632,44.86934],[3.162592,44.87171],[3.157966,44.88283],[3.139665,44.90037],[3.129242,44.8993],[3.126336,44.8877],[3.117264,44.88744],[3.110035,44.88394],[3.108456,44.87181],[3.112539,44.8654],[3.10625,44.86264],[3.099183,44.85448],[3.10258,44.84423],[3.101455,44.83198],[3.079948,44.8306],[3.079284,44.82297],[3.065668,44.8177],[3.049822,44.80069],[3.054413,44.78536],[3.047837,44.77199],[3.051431,44.76229],[3.039067,44.75506],[3.033254,44.7443],[3.033108,44.73425],[3.037789,44.72792],[3.041276,44.71417],[3.029177,44.71361],[3.017628,44.70965],[3.010812,44.69316],[3.004808,44.68619],[3.001277,44.67375],[2.9895,44.65929],[2.987467,44.64814],[2.98468,44.64364],[2.980136,44.64232],[2.972844,44.64313],[2.954576,44.6576],[2.951935,44.66583],[2.935521,44.67856],[2.937057,44.68682],[2.930281,44.6958],[2.931704,44.70519],[2.920732,44.72803],[2.929866,44.73991],[2.930824,44.74677],[2.927217,44.75203],[2.919179,44.75189],[2.909317,44.76091],[2.915001,44.76981],[2.929988,44.76674],[2.932956,44.77601],[2.929808,44.78195],[2.918417,44.79004],[2.9051,44.78128],[2.88591,44.78747],[2.875521,44.80519],[2.86707,44.82908],[2.859178,44.8352],[2.85663,44.84479],[2.852547,44.84951],[2.851788,44.86795],[2.831858,44.86977],[2.814306,44.86683],[2.805014,44.87106],[2.786466,44.86154],[2.782101,44.85503],[2.771849,44.85279],[2.764775,44.86561],[2.767938,44.8799],[2.773299,44.88721],[2.769534,44.89918],[2.771535,44.91266],[2.754932,44.92932],[2.741696,44.92646],[2.737478,44.93389],[2.733748,44.93467],[2.729331,44.93192],[2.725106,44.92256],[2.717549,44.92131],[2.707694,44.90492],[2.691186,44.89994],[2.683853,44.90236],[2.677266,44.90002],[2.662646,44.88551],[2.659513,44.87162],[2.656137,44.86806],[2.632687,44.86962],[2.625847,44.86426],[2.620849,44.85104],[2.61048,44.84266],[2.613775,44.83044],[2.611521,44.82431],[2.60256,44.81726],[2.604607,44.80757],[2.602456,44.79198],[2.586918,44.78147],[2.575432,44.7824],[2.568975,44.77831],[2.563248,44.75753],[2.556081,44.75212],[2.55727,44.73684],[2.563724,44.72823],[2.56249,44.71932],[2.553331,44.71727],[2.541745,44.70944],[2.531695,44.70763],[2.515538,44.69129],[2.502655,44.68761],[2.491579,44.668],[2.493533,44.65588],[2.484603,44.6482],[2.478711,44.64533],[2.473206,44.64606],[2.468331,44.64036],[2.449737,44.64506],[2.433791,44.63628],[2.42571,44.64106],[2.41499,44.64048],[2.404387,44.64453],[2.388743,44.64147],[2.382625,44.64742],[2.368076,44.63965],[2.353488,44.63747],[2.331573,44.64689],[2.32999,44.65056],[2.332948,44.65984],[2.325937,44.66561],[2.30622,44.65987],[2.291237,44.66406],[2.265305,44.65767],[2.251384,44.6495],[2.233062,44.6526],[2.216931,44.6476],[2.213633,44.64308],[2.215199,44.63213],[2.223199,44.62204],[2.21043,44.6146],[2.203601,44.61473],[2.166402,44.63816],[2.168824,44.65398]]]}}
