{"type":"Feature","properties":{"sourceId":"albania"},"geometry":{"type":"Polygon","coordinates":[[[20.98869,40.7938],[20.98526,40.78496],[20.97736,40.77924],[20.96741,40.77352],[20.98045,40.76624],[20.98972,40.76104],[20.98938,40.73659],[21.00826,40.72853],[21.02543,40.71474],[21.06285,40.66892],[21.06045,40.63558],[21.06148,40.61057],[21.05359,40.59756],[21.04465,40.55111],[21.01788,40.5519],[21.0014,40.53233],[20.97153,40.51015],[20.97427,40.49605],[20.96981,40.47881],[20.95058,40.46288],[20.92827,40.45896],[20.9063,40.46941],[20.87265,40.46732],[20.85355,40.47712],[20.843,40.47604],[20.839,40.46837],[20.82493,40.43623],[20.79094,40.42696],[20.79523,40.41206],[20.79128,40.3969],[20.7942,40.3833],[20.79498,40.36596],[20.78115,40.34694],[20.76347,40.3366],[20.76622,40.32077],[20.71472,40.27979],[20.71043,40.26957],[20.71661,40.25857],[20.72519,40.25372],[20.72365,40.23839],[20.72777,40.22293],[20.7181,40.20599],[20.70751,40.19671],[20.68365,40.18832],[20.68005,40.16851],[20.69326,40.15749],[20.69721,40.15277],[20.68726,40.13978],[20.68314,40.11208],[20.67953,40.09291],[20.65962,40.09016],[20.62288,40.08832],[20.62117,40.08188],[20.60314,40.0719],[20.57413,40.06507],[20.56074,40.06362],[20.54701,40.0627],[20.51302,40.07768],[20.49156,40.06112],[20.47628,40.06323],[20.4598,40.07308],[20.43354,40.06599],[20.41912,40.05613],[20.41723,40.03287],[20.40075,40.01434],[20.39732,39.9954],[20.37741,39.98751],[20.32934,39.99133],[20.31458,39.98988],[20.3187,39.98238],[20.32728,39.97304],[20.34891,39.94791],[20.34067,39.92435],[20.36505,39.91072],[20.38582,39.8888],[20.38985,39.86989],[20.4065,39.85289],[20.41989,39.83965],[20.41414,39.81157],[20.40255,39.79911],[20.39131,39.78704],[20.3823,39.78308],[20.36333,39.78869],[20.34608,39.8028],[20.31612,39.8084],[20.30514,39.81447],[20.30145,39.80953],[20.29278,39.80359],[20.29853,39.79522],[20.30531,39.78842],[20.30934,39.77879],[20.29707,39.76672],[20.29664,39.75775],[20.30625,39.75141],[20.32496,39.73491],[20.32205,39.72745],[20.30179,39.71346],[20.28565,39.71115],[20.27922,39.70052],[20.26531,39.69002],[20.26514,39.67614],[20.26583,39.67007],[20.25742,39.67284],[20.23347,39.68374],[20.23055,39.67278],[20.21999,39.66452],[20.23012,39.65249],[20.22789,39.64562],[20.1915,39.64364],[20.11803,39.65566],[20.0909,39.67046],[20.08678,39.67839],[20.07442,39.67839],[20.05657,39.68843],[20.01537,39.69187],[19.99306,39.62738],[19.91718,39.68447],[19.94911,39.73756],[19.97143,39.78664],[19.95358,39.82093],[19.8365,39.88103],[19.73694,39.90974],[19.21509,40.02761],[18.9006,40.45949],[18.89648,40.65772],[19.05166,41.34589],[19.11484,41.65445],[19.114984409539296,41.6545624430331],[19.23248,41.61621],[19.37548,41.84397],[19.37663,41.87477],[19.38409,41.8856],[19.35173,41.9116],[19.3725,41.91876],[19.37435,41.92855],[19.35482,41.95719],[19.38641,41.96115],[19.39022,41.96588],[19.38117,41.97787],[19.38485,41.99498],[19.38061,42.00246],[19.3749,42.00594],[19.37419,42.03953],[19.3812,42.0515],[19.38057,42.07183],[19.40684,42.10296],[19.29817,42.17689],[19.38915,42.28112],[19.42421,42.32462],[19.41696,42.34725],[19.44408,42.37833],[19.47454,42.38995],[19.49818,42.42224],[19.52188,42.4408],[19.57211,42.50691],[19.61996,42.54082],[19.61318,42.57426],[19.66431,42.62602],[19.68148,42.62561],[19.71827,42.65627],[19.73639,42.64037],[19.74956,42.61333],[19.77128,42.58836],[19.74695,42.58296],[19.73861,42.54265],[19.76349,42.50034],[19.78934,42.47993],[19.82928,42.46189],[19.90784,42.48582],[19.90834,42.50399],[19.94167,42.51536],[19.95289,42.50827],[20.00475,42.50636],[20.01769,42.52701],[20.01802,42.54063],[20.071182584065923,42.55212235218794],[20.07781,42.55062],[20.09905,42.52756],[20.16241,42.50248],[20.18995,42.46123],[20.18897,42.44976],[20.2216,42.42031],[20.20299,42.40034],[20.24041,42.36756],[20.23137,42.34709],[20.24172,42.33451],[20.23897,42.32339],[20.25651,42.31381],[20.28975,42.31841],[20.30564,42.30975],[20.32919,42.32272],[20.34327,42.32034],[20.35016,42.30573],[20.39286,42.29328],[20.40232,42.28017],[20.44744,42.27007],[20.49997,42.22585],[20.51171,42.21912],[20.54169,42.15819],[20.56246,42.12229],[20.55182,42.08128],[20.56898,42.05656],[20.58958,42.04343],[20.59748,42.00696],[20.61962,41.9706],[20.61636,41.94123],[20.57207,41.92029],[20.58869417866449,41.88344786327193],[20.56898,41.88288],[20.55137,41.86952],[20.50794,41.7273],[20.5223,41.6904],[20.51101,41.65953],[20.54757,41.58812],[20.5132,41.5658],[20.45316,41.56039],[20.45834,41.53718],[20.44671,41.51867],[20.46423,41.49283],[20.49167,41.48216],[20.50721,41.43481],[20.53047,41.42867],[20.55168,41.40923],[20.54077,41.37629],[20.5182,41.34827],[20.49718,41.35307],[20.48522,41.3344],[20.50545,41.28465],[20.50944,41.22942],[20.5292,41.19488],[20.55147,41.18402],[20.57447,41.15517],[20.58577,41.13249],[20.57962,41.11337],[20.59507,41.08944],[20.67025,41.06979],[20.73034,40.90754],[20.80287,40.89193],[20.82964,40.90032],[20.8508,40.92833],[20.89984,40.91144],[20.93848,40.91663],[20.96918,40.89799],[20.9705,40.84992],[20.986357977574492,40.849679649464974],[20.98869,40.7938]]]}}
