{"type":"Feature","properties":{"sourceId":"act"},"geometry":{"type":"Polygon","coordinates":[[[148.7891,-35.33894],[148.8068,-35.305],[149.1195,-35.12093],[149.1393,-35.12706],[149.147,-35.13504],[149.1639,-35.14108],[149.1889,-35.1586],[149.1984,-35.18721],[149.196,-35.1987],[149.209,-35.21153],[149.2122,-35.21617],[149.2344,-35.221],[149.2487,-35.2241],[149.2466,-35.22886],[149.2468,-35.22915],[149.2463,-35.22991],[149.246,-35.2307],[149.2458,-35.23082],[149.2413,-35.24117],[149.2723,-35.25775],[149.2917,-35.26973],[149.3435,-35.28342],[149.3664,-35.30438],[149.399,-35.3019],[149.4018,-35.32729],[149.3576,-35.35412],[149.2477,-35.33151],[149.2452,-35.3344],[149.2427,-35.33634],[149.2365,-35.3397],[149.2316,-35.34231],[149.2315,-35.34242],[149.231,-35.3426],[149.2307,-35.34283],[149.2303,-35.34292],[149.2301,-35.343],[149.2298,-35.34303],[149.2293,-35.34303],[149.2287,-35.3428],[149.2207,-35.34143],[149.2191,-35.34139],[149.216,-35.34237],[149.2092,-35.34486],[149.2072,-35.34559],[149.2057,-35.34657],[149.2038,-35.34896],[149.1901,-35.37024],[149.187,-35.37498],[149.1841,-35.37884],[149.1695,-35.39453],[149.1571,-35.40796],[149.1483,-35.41354],[149.1459,-35.41739],[149.1436,-35.42972],[149.1541,-35.43319],[149.1594,-35.43763],[149.1401,-35.45517],[149.1528,-35.4917],[149.1558,-35.50722],[149.1359,-35.55396],[149.1469,-35.594],[149.0828,-35.58868],[149.1139,-35.69659],[149.0961,-35.76613],[149.1046,-35.8018],[149.1004,-35.8449],[149.0688,-35.87626],[149.0525,-35.92548],[148.9914,-35.9017],[148.9591,-35.89975],[148.9055,-35.85485],[148.8822,-35.81027],[148.8946,-35.75487],[148.8797,-35.72561],[148.8602,-35.76757],[148.7872,-35.7053],[148.7933,-35.66761],[148.7593,-35.65212],[148.778,-35.62884],[148.7643,-35.602],[148.784,-35.58803],[148.7685,-35.56839],[148.7583,-35.49591],[148.7816,-35.40756],[148.8025,-35.38177],[148.7891,-35.33894]]]}}
