{"type":"Feature","properties":{"sourceId":"american-oceania"},"geometry":{"type":"MultiPolygon","coordinates":[[[[-168.0908,-9.968829],[-165.0366,-15.64418],[-166.5747,-17.644],[-166.62797105072215,-17.635220006552107],[-166.6411,-17.55527],[-169.3297,-16.63667],[-171.3053,-16.84028],[-171.6367893211709,-16.562602765818447],[-171.8976,-15.85038],[-171.896112717584,-15.846923982203439],[-171.8475,-15.87838],[-170.5427,-12.6111],[-174.0593019723647,-11.053030158956624],[-168.1128,-10.01211],[-168.1041930416839,-9.971131476987495],[-168.0908,-9.968829]]],[[[-179.9209,4.09126],[-160.2799,6.187193],[-162.6636,2.328482],[-177.2315,-3.052732],[-179.9122,0.043989],[-179.9209,4.09126]]]]}}
