{"type":"Feature","properties":{"sourceId":"austria"},"geometry":{"type":"Polygon","coordinates":[[[17.10844,47.96939],[17.12187,47.96152],[17.11979,47.92992],[17.09129,47.87214],[17.03491,47.86025],[17.08072,47.80555],[17.06007,47.7935],[17.10251,47.70674],[16.91277,47.68458],[16.83277,47.6788],[16.74625,47.67833],[16.60737,47.75624],[16.54661,47.7339],[16.55935,47.7209],[16.47544,47.6777],[16.43008,47.66502],[16.51868,47.65056],[16.58626,47.62199],[16.62446,47.63161],[16.65174,47.62709],[16.67509,47.60663],[16.68071,47.56934],[16.71825,47.54049],[16.70715,47.51267],[16.66098,47.49821],[16.67819,47.48318],[16.6669,47.4547],[16.5787,47.4034],[16.5233,47.40482],[16.49769,47.38692],[16.45216,47.40554],[16.46789,47.38408],[16.45907,47.35651],[16.43828,47.35205],[16.46705,47.33745],[16.49272,47.28394],[16.48174,47.25831],[16.44606,47.24606],[16.44102,47.20929],[16.42423,47.20387],[16.45549,47.19132],[16.46869,47.16935],[16.45949,47.14623],[16.51683,47.15459],[16.53892,47.12719],[16.47022,47.09268],[16.53889,47.05445],[16.4661,47.03889],[16.51872,47.00027],[16.48594,46.99213],[16.43599,46.9907],[16.28949,46.99671],[16.27727,46.96157],[16.24655,46.95671],[16.24964,46.94663],[16.22149,46.93398],[16.1984,46.93766],[16.18372,46.908],[16.13196,46.87316],[16.120660104781173,46.8674400232928],[16.11145,46.87111],[16.08999,46.86712],[16.06442,46.85197],[16.05703,46.84199],[16.02734,46.84317],[16.00451,46.83377],[15.99403,46.83929],[15.98099,46.82802],[15.98923,46.80969],[15.97858,46.74974],[15.99575,46.71444],[16.03592,46.68854],[16.02871,46.66263],[15.99438,46.68548],[15.95146,46.69231],[15.90992,46.71515],[15.84709,46.72833],[15.79937,46.71727],[15.76504,46.70055],[15.68264,46.7088],[15.64693,46.70856],[15.64281,46.69632],[15.6229,46.68454],[15.59578,46.69302],[15.54153,46.67111],[15.53879,46.64001],[15.51064,46.62468],[15.48489,46.6228],[15.47356,46.61572],[15.45605,46.64237],[15.41451,46.65839],[15.29365,46.65533],[15.23323,46.64449],[15.18585,46.65863],[15.10929,46.66358],[15.08148,46.65391],[15.02655,46.6525],[14.99084,46.62256],[14.98089,46.60393],[14.97402,46.62681],[14.95514,46.63482],[14.91669,46.62044],[14.91497,46.60865],[14.8875,46.6162],[14.8669,46.60889],[14.83601,46.57184],[14.81918,46.54588],[14.80751,46.51068],[14.74056,46.50714],[14.71344,46.50241],[14.66778,46.45394],[14.59225,46.4388],[14.57843,46.43282],[14.58023,46.39502],[14.57371,46.37891],[14.52255,46.43076],[14.48719,46.42058],[14.44942,46.42579],[14.44153,46.44401],[14.42539,46.4511],[14.3169,46.43454],[14.28497,46.44756],[14.238,46.44334],[14.18953,46.44661],[14.15966,46.43715],[14.12395,46.48114],[14.04842,46.49674],[14.00723,46.48752],[13.91247,46.52533],[13.83213,46.52202],[13.80432,46.51044],[13.78097,46.52037],[13.71197,46.52509],[13.726405555240893,46.524102524337145],[13.72845,46.53005],[13.64811,46.53501],[13.62837,46.54481],[13.50992,46.56783],[13.37156,46.58164],[13.28788,46.56287],[13.2405,46.56352],[13.1702,46.59214],[13.09296,46.60818],[12.78362,46.65297],[12.56046,46.67064],[12.3864,46.72127],[12.36065,46.77843],[12.29542,46.79207],[12.31396,46.84329],[12.27482,46.89375],[12.21542,46.89352],[12.17457,46.94604],[12.13062,47.00835],[12.21233,47.02427],[12.24838,47.06895],[12.24495,47.08555],[12.18109,47.10005],[11.92223,47.04088],[11.81923,46.99758],[11.62577,47.0183],[11.479,47.01584],[11.31884,46.99688],[11.15662,46.96877],[11.10117,46.93679],[11.02135,46.78196],[10.81621,46.78372],[10.76849,46.8299],[10.66549,46.88343],[10.55374,46.85327],[10.473192922893288,46.85882928561478],[10.47398,46.87276],[10.46952,46.88491],[10.48881,46.91407],[10.49194,46.93876],[10.4566,46.9558],[10.42816,46.95967],[10.4289,46.97732],[10.39957,46.99995],[10.38399,47.00289],[10.37042,46.99375],[10.35474,46.99545],[10.34378,46.99153],[10.32754,46.96789],[10.32523,46.9567],[10.30823,46.95325],[10.30451,46.94855],[10.30396,46.93783],[10.31344,46.92828],[10.29571,46.92388],[10.23887,46.93377],[10.23839,46.91944],[10.22274,46.89688],[10.2312,46.88394],[10.22735,46.86915],[10.1937,46.86929],[10.16782,46.85372],[10.12249,46.85148],[10.10578,46.84444],[10.08899,46.86447],[10.05562,46.86524],[10.05426,46.87927],[10.01961,46.9051],[10.00514,46.90246],[9.991468,46.90596],[9.978544,46.91928],[9.93835,46.91674],[9.882657,46.93803],[9.878977,46.94966],[9.881644,46.95827],[9.875189,46.96415],[9.89546,46.99083],[9.891027,47.00331],[9.875096,47.01069],[9.883816,47.0179],[9.877088,47.02473],[9.859677,47.02664],[9.837007,47.01626],[9.786122,47.04206],[9.749419,47.04044],[9.742197,47.04619],[9.719523,47.04726],[9.708678,47.05658],[9.689906,47.05877],[9.681312,47.06588],[9.64473,47.06323],[9.633085,47.05495],[9.61013496384831,47.06237505640115],[9.612345,47.06416],[9.61202,47.06654],[9.61408,47.06934],[9.613737,47.07208],[9.611504,47.07519],[9.612194,47.07847],[9.618857,47.07749],[9.623684,47.08189],[9.633939,47.08293],[9.63383,47.08615],[9.636217,47.09342],[9.635039,47.10138],[9.628964,47.10597],[9.629003,47.10812],[9.622918,47.10885],[9.621695,47.11023],[9.625244,47.11434],[9.625552,47.11859],[9.633097,47.1242],[9.635719,47.12825],[9.625423,47.13287],[9.625715,47.13864],[9.623525,47.14119],[9.626548,47.14606],[9.623935,47.14771],[9.62217,47.15185],[9.620072,47.15224],[9.613979,47.14828],[9.60912,47.14842],[9.603755,47.15169],[9.603618,47.1544],[9.601202,47.15692],[9.60151,47.15908],[9.597135,47.16355],[9.591206,47.16539],[9.579663,47.17183],[9.57454,47.17041],[9.566025,47.17072],[9.567885,47.17276],[9.573604,47.17521],[9.57494,47.17813],[9.573382,47.19035],[9.580853,47.19533],[9.581818,47.1997],[9.585411,47.2056],[9.578792,47.20963],[9.576108,47.21423],[9.569674,47.21992],[9.564384,47.22144],[9.560685,47.22428],[9.558443,47.22486],[9.556065,47.22355],[9.555569,47.22453],[9.55336,47.2246],[9.558914,47.2325],[9.567846,47.24029],[9.567432,47.24315],[9.559963,47.25114],[9.540299,47.26162],[9.541015,47.26286],[9.540281,47.26557],[9.537063,47.2665],[9.53346387758865,47.269199906642534],[9.533489,47.2695],[9.549161,47.27871],[9.558091,47.29574],[9.588454,47.31299],[9.607655,47.34935],[9.624784,47.36253],[9.662989,47.368],[9.676794,47.38336],[9.674973,47.39439],[9.654854,47.40735],[9.647669,47.434],[9.661527,47.44702],[9.66071,47.45464],[9.623248,47.46031],[9.609656,47.47366],[9.59775,47.46532],[9.583522,47.48582],[9.565311,47.49657],[9.567628821061204,47.532751392161956],[9.573045,47.53278],[9.606187,47.52526],[9.736837,47.53271],[9.740318,47.54851],[9.748009,47.55547],[9.754127,47.57006],[9.777392,47.59338],[9.804215,47.59309],[9.823333,47.58247],[9.819965,47.57092],[9.823461,47.56066],[9.81157,47.54853],[9.874799,47.52678],[9.883375,47.5452],[9.912427,47.53307],[9.920061,47.52883],[9.95568,47.53393],[9.96406,47.53336],[9.963095,47.52054],[10.00388,47.47645],[10.03818,47.48609],[10.04272,47.4711],[10.07032,47.45577],[10.08153,47.45287],[10.098,47.43033],[10.06915,47.41717],[10.0687,47.40827],[10.07789,47.40241],[10.08006,47.38546],[10.10091,47.35114],[10.11991,47.37176],[10.14605,47.36483],[10.17264,47.36831],[10.17295,47.38243],[10.2138,47.37801],[10.22684,47.37874],[10.20375,47.3519],[10.19574,47.32624],[10.20801,47.31714],[10.19147,47.29851],[10.1764,47.30106],[10.16597,47.2812],[10.17121,47.26603],[10.2063,47.27276],[10.23339,47.26543],[10.31537,47.30161],[10.3355,47.29986],[10.38819,47.35499],[10.40182,47.3757],[10.43883,47.37823],[10.43726,47.39769],[10.48173,47.4294],[10.47372,47.48376],[10.44973,47.52595],[10.45379,47.55245],[10.49749,47.53323],[10.57461,47.53257],[10.59094,47.55051],[10.60404,47.56591],[10.62368,47.55645],[10.68138,47.55459],[10.69152,47.53818],[10.74171,47.53637],[10.76906,47.51118],[10.81801,47.51827],[10.87591,47.53663],[10.88178,47.52942],[10.88178513210208,47.52942324816588],[10.88474,47.52579],[10.89796,47.51889],[10.86091,47.5031],[10.86039,47.48783],[10.87783,47.47682],[10.89387,47.47927],[10.90964,47.48054],[10.92945,47.47841],[10.91905,47.4716],[10.95719,47.44667],[10.97799,47.42743],[10.96261,47.41843],[10.96756,47.39777],[11.02425,47.3913],[11.06393,47.39487],[11.11692,47.39344],[11.15241,47.41775],[11.2006,47.42649],[11.20587,47.43291],[11.22636,47.42866],[11.24496,47.42894],[11.21982,47.39775],[11.22624,47.39352],[11.255,47.39812],[11.27474,47.39619],[11.29503,47.4089],[11.30951,47.42809],[11.33168,47.43629],[11.33762,47.44453],[11.42561,47.44322],[11.4172,47.46201],[11.41355,47.47312],[11.39048,47.47765],[11.41188,47.49198],[11.43523,47.51377],[11.44516,47.50415],[11.4678,47.50635],[11.50567,47.5027],[11.57088,47.51242],[11.57745,47.51574],[11.5905,47.52527],[11.59424,47.55506],[11.61048,47.57688],[11.6382,47.58069],[11.63482,47.59225],[11.65935,47.5799],[11.72483,47.58672],[11.73641,47.5844],[11.78195,47.58583],[11.85147,47.5772],[11.86054,47.59953],[11.96405,47.61294],[11.97719,47.6111],[11.98252,47.61534],[12.00686,47.61849],[12.02081,47.61016],[12.08329,47.60848],[12.14061,47.60314],[12.15352,47.60764],[12.17594,47.61086],[12.17546,47.59888],[12.20884,47.60321],[12.21348,47.61305],[12.20713,47.63555],[12.18735,47.66854],[12.17217,47.6868],[12.20889,47.70365],[12.24308,47.72556],[12.23192,47.70739],[12.24829,47.67659],[12.26292,47.67455],[12.27836,47.68815],[12.33097,47.69244],[12.3625,47.6829],[12.39049,47.68271],[12.43379,47.69226],[12.43809,47.67622],[12.45798,47.65009],[12.50095,47.62061],[12.52419,47.62771],[12.5783,47.63055],[12.6089,47.66673],[12.73171,47.67488],[12.75571,47.6615],[12.74895,47.64473],[12.8037,47.61956],[12.79467,47.61848],[12.77731,47.58711],[12.78485,47.55199],[12.83233,47.54025],[12.87799,47.51233],[12.92283,47.48669],[12.96788,47.4682],[12.9835,47.47866],[13.00242,47.4609],[13.0175,47.46649],[13.05811,47.4919],[13.0614,47.52016],[13.04555,47.53387],[13.07103,47.56221],[13.06011,47.58182],[13.08393,47.58983],[13.08662,47.61659],[13.10973,47.63938],[13.08628,47.68766],[13.05648,47.716],[13.02024,47.73236],[12.98931,47.71869],[12.91567,47.7252],[12.94411,47.75675],[12.96354,47.79163],[12.98799,47.8237],[12.99528,47.82991],[13.00195,47.83558],[13.01197,47.85009],[13.00632,47.85452],[12.99583,47.86452],[12.94796,47.9299],[12.94043,47.9474],[12.92435,47.94355],[12.92464,47.95859],[12.91032,47.95998],[12.87696,47.96667],[12.85832,48.01956],[12.76559,48.0757],[12.75538,48.10814],[12.76824,48.1227],[12.78837,48.11772],[12.80605,48.14434],[12.83376,48.1509],[12.85028,48.16219],[12.87323,48.19743],[12.944249841940742,48.20179405758817],[12.94426,48.20179],[12.95525,48.20247],[13.0022,48.23255],[13.02157,48.25047],[13.08493,48.27246],[13.14149,48.27787],[13.1827,48.29121],[13.26537,48.29023],[13.32637,48.31573],[13.41784,48.37232],[13.42823,48.40494],[13.44554,48.43281],[13.43183,48.45435],[13.46336,48.50848],[13.45044,48.52699],[13.45935,48.53496],[13.44108,48.55482],[13.44953,48.55935],[13.46677,48.55087],[13.49098,48.56128],[13.5117,48.57356],[13.50935,48.58393],[13.51659,48.58697],[13.55185,48.56431],[13.57749,48.55429],[13.59644,48.56559],[13.62305,48.55145],[13.6475,48.54753],[13.65439,48.53349],[13.72734,48.50779],[13.73748,48.52335],[13.75148,48.52823],[13.76021,48.54969],[13.75224,48.55811],[13.77373,48.54915],[13.81139,48.58081],[13.81222,48.60059],[13.82488,48.60994],[13.83313,48.63579],[13.82239,48.69003],[13.83441,48.69057],[13.84305,48.69716],[13.84709,48.70275],[13.82979,48.7064],[13.82383,48.71758],[13.80951,48.71897],[13.80484,48.72046],[13.82308,48.73193],[13.83021,48.75108],[13.836283114525745,48.75758510657664],[13.94008,48.71362],[14.02872,48.67367],[14.05207,48.67083],[14.04931,48.65957],[14.02396,48.65793],[14.00154,48.6404],[14.03492,48.61132],[14.06446,48.59115],[14.10239,48.58497],[14.13257,48.58987],[14.29444,48.56294],[14.31243,48.55872],[14.31861,48.54292],[14.35228,48.55069],[14.36241,48.56752],[14.37843,48.56278],[14.39687,48.57238],[14.39554,48.58986],[14.42838,48.58342],[14.4481,48.5943],[14.46155,48.62475],[14.45483,48.63916],[14.47247,48.6391],[14.4989,48.61087],[14.56537,48.59693],[14.60907,48.6215],[14.62256,48.59756],[14.64847,48.60238],[14.66037,48.57736],[14.70782,48.57759],[14.72752,48.59898],[14.72232,48.61847],[14.72995,48.63791],[14.72408,48.65864],[14.74981,48.68974],[14.81753,48.72911],[14.83023,48.77569],[14.958,48.7506],[14.98922,48.76698],[14.9889,48.77942],[14.96452,48.79414],[14.9958,48.83984],[14.99129,48.87003],[15.00624,48.89803],[14.99502,48.93364],[14.98566,48.96267],[15.00076,48.98447],[15.01138,49.00899],[15.05954,49.00745],[15.06015,48.99517],[15.14619,48.98527],[15.14922,48.94136],[15.1728,48.93664],[15.26914,48.95171],[15.29209,48.97675],[15.32505,48.97108],[15.35902,48.97978],[15.41504,48.94827],[15.49064,48.93343],[15.4963,48.91285],[15.540369871039037,48.89926806006015],[15.54037,48.89926],[15.56876,48.89051],[15.60913,48.88645],[15.67978,48.85078],[15.7606,48.84521],[15.78996,48.86661],[15.82807,48.86026],[15.93769,48.81266],[15.93955,48.80063],[16.06377,48.7448],[16.37994,48.71983],[16.43378,48.75402],[16.4661,48.80013],[16.51931,48.79467],[16.54063,48.80778],[16.57208,48.78334],[16.6246,48.77448],[16.64499,48.78115],[16.67631,48.75515],[16.6666,48.73576],[16.68346,48.72352],[16.71957,48.73374],[16.76101,48.71197],[16.79672,48.70338],[16.89244,48.71144],[16.90834,48.69411],[16.90471,48.67749],[16.91742,48.66793],[16.91347,48.62207],[16.92492,48.61558],[16.935539085869543,48.613956737846514],[16.93139,48.60108],[16.93093,48.56972],[16.94496,48.53713],[16.93336,48.52291],[16.91474,48.52138],[16.90908,48.50259],[16.8947,48.49886],[16.86264,48.46604],[16.84719,48.44879],[16.85268,48.41741],[16.84813,48.40875],[16.84546,48.38678],[16.83071,48.38424],[16.84101,48.34821],[16.90358,48.32419],[16.89079,48.31254],[16.89955,48.29513],[16.92006,48.27108],[16.95105,48.26308],[16.94221,48.23491],[16.95834,48.21936],[16.97353,48.17187],[17.0252,48.13837],[17.05537,48.13722],[17.05799,48.12199],[17.08511,48.0962],[17.0682,48.08204],[17.06486,48.03057],[17.09018,48.01795],[17.15991338973702,48.00410955997179],[17.10844,47.96939]]]}}
