{"type":"Feature","properties":{"sourceId":"aquitaine"},"geometry":{"type":"Polygon","coordinates":[[[-1.842771,43.67034],[-1.545244,45.67265],[-1.242351472832257,45.63517246765102],[-1.064528,45.58651],[-0.72226,45.32453],[-0.65065,45.32001],[-0.645959,45.31296],[-0.641868,45.31217],[-0.612727,45.32093],[-0.593852,45.31872],[-0.590987,45.33292],[-0.584208,45.33733],[-0.574655,45.33004],[-0.577391,45.31396],[-0.573277,45.29849],[-0.56713,45.29322],[-0.560592,45.2949],[-0.549401,45.29073],[-0.520737,45.28679],[-0.51441,45.28349],[-0.476868,45.29109],[-0.428521,45.27632],[-0.41986,45.26744],[-0.42725,45.24753],[-0.411597,45.24462],[-0.408613,45.23981],[-0.415757,45.2295],[-0.416675,45.21974],[-0.423274,45.20808],[-0.404761,45.18767],[-0.392809,45.15273],[-0.384902,45.14092],[-0.381275,45.14199],[-0.376311,45.15434],[-0.36213,45.16696],[-0.341339,45.16488],[-0.324286,45.15449],[-0.321249,45.14384],[-0.314653,45.13584],[-0.310176,45.13682],[-0.30729,45.14443],[-0.302984,45.14639],[-0.279298,45.14022],[-0.276476,45.13326],[-0.262777,45.11952],[-0.260912,45.11327],[-0.247277,45.10606],[-0.223442,45.1055],[-0.211083,45.09828],[-0.1925,45.09201],[-0.174429,45.09157],[-0.154335,45.0868],[-0.141972,45.0875],[-0.13112,45.09305],[-0.125405,45.10357],[-0.095941,45.11841],[-0.089148,45.11766],[-0.06469,45.09709],[-0.05268,45.0976],[-0.047732,45.09524],[-0.041549,45.09731],[-0.038099,45.09975],[-0.036476,45.10636],[-0.038451,45.11317],[-0.026634,45.128],[-0.028781,45.13822],[-0.018574,45.14432],[0.006795,45.15189],[0.006672,45.15565],[0.000526,45.16144],[-0.012396,45.16282],[-0.01459,45.16604],[0.003682,45.18203],[0.010777,45.19958],[0.035503,45.2064],[0.041516,45.21509],[0.053496,45.22296],[0.065884,45.21808],[0.077398,45.21775],[0.093697,45.22521],[0.114223,45.21155],[0.132985,45.20626],[0.146025,45.21202],[0.150024,45.22143],[0.160556,45.22414],[0.17568,45.23688],[0.176706,45.2402],[0.173643,45.24573],[0.182455,45.25669],[0.205465,45.26135],[0.212359,45.26904],[0.216868,45.28052],[0.225935,45.28708],[0.235927,45.29004],[0.251645,45.28644],[0.268762,45.29645],[0.273194,45.31666],[0.261058,45.35183],[0.252668,45.36293],[0.252563,45.3704],[0.261708,45.39191],[0.269258,45.40279],[0.276795,45.42328],[0.29314,45.43115],[0.313079,45.43019],[0.319724,45.43476],[0.319425,45.43848],[0.313399,45.44432],[0.304669,45.44824],[0.304913,45.45546],[0.309837,45.45624],[0.330159,45.44097],[0.335781,45.44796],[0.338242,45.45837],[0.345947,45.45838],[0.359867,45.46389],[0.36481,45.47173],[0.378398,45.47442],[0.38393,45.48236],[0.409177,45.4891],[0.422832,45.481],[0.434076,45.48419],[0.436177,45.50127],[0.45151,45.51488],[0.454874,45.5212],[0.461481,45.5243],[0.468082,45.5346],[0.486924,45.5361],[0.501969,45.54309],[0.508918,45.55324],[0.511349,45.55988],[0.506954,45.56478],[0.506637,45.57332],[0.518819,45.58794],[0.516639,45.59393],[0.51905,45.60085],[0.508073,45.61442],[0.515345,45.63034],[0.529413,45.63672],[0.535964,45.62731],[0.545876,45.62654],[0.550927,45.63025],[0.566935,45.63225],[0.576368,45.63891],[0.577983,45.64342],[0.573821,45.64892],[0.574546,45.65272],[0.588932,45.65796],[0.592719,45.66536],[0.601899,45.67003],[0.607852,45.68794],[0.623954,45.69753],[0.63032,45.7054],[0.6310552296810107,45.70759105200497],[0.638227,45.69645],[0.646448,45.69418],[0.653219,45.68653],[0.669085,45.68328],[0.694135,45.68612],[0.702766,45.68468],[0.719659,45.69248],[0.742542,45.6861],[0.746069,45.6796],[0.753152,45.67578],[0.759316,45.66794],[0.771583,45.66235],[0.769534,45.65202],[0.761558,45.64283],[0.760541,45.63049],[0.748982,45.61555],[0.759576,45.60274],[0.76641,45.60136],[0.776076,45.58915],[0.800902,45.59228],[0.810186,45.57366],[0.821944,45.57421],[0.843352,45.58024],[0.850614,45.58905],[0.86239,45.61226],[0.870982,45.61894],[0.875201,45.6166],[0.881031,45.6061],[0.898029,45.59763],[0.906333,45.6026],[0.914859,45.60146],[0.934125,45.60808],[0.94723,45.6085],[0.958882,45.60538],[0.96901,45.60673],[0.973903,45.60228],[0.980977,45.60066],[0.998183,45.60917],[1.019515,45.60784],[1.030975,45.59645],[1.034083,45.58607],[1.030414,45.5782],[1.0356,45.5677],[1.042427,45.56173],[1.043939,45.55548],[1.060181,45.55147],[1.070761,45.5451],[1.080857,45.53059],[1.08561,45.52887],[1.091631,45.53316],[1.104625,45.53451],[1.116013,45.54276],[1.136351,45.5375],[1.155888,45.52738],[1.15569,45.52227],[1.1335,45.50805],[1.126698,45.49671],[1.116551,45.48929],[1.115115,45.48041],[1.118605,45.47248],[1.12522,45.47338],[1.135467,45.46704],[1.162673,45.47309],[1.171504,45.46736],[1.175238,45.45563],[1.18544,45.45276],[1.210884,45.45969],[1.230609,45.45409],[1.232793,45.43789],[1.243147,45.4342],[1.258229,45.44203],[1.264661,45.44054],[1.273714,45.43188],[1.278589,45.43091],[1.285759,45.42346],[1.283189,45.4188],[1.25627,45.42066],[1.253775,45.40711],[1.257391,45.39619],[1.271193,45.3921],[1.27981,45.38136],[1.290345,45.3842],[1.298969,45.39049],[1.317646,45.38167],[1.319655,45.3777],[1.315392,45.37203],[1.314072,45.36344],[1.282375,45.35502],[1.277789,45.33821],[1.269747,45.32943],[1.258981,45.3236],[1.239464,45.32517],[1.23325,45.32276],[1.237486,45.30464],[1.227188,45.28371],[1.224972,45.27034],[1.234577,45.26738],[1.237948,45.2592],[1.249222,45.25372],[1.259569,45.25219],[1.271717,45.25413],[1.274831,45.25222],[1.27538,45.24778],[1.272132,45.24004],[1.25963,45.23207],[1.231752,45.2241],[1.225951,45.20303],[1.231752,45.19528],[1.272467,45.19768],[1.283815,45.1902],[1.286933,45.18455],[1.285216,45.1802],[1.269204,45.16827],[1.254788,45.16853],[1.252283,45.15821],[1.260642,45.15262],[1.279755,45.14663],[1.292282,45.13705],[1.309285,45.13207],[1.321236,45.14003],[1.330912,45.13516],[1.346062,45.13714],[1.355872,45.1298],[1.38278,45.13324],[1.409082,45.12331],[1.410515,45.11937],[1.407928,45.11527],[1.394251,45.10928],[1.377335,45.10845],[1.375198,45.10382],[1.378705,45.09879],[1.384591,45.09916],[1.389067,45.09551],[1.388668,45.08658],[1.401064,45.07057],[1.397331,45.05956],[1.40375,45.05666],[1.406512,45.05067],[1.417149,45.04543],[1.424861,45.0335],[1.4455371871455442,45.01884109197373],[1.438946,45.01429],[1.431183,45.01141],[1.408935,45.00808],[1.408092,45.0052],[1.412813,44.9941],[1.41011,44.98828],[1.414696,44.9818],[1.411239,44.97282],[1.416911,44.96631],[1.415467,44.96154],[1.417253,44.95576],[1.433003,44.94195],[1.431798,44.93712],[1.436097,44.92551],[1.433356,44.92076],[1.424735,44.92116],[1.413805,44.91485],[1.409565,44.90872],[1.417585,44.90567],[1.41719,44.89964],[1.42178,44.89459],[1.438082,44.88723],[1.441133,44.88098],[1.439642,44.8767],[1.430649,44.87293],[1.410934,44.8739],[1.409144,44.86699],[1.403667,44.86345],[1.401939,44.85315],[1.399777,44.85087],[1.386765,44.85222],[1.378214,44.84455],[1.371267,44.84866],[1.36513,44.8471],[1.359995,44.84083],[1.358687,44.83537],[1.358887,44.82481],[1.362844,44.81794],[1.360742,44.81317],[1.338947,44.8072],[1.324703,44.80738],[1.297662,44.79727],[1.292165,44.79003],[1.298324,44.78557],[1.295002,44.77658],[1.298005,44.77321],[1.308506,44.76929],[1.312748,44.76407],[1.318249,44.76233],[1.319014,44.75754],[1.313689,44.74352],[1.299208,44.74526],[1.294138,44.73609],[1.297532,44.73235],[1.297076,44.72782],[1.288527,44.7219],[1.28641,44.71747],[1.279628,44.71758],[1.275883,44.72278],[1.270323,44.72404],[1.262544,44.71263],[1.247053,44.70875],[1.242163,44.7042],[1.242048,44.69662],[1.237492,44.69358],[1.22883,44.69271],[1.221689,44.68547],[1.216783,44.6843],[1.197442,44.68547],[1.191207,44.68358],[1.18127,44.68461],[1.168375,44.68133],[1.1598,44.67398],[1.145529,44.67179],[1.145343,44.66588],[1.147957,44.6573],[1.144835,44.65273],[1.149417,44.64602],[1.151492,44.63682],[1.13091,44.61995],[1.122355,44.61564],[1.118902,44.61145],[1.109784,44.60806],[1.09324,44.59325],[1.092661,44.58989],[1.097518,44.58868],[1.100862,44.58448],[1.096171,44.57362],[1.086415,44.57301],[1.074659,44.57844],[1.069364,44.56786],[1.044522,44.56347],[1.041239,44.5589],[1.034342,44.5568],[1.027055,44.54959],[1.015747,44.54219],[1.012903,44.54316],[1.009545,44.54822],[0.994732,44.55121],[0.980217,44.54499],[0.981558,44.54175],[0.98704,44.539],[0.987127,44.53178],[0.991915,44.52693],[0.998947,44.52455],[1.004876,44.5171],[1.005568,44.51302],[1.015257,44.50458],[1.015081,44.49988],[1.010519,44.4962],[1.011233,44.48566],[1.007979,44.48004],[1.020413,44.47324],[1.022755,44.46626],[1.019977,44.45622],[1.021403,44.45261],[1.02002,44.44426],[1.027382,44.43964],[1.027263,44.43326],[1.033342,44.43091],[1.043749,44.43265],[1.048392,44.42818],[1.053933,44.42702],[1.059073,44.41916],[1.05832,44.4025],[1.049693,44.39184],[1.059359,44.38745],[1.061677,44.37994],[1.05838,44.37683],[1.057241,44.36772],[1.048781,44.36395],[1.017985,44.36502],[1.006533,44.3665],[0.996923,44.37036],[0.981293,44.35994],[0.971899,44.36338],[0.95993,44.36103],[0.950843,44.36302],[0.943329,44.35934],[0.940048,44.36147],[0.936011,44.37271],[0.926657,44.37709],[0.919942,44.38578],[0.895263,44.38241],[0.893327,44.37452],[0.885203,44.36527],[0.890939,44.35803],[0.889553,44.35346],[0.893093,44.34327],[0.887498,44.33939],[0.879582,44.32955],[0.871953,44.32439],[0.87304,44.3183],[0.870002,44.31522],[0.867918,44.30897],[0.873241,44.30689],[0.883437,44.30663],[0.888967,44.2987],[0.894672,44.29565],[0.898979,44.29832],[0.917243,44.29951],[0.924969,44.28558],[0.932991,44.28406],[0.93981,44.27878],[0.944151,44.26951],[0.940583,44.26593],[0.926637,44.26769],[0.926361,44.26151],[0.930821,44.2567],[0.93004,44.25166],[0.923422,44.24759],[0.917622,44.23813],[0.923917,44.23362],[0.925135,44.22997],[0.919213,44.2177],[0.912663,44.2072],[0.904209,44.19837],[0.902832,44.19365],[0.887581,44.19195],[0.875192,44.19461],[0.861723,44.19491],[0.858704,44.19382],[0.852161,44.18487],[0.85125,44.17673],[0.85282,44.17381],[0.862732,44.17186],[0.87071,44.16664],[0.881575,44.17274],[0.887974,44.169],[0.887956,44.16602],[0.883503,44.16093],[0.887465,44.15407],[0.886781,44.14622],[0.882094,44.14356],[0.877115,44.13757],[0.875855,44.13159],[0.864104,44.12822],[0.832555,44.13871],[0.819628,44.14514],[0.804924,44.14644],[0.800114,44.14532],[0.795912,44.14697],[0.787807,44.14554],[0.786922,44.14306],[0.794388,44.13174],[0.79407,44.12228],[0.790003,44.11582],[0.784296,44.11367],[0.77385,44.11801],[0.769318,44.11377],[0.75575,44.10834],[0.750423,44.10017],[0.74675,44.09789],[0.745688,44.08769],[0.737422,44.07679],[0.736323,44.0649],[0.718334,44.05906],[0.70715,44.05948],[0.69932,44.0536],[0.695714,44.04812],[0.684752,44.047],[0.677535,44.03708],[0.677751,44.03084],[0.674726,44.02811],[0.661576,44.02625],[0.656009,44.03305],[0.654808,44.04359],[0.650046,44.04579],[0.643634,44.04576],[0.639298,44.05082],[0.633174,44.05248],[0.629518,44.06044],[0.625322,44.06407],[0.608783,44.07167],[0.603218,44.07558],[0.601718,44.07923],[0.591652,44.08128],[0.588235,44.07864],[0.575082,44.07694],[0.573979,44.07215],[0.567767,44.06645],[0.565926,44.06149],[0.553691,44.05676],[0.544695,44.05784],[0.538458,44.0558],[0.531894,44.05891],[0.523191,44.05823],[0.511513,44.06469],[0.504548,44.05856],[0.490164,44.05797],[0.48562,44.06043],[0.480921,44.0557],[0.45918,44.05673],[0.4439,44.03999],[0.438641,44.03081],[0.425822,44.02795],[0.417155,44.03077],[0.410046,44.02315],[0.396979,44.02371],[0.390506,44.02089],[0.389112,44.01655],[0.380439,44.00804],[0.371249,44.0096],[0.366375,44.01551],[0.358287,44.01823],[0.326771,44.00878],[0.31508,44.01112],[0.312616,44.00868],[0.315518,44.00164],[0.314497,43.99791],[0.301393,43.9934],[0.282016,43.99947],[0.273906,44.00033],[0.269689,44.00525],[0.263088,44.00569],[0.257247,44.00936],[0.251253,44.00531],[0.241245,44.00812],[0.235341,44.01113],[0.236638,44.02125],[0.234319,44.02332],[0.230237,44.02386],[0.224451,44.02051],[0.213852,44.02426],[0.209565,44.0216],[0.205245,44.02226],[0.201241,44.017],[0.189213,44.01576],[0.183054,44.00952],[0.180177,44.00384],[0.165938,43.99802],[0.163189,43.99485],[0.164934,43.98532],[0.163922,43.97962],[0.158403,43.97481],[0.154449,43.97417],[0.140836,43.97807],[0.143184,43.99484],[0.138643,43.99935],[0.126958,44.00339],[0.124083,43.99842],[0.119081,43.99666],[0.113963,43.98919],[0.104023,43.98593],[0.088546,43.98693],[0.080548,43.98293],[0.074092,43.98367],[0.065211,43.97373],[0.063794,43.96795],[0.054537,43.96158],[0.05406,43.95358],[0.056011,43.94888],[0.061127,43.94543],[0.061817,43.94039],[0.067278,43.93677],[0.071016,43.92698],[0.072033,43.9171],[0.068098,43.90612],[0.055754,43.89931],[0.041473,43.90533],[0.031556,43.90219],[0.018399,43.91265],[0.004685,43.91813],[-0.005468,43.92475],[-0.012391,43.92458],[-0.015712,43.92636],[-0.017078,43.92902],[-0.015003,43.93259],[-0.009947,43.93389],[-0.00774,43.93765],[0.006873,43.94289],[0.007422,43.95582],[0.003106,43.96052],[-0.01877,43.97252],[-0.036265,43.98555],[-0.046557,43.96304],[-0.060065,43.96221],[-0.069649,43.9526],[-0.071749,43.94781],[-0.074909,43.94624],[-0.080587,43.94505],[-0.088023,43.95022],[-0.09398,43.94965],[-0.099333,43.94344],[-0.099545,43.93842],[-0.102376,43.93312],[-0.109557,43.93452],[-0.125317,43.94574],[-0.129885,43.94116],[-0.137045,43.93854],[-0.153379,43.94121],[-0.155615,43.93393],[-0.164266,43.93023],[-0.169904,43.9321],[-0.179966,43.94008],[-0.182943,43.93126],[-0.192589,43.92773],[-0.20133,43.91609],[-0.215686,43.91053],[-0.218413,43.91103],[-0.222818,43.91554],[-0.225461,43.91509],[-0.23013,43.9121],[-0.235329,43.90232],[-0.241324,43.89858],[-0.239669,43.8933],[-0.234477,43.88977],[-0.226668,43.88843],[-0.220798,43.89022],[-0.211457,43.88371],[-0.198763,43.88231],[-0.193605,43.8779],[-0.193821,43.87522],[-0.199307,43.86989],[-0.200619,43.86346],[-0.20968,43.85783],[-0.207979,43.85384],[-0.202206,43.85036],[-0.196262,43.84328],[-0.193545,43.83742],[-0.194082,43.83343],[-0.197997,43.83185],[-0.199296,43.82899],[-0.194552,43.81278],[-0.19883,43.8088],[-0.210724,43.81088],[-0.21595,43.81375],[-0.219004,43.81126],[-0.226889,43.81038],[-0.22836,43.8084],[-0.227388,43.80409],[-0.221532,43.79685],[-0.223498,43.78684],[-0.217166,43.78321],[-0.215178,43.77893],[-0.218787,43.77174],[-0.218231,43.76949],[-0.213333,43.76674],[-0.211621,43.76035],[-0.212894,43.75769],[-0.218873,43.7548],[-0.21942,43.75005],[-0.217224,43.74784],[-0.208022,43.7487],[-0.200071,43.74719],[-0.196681,43.74271],[-0.198223,43.73719],[-0.210369,43.72614],[-0.23053,43.71588],[-0.243826,43.71337],[-0.251636,43.70839],[-0.246799,43.70296],[-0.246461,43.69887],[-0.243142,43.6959],[-0.242974,43.69319],[-0.248939,43.68934],[-0.251136,43.68556],[-0.25826,43.68392],[-0.257543,43.67864],[-0.259074,43.6737],[-0.246381,43.66915],[-0.246096,43.66058],[-0.247522,43.65734],[-0.253036,43.65442],[-0.264255,43.6536],[-0.265203,43.64236],[-0.266856,43.63973],[-0.269934,43.63929],[-0.279348,43.64371],[-0.283311,43.64377],[-0.282673,43.62371],[-0.280737,43.61759],[-0.277365,43.61467],[-0.262419,43.61534],[-0.250309,43.61281],[-0.249362,43.60713],[-0.25562,43.60009],[-0.255567,43.59658],[-0.250663,43.59524],[-0.248893,43.58955],[-0.241921,43.58205],[-0.233264,43.58267],[-0.229312,43.58852],[-0.213226,43.59085],[-0.21036,43.59022],[-0.204821,43.58251],[-0.190456,43.5866],[-0.176851,43.59338],[-0.161148,43.5793],[-0.150494,43.58448],[-0.143585,43.58324],[-0.139048,43.57838],[-0.128407,43.57997],[-0.118203,43.58394],[-0.107762,43.58044],[-0.098916,43.58058],[-0.097846,43.57545],[-0.093746,43.5693],[-0.094481,43.56312],[-0.090294,43.55875],[-0.095018,43.54879],[-0.094377,43.54262],[-0.087546,43.5409],[-0.07864,43.54545],[-0.070905,43.54536],[-0.067527,43.53936],[-0.061076,43.53892],[-0.05662,43.53197],[-0.045699,43.52352],[-0.045367,43.51685],[-0.04282,43.51103],[-0.050855,43.49186],[-0.036641,43.48637],[-0.034948,43.479],[-0.035922,43.47457],[-0.033466,43.47158],[-0.033742,43.46859],[-0.037271,43.46641],[-0.05724,43.46639],[-0.066506,43.46442],[-0.067305,43.46112],[-0.063034,43.45237],[-0.067471,43.44613],[-0.067701,43.44161],[-0.071919,43.43462],[-0.069485,43.43118],[-0.059335,43.42702],[-0.057479,43.42283],[-0.059014,43.42011],[-0.063394,43.41839],[-0.068357,43.40988],[-0.06474,43.40805],[-0.055317,43.41076],[-0.04344,43.40862],[-0.037142,43.41524],[-0.030155,43.42898],[-0.022844,43.42982],[-0.014944,43.44137],[-0.008368,43.44288],[-0.004536,43.44175],[-0.003476,43.43809],[-0.005883,43.43105],[0.004491,43.42418],[0.006368,43.42077],[0.004337,43.41383],[-0.002382,43.406],[-0.005381,43.39862],[-0.005826,43.39313],[-0.003251,43.38976],[-0.002284,43.38325],[-0.005778,43.37869],[-0.007008,43.37277],[0.003891,43.36657],[0.005306,43.36194],[0.011888,43.35869],[0.01693,43.35192],[0.025953,43.34517],[0.024862,43.34152],[0.01128,43.329],[-0.000951,43.33482],[-0.024299,43.33327],[-0.033336,43.3397],[-0.060602,43.34354],[-0.064133,43.3559],[-0.067355,43.35681],[-0.071113,43.36219],[-0.07841,43.36716],[-0.081144,43.37222],[-0.094611,43.37552],[-0.108223,43.37165],[-0.108177,43.36509],[-0.105064,43.35828],[-0.093471,43.35506],[-0.092949,43.3507],[-0.090452,43.34773],[-0.089319,43.33807],[-0.092543,43.3353],[-0.109927,43.33913],[-0.115815,43.33351],[-0.117072,43.32295],[-0.113524,43.31262],[-0.121457,43.30716],[-0.127324,43.29995],[-0.127883,43.29495],[-0.13069,43.29076],[-0.138493,43.28659],[-0.141993,43.2717],[-0.1374,43.26129],[-0.127343,43.25127],[-0.122306,43.24007],[-0.109192,43.24171],[-0.093575,43.24103],[-0.089878,43.22809],[-0.074189,43.21998],[-0.074224,43.20801],[-0.071224,43.20113],[-0.072576,43.19164],[-0.070369,43.18058],[-0.073586,43.17822],[-0.09527,43.17849],[-0.098694,43.17096],[-0.101297,43.16944],[-0.104167,43.17036],[-0.11127,43.18089],[-0.118417,43.18127],[-0.122647,43.17701],[-0.12874,43.15927],[-0.139186,43.15037],[-0.143627,43.14378],[-0.143232,43.13502],[-0.146359,43.13081],[-0.157811,43.12389],[-0.166988,43.12291],[-0.175366,43.11253],[-0.181696,43.11317],[-0.185116,43.11585],[-0.194824,43.11604],[-0.193021,43.10803],[-0.198985,43.10287],[-0.199086,43.09881],[-0.196309,43.09413],[-0.18983,43.09052],[-0.18889,43.08537],[-0.200488,43.06812],[-0.199091,43.06214],[-0.1923,43.0548],[-0.192572,43.05174],[-0.199657,43.04415],[-0.208776,43.04295],[-0.212866,43.03802],[-0.222848,43.03519],[-0.246982,43.04409],[-0.261465,43.03872],[-0.262529,43.033],[-0.258517,43.02952],[-0.257515,43.02391],[-0.260365,43.01995],[-0.261126,43.01476],[-0.268132,43.0096],[-0.288267,43.00664],[-0.290479,43.00265],[-0.290494,42.99756],[-0.294472,42.9932],[-0.291628,42.98072],[-0.292429,42.97642],[-0.289067,42.96788],[-0.292115,42.96037],[-0.284352,42.95365],[-0.280814,42.94057],[-0.282597,42.93431],[-0.287324,42.93098],[-0.296609,42.93214],[-0.308251,42.92669],[-0.312132,42.91909],[-0.327537,42.91666],[-0.324941,42.9077],[-0.326085,42.90354],[-0.31748,42.89378],[-0.31722,42.88186],[-0.308966,42.87027],[-0.311895,42.86225],[-0.311311,42.85608],[-0.314673,42.84847],[-0.31381520176245675,42.85041165514209],[-0.328082,42.83603],[-0.334308,42.84016],[-0.351347,42.83844],[-0.368042,42.81694],[-0.381775,42.8124],[-0.392246,42.80346],[-0.415421,42.81014],[-0.439968,42.80069],[-0.472584,42.8119],[-0.504341,42.83091],[-0.523062,42.81804],[-0.527971,42.80867],[-0.527687,42.79578],[-0.542622,42.79578],[-0.555325,42.7828],[-0.560704,42.79148],[-0.564938,42.8056],[-0.572491,42.81127],[-0.59103,42.80774],[-0.600472,42.8333],[-0.679264,42.88804],[-0.695057,42.88049],[-0.727673,42.89848],[-0.716515,42.9201],[-0.747595,42.9689],[-0.771521,42.97019],[-0.794277,42.96584],[-0.81419,42.95378],[-0.838738,42.95617],[-0.893669,42.95806],[-0.895558,42.96371],[-0.91444,42.96647],[-0.927226,42.95646],[-0.943623,42.95554],[-1.014347,42.99712],[-1.084175,43.00342],[-1.07975,43.01155],[-1.113169,43.02584],[-1.134337,43.02228],[-1.164062,43.03628],[-1.227127,43.05675],[-1.25296,43.04671],[-1.285315,43.06387],[-1.295528,43.06751],[-1.305657,43.07046],[-1.305566,43.07442],[-1.298103,43.09089],[-1.290185,43.10053],[-1.283169,43.10498],[-1.281109,43.10853],[-1.271153,43.1132],[-1.26689,43.12027],[-1.328052,43.11526],[-1.347241,43.09268],[-1.345825,43.0534],[-1.355446,43.03014],[-1.439523,43.04731],[-1.466093,43.07671],[-1.468428,43.09227],[-1.425645,43.11482],[-1.413043,43.12741],[-1.401346,43.15601],[-1.398439,43.18002],[-1.377754,43.18944],[-1.384449,43.19416],[-1.382132,43.19879],[-1.375143,43.23416],[-1.377843,43.25158],[-1.407194,43.27283],[-1.415777,43.27427],[-1.427708,43.26814],[-1.484227,43.28444],[-1.491802,43.28181],[-1.498261,43.28733],[-1.503518,43.29234],[-1.506071,43.29403],[-1.535339,43.29514],[-1.556797,43.29176],[-1.565981,43.28845],[-1.566324,43.26396],[-1.577177,43.25438],[-1.613853,43.25738],[-1.623173,43.272],[-1.629067,43.28608],[-1.621857,43.30063],[-1.621838,43.30707],[-1.635531,43.30935],[-1.645889,43.30832],[-1.654215,43.31338],[-1.667835,43.31655],[-1.683741,43.31119],[-1.692581,43.31269],[-1.698654,43.31224],[-1.7064,43.30907],[-1.713352,43.30182],[-1.722622,43.30126],[-1.7263859130533596,43.29910489665387],[-1.726385,43.29911],[-1.72863,43.29782],[-1.728753,43.29809],[-1.728754328957214,43.29808980477519],[-1.73545,43.31262],[-1.740539,43.31681],[-1.736805,43.32162],[-1.736611,43.33042],[-1.741204,43.33197],[-1.750989,43.33592],[-1.751719,43.3396],[-1.752362,43.34147],[-1.756568,43.34423],[-1.760924,43.34466],[-1.769893,43.34297],[-1.775579,43.3445],[-1.77691,43.34851],[-1.783776,43.34976],[-1.788368,43.35358],[-1.778506,43.36299],[-1.788025,43.36918],[-1.789457,43.37277],[-1.789055,43.37611],[-1.765709,43.38409],[-1.666284,43.65226],[-1.84101300510697,43.663166073796596],[-1.842771,43.67034]],[[-0.716608,42.92025],[-0.7166108671016123,42.92025052492145],[-0.716515,42.9201],[-0.716608,42.92025]]]}}
