{"type":"Feature","properties":{"sourceId":"arnsberg-regbez"},"geometry":{"type":"Polygon","coordinates":[[[8.893776,51.48031],[8.912315,51.46567],[8.92416,51.44684],[8.927593,51.43379],[8.948707,51.43068],[8.955059,51.4128],[8.946819,51.39653],[8.940983,51.38603],[8.891887,51.39064],[8.853779,51.37425],[8.812923,51.38625],[8.744087,51.37199],[8.698811,51.36891],[8.689412,51.35754],[8.654308,51.33683],[8.619633,51.32525],[8.608818,51.3084],[8.570022,51.28704],[8.569851,51.2805],[8.599891,51.25031],[8.626842,51.2631],[8.691902,51.27759],[8.718939,51.27937],[8.740311,51.2632],[8.734989,51.25133],[8.744516,51.21898],[8.771467,51.20952],[8.768892,51.2021],[8.757305,51.19425],[8.76194,51.17445],[8.698168,51.13552],[8.704691,51.11899],[8.711042,51.11888],[8.722544,51.11689],[8.722801,51.1088],[8.708467,51.10659],[8.692417,51.108],[8.672933,51.09959],[8.657226,51.09323],[8.616886,51.09824],[8.555603,51.09975],[8.518352,51.08369],[8.508224,51.07635],[8.537859,51.06388],[8.53081,51.04505],[8.540187,51.01876],[8.523761,51.00127],[8.467369,50.96022],[8.461202,50.91623],[8.433705,50.91353],[8.369067,50.86137],[8.30671,50.8502],[8.27499,50.87059],[8.179241,50.8027],[8.14045,50.78964],[8.164043,50.74775],[8.172455,50.73613],[8.15237,50.70429],[8.127437,50.67897],[8.097207,50.6997],[8.037017,50.69052],[8.034623,50.72096],[7.977877,50.76328],[7.967319,50.77414],[7.965345,50.78005],[7.963285,50.78507],[7.967148,50.78567],[7.96586,50.79053],[7.966627,50.84117],[7.961154,50.84675],[7.908149,50.83926],[7.881466,50.87076],[7.823628,50.88224],[7.832136,50.90823],[7.842514,50.92329],[7.799363,50.93761],[7.788420003350289,50.93324074543932],[7.788444,50.93858],[7.790868,50.94489],[7.787407,50.94805],[7.794411,50.95346],[7.786921,50.96205],[7.78841,50.96705],[7.78331,50.98095],[7.768339,50.98307],[7.749443,50.98042],[7.744634,50.98371],[7.742936,50.99061],[7.72836,50.99937],[7.729303,51.01205],[7.737963,51.02434],[7.73352,51.02889],[7.735673,51.03292],[7.733322,51.04203],[7.72699,51.04556],[7.723133,51.05258],[7.713083,51.05486],[7.70674,51.06243],[7.708501,51.06711],[7.716153,51.07251],[7.709721,51.07899],[7.701322,51.08109],[7.689437,51.08867],[7.684381,51.08458],[7.647714,51.07575],[7.638769,51.07697],[7.626534,51.07138],[7.611217,51.08219],[7.604575,51.08301],[7.603593,51.08798],[7.609353,51.09605],[7.607371,51.10029],[7.583104,51.10898],[7.522979,51.10321],[7.498832,51.1076],[7.506626,51.1164],[7.506721,51.1286],[7.502627,51.13281],[7.492527,51.12881],[7.490154,51.13007],[7.483385,51.14252],[7.477919,51.14286],[7.473769,51.14713],[7.476006,51.15016],[7.474165,51.15454],[7.481654,51.1621],[7.480962,51.16626],[7.477742,51.1676],[7.457704,51.16159],[7.442524,51.16976],[7.43821,51.18234],[7.430011,51.18392],[7.428415,51.18839],[7.423997,51.18923],[7.421348,51.19891],[7.430766,51.20197],[7.432649,51.21184],[7.436319,51.21433],[7.433166,51.21739],[7.43172,51.22632],[7.418146,51.23126],[7.410255,51.22828],[7.408578,51.22238],[7.398647,51.23129],[7.404899,51.2366],[7.40536,51.24156],[7.393572,51.24826],[7.388924,51.24883],[7.380863,51.24419],[7.374311,51.24947],[7.354464,51.24511],[7.353153,51.24157],[7.347076,51.24351],[7.341102,51.2417],[7.340351,51.24898],[7.333714,51.253],[7.327058,51.25196],[7.320621,51.24637],[7.312882,51.24726],[7.3053722213428545,51.242343630435386],[7.297629,51.24693],[7.306733,51.25035],[7.30744,51.25187],[7.305363,51.25348],[7.302063,51.25395],[7.298728,51.25099],[7.283821,51.25061],[7.275542,51.26027],[7.271938,51.2603],[7.271139,51.25599],[7.268559,51.25651],[7.267776,51.2604],[7.271004,51.26611],[7.273729,51.26984],[7.278601,51.27244],[7.275395,51.27847],[7.267079,51.2854],[7.263434,51.28681],[7.25733,51.28391],[7.256928,51.29033],[7.261515,51.29507],[7.263712,51.30562],[7.266854,51.3106],[7.264162,51.31371],[7.265521,51.31503],[7.264308,51.31888],[7.25917,51.31716],[7.256059,51.3176],[7.251348,51.31526],[7.248436,51.31578],[7.234287,51.30952],[7.228672,51.3114],[7.225794,51.30905],[7.224577,51.30986],[7.220359,51.3084],[7.221804,51.30604],[7.205946,51.30202],[7.197833,51.29554],[7.186455,51.29696],[7.185963,51.29852],[7.182426,51.30004],[7.17391,51.29919],[7.179522,51.30263],[7.181497,51.30623],[7.178494,51.3074],[7.176268,51.31076],[7.167786,51.31362],[7.170666,51.3175],[7.166765,51.32075],[7.167745,51.32487],[7.166746,51.32671],[7.158937,51.32978],[7.154301,51.33567],[7.148845,51.33492],[7.150359,51.33798],[7.146441,51.33969],[7.146909,51.34166],[7.150828,51.34369],[7.150004,51.3459],[7.154076,51.34915],[7.153335,51.35102],[7.150063,51.35078],[7.148767,51.35228],[7.157805,51.35937],[7.16032,51.36561],[7.153643,51.37277],[7.153686,51.37512],[7.150808,51.3757],[7.150059,51.37779],[7.145797,51.37819],[7.143778,51.3764],[7.140053,51.37662],[7.138313,51.38015],[7.133725,51.37855],[7.130235,51.38231],[7.125247,51.38152],[7.124213,51.37966],[7.121621,51.38157],[7.118606,51.38167],[7.117287,51.38459],[7.120362,51.3871],[7.11856,51.3901],[7.1194,51.39403],[7.113806,51.39977],[7.113496,51.40437],[7.110939,51.40667],[7.121768,51.40765],[7.125873,51.41049],[7.127771,51.40981],[7.137632,51.41998],[7.13847,51.4254],[7.130923,51.42998],[7.123798,51.43182],[7.12366,51.43358],[7.133193,51.43882],[7.134667,51.44256],[7.129679,51.44518],[7.129573,51.44717],[7.121822,51.4557],[7.116694,51.45599],[7.11343,51.46076],[7.109426,51.46147],[7.114628,51.46502],[7.114894,51.47223],[7.104353,51.48108],[7.104219142992999,51.48113488845525],[7.119525,51.48693],[7.138893,51.49099],[7.138434,51.50453],[7.140663,51.50552],[7.139201,51.50817],[7.145167,51.51373],[7.139406,51.51771],[7.139156,51.52274],[7.129859,51.53697],[7.128941,51.53963],[7.131041,51.541],[7.128213,51.54401],[7.129131,51.54665],[7.12352,51.54875],[7.124514,51.55085],[7.137452,51.55161],[7.162651,51.54894],[7.168546,51.55065],[7.175351,51.55012],[7.206044,51.55906],[7.209914,51.55808],[7.216261,51.55982],[7.241466,51.5719],[7.242243,51.56915],[7.246781,51.56823],[7.249544,51.56366],[7.254377,51.56373],[7.263931,51.56734],[7.262007,51.55931],[7.269997,51.55855],[7.273737,51.55449],[7.281634,51.55488],[7.284637,51.54944],[7.284643,51.54508],[7.289542,51.54458],[7.291539,51.54172],[7.294976,51.54094],[7.294328,51.53567],[7.291954,51.53428],[7.293485,51.53123],[7.295925,51.52888],[7.29887,51.52971],[7.300689,51.52604],[7.303812,51.52448],[7.308394,51.5251],[7.314309,51.52101],[7.323693,51.5224],[7.334788,51.51911],[7.342505,51.52277],[7.346382,51.52118],[7.35447,51.52269],[7.358628,51.52612],[7.364518,51.52713],[7.364999,51.53003],[7.362269,51.53474],[7.358505,51.53489],[7.355153,51.53979],[7.35135,51.53993],[7.349649,51.54455],[7.35463,51.5499],[7.35368,51.55297],[7.357502,51.5556],[7.35238,51.56155],[7.354873,51.56565],[7.340768,51.57662],[7.354948,51.58311],[7.35826,51.58068],[7.363249,51.58254],[7.368611,51.58147],[7.37287,51.58939],[7.380231,51.58695],[7.396357,51.58652],[7.400267,51.58948],[7.401038,51.59234],[7.413547,51.59516],[7.436529,51.60607],[7.441073,51.60455],[7.444178,51.60739],[7.449362,51.60684],[7.458996,51.61275],[7.461756,51.6172],[7.460031,51.6236],[7.463714,51.62464],[7.466332,51.62911],[7.461254,51.63471],[7.463571,51.63584],[7.463775,51.6386],[7.455201,51.63877],[7.457818,51.64021],[7.457609,51.64234],[7.452378,51.64345],[7.449256,51.64778],[7.444807,51.64776],[7.445382,51.64945],[7.443475,51.65129],[7.449818,51.6542],[7.44462,51.66029],[7.432144,51.66357],[7.414383,51.66327],[7.410807,51.6649],[7.410104,51.66893],[7.424498,51.66929],[7.429817,51.66673],[7.435891,51.6682],[7.440248,51.67365],[7.449372,51.67559],[7.452148,51.68285],[7.449564,51.68676],[7.452537,51.6882],[7.452636,51.69039],[7.449902,51.69424],[7.443022,51.69731],[7.443867,51.69982],[7.438429,51.70456],[7.425328,51.7071],[7.426997,51.70985],[7.424957,51.71317],[7.42571,51.71575],[7.437298,51.72226],[7.448218,51.72365],[7.452294,51.72834],[7.460231,51.73012],[7.468044,51.73485],[7.471722,51.73402],[7.4767,51.72748],[7.481582,51.72822],[7.480767,51.72518],[7.475952,51.72277],[7.478472,51.71869],[7.483007,51.71734],[7.484052,51.71314],[7.493369,51.71957],[7.503359,51.72135],[7.515956,51.72037],[7.515876,51.70648],[7.528719,51.70324],[7.527184,51.7009],[7.528799,51.69634],[7.532871,51.69167],[7.541217,51.69067],[7.537346,51.68709],[7.542047,51.68366],[7.551544,51.68748],[7.553555,51.69133],[7.566614,51.69463],[7.568097,51.69726],[7.588347,51.69916],[7.595153,51.70377],[7.605755,51.70537],[7.607355,51.7091],[7.615299,51.71084],[7.615267,51.71392],[7.625637,51.71262],[7.628393,51.70828],[7.635502,51.71158],[7.64234,51.71224],[7.652042,51.70452],[7.657973,51.70689],[7.65615,51.7122],[7.661786,51.71186],[7.669623,51.71631],[7.668887,51.71914],[7.673014,51.72043],[7.671746,51.72254],[7.686978,51.72751],[7.689778,51.72005],[7.691946,51.71864],[7.691194,51.71663],[7.695727,51.71204],[7.702572,51.71136],[7.709136,51.71508],[7.715772,51.71632],[7.716311,51.71809],[7.719687,51.7177],[7.719178,51.72131],[7.723248,51.72199],[7.723835,51.72679],[7.729508,51.72904],[7.737809,51.72946],[7.738206,51.73672],[7.751106,51.738],[7.7532,51.7338],[7.757047,51.73204],[7.759136,51.72884],[7.763854,51.72917],[7.765109,51.72614],[7.768579,51.726],[7.770173,51.72283],[7.773659,51.72575],[7.780208,51.72595],[7.785431,51.72907],[7.786921,51.72742],[7.791697,51.7287],[7.792253,51.73028],[7.804465,51.73075],[7.804606,51.73338],[7.813572,51.73672],[7.81405,51.73848],[7.820905,51.73803],[7.826049,51.74346],[7.830864,51.74341],[7.832116,51.74192],[7.831466,51.73488],[7.834865,51.72935],[7.8437,51.72655],[7.857153,51.72569],[7.858853,51.72338],[7.863901,51.724],[7.872421,51.72919],[7.874853,51.72774],[7.877232,51.72592],[7.879216,51.72007],[7.887434,51.71674],[7.88745,51.70477],[7.889429,51.70149],[7.895768,51.70415],[7.902356,51.70404],[7.905064,51.70172],[7.907369,51.70347],[7.913564,51.70338],[7.91408,51.70505],[7.921637,51.70515],[7.922224,51.70358],[7.928772,51.70234],[7.932774,51.70329],[7.937992,51.69974],[7.951955,51.69967],[7.958495,51.70267],[7.96148,51.70748],[7.961103,51.71149],[7.958534,51.71495],[7.964792,51.71982],[7.970581,51.71969],[7.974483,51.72188],[7.97928,51.71887],[7.981937,51.72027],[7.987648,51.71666],[8.002884,51.71533],[8.003834,51.71171],[8.007016,51.70914],[8.016531,51.71313],[8.029501,51.71406],[8.030106,51.71568],[8.037982,51.71397],[8.053559,51.71567],[8.062053,51.71016],[8.067974,51.71143],[8.070418,51.70766],[8.073949,51.70649],[8.090852,51.70593],[8.091122,51.70229],[8.098987,51.70057],[8.111009,51.71445],[8.119289,51.71688],[8.125504,51.71411],[8.125843,51.71181],[8.130267,51.71129],[8.131038,51.71429],[8.135365,51.71442],[8.153643,51.71059],[8.155228,51.70935],[8.154892,51.70577],[8.169001,51.70387],[8.17475,51.69931],[8.178124,51.69949],[8.183917,51.69272],[8.210055,51.69694],[8.21023,51.69054],[8.205897,51.68987],[8.205489,51.68695],[8.198642,51.68353],[8.203218,51.67112],[8.198742,51.66939],[8.199805,51.66666],[8.195267,51.66579],[8.193436,51.66131],[8.197027,51.65931],[8.203489,51.65932],[8.20514,51.65741],[8.218622,51.657],[8.223184,51.65872],[8.224342,51.66082],[8.228186,51.65919],[8.231457,51.66139],[8.244592,51.66069],[8.24968,51.65873],[8.255192,51.66179],[8.258406,51.6606],[8.264114,51.66362],[8.266841,51.66246],[8.288534,51.67365],[8.29588,51.67575],[8.297709,51.67979],[8.29777,51.68411],[8.295781,51.68528],[8.297544,51.68677],[8.297971,51.69512],[8.301813,51.69816],[8.30296,51.7033],[8.310981,51.71421],[8.31065,51.7186],[8.314846,51.71838],[8.319999269726866,51.72431387084329],[8.323985,51.72577],[8.329418,51.72218],[8.332973,51.72532],[8.339907,51.72069],[8.386094,51.71575],[8.42883,51.71805],[8.433142,51.71515],[8.461068,51.72215],[8.466598,51.71917],[8.467858,51.71308],[8.474373,51.71285],[8.4732,51.70704],[8.468005,51.70414],[8.471013,51.69645],[8.481652,51.69371],[8.483129,51.68854],[8.477669,51.68899],[8.477302,51.68235],[8.51014,51.67882],[8.520916,51.67018],[8.552369,51.66748],[8.567842,51.65699],[8.572181,51.65796],[8.573501,51.64605],[8.583553,51.61941],[8.578773,51.62128],[8.547401,51.60665],[8.542605,51.6073],[8.533477,51.6006],[8.509962,51.59622],[8.504654,51.59144],[8.505704,51.5876],[8.487202,51.58863],[8.486309,51.58512],[8.489188,51.58339],[8.472813,51.57412],[8.47489,51.56808],[8.478926,51.5665],[8.472803,51.56652],[8.470626,51.56334],[8.47607,51.54692],[8.485761,51.53751],[8.483468,51.53551],[8.485436,51.53162],[8.492262,51.52818],[8.503398,51.53132],[8.509934,51.52895],[8.507632,51.52374],[8.50948,51.51824],[8.512209,51.51743],[8.511189,51.51171],[8.515843,51.50367],[8.518817,51.48925],[8.548083,51.46592],[8.562369,51.46419],[8.573964,51.46621],[8.587178,51.4779],[8.603283,51.48205],[8.609318,51.47891],[8.625649,51.47689],[8.653863,51.47962],[8.665218,51.47075],[8.686356,51.4711],[8.687053,51.46809],[8.698724,51.46187],[8.709841,51.46166],[8.720356,51.4575],[8.750151,51.46401],[8.750534,51.45918],[8.756004,51.45301],[8.768255,51.44566],[8.789624,51.45567],[8.814746,51.48307],[8.837938,51.49498],[8.83954,51.50056],[8.835148,51.50279],[8.835914,51.50626],[8.822224,51.51609],[8.822389,51.5201],[8.811765,51.52234],[8.812833,51.52648],[8.809422,51.52778],[8.818241,51.53002],[8.816898,51.53782],[8.84663,51.53662],[8.848212,51.53932],[8.846192,51.54469],[8.849779,51.54645],[8.858323,51.54337],[8.861028,51.54551],[8.878578,51.5447],[8.885003,51.5472],[8.889459,51.54619],[8.890065,51.53203],[8.894112,51.52838],[8.902817,51.52852],[8.909783,51.52118],[8.942516,51.51047],[8.948504,51.50476],[8.968078,51.50747],[8.971278927266935,51.50499034946084],[8.97116,51.50429],[8.972531,51.50302],[8.960209,51.49859],[8.893776,51.48031]]]}}
