{"type":"Feature","properties":{"sourceId":"algeria"},"geometry":{"type":"Polygon","coordinates":[[[8.574685152460612,37.28653321457746],[8.585684,37.14397],[8.644193,36.91998],[8.626317,36.8995],[8.620173,36.85281],[8.661358,36.84483],[8.657952,36.81655],[8.61986,36.80522],[8.612867,36.79745],[8.596138,36.80237],[8.554027,36.78372],[8.527336,36.78747],[8.484873,36.78446],[8.427186,36.76354],[8.427241,36.74414],[8.460879,36.74383],[8.461045,36.72413],[8.447088,36.66457],[8.401917,36.62118],[8.323456,36.57789],[8.197095,36.51407],[8.175728,36.51803],[8.148917,36.49811],[8.150578,36.47796],[8.166399,36.4599],[8.20783,36.44322],[8.262461,36.4337],[8.36915,36.42417],[8.402374,36.41394],[8.389001,36.39466],[8.371644,36.35121],[8.371955,36.31785],[8.352902,36.29171],[8.334438,36.26816],[8.335369,36.2605],[8.302447,36.1761],[8.305399,36.15831],[8.307076,36.07119],[8.292444,36.04239],[8.295184,36.0111],[8.258892,35.94037],[8.251717,35.91544],[8.248598,35.88608],[8.267889,35.82189],[8.253728,35.76264],[8.259912,35.72862],[8.305212,35.68742],[8.346066,35.61177],[8.355058,35.52549],[8.310899,35.41587],[8.307906,35.37315],[8.306889,35.31339],[8.332299,35.27522],[8.419304,35.17802],[8.35691,35.10593],[8.240397,34.92193],[8.279215,34.76554],[8.236812,34.6909],[8.156104,34.56931],[7.853326,34.40896],[7.513961,34.06745],[7.520699,33.79695],[7.744353,33.32611],[7.823638,33.18354],[8.302917,32.81729],[8.352738,32.49997],[9.045327,32.08187],[9.54598380107639,30.24059279205582],[9.377517,30.17837],[9.399669,30.05313],[9.6405,29.61884],[9.858723,28.78537],[9.742343,27.3032],[9.374405,26.18864],[10.18087,24.65477],[10.35516,24.51512],[11.562,24.11972],[11.944043719167672,23.555761045774194],[7.430048,20.89586],[5.796147,19.46513],[4.330227020707403,19.20540979244488],[4.330257,19.2074],[3.354559,19.0889],[3.247005,19.17404],[3.357131,19.44832],[3.296141,19.91195],[2.706217,20.18776],[2.479818,20.19181],[2.268787,20.39638],[1.841833,20.40048],[1.657937,20.66715],[1.281013,20.8367],[1.198687,21.20855],[-4.871857,25.09499],[-4.9767734335956355,25.09498941855224],[-6.745226,26.18917],[-8.635472608057555,27.304925164693387],[-8.635544,28.53118],[-7.143002,29.47434],[-6.793394,29.43818],[-6.434593,29.5345],[-5.54556,29.46192],[-4.222689,30.53573],[-3.816235,30.57217],[-3.595826,30.68277],[-3.502093,30.99366],[-3.655204,31.62959],[-2.774789,31.78524],[-2.865696,32.08752],[-2.177348,32.12915],[-1.62236,32.08342],[-1.254758,32.07013],[-1.206265,32.07879],[-1.13863,32.10672],[-1.207393,32.30372],[-0.999155,32.50491],[-0.993576,32.51584],[-1.002846,32.53061],[-1.621257,33.30786],[-1.565366,33.50968],[-1.58535,33.61243],[-1.646061,33.75717],[-1.690865,33.87027],[-1.628072,34.10337],[-1.692238,34.31764],[-1.768113,34.38906],[-1.68251,34.48581],[-1.687365,34.49619],[-1.750646,34.53028],[-1.770172,34.54969],[-1.826908,34.62848],[-1.770501,34.6994],[-1.734724,34.74295],[-1.745389,34.75318],[-1.86342,34.80802],[-1.878685,34.80794],[-1.886644,34.82614],[-1.893268,34.84587],[-1.96564,34.88288],[-1.970487,34.93778],[-2.033288,34.93251],[-2.102084,34.97494],[-2.130994,34.99994],[-2.210888,35.05027],[-2.209727,35.05972],[-2.194004,35.33935],[-2.206259,35.82223],[-2.2549550119982955,35.826013445818425],[-2.27671,36.22302],[6.899245,37.77017],[8.46483,37.77284],[8.574685152460612,37.28653321457746]]]}}
