{"type":"Feature","properties":{"sourceId":"argentina"},"geometry":{"type":"Polygon","coordinates":[[[-61.52546,-55.68296],[-66.68136,-55.13738],[-66.86027,-55.02017],[-67.3094,-54.9245],[-67.47633,-54.92785],[-67.71808,-54.91261],[-67.96138,-54.88571],[-68.18753,-54.89288],[-68.61804,-54.92151],[-68.66375,-52.66716],[-68.51023,-52.39432],[-70.01629,-52.05707],[-72.05562,-52.01749],[-72.09055,-51.93758],[-72.02273,-51.88832],[-72.49598,-51.597],[-72.3623,-51.25935],[-72.46252,-51.08654],[-72.31217,-50.90093],[-72.39293,-50.69005],[-72.76983,-50.68829],[-73.22154,-50.87193],[-73.22709,-50.66897],[-73.39438,-50.58008],[-73.57703,-50.15788],[-73.61453,-49.91795],[-73.56804,-49.5458],[-73.49883,-49.19103],[-73.23151,-49.2473],[-72.96385,-48.89084],[-72.80952,-48.90039],[-72.59462,-48.77255],[-72.63621,-48.45823],[-72.46698,-48.45706],[-72.42158,-48.31422],[-72.3428,-48.29046],[-72.37166,-48.15995],[-72.57678,-47.96054],[-72.5731,-47.72062],[-72.3839,-47.57888],[-72.38448,-47.41759],[-72.07162,-47.2755],[-71.97791,-47.0608],[-71.98699,-46.82499],[-71.71488,-46.64453],[-71.7985,-46.26925],[-71.97019,-46.14972],[-71.63332,-45.97063],[-71.66595,-45.89232],[-71.77408,-45.85187],[-71.8548,-45.61169],[-71.7885,-45.50505],[-71.40574,-45.27206],[-71.61593,-45.03146],[-72.07949,-44.93988],[-72.11766,-44.73884],[-71.47444,-44.68048],[-71.2897,-44.75036],[-71.28469,-44.60892],[-71.20209,-44.5359],[-71.40536,-44.44891],[-71.86374,-44.44274],[-71.9047,-44.10354],[-71.70007,-43.98287],[-71.78725,-43.80985],[-71.63263,-43.65888],[-71.87866,-43.56195],[-71.95542,-43.44292],[-71.91512,-43.319],[-71.80268,-43.29535],[-71.73869,-43.19234],[-71.94149,-43.11061],[-72.18001,-42.8948],[-72.18733,-42.66619],[-72.06314,-42.53751],[-72.0441,-42.41231],[-72.14365,-42.40333],[-72.20024,-42.17229],[-72.17802,-42.13207],[-72.06032,-42.10593],[-71.78041,-42.12128],[-71.83133,-41.78089],[-71.94135,-41.60926],[-71.9023,-41.06778],[-72.02097,-40.73647],[-71.91507,-40.61832],[-71.87117,-40.38959],[-71.76665,-40.35676],[-71.87961,-40.24227],[-71.8856,-40.10093],[-71.67779,-39.92156],[-71.74365,-39.86164],[-71.77001,-39.61946],[-71.68665,-39.50983],[-71.58545,-39.55159],[-71.45202,-39.31025],[-71.47673,-38.89162],[-71.25594,-38.74909],[-70.95844,-38.70272],[-70.89411,-38.57644],[-71.03346,-38.45451],[-71.08724,-38.09054],[-71.23505,-37.86541],[-71.26668,-37.68295],[-71.18031,-37.4828],[-71.27241,-37.28686],[-71.17697,-37.1077],[-71.27586,-36.9637],[-71.20495,-36.91075],[-71.2345,-36.83303],[-71.07654,-36.43571],[-70.96469,-36.43366],[-70.90086,-36.34336],[-70.77062,-36.35412],[-70.59553,-36.12118],[-70.44219,-36.14876],[-70.42788,-35.73781],[-70.50607,-35.38014],[-70.59764,-35.34459],[-70.63128,-35.23712],[-70.42629,-35.12462],[-70.32933,-34.83081],[-70.35687,-34.72532],[-70.07752,-34.38253],[-70.06901,-34.24694],[-69.87771,-34.20233],[-69.95948,-33.77235],[-69.83371,-33.34911],[-70.02502,-33.37388],[-70.14906,-33.04145],[-70.06223,-33.01233],[-70.00981,-32.90747],[-70.19517,-32.75732],[-70.19589,-32.50891],[-70.28486,-32.45564],[-70.44343,-32.05325],[-70.41077,-31.9809],[-70.29402,-31.95849],[-70.5117,-31.85844],[-70.62295,-31.59949],[-70.5377,-31.08557],[-70.35748,-31.0002],[-70.20264,-30.32249],[-69.97775,-30.32288],[-69.847,-30.16294],[-70.01824,-30.10003],[-69.95038,-29.73744],[-70.03755,-29.35428],[-69.97565,-29.18743],[-69.70118,-28.37779],[-69.20484,-27.90816],[-68.84844,-27.13115],[-68.76133,-27.08588],[-68.60693,-27.09636],[-68.3489,-26.92771],[-68.64137,-26.50722],[-68.63052,-25.43524],[-68.55582,-25.14476],[-68.44595,-25.0658],[-68.62011,-24.81717],[-68.55162,-24.58836],[-68.28078,-24.34935],[-67.32648,-24.02538],[-66.99882,-23.00044],[-67.16220178337505,-22.838995310759067],[-67.15256,-22.83695],[-66.76735,-22.45038],[-66.27296,-22.09073],[-66.20979,-21.83728],[-65.77789,-22.11363],[-65.65464,-22.11554],[-65.60988,-22.10003],[-65.58228,-22.09956],[-65.48392,-22.09821],[-65.00816,-22.09836],[-64.72458,-22.20648],[-64.65197,-22.20123],[-64.56631,-22.28401],[-64.58931,-22.38246],[-64.43825,-22.54998],[-64.44855,-22.64158],[-64.40666,-22.72758],[-64.35186,-22.7338],[-64.34898,-22.87554],[-64.29646,-22.90148],[-64.11038,-22.42404],[-64.01836,-22.24239],[-63.9521,-22.09598],[-63.9176,-22.00497],[-63.72628,-22.00386],[-63.69161,-22.02837],[-63.68422,-22.05756],[-63.67487,-22.05812],[-63.65848,-22.00497],[-62.82326,-22.00704],[-62.82532,-22.11713],[-62.80266,-22.17628],[-62.68751739888382,-22.261170702842833],[-62.67604,-22.33382],[-62.31484,-22.5724],[-62.01161,-23.07015],[-61.5205,-23.46726],[-61.16568,-23.64232],[-61.02214,-23.86301],[-60.32388,-24.09259],[-60.02437,-24.08705],[-59.15526,-24.66704],[-58.51037,-24.91394],[-58.35778,-25.04852],[-58.23805,-25.00575],[-57.8203,-25.20881],[-57.63683,-25.51427],[-57.86612,-25.71662],[-57.9495,-25.98385],[-58.20707,-26.15483],[-58.31926,-26.70532],[-58.70893,-27.12241],[-58.6417,-27.33667],[-57.93981,-27.32423],[-57.51436,-27.49793],[-57.03238,-27.54449],[-56.84236,-27.65675],[-56.66697,-27.63088],[-56.63638,-27.51975],[-56.39157,-27.61574],[-56.12083,-27.36713],[-55.70967,-27.48988],[-55.54991,-27.3622],[-55.52713,-27.20432],[-55.38416,-27.04592],[-55.11966,-27.003],[-55.08011,-26.89488],[-54.74862,-26.67748],[-54.56486,-26.21692],[-54.54909893343419,-25.608476314478256],[-54.54025,-25.62419],[-54.44275,-25.70898],[-54.00124,-25.61181],[-53.84811,-25.97101],[-53.75662,-26.04784],[-53.73636,-26.04737],[-53.73267,-26.05825],[-53.7295,-26.06434],[-53.74306,-26.07775],[-53.74495,-26.11552],[-53.65628,-26.23376],[-53.64375,-26.25801],[-53.64787,-26.27671],[-53.72452,-26.38387],[-53.78769,-26.69164],[-53.70529,-26.91227],[-53.8797,-27.11048],[-54.17702,-27.24639],[-54.19805,-27.28194],[-54.19667,-27.30727],[-54.21581,-27.32816],[-54.26903,-27.3928],[-54.41219,-27.40042],[-54.59828,-27.44857],[-54.72118,-27.53233],[-54.81251,-27.52106],[-54.91207,-27.63305],[-54.91207,-27.72456],[-55.08579,-27.77044],[-55.32372,-27.91434],[-55.61348,-28.11135],[-55.78926,-28.2433],[-56.03508,-28.51516],[-56.0289,-28.57728],[-56.29875,-28.78692],[-56.60431,-29.11617],[-56.78558,-29.36961],[-57.09938,-29.72741],[-57.24701,-29.76795],[-57.67273,-30.19202],[-57.661924283854546,-30.196786842013196],[-57.62054,-30.25165],[-57.65247,-30.33762],[-57.848,-30.46047],[-57.90207,-30.50844],[-57.89666,-30.58898],[-57.85598,-30.62477],[-57.84823,-30.66661],[-57.81523,-30.70483],[-57.81281,-30.86923],[-57.83169,-30.91077],[-57.88902,-30.90075],[-57.93091,-30.91519],[-57.87975,-31.00527],[-57.86808,-31.03793],[-57.87872,-31.06882],[-57.92309,-31.12277],[-57.9237,-31.21427],[-57.99013,-31.31653],[-58.00086,-31.36114],[-57.98721,-31.37489],[-57.98292,-31.3872],[-58.01193,-31.40713],[-58.07562,-31.44302],[-58.08746,-31.45869],[-58.08248,-31.49754],[-58.00884,-31.53041],[-58.00747,-31.54533],[-57.99045,-31.58082],[-58.05117,-31.753],[-58.07958,-31.80889],[-58.16655,-31.83213],[-58.21621,-31.86035],[-58.20625,-31.91312],[-58.15555,-31.99616],[-58.19279,-32.16252],[-58.1369,-32.21629],[-58.10976,-32.25882],[-58.10797,-32.28872],[-58.11897,-32.31946],[-58.19965,-32.38414],[-58.20964,-32.49023],[-58.19664,-32.5717],[-58.13014,-32.9048],[-58.14995,-33.04205],[-58.25889,-33.09821],[-58.32813,-33.10132],[-58.37414,-33.11973],[-58.4325,-33.18239],[-58.52589,-33.60032],[-58.42049,-33.96045],[-58.35468,-34.04255],[-58.32661,-34.1545],[-58.10591,-34.33987],[-58.00987,-34.69251],[-55.755046589856256,-36.10146566770326],[-64.31743,-49.44788],[-61.52546,-55.68296]]]}}
