{"type":"Feature","properties":{"sourceId":"aragon"},"geometry":{"type":"MultiPolygon","coordinates":[[[[-0.727673,42.89848],[-0.695057,42.88049],[-0.679264,42.88804],[-0.600472,42.8333],[-0.59103,42.80774],[-0.572491,42.81127],[-0.564938,42.8056],[-0.560704,42.79148],[-0.555325,42.7828],[-0.542622,42.79578],[-0.527687,42.79578],[-0.527971,42.80867],[-0.523062,42.81804],[-0.504341,42.83091],[-0.472584,42.8119],[-0.439968,42.80069],[-0.415421,42.81014],[-0.392246,42.80346],[-0.381775,42.8124],[-0.368042,42.81694],[-0.351347,42.83844],[-0.334308,42.84016],[-0.328082,42.83603],[-0.31381520176245675,42.85041165514209],[-0.314673,42.84847],[-0.29679,42.81936],[-0.204079,42.7902],[-0.110437,42.71887],[-0.064511,42.69136],[0.009936,42.67894],[0.192003,42.72941],[0.305323,42.66539],[0.355418,42.71399],[0.413077,42.68797],[0.6688982759445237,42.687370021577365],[0.699691,42.65921],[0.77033,42.61008],[0.760889,42.57015],[0.752306,42.53424],[0.741062,42.50488],[0.71351,42.47798],[0.717287,42.43429],[0.728273,42.42783],[0.738745,42.4118],[0.748701,42.38568],[0.772562,42.35144],[0.767584,42.32276],[0.718918,42.16277],[0.70673,42.10294],[0.667934,42.00734],[0.646305,41.9794],[0.610771,41.91658],[0.612659,41.87173],[0.581417,41.84834],[0.561719,41.85093],[0.546226,41.81828],[0.465717,41.76184],[0.397739,41.73046],[0.33268,41.67894],[0.36169,41.63174],[0.354824,41.60068],[0.430698,41.60505],[0.452499,41.54122],[0.396881,41.48415],[0.346241,41.48145],[0.361519,41.45161],[0.347786,41.41248],[0.37817,41.35091],[0.389499,41.27806],[0.385723,41.23122],[0.321693,41.21159],[0.307617,41.16043],[0.249595,41.12721],[0.236549,41.05114],[0.285473,41.02097],[0.298176,40.97005],[0.277061,40.93245],[0.24908,40.88458],[0.258865,40.87497],[0.285129,40.8181],[0.233974,40.76481],[0.19874011461071164,40.741761228358484],[0.173378,40.74231],[0.145569,40.73165],[0.102996,40.73555],[0.039825,40.70146],[0.024032,40.73217],[-0.012703,40.73607],[-0.066605,40.73503],[-0.126,40.76156],[-0.138359,40.79328],[-0.205307,40.7925],[-0.244446,40.72827],[-0.246849,40.69678],[-0.310707,40.67804],[-0.33886,40.68793],[-0.390702,40.67908],[-0.384522,40.61187],[-0.312767,40.59675],[-0.306931,40.5151],[-0.289765,40.47908],[-0.343323,40.46001],[-0.353623,40.44486],[-0.315171,40.37166],[-0.382119,40.3154],[-0.408554,40.29681],[-0.392762,40.26748],[-0.507088,40.23918],[-0.549317,40.26224],[-0.577813,40.18228],[-0.610772,40.13033],[-0.636177,40.10434],[-0.629998,40.08411],[-0.75531,40.05127],[-0.836335,39.98317],[-0.914269,39.96739],[-1.083698,40.07939],[-1.143265,40.11405],[-1.150131,40.11707],[-1.24094,40.12075],[-1.241284,40.14923],[-1.252098,40.15028],[-1.297417,40.21637],[-1.317158,40.21113],[-1.326428,40.18595],[-1.321621,40.14936],[-1.378441,40.14201],[-1.453285,40.1487],[-1.4592114007096528,40.14355918326351],[-1.452256,40.17835],[-1.54564,40.18832],[-1.728287,40.27376],[-1.818238,40.40252],[-1.689149,40.6004],[-1.592332,40.58267],[-1.569672,40.73685],[-1.639024,40.89483],[-1.624604,40.92389],[-1.872483,41.10523],[-1.935654,41.13264],[-2.057877,41.14143],[-2.154694,41.17969],[-2.167397,41.27729],[-2.17907,41.28735],[-2.16671,41.35568],[-2.128945,41.37887],[-2.121048,41.435],[-2.104569,41.45045],[-2.032814,41.43681],[-2.026291,41.39149],[-1.958657,41.4139],[-1.986809,41.48621],[-2.000542,41.58746],[-1.992989,41.61416],[-1.929474,41.6044],[-1.899262,41.64059],[-1.86184,41.66445],[-1.788369,41.72136],[-1.816178,41.73622],[-1.858063,41.78923],[-1.83815,41.82225],[-1.846733,41.88797],[-1.863213,41.91173],[-1.8670613251186203,41.95418611757079],[-1.848965,41.96574],[-1.8363603957625172,41.991927820422625],[-1.791802,41.98578],[-1.712494,41.9526],[-1.685543,41.95119],[-1.655846,41.95898],[-1.595936,41.92412],[-1.565552,41.91199],[-1.51783,41.90611],[-1.491738,41.9185],[-1.442127,41.91084],[-1.414318,41.91109],[-1.402645,41.92476],[-1.39801,41.93498],[-1.379128,41.94238],[-1.349774,41.99548],[-1.295014,42.04305],[-1.305657,42.07758],[-1.344795,42.07618],[-1.360588,42.11007],[-1.390286,42.1298],[-1.384106,42.19279],[-1.407623,42.20767],[-1.391144,42.24784],[-1.381359,42.29369],[-1.320934,42.35296],[-1.336384,42.42282],[-1.273899,42.46475],[-1.267891,42.49729],[-1.264115,42.55321],[-1.225834,42.53904],[-1.198197,42.54891],[-1.199398,42.57495],[-1.155281,42.5972],[-1.15202,42.6183],[-1.149101,42.64393],[-1.054859,42.63964],[-1.030483,42.64469],[-1.022072,42.69177],[-0.940533,42.70502],[-0.853157,42.76667],[-0.840969,42.78709],[-0.842686,42.84186],[-0.804749,42.87282],[-0.807324,42.90011],[-0.777626,42.91809],[-0.719401,42.91451],[-0.716515,42.9201],[-0.727673,42.89848]]],[[[-0.716608,42.92025],[-0.716515,42.9201],[-0.7166108671016123,42.92025052492145],[-0.716608,42.92025]]]]}}
