{"type":"Feature","properties":{"sourceId":"asturias"},"geometry":{"type":"Polygon","coordinates":[[[-4.86763,43.21068],[-4.898186,43.2342],[-4.934922,43.22044],[-4.997063,43.16988],[-5.050965,43.17213],[-5.067788,43.17113],[-5.091133,43.10048],[-5.211983,43.08243],[-5.280304,43.0739],[-5.328369,43.07691],[-5.37489,43.08544],[-5.386391,43.04669],[-5.493851,43.01871],[-5.537453,43.0162],[-5.569039,43.01996],[-5.641136,43.03477],[-5.68903,43.05371],[-5.722847,43.03841],[-5.752373,42.96773],[-5.801983,42.96044],[-5.842667,42.96333],[-5.893479,42.97514],[-5.959397,43.01481],[-5.989781,43.05622],[-6.089688,43.02912],[-6.132431,43.0172],[-6.227188,43.0049],[-6.262207,43.0118],[-6.330528,43.02975],[-6.354046,43.04543],[-6.40297,42.99812],[-6.427345,42.93858],[-6.488629,42.91721],[-6.508713,42.92425],[-6.541157,42.90879],[-6.590595,42.91419],[-6.710758,42.91218],[-6.721916,42.91394],[-6.754017,42.881],[-6.772728,42.87886],[-6.838131,42.91558],[-6.844998,42.92777],[-6.839676,42.95692],[-6.867829,42.98104],[-6.911431,42.98694],[-6.943875,43.01017],[-6.949711,43.02649],[-6.958122,43.0246],[-6.953316,42.99586],[-6.959667,42.98732],[-6.975117,42.99109],[-6.999493,43.01745],[-6.999664,43.02749],[-6.984215,43.04292],[-6.970825,43.05961],[-6.940613,43.08895],[-6.867829,43.10224],[-6.828346,43.14208],[-6.841736,43.15924],[-6.870918,43.17777],[-6.878472,43.15723],[-6.914349,43.13895],[-6.947136,43.1283],[-6.971856,43.13857],[-6.983872,43.16838],[-6.971512,43.20242],[-6.987219,43.2013],[-6.99357,43.20699],[-7.002926,43.20655],[-7.007732,43.21375],[-7.020092,43.21112],[-7.043867,43.22701],[-7.065325,43.24414],[-7.074337,43.26877],[-7.071591,43.28002],[-7.07365,43.3007],[-7.090645,43.29782],[-7.101803,43.30101],[-7.110128,43.31375],[-7.134247,43.33067],[-7.133045,43.36338],[-7.130642,43.37093],[-7.139225,43.38041],[-7.159996,43.37318],[-7.178707,43.38054],[-7.184115,43.3917],[-7.177849,43.41372],[-7.173901,43.43136],[-7.162228,43.4331],[-7.142143,43.43254],[-7.127037,43.42469],[-7.102404,43.44039],[-7.093477,43.45398],[-7.084551,43.46363],[-7.062149,43.47572],[-7.05348,43.47615],[-7.05142,43.50374],[-7.041979,43.52752],[-7.033568,43.53536],[-7.035112,43.54034],[-7.033138,43.54693],[-7.188576,44.01101],[-4.447664801898513,43.86547424856407],[-4.513321,43.39457],[-4.514351,43.38927],[-4.512463,43.38035],[-4.518106,43.37576],[-4.523363,43.36971],[-4.535036,43.36818],[-4.542933,43.3552],[-4.541988,43.34306],[-4.532376,43.33592],[-4.530316,43.32718],[-4.526882,43.2892],[-4.607735,43.30469],[-4.645672,43.27358],[-4.707642,43.26933],[-4.735966,43.25808],[-4.746609,43.19129],[-4.779053,43.19529],[-4.83141,43.18703],[-4.844460326987396,43.18183786010895],[-4.86763,43.21068]]]}}
