{"type":"Feature","properties":{"sourceId":"angola"},"geometry":{"type":"Polygon","coordinates":[[[10.53848,-5.553536],[11.761193332403495,-5.11672453661239],[11.82521,-5.195885],[12.79402,-4.465373],[13.058127389148623,-4.6848442443877865],[13.05365,-4.683192],[13.03146,-4.716211],[12.93675,-4.738793],[12.81778,-4.844509],[12.72766,-4.956194],[12.67324,-4.96389],[12.63805,-4.956194],[12.61574,-5.026651],[12.56664,-5.049906],[12.46948,-5.097954],[12.53986,-5.136082],[12.53197,-5.257461],[12.5378,-5.746149],[12.28889,-5.747515],[12.20821,-5.777917],[12.11103,-5.886676],[12.13898,-5.946201],[12.31433,-5.96566],[12.43584,-6.061354],[12.63016,-6.001947],[12.77985,-5.965753],[12.84851,-5.904969],[13.04541,-5.857499],[13.07236,-5.864842],[13.09467,-5.865354],[13.1163,-5.896774],[13.1539,-5.874575],[13.21707,-5.850498],[13.42907,-5.856474],[13.45207,-5.863476],[13.51833,-5.858182],[13.58786,-5.863988],[13.99984,-5.82437],[14.18163,-5.834787],[14.24566,-5.868428],[14.27982,-5.853401],[14.69078,-5.868769],[14.95171,-5.855108],[15.30052,-5.855108],[15.6871,-5.851692],[16.16569,-5.84896],[16.48979,-5.833249],[16.5921,-5.863988],[16.64229,-5.997018],[16.74385,-6.14465],[16.72943,-6.386271],[16.92375,-6.908703],[16.98006,-7.067503],[17.12082,-7.346803],[17.1936,-7.426474],[17.31308,-7.619122],[17.32578,-7.695681],[17.448,-7.82699],[17.5692,-8.103418],[17.86137,-8.072146],[18.06084,-8.080304],[18.09654,-8.024554],[18.21396,-7.961317],[18.35747,-7.997357],[18.50372,-7.971517],[18.51608,-7.90419],[18.78525,-7.909631],[18.80722,-7.990557],[19.31602,-7.987837],[19.36659,-7.696437],[19.36066,-7.564672],[19.4664,-7.557865],[19.4887,-7.450958],[19.46069,-7.161773],[19.54296,-6.988792],[20.27595,-6.982317],[20.31235,-6.900523],[20.65361,-6.90734],[20.56915,-7.273248],[21.80923,-7.273249],[21.88168,-7.451326],[21.85764,-7.606531],[21.7773,-7.997697],[21.89575,-8.159836],[21.9754,-8.447921],[21.83931,-9.404439],[21.893,-9.615644],[22.09047,-9.834281],[22.22312,-9.905592],[22.26054,-10.14649],[22.3638,-10.36965],[22.32681,-10.49512],[22.32662,-10.67174],[22.34585,-10.77227],[22.21787,-10.87167],[22.25525,-11.09058],[22.30944,-11.17583],[22.42404,-11.13407],[22.48085,-11.01004],[22.57316,-10.9895],[22.85787,-11.02375],[23.18981,-11.05581],[23.47667,-10.8994],[23.85087,-10.98397],[23.94994,-10.87488],[24.02695,-10.86235],[24.027217994622532,-10.86744302860711],[23.96667,-10.88051],[23.97903,-11.12316],[24.03394,-11.38937],[23.9241,-11.65493],[23.95843,-12.18567],[24.03946,-12.3789],[23.91449,-12.53445],[23.87947,-12.84728],[24.0374,-12.99318],[22.71629,-12.99251],[21.99188,-12.99251],[21.98982,-16.2094],[22.08097,-16.32492],[22.11204,-16.49469],[22.78908,-17.17294],[23.22578,-17.55305],[23.39776286990831,-17.630388774259988],[21.45149,-18.00551],[21.17019,-17.88414],[20.7827,-18.00159],[20.31338,-17.81587],[19.82122,-17.82927],[19.75771,-17.90214],[19.69128,-17.83499],[18.91784,-17.76756],[18.42476,-17.37685],[15.89052,-17.38906],[14.2115,-17.38865],[13.97941,-17.40175],[13.57594,-17.11199],[13.47948,-16.9697],[13.15386,-16.91682],[12.95503,-16.94539],[12.53892,-17.19332],[12.2692,-17.18556],[12.07538,-17.09701],[11.79148,-17.21324],[10.93824879630486,-17.21145859529989],[10.53848,-5.553536]]]}}
