{"type":"Feature","properties":{"sourceId":"alberta"},"geometry":{"type":"Polygon","coordinates":[[[-118.2553,52.44496],[-118.2517,52.45289],[-118.2373,52.45401],[-118.2108,52.47237],[-118.1977,52.47597],[-118.203,52.48551],[-118.2364,52.48456],[-118.2651,52.50231],[-118.2886,52.52457],[-118.2878,52.53387],[-118.2936,52.53857],[-118.2745,52.56277],[-118.2848,52.56848],[-118.3301,52.57503],[-118.3394,52.58519],[-118.3471,52.60433],[-118.3591,52.6135],[-118.3578,52.63606],[-118.3304,52.65371],[-118.3199,52.65955],[-118.303,52.68943],[-118.3468,52.70769],[-118.3438,52.72772],[-118.3384,52.73488],[-118.4163,52.76536],[-118.4215,52.77227],[-118.4261,52.7973],[-118.4061,52.83994],[-118.4398,52.84697],[-118.4547,52.85287],[-118.4674,52.86874],[-118.4551,52.88427],[-118.5108,52.90191],[-118.5223,52.8937],[-118.5767,52.88214],[-118.6019,52.87667],[-118.6175,52.87902],[-118.62,52.89932],[-118.6228,52.91071],[-118.6258,52.91677],[-118.6191,52.93503],[-118.6511,52.95009],[-118.6652,52.96162],[-118.6757,52.97734],[-118.6723,52.98582],[-118.6519,52.9946],[-118.6579,53.0121],[-118.6591,53.03211],[-118.6978,53.02908],[-118.7041,53.03324],[-118.705,53.04342],[-118.7569,53.04274],[-118.7612,53.03385],[-118.7807,53.04471],[-118.7808,53.05098],[-118.7728,53.07631],[-118.7544,53.0988],[-118.7341,53.11345],[-118.7841,53.13206],[-118.7926,53.14517],[-118.7879,53.15106],[-118.8144,53.16154],[-118.8305,53.16993],[-118.8632,53.18537],[-118.8784,53.20232],[-118.9214,53.20949],[-118.9271,53.21367],[-118.9273,53.22313],[-118.9584,53.23162],[-118.9836,53.23695],[-119.011,53.23039],[-119.022,53.22268],[-118.9975,53.21307],[-118.9903,53.20502],[-118.9926,53.19175],[-119.0034,53.1888],[-119.0252,53.16314],[-118.9968,53.14435],[-119.0265,53.12097],[-119.0506,53.12331],[-119.0521,53.14317],[-119.0949,53.1621],[-119.1237,53.15718],[-119.1414,53.17086],[-119.1501,53.18708],[-119.1919,53.18001],[-119.2361,53.17904],[-119.2621,53.17372],[-119.2639,53.17987],[-119.2852,53.22764],[-119.3456,53.28243],[-119.3632,53.31019],[-119.3531,53.31706],[-119.3543,53.32832],[-119.3927,53.35689],[-119.4101,53.36348],[-119.4409,53.35321],[-119.4414,53.34772],[-119.4481,53.346],[-119.4831,53.3598],[-119.5301,53.36103],[-119.5942,53.36719],[-119.6059,53.36025],[-119.6818,53.36729],[-119.7317,53.3863],[-119.7369,53.40387],[-119.7693,53.42741],[-119.797,53.47774],[-119.7873,53.48933],[-119.8165,53.49759],[-119.8372,53.51462],[-119.8481,53.50922],[-119.8537,53.50012],[-119.8653,53.49724],[-119.9034,53.51459],[-119.901,53.53724],[-119.8673,53.54895],[-119.9337,53.60667],[-119.9337,53.61099],[-119.9231,53.61722],[-119.9031,53.62301],[-119.8781,53.62125],[-119.8014,53.60573],[-119.7703,53.59298],[-119.7511,53.59369],[-119.7419,53.66139],[-119.8381,53.69154],[-119.9004,53.70536],[-119.9144,53.7095],[-119.9196,53.71887],[-119.9012,53.7291],[-119.907,53.73783],[-119.9493,53.77223],[-119.9835,53.78826],[-119.9907,53.80043],[-119.9971,53.80152],[-120.0008,53.7957],[-120.0043,53.79866],[-120.0035,60.00254],[-110.0042,60.00156],[-110.00419957926746,59.99983036682915],[-110.0069,59.99983],[-110.0058,49.13069],[-110.00513056182378,49.00466348162488],[-114.06002006547907,49.00669410238922],[-114.049,49.0233],[-114.0776,49.06448],[-114.1451,49.14515],[-114.159,49.15943],[-114.2089,49.17725],[-114.2218,49.19382],[-114.3923,49.26202],[-114.4679,49.34392],[-114.5215,49.38371],[-114.5757,49.3998],[-114.5881,49.45206],[-114.5668,49.56887],[-114.7161,49.5958],[-114.6554,49.64007],[-114.6224,49.73158],[-114.63,49.82337],[-114.6825,49.92249],[-114.6389,49.96226],[-114.654,50.07169],[-114.7179,50.19536],[-114.7515,50.3586],[-114.9101,50.47149],[-115.0172,50.59457],[-115.1477,50.58934],[-115.2095,50.55969],[-115.3156,50.73233],[-115.4364,50.76296],[-115.6153,50.86708],[-115.5518,50.89221],[-115.629,50.98761],[-115.6905,51.03384],[-115.7492,51.07549],[-115.9882,51.14209],[-116.0009,51.22538],[-116.1485,51.29885],[-116.269,51.35334],[-116.2824,51.46278],[-116.3782,51.55146],[-116.6679,51.82899],[-116.7401,51.85325],[-116.86212979876159,51.804899450592636],[-117.019,51.94696],[-117.1747,51.99926],[-117.3038,52.19246],[-117.6814,52.37979],[-117.9563,52.57309],[-118.24691826911867,52.40507227403913],[-118.2553,52.44496]]]}}
