{"type":"Feature","properties":{"sourceId":"alsace"},"geometry":{"type":"Polygon","coordinates":[[[7.135225,47.51131],[7.137919,47.52137],[7.133516,47.53426],[7.11855,47.54424],[7.104375,47.54963],[7.104887,47.56319],[7.098482,47.57011],[7.091807,47.57248],[7.082885,47.58515],[7.081196,47.5918],[7.064111,47.59761],[7.056499,47.59596],[7.042979,47.59773],[7.026239,47.58717],[7.018976,47.5863],[7.013701,47.59053],[7.01196,47.59579],[7.004042,47.60142],[7.005672,47.61166],[7.003612,47.61947],[7.005329,47.62925],[7.01005,47.63133],[7.010822,47.6396],[7.015715,47.65151],[7.032163,47.65329],[7.037109,47.68557],[7.023873,47.70045],[7.032829,47.71859],[7.031314,47.7237],[7.014143,47.73848],[6.97132,47.74915],[6.938246,47.76837],[6.925294,47.76702],[6.865699,47.78104],[6.847137,47.79958],[6.840645,47.81101],[6.838921,47.81992],[6.849493,47.82735],[6.892578,47.8361],[6.905681,47.84797],[6.915191,47.85002],[6.914354,47.85677],[6.904777,47.86326],[6.895865,47.88279],[6.89396,47.89123],[6.915171,47.90234],[6.923883,47.91023],[6.909612,47.91877],[6.920625,47.9297],[6.917063,47.94535],[6.940888,47.99978],[6.952134,48.00552],[7.001256,48.02555],[7.007791,48.04457],[7.030806,48.07728],[7.048393,48.08445],[7.069875,48.10978],[7.074914,48.11208],[7.079654,48.12424],[7.057265,48.1352],[7.057346,48.1463],[7.082915,48.18467],[7.113554,48.2138],[7.12489,48.22494],[7.131314,48.24916],[7.14601,48.26614],[7.157892,48.27757],[7.169654,48.28929],[7.170888,48.29904],[7.190724,48.30498],[7.18539,48.32114],[7.175317,48.32524],[7.178235,48.33814],[7.173514,48.33985],[7.145297,48.32948],[7.11896,48.33072],[7.110914,48.33327],[7.105753,48.3417],[7.074165,48.35102],[7.074067,48.3542],[7.103565,48.37888],[7.101714,48.38596],[7.086196,48.394],[7.082965,48.39849],[7.093988,48.41694],[7.094032,48.42883],[7.102756,48.44091],[7.099329,48.45198],[7.114229,48.4785],[7.110854,48.48333],[7.091681,48.48786],[7.088241,48.50671],[7.117596,48.50506],[7.105579,48.51524],[7.085216,48.51267],[7.080048,48.51002],[7.062227,48.52439],[7.072173,48.53555],[7.079761,48.5389],[7.115569,48.5398],[7.125159,48.5378],[7.138201,48.53016],[7.145269,48.53042],[7.15021,48.53483],[7.185277,48.54064],[7.192931,48.55226],[7.216372,48.55543],[7.254444,48.59063],[7.253973,48.60248],[7.271941,48.62381],[7.257791,48.63237],[7.275714,48.63694],[7.280864,48.6449],[7.290117,48.64886],[7.292175,48.65396],[7.288875,48.65764],[7.263303,48.66076],[7.253393,48.6711],[7.239891,48.69281],[7.246595,48.69777],[7.25737,48.69757],[7.260907,48.70017],[7.264081,48.71527],[7.271707,48.71885],[7.284945,48.73497],[7.293415,48.75457],[7.303949,48.76036],[7.306406,48.76532],[7.296228,48.7791],[7.288479,48.78404],[7.288164,48.79185],[7.285289,48.79484],[7.271106,48.79859],[7.260009,48.795],[7.25661,48.80046],[7.243597,48.80833],[7.240928,48.81593],[7.230614,48.82264],[7.226474,48.82286],[7.218998,48.81643],[7.209971,48.82364],[7.197182,48.82558],[7.185035,48.8314],[7.18463,48.83646],[7.188982,48.84147],[7.185337,48.84632],[7.180729,48.84525],[7.176662,48.83942],[7.149387,48.84057],[7.145556,48.83417],[7.149859,48.8208],[7.127879,48.81121],[7.128253,48.79946],[7.096358,48.7923],[7.077144,48.78337],[7.065533,48.79181],[7.064749,48.79936],[7.077206,48.80582],[7.077095,48.81123],[7.053845,48.81136],[7.044736,48.82009],[7.051366,48.83404],[7.048843,48.84514],[7.054621,48.85302],[7.04776,48.85842],[7.047789,48.86298],[7.025188,48.87622],[6.974662,48.88745],[6.953282,48.89189],[6.952847,48.89551],[6.960795,48.90644],[6.952368,48.91922],[6.938684,48.92265],[6.942103,48.93556],[6.947803,48.93736],[6.959752,48.92909],[6.967261,48.92972],[6.975756,48.94035],[6.983289,48.9482],[6.988537,48.96248],[7.024838,48.96057],[7.028051,48.98643],[7.031127,48.99501],[7.046147,49.00711],[7.045035,49.01511],[7.05039,49.02898],[7.074423,49.07533],[7.099657,49.07898],[7.113562,49.07387],[7.121286,49.0697],[7.109184,49.057],[7.12223,49.03517],[7.132606,49.00856],[7.175789,49.00781],[7.213726,48.98309],[7.239304,48.99033],[7.276909,48.9783],[7.292973,48.97625],[7.296508,48.97273],[7.296227,48.95998],[7.307418,48.95888],[7.312943,48.95254],[7.326002,48.94726],[7.334653,48.95112],[7.344136,48.95163],[7.358315,48.95947],[7.372481,48.9544],[7.38687,48.95432],[7.407414,48.9619],[7.451675,48.97052],[7.480302,48.96362],[7.525985,48.94704],[7.537943,48.93499],[7.566373,48.95638],[7.57551,48.95963],[7.577309,48.96983],[7.585825,48.99239],[7.603677,49.01021],[7.604756,49.02229],[7.632963,49.04592],[7.632046,49.05629],[7.636925,49.0641],[7.641334,49.05576],[7.696609,49.05992],[7.762356,49.05452],[7.794199,49.06746],[7.812567,49.06189],[7.863636,49.03967],[7.88784,49.05058],[7.933797,49.05955],[7.946634,49.05604],[7.95114,49.04769],[7.967405,49.04338],[7.979164,49.02982],[7.999206,49.02937],[8.049717,49.01536],[8.064694,49.00635],[8.071046,48.99776],[8.12366,48.98712],[8.135805,48.98154],[8.138165,48.97993],[8.169966,48.97968],[8.184986,48.97879],[8.196405,48.97762],[8.226226,48.97706],[8.23179788823489,48.97011850919108],[8.226564,48.96707],[8.193647,48.96021],[8.16585,48.9289],[8.130868,48.8969],[8.112246,48.86152],[8.100241,48.82308],[8.064676,48.79379],[8.043024,48.7956],[8.020692,48.78879],[8.017443,48.77024],[8.007903,48.76299],[7.989349,48.76497],[7.971347,48.76372],[7.958545,48.75525],[7.958799,48.72833],[7.949946,48.72091],[7.956218,48.71822],[7.96780910046129,48.7143024172354],[7.966976,48.71237],[7.907307,48.6582],[7.860343,48.64026],[7.805786,48.57558],[7.813511,48.52479],[7.808018,48.50762],[7.783813,48.48601],[7.780554,48.47652],[7.746219,48.38795],[7.752914,48.32179],[7.730419,48.30298],[7.699444,48.23911],[7.609234,48.15406],[7.602402,48.13405],[7.581696,48.11462],[7.595516,48.09649],[7.575647,48.03242],[7.616648,47.99853],[7.628959,47.97058],[7.584643,47.89773],[7.567523,47.84391],[7.533792,47.77697],[7.55191,47.74231],[7.554834,47.72587],[7.522382,47.70202],[7.522266,47.67038],[7.568069,47.63648],[7.599707,47.60269],[7.586918,47.57479],[7.568657,47.57537],[7.559186,47.5645],[7.537093,47.55492],[7.518425,47.54467],[7.499885,47.53772],[7.503405,47.5307],[7.525206,47.53743],[7.533359,47.52856],[7.52409,47.51361],[7.51276,47.5099],[7.512245,47.49633],[7.490101,47.48136],[7.458,47.46802],[7.399463,47.42727],[7.324276,47.43761],[7.244453,47.41798],[7.166175,47.44156],[7.180611,47.48424],[7.127697,47.49436],[7.127553,47.50216],[7.135225,47.51131]]]}}
