{"type":"Feature","properties":{"sourceId":"andalucia"},"geometry":{"type":"MultiPolygon","coordinates":[[[[-7.399232,36.96599],[-7.409518,37.18382],[-7.417832,37.21283],[-7.418941,37.2344],[-7.43772,37.24786],[-7.437916,37.24932],[-7.437966,37.24958],[-7.429025,37.27275],[-7.444954,37.31202],[-7.447286,37.34549],[-7.440834,37.35733],[-7.442216,37.39151],[-7.463837,37.40671],[-7.464352,37.41421],[-7.452679,37.41898],[-7.458467,37.42509],[-7.470703,37.46886],[-7.47242,37.4814],[-7.467957,37.48862],[-7.477055,37.49284],[-7.484951,37.4957],[-7.492704,37.50539],[-7.492083,37.51954],[-7.511516,37.52181],[-7.52466,37.55333],[-7.517567,37.56921],[-7.515164,37.57384],[-7.505036,37.57955],[-7.503662,37.58839],[-7.499371,37.59302],[-7.505928,37.60388],[-7.490273,37.60662],[-7.487354,37.61314],[-7.484093,37.61777],[-7.48478,37.62538],[-7.473793,37.62715],[-7.471905,37.63598],[-7.466412,37.64251],[-7.46933,37.64985],[-7.46109,37.65325],[-7.458483,37.66085],[-7.450104,37.69795],[-7.422466,37.75999],[-7.329254,37.81792],[-7.298699,37.85778],[-7.284279,37.89883],[-7.263336,37.92511],[-7.256813,37.93865],[-7.254067,37.96369],[-7.26574,37.9802],[-7.245655,37.99305],[-7.226944,37.99319],[-7.203255,38.00469],[-7.18523,38.00374],[-7.166691,37.99738],[-7.146435,38.00455],[-7.126866,38.00469],[-7.13356,38.02227],[-7.13047,38.03011],[-7.119484,38.03511],[-7.099571,38.04688],[-7.077599,38.03579],[-7.067127,38.03498],[-7.056828,38.02037],[-7.023697,38.02605],[-7.007904,38.02403],[-7.005329,38.04431],[-7.000523,38.05052],[-6.991596,38.10377],[-6.965847,38.13361],[-6.961041,38.13604],[-6.962757,38.14023],[-6.960697,38.15224],[-6.97237,38.15994],[-6.97031,38.16965],[-6.941072,38.20297],[-6.950563,38.19215],[-6.93203,38.19974],[-6.845341,38.1733],[-6.800881,38.17087],[-6.820107,38.11727],[-6.810494,38.10633],[-6.759339,38.08607],[-6.647072,38.08499],[-6.587334,38.0512],[-6.593685,38.01672],[-6.526566,38.01767],[-6.460819,37.99576],[-6.436615,38.05147],[-6.370526,38.04187],[-6.362801,38.01077],[-6.319542,37.97749],[-6.227703,37.94785],[-6.178951,37.93851],[-6.16024,37.95354],[-6.053124,37.98886],[-5.947724,37.98872],[-5.902405,38.06269],[-5.865498,38.15251],[-5.791168,38.1733],[-5.725422,38.18639],[-5.703449,38.15143],[-5.742417,38.13496],[-5.745163,38.12645],[-5.73967,38.0835],[-5.701904,38.07688],[-5.660534,38.09971],[-5.631867,38.13172],[-5.580197,38.12862],[-5.532131,38.16426],[-5.515824,38.21081],[-5.519772,38.26487],[-5.552559,38.32025],[-5.562344,38.32361],[-5.552044,38.37248],[-5.575047,38.40639],[-5.548439,38.44297],[-5.479431,38.46044],[-5.404759,38.5205],[-5.377979,38.54011],[-5.361672,38.58078],[-5.304508,38.56991],[-5.23962,38.63283],[-5.179196,38.6587],[-5.162029,38.67868],[-5.173359,38.71056],[-5.092335,38.7048],[-5.051252957496672,38.72213803905719],[-5.050278,38.719],[-5.006333,38.6898],[-4.937668,38.67693],[-4.877587,38.68069],[-4.869004,38.60909],[-4.811669,38.58924],[-4.674683,38.5385],[-4.590226,38.47832],[-4.451523,38.3963],[-4.283638,38.33681],[-4.261322,38.34543],[-4.259606,38.39603],[-4.155236,38.37638],[-3.981171,38.36239],[-3.842469,38.36858],[-3.813286,38.41244],[-3.735695,38.40975],[-3.615189,38.38957],[-3.5812,38.40033],[-3.46653,38.39469],[-3.422585,38.4041],[-3.36628,38.44122],[-3.124237,38.43369],[-3.066903,38.46784],[-3.003044,38.39469],[-2.992401,38.4076],[-2.964936,38.4552],[-2.876015,38.44848],[-2.748642,38.51943],[-2.703667,38.49632],[-2.672425,38.49444],[-2.616034,38.51103],[-2.594147,38.50855],[-2.576466,38.49068],[-2.579899,38.47375],[-2.580242,38.42428],[-2.573719,38.41016],[-2.5593,38.40195],[-2.494755,38.38997],[-2.495442,38.37154],[-2.487889,38.296],[-2.445316,38.27997],[-2.456989,38.2193],[-2.470036,38.17303],[-2.515526,38.12767],[-2.555695,38.08823],[-2.551575,38.08039],[-2.530289,38.06837],[-2.479992,38.04917],[-2.42506,38.03011],[-2.368756,38.0201],[-2.344652889664258,38.02188176628951],[-2.285671,37.96518],[-2.256832,37.93851],[-2.176838,37.88623],[-2.10474,37.87363],[-1.998482,37.859],[-2.009812,37.77465],[-2.015991,37.70243],[-2.014446,37.67947],[-2.01067,37.66385],[-1.982517,37.62402],[-1.95591,37.58431],[-1.877461,37.4942],[-1.848107,37.45442],[-1.808109,37.43125],[-1.78133,37.4457],[-1.738007,37.44239],[-1.709576,37.42178],[-1.670523,37.40119],[-1.630611,37.37466],[-1.367799,37.11215],[-1.342568316402307,37.11773783073007],[-2.845464,35.71976],[-3.175054,35.70638],[-5.163577,36.02689],[-5.646974,35.92465],[-5.817413,35.92465],[-6.19639,35.94341],[-7.399232,36.96599]]],[[[-6.943363,38.20489],[-6.943360879949375,38.204891343642906],[-6.941072,38.20297],[-6.943363,38.20489]]]]}}
