{"type":"Feature","properties":{"sourceId":"azerbaijan"},"geometry":{"type":"MultiPolygon","coordinates":[[[[45.61074,38.94378],[45.60701,38.95328],[45.60022,38.95883],[45.5449,38.96279],[45.43213,38.99249],[45.38383,39.0917],[45.13257,39.21705],[45.13366,39.25863],[45.07862,39.33018],[45.07896,39.35474],[45.05434,39.36018],[44.9588,39.41706],[44.80465,39.61865],[44.75729055223111,39.7057691746648],[44.89009,39.73517],[44.90333,39.71902],[44.94633,39.71726],[45.01277,39.74244],[45.05651,39.78154],[45.07574,39.77715],[45.11167,39.75311],[45.16933,39.6783],[45.16687,39.58452],[45.21132,39.57209],[45.24407,39.6009],[45.29271,39.6032],[45.29281,39.57526],[45.33866,39.53225],[45.4268,39.51495],[45.47034,39.48122],[45.58428,39.55864],[45.62566,39.55379],[45.69723,39.5922],[45.77006,39.57533],[45.79506,39.5584],[45.81263,39.50532],[45.80478,39.4805],[45.82453,39.46254],[45.79582,39.43337],[45.78462,39.3639],[45.85924,39.34642],[45.99145,39.28107],[45.97729,39.23867],[45.995,39.14451],[46.01369,39.1324],[46.0123,39.10077],[46.06036,39.06864],[46.06901,39.0241],[46.08994,39.01184],[46.1013,38.94829],[46.14275,38.89384],[46.13837,38.84158],[46.1516022933297,38.84033534865552],[46.15067,38.83258],[45.81947,38.88307],[45.65634,38.9448],[45.61074,38.94378]]],[[[48.79423,38.44808],[48.73398,38.40155],[48.6454,38.3854],[48.3108,38.60164],[48.00978,38.83173],[48.00699,38.90787],[48.07219,38.95932],[48.30826,39.00024],[48.22792,39.12633],[48.12904,39.2163],[48.12424,39.27824],[48.20183,39.32779],[48.31418,39.36244],[48.34465,39.37199],[48.35997,39.37183],[48.36727,39.38113],[48.35455,39.39217],[48.34357,39.41028],[48.00373,39.69926],[47.91644,39.65734],[47.8791,39.66095],[47.76581,39.61098],[47.56222,39.50828],[47.39742,39.45078],[47.34833,39.40331],[47.31846,39.36801],[47.22301,39.31889],[47.13633,39.28383],[47.06783,39.23491],[47.06526,39.20313],[47.02131,39.16467],[46.96149,39.13838],[46.86653,39.13486],[46.77103,39.05549],[46.76188,39.02537],[46.70292,38.99781],[46.60602,38.90441],[46.53431,38.86283],[46.53304590411515,38.866243506428674],[46.53508,38.86517],[46.54622,38.90968],[46.51753,38.95181],[46.53071,38.98415],[46.5489,38.99864],[46.54697,39.03521],[46.55748,39.05812],[46.54359,39.07304],[46.53737,39.10183],[46.51488,39.11302],[46.50304,39.15728],[46.47016,39.1586],[46.44779,39.16321],[46.43629,39.1877],[46.46135,39.19594],[46.49843,39.17984],[46.51354,39.18903],[46.53757,39.15629],[46.595,39.19565],[46.58461,39.21403],[46.62516,39.21436],[46.64262,39.23369],[46.55473,39.26756],[46.53763,39.29194],[46.54607,39.31366],[46.51758,39.34405],[46.49311,39.34651],[46.4732,39.33496],[46.42286,39.3707],[46.39888,39.42146],[46.41076,39.44426],[46.45696,39.43829],[46.49002,39.48165],[46.53958,39.45943],[46.54581,39.47344],[46.50547,39.51649],[46.55487,39.53402],[46.59272,39.52023],[46.58478,39.55277],[46.56598,39.57467],[46.54508,39.57427],[46.52676,39.58151],[46.52229,39.58519],[46.48659,39.58863],[46.42895,39.58393],[46.41925,39.6379],[46.38479,39.62447],[46.37295,39.63927],[46.33862,39.64033],[46.25519,39.60688],[46.24866,39.60238],[46.18412,39.60357],[46.17571,39.63518],[46.15683,39.65276],[46.10189,39.69028],[46.06945,39.68685],[46.07599,39.7075],[45.97675,39.79337],[45.93641,39.79126],[45.83579,39.83627],[45.80749,39.88748],[45.79342,39.90276],[45.80732,39.91711],[45.80132,39.93607],[45.7881,39.94831],[45.73299,39.95028],[45.70639,39.96646],[45.67549,39.97712],[45.6209,39.97699],[45.60373,40.00277],[45.6245,40.01789],[45.68236,40.02274],[45.7411,40.02002],[45.7905,40.02249],[45.82964,39.98896],[45.83874,39.98843],[45.8535,40.01184],[45.88165,40.0196],[45.91478,40.0698],[45.90843,40.09987],[45.96213,40.11839],[45.98314,40.21989],[45.96165,40.2342],[45.95678,40.24845],[45.96667,40.28223],[45.9349,40.30569],[45.89104,40.30379],[45.74054,40.36354],[45.65767,40.3782],[45.60128,40.43462],[45.53397,40.45399],[45.44839,40.52599],[45.46969,40.58289],[45.40178,40.6164],[45.40696,40.63378],[45.37676,40.65786],[45.38774,40.68574],[45.40649,40.69821],[45.41208,40.71972],[45.41765,40.73022],[45.42624,40.73646],[45.55133,40.76671],[45.61767,40.85009],[45.60641,40.89138],[45.4885,40.93394],[45.45829,40.97757],[45.42756,40.97438],[45.42308,40.9879],[45.44797,41.00627],[45.44739,41.02236],[45.39683,41.0334],[45.35583,41.00821],[45.32028,41.01194],[45.28822,41.04169],[45.26693,41.03133],[45.2532,41.01656],[45.2417,41.01812],[45.23415,41.02213],[45.21767,41.04117],[45.17483,41.06128],[45.17153,41.08763],[45.12909,41.09708],[45.12136,41.06913],[45.09407,41.06499],[45.07742,41.05903],[45.07845,41.06874],[45.08223,41.08349],[45.08703,41.10109],[45.09699,41.10988],[45.14231,41.11092],[45.18177,41.11129],[45.21035,41.13226],[45.21101,41.16461],[45.16033,41.18331],[45.12842,41.2178],[45.0951,41.197],[45.06454,41.19571],[45.04806,41.21224],[45.07202,41.24968],[45.025080186963976,41.29346270342712],[45.04628,41.30689],[45.05991,41.32245],[45.07549,41.32526],[45.0801,41.33903],[45.09606,41.33702],[45.17957,41.41613],[45.19833,41.41273],[45.2348,41.43184],[45.25165,41.44368],[45.36076,41.45016],[45.38344,41.42749],[45.39238,41.42348],[45.42891,41.42664],[45.51365,41.41783],[45.56352,41.40214],[45.57491,41.38884],[45.57311,41.37546],[45.5766,41.37218],[45.59975,41.36994],[45.68104,41.3518],[45.70132,41.35199],[45.71259,41.35656],[45.73689,41.3527],[45.73849,41.34642],[45.6973,41.29635],[45.73945,41.25523],[45.80422,41.21869],[45.95433,41.17404],[46.07821,41.17166],[46.09772,41.16823],[46.11321,41.1766],[46.16119,41.19708],[46.1796,41.19042],[46.24912,41.17966],[46.28998,41.17033],[46.36303,41.11879],[46.36777,41.10217],[46.3925,41.09725],[46.42749,41.10062],[46.45539,41.09359],[46.4673,41.06237],[46.48975,41.05117],[46.50241,41.05475],[46.61257,41.09353],[46.65286,41.10885],[46.66395,41.13059],[46.67309,41.18691],[46.7004,41.23448],[46.71924,41.27318],[46.72996,41.27374],[46.73959,41.28586],[46.72945,41.29435],[46.70591,41.33088],[46.66521,41.35585],[46.66573,41.37151],[46.64505,41.38023],[46.63436,41.39403],[46.57937,41.40291],[46.56821,41.40997],[46.54775,41.4111],[46.49432,41.42509],[46.45232,41.45902],[46.44606,41.46481],[46.44497,41.46518],[46.43744,41.46607],[46.42941,41.47565],[46.41183,41.48448],[46.35622,41.5077],[46.33905,41.52683],[46.3328,41.53966],[46.33778,41.56281],[46.34923,41.56925],[46.34552,41.59368],[46.33015,41.60262],[46.32535,41.61245],[46.30564,41.61503],[46.27948,41.62536],[46.26421,41.63709],[46.21143,41.66334],[46.18775,41.73654],[46.2023,41.74782],[46.20682,41.76217],[46.23745,41.75368],[46.30298,41.77208],[46.31111,41.78691],[46.40277,41.84321],[46.40797,41.85682],[46.41916,41.86975],[46.41529,41.89022],[46.42864,41.91464],[46.418660807777705,41.92084006164336],[46.41975,41.92271],[46.54702,41.88584],[46.58282,41.81742],[46.6482,41.8499],[46.75873,41.86845],[47.11555,41.60004],[47.61647,41.24174],[47.8082,41.23139],[48.06777,41.50884],[48.17999,41.5209],[48.25938,41.56051],[48.37769,41.61524],[48.40157,41.66575],[48.52402,41.76519],[48.57779,41.8547],[50.41625,42.67437],[51.7231,38.24727],[48.87292,38.43972],[48.79423,38.44808]]]]}}
