{"type":"Feature","properties":{"sourceId":"armenia"},"geometry":{"type":"Polygon","coordinates":[[[46.49466,38.88796],[46.48659,38.88449],[46.46444,38.88743],[46.45843,38.89217],[46.44788,38.89658],[46.4205,38.88128],[46.40376,38.89491],[46.3823,38.90499],[46.36256,38.91],[46.34068,38.91568],[46.33613,38.90913],[46.31879,38.90045],[46.28283,38.89865],[46.26566,38.88482],[46.24652,38.87212],[46.2188,38.8635],[46.21519,38.85408],[46.19468,38.84987],[46.18249,38.83743],[46.13837,38.84158],[46.14275,38.89384],[46.1013,38.94829],[46.08994,39.01184],[46.06901,39.0241],[46.06036,39.06864],[46.0123,39.10077],[46.01369,39.1324],[45.995,39.14451],[45.97729,39.23867],[45.99145,39.28107],[45.85924,39.34642],[45.78462,39.3639],[45.79582,39.43337],[45.82453,39.46254],[45.80478,39.4805],[45.81263,39.50532],[45.79506,39.5584],[45.77006,39.57533],[45.69723,39.5922],[45.62566,39.55379],[45.58428,39.55864],[45.47034,39.48122],[45.4268,39.51495],[45.33866,39.53225],[45.29281,39.57526],[45.29271,39.6032],[45.24407,39.6009],[45.21132,39.57209],[45.16687,39.58452],[45.16933,39.6783],[45.11167,39.75311],[45.07574,39.77715],[45.05651,39.78154],[45.01277,39.74244],[44.94633,39.71726],[44.90333,39.71902],[44.89009,39.73517],[44.75079,39.70433],[44.70219,39.76059],[44.61136,39.81322],[44.60278,39.82027],[44.59162,39.82436],[44.58578,39.83471],[44.59024,39.85573],[44.57007,39.86416],[44.5596,39.86798],[44.54033,39.89915],[44.4769,39.95681],[44.34667,40.01709],[44.25082,40.03853],[44.21396,40.03235],[44.19568,40.03714],[44.18418,40.02571],[44.16967,40.02518],[44.14221,40.03103],[44.13405,40.02683],[44.10316,40.02952],[43.95784,40.01447],[43.89733,40.01795],[43.82326,40.04707],[43.79425,40.06809],[43.77863,40.0694],[43.76163,40.0803],[43.72559,40.06876],[43.67563,40.09291],[43.65486,40.11143],[43.64422,40.13243],[43.6504,40.14634],[43.66018,40.15526],[43.67203,40.15841],[43.70327,40.16877],[43.66319,40.213],[43.6613,40.21339],[43.66104,40.21451],[43.66224,40.21559],[43.66327,40.21634],[43.66168,40.21752],[43.65812,40.21893],[43.6492,40.22516],[43.66841,40.23943],[43.66745,40.25424],[43.63385,40.26568],[43.5815,40.34211],[43.60512,40.42158],[43.54016,40.46023],[43.53239,40.47706],[43.57178,40.51067],[43.61752,40.53462],[43.63621,40.56845],[43.68507,40.60144],[43.71737,40.66912],[43.73932,40.68116],[43.72902,40.71292],[43.74069,40.73217],[43.69828,40.81452],[43.66767,40.84452],[43.66257,40.9296],[43.59013,40.97578],[43.4763,41.00982],[43.43821,41.09013],[43.45089,41.12564],[43.5666,41.15504],[43.60518,41.14024],[43.68468,41.1438],[43.74938,41.12181],[43.84141,41.1709],[43.93627,41.18575],[43.96264,41.176],[44.0858,41.21221],[44.10599,41.19416],[44.15817,41.19519],[44.17986,41.25689],[44.31387,41.21624],[44.32554,41.20862],[44.33859,41.20694],[44.3359,41.23051],[44.35834,41.24113],[44.47059,41.19224],[44.50212,41.20314],[44.53135,41.23576],[44.5557,41.22873],[44.55372,41.21233],[44.5949,41.22189],[44.60932,41.25026],[44.69008,41.25003],[44.69313,41.22937],[44.72966,41.23456],[44.7387,41.22379],[44.79478,41.23115],[44.80611,41.22444],[44.81486,41.21805],[44.828,41.21534],[44.83778,41.2165],[44.84241,41.21721],[44.87349,41.20998],[44.86653,41.2176],[44.86258,41.22283],[44.85709,41.22412],[44.85083,41.22793],[44.84087,41.22902],[44.83553,41.22898],[44.83189,41.22909],[44.8294,41.22904],[44.82763,41.22923],[44.82038,41.23215],[44.81297,41.23819],[44.81021,41.24545],[44.80737,41.24869],[44.80336,41.25252],[44.80165,41.26458],[44.79826,41.29306],[44.8215,41.31029],[44.83769,41.29625],[44.85913,41.28568],[44.93885,41.26817],[45.01121,41.3064],[45.07202,41.24968],[45.04806,41.21224],[45.06454,41.19571],[45.0951,41.197],[45.12842,41.2178],[45.16033,41.18331],[45.21101,41.16461],[45.21035,41.13226],[45.18177,41.11129],[45.14231,41.11092],[45.09699,41.10988],[45.08703,41.10109],[45.08223,41.08349],[45.07845,41.06874],[45.07742,41.05903],[45.09407,41.06499],[45.12136,41.06913],[45.12909,41.09708],[45.17153,41.08763],[45.17483,41.06128],[45.21767,41.04117],[45.23415,41.02213],[45.2417,41.01812],[45.2532,41.01656],[45.26693,41.03133],[45.28822,41.04169],[45.32028,41.01194],[45.35583,41.00821],[45.39683,41.0334],[45.44739,41.02236],[45.44797,41.00627],[45.42308,40.9879],[45.42756,40.97438],[45.45829,40.97757],[45.4885,40.93394],[45.60641,40.89138],[45.61767,40.85009],[45.55133,40.76671],[45.42624,40.73646],[45.41765,40.73022],[45.41208,40.71972],[45.40649,40.69821],[45.38774,40.68574],[45.37676,40.65786],[45.40696,40.63378],[45.40178,40.6164],[45.46969,40.58289],[45.44839,40.52599],[45.53397,40.45399],[45.60128,40.43462],[45.65767,40.3782],[45.74054,40.36354],[45.89104,40.30379],[45.9349,40.30569],[45.96667,40.28223],[45.95678,40.24845],[45.96165,40.2342],[45.98314,40.21989],[45.96213,40.11839],[45.90843,40.09987],[45.91478,40.0698],[45.88165,40.0196],[45.8535,40.01184],[45.83874,39.98843],[45.82964,39.98896],[45.7905,40.02249],[45.7411,40.02002],[45.68236,40.02274],[45.6245,40.01789],[45.60373,40.00277],[45.6209,39.97699],[45.67549,39.97712],[45.70639,39.96646],[45.73299,39.95028],[45.7881,39.94831],[45.80132,39.93607],[45.80732,39.91711],[45.79342,39.90276],[45.80749,39.88748],[45.83579,39.83627],[45.93641,39.79126],[45.97675,39.79337],[46.07599,39.7075],[46.06945,39.68685],[46.10189,39.69028],[46.15683,39.65276],[46.17571,39.63518],[46.18412,39.60357],[46.24866,39.60238],[46.25519,39.60688],[46.33862,39.64033],[46.37295,39.63927],[46.38479,39.62447],[46.41925,39.6379],[46.42895,39.58393],[46.48659,39.58863],[46.52229,39.58519],[46.52676,39.58151],[46.54508,39.57427],[46.56598,39.57467],[46.58478,39.55277],[46.59272,39.52023],[46.55487,39.53402],[46.50547,39.51649],[46.54581,39.47344],[46.53958,39.45943],[46.49002,39.48165],[46.45696,39.43829],[46.41076,39.44426],[46.39888,39.42146],[46.42286,39.3707],[46.4732,39.33496],[46.49311,39.34651],[46.51758,39.34405],[46.54607,39.31366],[46.53763,39.29194],[46.55473,39.26756],[46.64262,39.23369],[46.62516,39.21436],[46.58461,39.21403],[46.595,39.19565],[46.53757,39.15629],[46.51354,39.18903],[46.49843,39.17984],[46.46135,39.19594],[46.43629,39.1877],[46.44779,39.16321],[46.47016,39.1586],[46.50304,39.15728],[46.51488,39.11302],[46.53737,39.10183],[46.54359,39.07304],[46.55748,39.05812],[46.54697,39.03521],[46.5489,38.99864],[46.53071,38.98415],[46.51753,38.95181],[46.54622,38.90968],[46.53508,38.86517],[46.52229,38.87192],[46.51977,38.88719],[46.50564,38.88402],[46.49466,38.88796]]]}}
