{"type":"Feature","properties":{"sourceId":"anhui"},"geometry":{"type":"Polygon","coordinates":[[[114.872,32.99945],[114.8871,33.02407],[114.9163,33.02882],[114.8983,33.07558],[114.8833,33.08421],[114.8847,33.13396],[114.9251,33.15854],[114.9669,33.15236],[115.0002,33.1042],[115.1475,33.08694],[115.1625,33.11369],[115.2392,33.14028],[115.2885,33.14862],[115.2818,33.20192],[115.3104,33.22978],[115.33,33.26797],[115.3235,33.30127],[115.3455,33.31188],[115.3467,33.33354],[115.3249,33.36408],[115.3079,33.36308],[115.3036,33.39906],[115.3073,33.42815],[115.3077,33.45579],[115.3352,33.46496],[115.3369,33.50605],[115.3602,33.52694],[115.3923,33.51735],[115.4033,33.55828],[115.4527,33.57458],[115.4991,33.57001],[115.6294,33.58988],[115.5848,33.66678],[115.5887,33.7252],[115.5523,33.77173],[115.5585,33.786],[115.5755,33.79527],[115.603,33.78985],[115.6098,33.87099],[115.5863,33.86386],[115.5424,33.86742],[115.5331,33.88823],[115.5751,34.00215],[115.5968,34.03787],[115.6392,34.04071],[115.644,34.06717],[115.6919,34.07115],[115.7312,34.08565],[115.7602,34.06759],[115.7779,34.07428],[115.8103,34.06717],[115.8239,34.04939],[115.8628,34.01752],[115.8697,34.03004],[115.8829,34.0346],[115.901,34.03019],[115.9044,34.01183],[115.9533,34.01553],[115.9736,34.00087],[116.0036,33.96742],[115.9868,33.91145],[116.0062,33.90504],[116.02,33.89],[116.0433,33.8764],[116.0568,33.86429],[116.065,33.835],[116.0743,33.78742],[116.0977,33.786],[116.1033,33.76573],[116.1349,33.75189],[116.1608,33.71706],[116.1921,33.73119],[116.2326,33.74989],[116.3378,33.78685],[116.3809,33.78985],[116.3998,33.80939],[116.407,33.80711],[116.4144,33.80254],[116.4244,33.80611],[116.4266,33.82223],[116.4278,33.84647],[116.4642,33.86942],[116.5086,33.88168],[116.5455,33.89322],[116.5565,33.91516],[116.5782,33.9153],[116.6079,33.89635],[116.6307,33.89806],[116.6314,33.91601],[116.6319,33.97298],[116.5876,34.0097],[116.5651,34.06859],[116.5182,34.10498],[116.5239,34.14818],[116.5488,34.17971],[116.5287,34.21592],[116.5358,34.24445],[116.5709,34.27254],[116.4983,34.29254],[116.4769,34.26842],[116.3559,34.26488],[116.3452,34.3175],[116.2913,34.3321],[116.2573,34.37178],[116.1995,34.3766],[116.19,34.395],[116.1885,34.4205],[116.1756,34.42135],[116.1493,34.44953],[116.1557,34.47274],[116.1863,34.51858],[116.1875,34.5798],[116.1979,34.58432],[116.2194,34.5774],[116.2338,34.55789],[116.2738,34.6082],[116.2939,34.61117],[116.3155,34.60566],[116.3171,34.62558],[116.3377,34.6277],[116.3595,34.63264],[116.3916,34.65016],[116.4165,34.65496],[116.4288,34.65496],[116.4542,34.626],[116.4865,34.61032],[116.5148,34.56185],[116.5982,34.51999],[116.6043,34.49128],[116.7448,34.47585],[116.8379,34.40337],[116.8873,34.4164],[116.9541,34.40011],[116.9704,34.39289],[116.9816,34.35463],[116.9766,34.3148],[116.9802,34.28204],[117.0101,34.26559],[117.0387,34.25126],[117.0518,34.24076],[117.0437,34.20414],[117.0257,34.16977],[117.0707,34.15259],[117.0995,34.14591],[117.1029,34.13468],[117.1273,34.12829],[117.1361,34.11522],[117.1519,34.10157],[117.1549,34.08465],[117.173,34.08309],[117.1841,34.07328],[117.2097,34.07925],[117.2701,34.08124],[117.3136,34.08778],[117.3534,34.0966],[117.3769,34.0784],[117.4097,34.0272],[117.4698,34.05152],[117.49,34.05522],[117.5051,34.0656],[117.5463,34.04996],[117.5456,34.01169],[117.5731,33.99105],[117.603,34.01382],[117.5983,34.02506],[117.5982,34.03701],[117.6188,34.0373],[117.6486,34.01354],[117.6701,33.99419],[117.6677,33.9566],[117.6701,33.95048],[117.6792,33.93624],[117.7128,33.89065],[117.7353,33.89764],[117.7575,33.88837],[117.7496,33.79028],[117.7302,33.73847],[117.7424,33.71435],[117.7736,33.73391],[117.8074,33.74461],[117.884,33.73348],[117.9118,33.74518],[117.9298,33.73362],[117.953,33.76631],[117.9684,33.76445],[117.9842,33.75574],[118.0579,33.77044],[118.108,33.77358],[118.1332,33.75789],[118.1738,33.75403],[118.1899,33.74675],[118.1792,33.72962],[118.1669,33.66207],[118.1451,33.63392],[118.1142,33.61676],[118.1144,33.59546],[118.1051,33.47269],[118.049,33.49087],[118.0169,33.40637],[118.0321,33.37799],[117.9904,33.33827],[117.9774,33.28118],[117.9448,33.24874],[117.987,33.21973],[117.998,33.18584],[118.0371,33.15767],[118.1453,33.17721],[118.1507,33.21341],[118.1708,33.2211],[118.1951,33.2114],[118.2049,33.2035],[118.2133,33.19338],[118.2231,33.16414],[118.235,33.125],[118.2352,33.07428],[118.252,32.99398],[118.308,32.97152],[118.3149,32.95538],[118.2472,32.92628],[118.2476,32.86257],[118.2781,32.86402],[118.2987,32.8545],[118.3087,32.78497],[118.364,32.77746],[118.3722,32.72549],[118.4216,32.72809],[118.4433,32.75061],[118.4769,32.72924],[118.5463,32.73877],[118.6043,32.7431],[118.63,32.75436],[118.7011,32.72982],[118.7409,32.74195],[118.7227,32.76851],[118.7292,32.81498],[118.7286,32.8545],[118.7437,32.86373],[118.7928,32.86344],[118.802,32.9234],[118.8309,32.93003],[118.8346,32.96086],[118.8882,32.96777],[118.8971,32.94962],[118.9998,32.97008],[119.0224,32.95827],[119.029,32.91418],[119.0458,32.91591],[119.0557,32.87699],[119.1021,32.83662],[119.1917,32.83777],[119.2116,32.72144],[119.2295,32.61075],[119.2147,32.56967],[119.2013,32.56533],[119.1807,32.58588],[119.1563,32.55781],[119.1666,32.53205],[119.1512,32.52626],[119.1522,32.50252],[119.1412,32.49094],[119.0994,32.46951],[119.0836,32.4501],[119.0702,32.44981],[119.0527,32.46198],[119.0286,32.51439],[118.9785,32.49818],[118.926,32.55318],[118.8885,32.54681],[118.8631,32.57257],[118.8367,32.5662],[118.8189,32.56794],[118.802,32.5824],[118.778,32.58269],[118.7547,32.60034],[118.7323,32.58877],[118.7183,32.59195],[118.7038,32.60554],[118.6935,32.58183],[118.652,32.59137],[118.6355,32.5798],[118.6173,32.58096],[118.5923,32.59571],[118.5706,32.58125],[118.5768,32.55752],[118.6084,32.54247],[118.6163,32.50831],[118.5988,32.48862],[118.6146,32.47849],[118.6417,32.48254],[118.6843,32.48051],[118.6959,32.47212],[118.6877,32.39504],[118.7049,32.3759],[118.7032,32.35299],[118.7107,32.33443],[118.6949,32.31586],[118.6736,32.29671],[118.664,32.27291],[118.676,32.26014],[118.6729,32.24533],[118.6472,32.21222],[118.5892,32.18985],[118.5466,32.19305],[118.5102,32.18578],[118.5057,32.12474],[118.4323,32.08752],[118.4065,32.07588],[118.3907,32.06046],[118.3986,32.02118],[118.4045,31.97663],[118.3694,31.95741],[118.3667,31.93789],[118.3821,31.92186],[118.4003,31.92186],[118.435,31.90292],[118.4742,31.89068],[118.4786,31.8519],[118.5037,31.84811],[118.5033,31.82915],[118.4886,31.80231],[118.4786,31.78626],[118.5133,31.77604],[118.5473,31.76846],[118.537,31.74539],[118.595,31.76437],[118.6359,31.76787],[118.6578,31.73751],[118.6826,31.73109],[118.6956,31.70831],[118.6479,31.66858],[118.6592,31.64958],[118.7262,31.64607],[118.7354,31.67705],[118.7433,31.68932],[118.768,31.68961],[118.7983,31.67676],[118.7993,31.63146],[118.8371,31.64111],[118.8635,31.62532],[118.8803,31.58234],[118.8851,31.54021],[118.88,31.445],[118.8511,31.38735],[118.7409,31.35188],[118.7176,31.2897],[118.7533,31.28559],[118.7859,31.26828],[118.7886,31.24275],[118.847,31.24568],[118.914,31.25214],[118.9775,31.2448],[119.0132,31.24979],[119.0777,31.2448],[119.1021,31.26329],[119.1354,31.28031],[119.1464,31.30349],[119.189,31.30759],[119.2353,31.26271],[119.2556,31.27239],[119.269,31.26271],[119.3077,31.27943],[119.3325,31.26769],[119.3428,31.31082],[119.3709,31.30202],[119.3781,31.27386],[119.3785,31.25273],[119.3682,31.2037],[119.3936,31.20869],[119.4169,31.18872],[119.4252,31.19548],[119.4698,31.16434],[119.5237,31.16875],[119.5872,31.12173],[119.6449,31.15024],[119.6566,31.12967],[119.648,31.10292],[119.6353,31.06764],[119.637,31.01204],[119.5941,30.95877],[119.5642,30.88514],[119.5759,30.86068],[119.5779,30.82619],[119.4873,30.74656],[119.4914,30.72236],[119.4828,30.70435],[119.467,30.68133],[119.4458,30.64677],[119.4049,30.63821],[119.3802,30.67808],[119.341,30.65977],[119.3122,30.61694],[119.2453,30.6125],[119.2707,30.5797],[119.2401,30.53979],[119.2803,30.51879],[119.3071,30.54186],[119.3307,30.54423],[119.3345,30.50903],[119.3713,30.39272],[119.4063,30.3862],[119.4035,30.36428],[119.3555,30.34651],[119.3194,30.36636],[119.2913,30.35125],[119.26,30.325],[119.2281,30.28635],[119.115,30.29],[119.0866,30.31599],[119.064,30.30324],[119.0376,30.30028],[118.9459,30.34562],[118.8834,30.31065],[118.8844,30.28338],[118.8982,30.23119],[118.9325,30.20835],[118.8992,30.18075],[118.8542,30.16235],[118.8934,30.15285],[118.9047,30.13949],[118.8803,30.11157],[118.9016,30.02838],[118.8927,29.9353],[118.8439,29.935],[118.846,29.90048],[118.8377,29.8862],[118.7852,29.84243],[118.7577,29.84154],[118.7595,29.8189],[118.7354,29.79626],[118.7519,29.76497],[118.7238,29.7134],[118.6918,29.69133],[118.6379,29.63674],[118.5809,29.63823],[118.5044,29.5633],[118.4948,29.5194],[118.4779,29.50565],[118.4106,29.49848],[118.3821,29.50326],[118.3619,29.48115],[118.3348,29.47129],[118.3097,29.48653],[118.3159,29.42525],[118.3004,29.41568],[118.2421,29.42495],[118.2095,29.40371],[118.1919,29.38816],[118.1315,29.41568],[118.1205,29.42883],[118.1188,29.46202],[118.0958,29.53224],[118.0416,29.53881],[118.0062,29.56749],[117.9811,29.55793],[117.9599,29.5648],[117.9399,29.54658],[117.9156,29.55494],[117.8902,29.54001],[117.8009,29.56689],[117.7401,29.54658],[117.6828,29.54748],[117.6471,29.61137],[117.6011,29.58242],[117.5304,29.58659],[117.4469,29.67821],[117.427,29.75365],[117.3923,29.79686],[117.4112,29.83975],[117.3917,29.83826],[117.381,29.81443],[117.3522,29.81145],[117.3251,29.84243],[117.2959,29.83469],[117.2883,29.81712],[117.2609,29.82367],[117.2279,29.85077],[117.2451,29.8728],[117.2509,29.89364],[117.2348,29.91388],[117.1967,29.91894],[117.1623,29.9106],[117.1486,29.87965],[117.1057,29.84839],[117.0892,29.82426],[117.1235,29.8055],[117.1349,29.78524],[117.1318,29.7757],[117.1218,29.75931],[117.1287,29.72533],[117.1105,29.70147],[117.0332,29.67612],[116.9883,29.67135],[116.9738,29.64689],[116.9165,29.63376],[116.8533,29.58271],[116.8231,29.55823],[116.7943,29.56002],[116.7716,29.56987],[116.7702,29.57928],[116.774,29.59257],[116.7411,29.59062],[116.7289,29.56793],[116.7162,29.55912],[116.7045,29.56883],[116.6976,29.59212],[116.671,29.60048],[116.6556,29.63062],[116.641,29.64375],[116.6396,29.70282],[116.6673,29.72786],[116.7514,29.81339],[116.785,29.80862],[116.8518,29.8795],[116.8894,29.95285],[116.8523,29.96906],[116.8205,29.94884],[116.8211,29.99523],[116.7914,29.99508],[116.7699,30.02541],[116.6515,30.07593],[116.607,30.06924],[116.5881,30.04488],[116.5735,30.00207],[116.5577,29.91313],[116.5325,29.89662],[116.4801,29.89691],[116.3912,29.85583],[116.3296,29.82575],[116.3284,29.81548],[116.298,29.80088],[116.2558,29.77794],[116.2403,29.7909],[116.2094,29.82471],[116.1241,29.82307],[116.114,29.89959],[116.0628,29.96386],[116.0718,30.0257],[116.067,30.09375],[116.0754,30.11113],[116.0773,30.12731],[116.062,30.13325],[116.0484,30.17363],[116.0524,30.21087],[116.0076,30.23949],[115.983,30.25877],[115.9576,30.2985],[115.9161,30.29909],[115.8965,30.30621],[115.9006,30.33807],[115.8709,30.37732],[115.8783,30.3905],[115.9161,30.42307],[115.8821,30.45015],[115.8857,30.48981],[115.8944,30.52367],[115.8747,30.55339],[115.8627,30.58207],[115.8289,30.59596],[115.8131,30.59463],[115.7571,30.67645],[115.748,30.71601],[115.7677,30.76028],[115.8507,30.7768],[115.8486,30.79656],[115.8539,30.80717],[115.8519,30.82044],[115.8304,30.8368],[115.8628,30.87379],[115.9016,30.89515],[115.921,30.8928],[115.9301,30.909],[115.9434,30.91165],[115.9622,30.93772],[115.9926,30.95229],[116.0553,30.96981],[116.0443,31.01072],[116.0089,31.00822],[115.9876,31.03176],[115.9528,31.03734],[115.93,31.03984],[115.92,31.07352],[115.8843,31.09807],[115.868,31.14333],[115.8237,31.12012],[115.7904,31.11453],[115.7774,31.10351],[115.7626,31.10248],[115.7478,31.12967],[115.6917,31.20003],[115.645,31.20649],[115.6004,31.14084],[115.5696,31.14098],[115.5437,31.1614],[115.5353,31.18079],[115.5243,31.20311],[115.5188,31.25082],[115.4924,31.2583],[115.4605,31.26373],[115.4498,31.28207],[115.4502,31.30701],[115.4234,31.33898],[115.365,31.335],[115.3637,31.37386],[115.374,31.39555],[115.3643,31.40933],[115.3726,31.43569],[115.3616,31.49836],[115.4093,31.53875],[115.4234,31.58614],[115.477,31.6186],[115.4656,31.64783],[115.479,31.6788],[115.6376,31.76466],[115.6706,31.78801],[115.719,31.77167],[115.7327,31.7883],[115.7667,31.79414],[115.811,31.77313],[115.844,31.79151],[115.8615,31.7813],[115.901,31.79939],[115.9037,31.81748],[115.891,31.82623],[115.8855,31.84446],[115.8876,31.86152],[115.8901,31.87814],[115.8989,31.89563],[115.9059,31.92652],[115.8963,31.95653],[115.9186,32.00371],[115.9089,32.03122],[115.925,32.08272],[115.9143,32.1105],[115.9288,32.16646],[115.9073,32.20263],[115.9039,32.25535],[115.9118,32.27305],[115.9037,32.28002],[115.8932,32.30759],[115.8852,32.40794],[115.8714,32.43518],[115.8537,32.46285],[115.8733,32.4879],[115.8568,32.50658],[115.8187,32.49789],[115.7791,32.46314],[115.771,32.47009],[115.7683,32.49919],[115.7521,32.47603],[115.6979,32.48182],[115.7008,32.46719],[115.6771,32.4627],[115.6788,32.44633],[115.6732,32.43286],[115.6644,32.41156],[115.6531,32.4075],[115.6417,32.41765],[115.6174,32.40562],[115.5963,32.42388],[115.5542,32.40214],[115.5049,32.45488],[115.4816,32.49804],[115.4644,32.51801],[115.3681,32.56446],[115.3264,32.55984],[115.3041,32.54898],[115.2426,32.58674],[115.2232,32.5798],[115.187,32.58992],[115.1822,32.63677],[115.192,32.66481],[115.1668,32.65874],[115.1681,32.79189],[115.1819,32.85219],[115.1487,32.85681],[115.1197,32.89328],[115.0495,32.89588],[115.0109,32.9002],[115.0069,32.90942],[115.014,32.93205],[114.9625,32.93219],[114.9372,32.92585],[114.9134,32.95611],[114.8773,32.9682],[114.8693,32.97497],[114.872,32.99945]]]}}
