{"type":"Feature","properties":{"sourceId":"afghanistan"},"geometry":{"type":"Polygon","coordinates":[[[61.78677,30.83769],[61.76754,30.92461],[61.82247,31.04117],[61.78922,31.17952],[61.74924,31.23994],[61.70283,31.36308],[60.82856,31.4898],[60.79449,31.65169],[60.81286,31.73883],[60.79182,31.85775],[60.80435,31.94095],[60.77962,32.03508],[60.81863,32.10256],[60.83897,32.23533],[60.56419,33.06684],[60.48761,33.73846],[60.53525,33.81969],[60.49016,34.14051],[60.53141,34.20674],[60.70678,34.53368],[60.74428,34.56735],[60.84109,34.58365],[60.90351,34.65056],[60.96818,34.74149],[61.05304,34.93254],[61.07826,35.17768],[61.07642,35.26393],[61.10704,35.29867],[61.17779,35.40689],[61.24741,35.53334],[61.25806353393246,35.59795968032279],[61.33059,35.52248],[62.22499,35.12355],[62.54101,35.14306],[63.12536,35.37676],[63.28635,35.68246],[63.22672,35.79862],[63.96013,35.90977],[64.63391,36.22306],[64.84857,37.10312],[65.58198,37.20292],[65.77875,37.46841],[66.21998,37.28361],[66.51812,37.29784],[66.5200123262792,37.29952463502784],[66.50299,37.29809],[67.02257,37.34188],[67.23858,37.16636],[67.7738318348159,37.167904373670915],[67.76814,37.0938],[67.78942,37.07271],[67.9074,37.01056],[67.9981,36.93235],[68.01189,36.91998],[68.05927,36.923],[68.29102,37.00776],[68.41433,37.09767],[68.54095,37.1584],[68.60388,37.19143],[68.82353,37.24036],[68.92479,37.26613],[68.9514,37.29058],[69.0144,37.26094],[69.07396,37.20203],[69.12392,37.15471],[69.20649,37.1168],[69.24356,37.09092],[69.26193,37.09079],[69.31776,37.11094],[69.40235,37.15758],[69.46003,37.22295],[69.48303,37.26176],[69.39257,37.37032],[69.38013,37.3836],[69.3996,37.43779],[69.42604,37.4517],[69.49779,37.52498],[69.52423,37.56934],[69.65233,37.56557],[69.80541,37.56336],[69.95604,37.56071],[70.01203,37.54091],[70.11337,37.51899],[70.17414,37.51844],[70.25247,37.5854],[70.32965,37.69765],[70.2837,37.81867],[70.25406,37.83635],[70.22294,37.83722],[70.19082,37.85132],[70.19419,37.91046],[70.27113,37.93269],[70.43541,38.09066],[70.50986,38.1181],[70.50923,38.16293],[70.63207,38.28603],[70.61623,38.3431],[70.65357,38.34378],[70.69489,38.36468],[70.84054,38.43555],[70.85784,38.43554],[70.87379,38.46289],[70.89427,38.45822],[70.9053,38.43351],[71.18131,38.34106],[71.25021,38.30545],[71.34745,38.15332],[71.31329,38.09998],[71.30682,38.06139],[71.28015,38.04485],[71.27466,38.00753],[71.26162,37.98588],[71.24565,37.92104],[71.29485,37.91401],[71.32564,37.88271],[71.58381,37.81778],[71.57101,37.80026],[71.53746,37.78508],[71.52393,37.76505],[71.53537,37.7125],[71.51906,37.64298],[71.50211,37.61505],[71.48941,37.53559],[71.51499,37.47949],[71.47156,37.40344],[71.47251,37.3815],[71.48872,37.37043],[71.4822,37.33372],[71.48443,37.27706],[71.45233,37.21516],[71.44306,37.17714],[71.43001,37.09134],[71.4271,37.0586],[71.45868,36.96018],[71.53318,36.82426],[71.55516,36.76392],[71.62914,36.69086],[71.66863,36.66374],[71.78741,36.67117],[71.84612,36.67778],[71.87393,36.69182],[71.96972,36.75732],[72.12421,36.84693],[72.34291,36.97431],[72.472,36.98829],[72.59422,37.00283],[72.67387,37.01599],[72.81361,37.22103],[72.86442,37.22431],[72.9578,37.28334],[73.0965,37.31666],[73.1765,37.39307],[73.61046,37.42853],[73.59673,37.24181],[73.82675,37.20354],[74.22294,37.31175],[74.28749,37.37834],[74.79355,37.33905],[74.87732,37.209],[74.89779972435682,37.216871126768254],[74.8974,37.20793],[74.82869,37.19701],[74.79899,37.20079],[74.73818,37.26444],[74.66088,37.21743],[74.57739,37.21831],[74.5227,37.22374],[74.48748,37.13995],[74.58001,37.04025],[74.54806,37.00587],[74.55241,36.95059],[74.51705,36.94263],[74.439,36.98347],[74.30449,36.8973],[74.2366,36.87789],[74.124,36.82129],[73.97961,36.81534],[73.68242,36.89585],[73.54306,36.8555],[73.30295,36.85244],[73.08319,36.8669],[73.04187,36.84224],[72.96304,36.85342],[72.93558,36.82685],[72.89078,36.82206],[72.64513,36.8285],[72.57454,36.8105],[72.5014,36.76163],[72.25257,36.72872],[72.21377,36.7015],[72.21999,36.64838],[72.09098,36.57381],[71.95598,36.53273],[71.91736,36.49095],[71.8223,36.48582],[71.84679,36.43203],[71.81107,36.38295],[71.62962,36.39289],[71.59396,36.36695],[71.60503,36.34925],[71.58801,36.31474],[71.54038,36.30731],[71.35581,36.15272],[71.27359,36.11861],[71.22289,36.05082],[71.33448,35.98154],[71.3948,35.96946],[71.44313,35.90036],[71.51832,35.80944],[71.56704,35.73363],[71.63377,35.58169],[71.6742,35.4444],[71.57337,35.30193],[71.69832,35.20874],[71.63465,35.12514],[71.57403,35.02568],[71.5283,34.99201],[71.52421,34.96267],[71.31969,34.86776],[71.2875,34.78547],[71.11555,34.67963],[71.13142,34.61954],[71.09749,34.57186],[71.03633,34.53843],[71.0449,34.46192],[71.12043,34.44555],[71.1933,34.36479],[71.14614,34.15857],[71.09656,34.10075],[71.0913,34.04725],[70.8817,33.95525],[70.49665,33.92279],[70.1912,33.96606],[69.91743,34.01756],[69.91668,33.97426],[69.88042,33.94147],[69.92486,33.90555],[70.00725,33.75471],[70.15708,33.7342],[70.17011,33.66936],[70.21673,33.6468],[70.2688,33.45434],[70.30962,33.44137],[70.34002,33.39961],[70.34433,33.32933],[70.17047,33.20262],[70.02592,33.12224],[69.87652,33.07688],[69.78793,33.10654],[69.71602,33.07294],[69.59354,33.08101],[69.52228,33.01901],[69.51356,32.94442],[69.562,32.86739],[69.48923,32.83907],[69.45619,32.73861],[69.46857,32.65021],[69.39483,32.5473],[69.30299,32.52034],[69.26042,32.45718],[69.32716,32.31789],[69.29018,32.15154],[69.34409,31.91421],[69.21376,31.83609],[69.12781,31.68748],[69.02711,31.61355],[68.96789,31.61906],[68.91429,31.58002],[68.85369,31.57638],[68.78345,31.6054],[68.76577,31.64635],[68.71166,31.68956],[68.57628,31.70223],[68.5508,31.69597],[68.41659,31.73809],[68.27274,31.74123],[68.08234,31.68378],[67.98991,31.6276],[67.8667,31.60509],[67.80282,31.40581],[67.81104,31.34658],[67.77872,31.30669],[67.7272,31.30556],[67.65801,31.26282],[67.39465,31.19135],[67.27494,31.18135],[67.1579,31.22313],[67.06056,31.19906],[66.94588,31.26975],[66.74606,31.17815],[66.70589,31.06627],[66.58195,30.96642],[66.40343,30.9252],[66.30398,30.58035],[66.38214,30.48419],[66.34361,30.23998],[66.25908,30.0728],[66.38695,29.97457],[66.37852,29.95261],[66.26621,29.83732],[65.06378,29.52358],[64.66384,29.56931],[64.37027,29.52388],[64.20953,29.47596],[64.16513,29.38681],[64.10883,29.36856],[64.04017,29.4064],[63.57987,29.48503],[63.3506,29.44528],[62.47478,29.38188],[60.85048,29.85834],[61.78677,30.83769]]]}}
