{"type":"Feature","properties":{"sourceId":"bhutan"},"geometry":{"type":"Polygon","coordinates":[[[89.72568,26.71602],[89.69775,26.72763],[89.67649,26.72918],[89.65811,26.71104],[89.62289,26.71602],[89.61122,26.73254],[89.63477,26.75787],[89.63532,26.77235],[89.56836,26.79061],[89.55388,26.80306],[89.50077,26.80177],[89.37063,26.85033],[89.31368,26.84008],[89.26376,26.8084],[89.22548,26.81359],[89.12851,26.80534],[89.09497,26.83373],[89.08313,26.8859],[89.04256,26.89237],[89.03914,26.91508],[89.01462,26.92493],[88.97922,26.91132],[88.94369,26.92493],[88.94352,26.96551],[88.92486,26.98135],[88.88703,26.94742],[88.87075,26.94738],[88.86305,26.99794],[88.87101,27.05809],[88.86271,27.09962],[88.79874,27.12816],[88.7448,27.1347],[88.73917,27.14316],[88.75773,27.18055],[88.79111,27.21033],[88.7964,27.25268],[88.8289,27.27124],[88.89828,27.27523],[88.90446,27.30101],[88.91579,27.33365],[88.93467,27.34707],[88.95939,27.40408],[88.97106,27.48817],[89.02702,27.58802],[89.0593,27.61297],[89.11835,27.6221],[89.12308,27.63682],[89.1681,27.67708],[89.19138,27.72606],[89.21321,27.73184],[89.21238,27.76187],[89.22939,27.80636],[89.25541,27.81614],[89.26113,27.83149],[89.29694,27.86076],[89.32901,27.86447],[89.38006,27.89535],[89.39297,27.9239],[89.44237,27.97835],[89.44428,28.00912],[89.45773,28.02141],[89.45407,28.03867],[89.50572,28.1],[89.53162,28.09899],[89.54613,28.12178],[89.56557,28.12985],[89.59188,28.16957],[89.65844,28.17795],[89.68222,28.19217],[89.72089,28.18214],[89.73901,28.19667],[89.75979,28.19532],[89.76899,28.20521],[89.76264,28.22653],[89.79096,28.25372],[89.84193,28.23536],[89.86438,28.23657],[89.90394,28.19315],[89.98036,28.20113],[90.02029,28.17341],[90.03832,28.14758],[90.05135,28.16164],[90.0885,28.16188],[90.11095,28.1732],[90.11168,28.19465],[90.12509,28.20185],[90.16762,28.19698],[90.21335,28.15677],[90.2561,28.15824],[90.29283,28.1709],[90.36638,28.10358],[90.38123,28.07199],[90.42792,28.07504],[90.46157,28.05613],[90.51219,28.07286],[90.56333,28.0555],[90.58704,28.03551],[90.69169,28.08814],[90.74661,28.06099],[90.78329,28.05324],[90.85966,28.06053],[90.90828,28.03751],[90.9302,28.05164],[90.97752,28.01256],[90.99314,28.02791],[91.02204,28.03176],[91.06364,28.00543],[91.0762,28.01153],[91.14846,28.00023],[91.16864,28.00897],[91.20131,27.99442],[91.24537,28.07134],[91.26295,28.07849],[91.34213,28.07242],[91.38429,28.04158],[91.46938,28.01246],[91.49701,27.97083],[91.49644,27.94796],[91.55194,27.92538],[91.56186,27.9078],[91.5939,27.91497],[91.63254,27.89482],[91.62001,27.8554],[91.58274,27.85154],[91.56941,27.83792],[91.5779,27.82357],[91.60926,27.83062],[91.63297,27.81682],[91.65239,27.76984],[91.63536,27.69572],[91.58087,27.65405],[91.57204,27.63612],[91.59158,27.61003],[91.57739,27.58565],[91.59696,27.55322],[91.61768,27.54875],[91.6284,27.52425],[91.65869,27.49504],[91.69757,27.51279],[91.72239,27.50335],[91.73226,27.47853],[91.82685,27.47827],[91.8489,27.49373],[91.95422,27.46825],[91.99385,27.48583],[92.02075,27.48679],[92.03135,27.45082],[92.04809,27.44027],[92.06296,27.40287],[92.05671,27.36455],[92.07398,27.33079],[92.13159,27.28568],[92.12771,27.26869],[92.11531,27.26214],[92.06292,27.26397],[92.07796,27.24099],[92.07719,27.21742],[92.06264,27.18406],[92.03715,27.16544],[92.043,27.13435],[92.03437,27.10986],[92.04548,27.06782],[92.0873,27.04533],[92.0887,27.02566],[92.10869,27.00847],[92.12873,26.96234],[92.12621,26.90425],[92.11016,26.8658],[92.06214,26.84356],[91.98783,26.85263],[91.96072,26.88029],[91.88833,26.91018],[91.86469,26.90489],[91.82589,26.85574],[91.73012,26.8081],[91.70013,26.80263],[91.63447,26.81338],[91.59254,26.79782],[91.50356,26.78473],[91.41742,26.82353],[91.38501,26.78907],[91.34196,26.77531],[91.24021,26.80554],[91.15137,26.80484],[91.10498,26.81316],[91.05768,26.77429],[90.99446,26.78208],[90.70207,26.76149],[90.67664,26.77571],[90.64491,26.77092],[90.62902,26.78657],[90.54492,26.80897],[90.41529,26.89559],[90.36567,26.89398],[90.34644,26.86593],[90.30756,26.84397],[90.24515,26.85009],[90.2111,26.83312],[90.19312,26.79809],[90.20251,26.78132],[90.1905,26.75988],[90.04813,26.72252],[89.96796,26.71427],[89.87414,26.72274],[89.86428,26.69537],[89.81497,26.70258],[89.77294,26.6948],[89.76244,26.70136],[89.74778,26.72115],[89.72568,26.71602]]]}}
