{"type":"Feature","properties":{"sourceId":"belarus"},"geometry":{"type":"Polygon","coordinates":[[[30.13687,51.4848],[29.88762,51.43903],[29.50004,51.39065],[29.32079,51.37285],[29.14364,51.64295],[29.01009,51.57109],[28.81645,51.54377],[28.77388,51.4067],[28.67981,51.43304],[28.62625,51.57003],[28.44704,51.57046],[28.36086,51.52904],[28.21289,51.64679],[28.10234,51.56341],[27.94132,51.54804],[27.89635,51.6097],[27.84039,51.59883],[27.85892,51.54527],[27.76897,51.45957],[27.65362,51.5128],[27.7216,51.59947],[27.49706,51.58347],[27.21382,51.5984],[27.18223,51.75552],[26.95084,51.73298],[26.7905,51.75233],[26.68922,51.81668],[26.54675,51.79036],[26.45851,51.79651],[26.26831,51.86632],[26.15501,51.85614],[26.10214,51.89726],[25.97134,51.91717],[25.92911,51.91103],[25.79899,51.92479],[25.77324,51.91801],[25.70492,51.91314],[25.40932,51.91547],[25.22427,51.95569],[24.9345,51.88815],[24.73709,51.87755],[24.56234,51.88518],[24.34673,51.84956],[24.32751,51.74935],[24.27189,51.71129],[24.08237,51.61844],[23.99826,51.576],[23.87054,51.59072],[23.87913,51.63677],[23.78506,51.63592],[23.78059,51.66084],[23.71468,51.64785],[23.61752,51.6178],[23.6697,51.58411],[23.6812,51.50426],[23.674070781909037,51.498641434069576],[23.59125,51.55103],[23.55996,51.6098],[23.57681,51.70134],[23.55861,51.73711],[23.64022,51.76752],[23.65647,51.79668],[23.62924,51.84555],[23.65357,51.89163],[23.64186,51.91306],[23.70452,51.99051],[23.66593,52.08244],[23.6252,52.12289],[23.53134,52.14884],[23.50289,52.19466],[23.42699,52.19246],[23.37004,52.2232],[23.21694,52.24308],[23.2096,52.29415],[23.22753,52.31892],[23.44272,52.5154],[23.59211,52.57872],[23.7626,52.59989],[23.89989,52.66585],[23.95466,52.7144],[23.9327,52.92525],[23.96141,52.9627],[23.93913,53.0317],[23.89472,53.08259],[23.93244,53.16439],[23.87871,53.20812],[23.86561,53.2438],[23.82653,53.26135],[23.67302,53.53158],[23.59565,53.75182],[23.5634,53.78136],[23.56722,53.85463],[23.53982,53.87635],[23.533609133990407,53.94036223080803],[23.53424,53.93995],[23.60619,53.92234],[23.71531,53.93399],[23.76138,53.92237],[23.77235,53.89706],[23.79707,53.89726],[23.82094,53.90864],[23.82019,53.9193],[23.80184,53.93168],[23.84308,53.95457],[23.87963,53.9386],[23.9356,53.95437],[23.97285,53.91809],[24.10469,53.93729],[24.17542,53.95871],[24.35015,53.89221],[24.44858,53.90079],[24.69836,54.01324],[24.67924,53.95851],[24.74207,53.96356],[24.82069,53.99536],[24.8695,54.02841],[24.87957,54.04014],[24.8379,54.04084],[24.81794,54.07923],[24.7855,54.10893],[24.83288,54.13086],[24.95047,54.16696],[24.99956,54.13649],[25.07286,54.13046],[25.16345,54.18833],[25.20624,54.21868],[25.22049,54.24457],[25.35353,54.26262],[25.3937,54.27164],[25.47146,54.28788],[25.50785,54.2991],[25.55111,54.1986],[25.52205,54.19248],[25.49927,54.17731],[25.55145,54.14213],[25.63728,54.12241],[25.73686,54.1556],[25.79648,54.15115],[25.78551,54.19583],[25.75901,54.22235],[25.79162,54.23506],[25.75384,54.27152],[25.7175,54.27956],[25.71429,54.30077],[25.68293,54.32541],[25.59382,54.324],[25.55582,54.33255],[25.56738,54.36348],[25.59681,54.37527],[25.63646,54.4227],[25.64106,54.46874],[25.68535,54.53423],[25.76692,54.56986],[25.75971,54.62071],[25.74035,54.69913],[25.75169,54.72186],[25.75273,54.76622],[25.73858,54.80394],[25.77599,54.82205],[25.8581,54.89927],[25.86261,54.92178],[25.91023,54.92961],[25.97752,54.95189],[26.05494,54.93247],[26.11106,54.97212],[26.21046,54.99601],[26.26522,55.06362],[26.27596,55.07674],[26.23415,55.10735],[26.2623,55.11952],[26.30779,55.12394],[26.35912,55.14729],[26.3961,55.13352],[26.46272,55.12688],[26.5167,55.15946],[26.53945,55.14195],[26.57541,55.14769],[26.59146,55.15318],[26.61713,55.14518],[26.67071,55.15589],[26.70855,55.16857],[26.73199,55.21608],[26.728,55.23839],[26.83873,55.27842],[26.83565,55.30775],[26.80119,55.32495],[26.73296,55.32524],[26.66647,55.34137],[26.61411,55.33393],[26.57104,55.32597],[26.55838,55.3291],[26.44916,55.34658],[26.55947,55.38998],[26.56646,55.45662],[26.53074,55.51437],[26.58307,55.53513],[26.63136,55.56404],[26.64042,55.59874],[26.64042,55.65507],[26.63364,55.68473],[26.635119527892094,55.678257611020726],[26.66638,55.69129],[26.78843,55.66519],[26.87839,55.70273],[26.92761,55.77075],[27.01126,55.8144],[27.0971,55.81412],[27.13002,55.83579],[27.27893,55.77261],[27.36509,55.7956],[27.61755,55.77339],[27.65257,55.84371],[27.64681,55.88978],[27.67369,55.92349],[27.75421,55.96688],[27.80879,55.9701],[27.84622,56.03523],[27.91255,56.03716],[27.99316,56.11953],[28.0499,56.1065],[28.171708505881096,56.16263138383475],[28.33614,56.06648],[28.37253,56.11302],[28.54557,56.11934],[28.69903,56.10613],[28.67672,56.07549],[28.73749,55.97418],[29.07944,56.04232],[29.16698,56.02928],[29.45641,55.96323],[29.48696,55.92035],[29.40319,55.84043],[29.36954,55.76653],[29.52541,55.7186],[29.61296,55.78237],[29.74857,55.80611],[29.81312,55.79839],[29.85981,55.85142],[29.89483,55.86568],[29.95096,55.85672],[29.97422,55.8731],[29.99748,55.87156],[30.0531,55.85759],[30.11352,55.83851],[30.15644,55.88301],[30.28158,55.87107],[30.3408,55.83571],[30.48243,55.81488],[30.52139,55.7981],[30.53015,55.75397],[30.58886,55.75591],[30.63538,55.73223],[30.73391,55.66423],[30.77579,55.59396],[30.84738,55.6374],[30.93664,55.62266],[30.96394,55.54165],[30.96256,55.49733],[30.93784,55.38594],[30.84892,55.30433],[30.94471,55.23235],[31.04118,55.11176],[31.02573,55.02783],[30.94265,54.9514],[30.87055,54.92675],[30.77047,54.81374],[31.20598,54.66668],[31.2204,54.62616],[31.11122,54.50354],[31.24718,54.47343],[31.33575,54.33615],[31.32683,54.2576],[31.65985,54.14997],[31.91597,54.09001],[31.89743,53.94639],[31.81091,53.81241],[31.9194,53.79132],[31.9891,53.80876],[32.12814,53.82498],[32.21603,53.80085],[32.46563,53.741],[32.51301,53.70321],[32.50339,53.67963],[32.4361,53.60045],[32.52228,53.54745],[32.65308,53.50581],[32.7602,53.46128],[32.76947,53.42488],[32.7396,53.33087],[32.58202,53.288],[32.41688,53.18464],[32.23869,53.09609],[32.09553,53.07175],[31.93382,53.07876],[31.81778,53.11051],[31.69212,53.20562],[31.54587,53.18649],[31.43223,53.20254],[31.39206,53.09237],[31.30279,53.01065],[31.35807,52.98999],[31.54072,52.8625],[31.61316,52.7658],[31.57745,52.59909],[31.6832,52.56112],[31.6135,52.46856],[31.64303,52.39802],[31.62758,52.33324],[31.71856,52.26606],[31.78585,52.18783],[31.79993,52.11241],[31.71959,52.09237],[31.39995,52.12105],[31.30451,52.05038],[31.21971,52.03327],[31.20358,52.06832],[31.15654,52.07613],[31.1174,52.09027],[30.96668,52.07233],[30.9454,52.01363],[30.89493,51.96796],[30.80635,51.89493],[30.7037,51.83196],[30.62748,51.70767],[30.58216,51.6438],[30.59898,51.5442],[30.67383,51.36428],[30.65735,51.33619],[30.62782,51.27781],[30.49324,51.23441],[30.13687,51.4848]]]}}
