{"type":"Feature","properties":{"sourceId":"buckinghamshire"},"geometry":{"type":"Polygon","coordinates":[[[-0.701154,51.92711],[-0.713771,51.9296],[-0.715145,51.92886],[-0.717205,51.92579],[-0.717891,51.91621],[-0.7038210854085853,51.90971179603324],[-0.704092,51.90936],[-0.695558,51.89916],[-0.674517,51.89942],[-0.652586,51.88488],[-0.63512,51.88043],[-0.620113,51.88269],[-0.609367,51.87359],[-0.585203,51.86824],[-0.572916,51.85842],[-0.572915,51.85368],[-0.56596,51.84606],[-0.557961,51.84302],[-0.542285,51.83067],[-0.544091,51.82737],[-0.5498,51.83005],[-0.5522927720358257,51.828836665390796],[-0.557196,51.83266],[-0.562063,51.8311],[-0.563704,51.82487],[-0.568105,51.82127],[-0.57628,51.82012],[-0.576999,51.8154],[-0.582789,51.80877],[-0.590922,51.80978],[-0.594344,51.81564],[-0.610863,51.81377],[-0.632623,51.8216],[-0.647776,51.81558],[-0.6665610940029046,51.817649059970954],[-0.666526,51.818],[-0.669172,51.82008],[-0.6691534391835279,51.81965789110926],[-0.675338,51.82495],[-0.682654,51.83736],[-0.689342,51.84269],[-0.692086,51.84212],[-0.685162,51.84971],[-0.691186,51.85829],[-0.695883,51.85975],[-0.706875,51.85639],[-0.710207,51.85947],[-0.718035,51.85871],[-0.723825,51.85538],[-0.723897,51.85147],[-0.732059,51.85044],[-0.737042,51.84412],[-0.746833,51.84336],[-0.746147,51.83654],[-0.739158,51.83281],[-0.739069,51.82973],[-0.725494,51.81693],[-0.71914,51.81443],[-0.709508,51.81851],[-0.686667,51.79901],[-0.685378,51.79522],[-0.691051,51.79399],[-0.691734,51.79156],[-0.681574,51.78511],[-0.677611,51.77064],[-0.672706,51.76592],[-0.651501,51.75797],[-0.644284,51.75249],[-0.622612,51.7522],[-0.615391,51.74982],[-0.613288,51.74575],[-0.58771,51.75033],[-0.575916,51.73558],[-0.571253,51.73404],[-0.567281,51.73629],[-0.553866,51.7302],[-0.553426,51.72423],[-0.562665,51.71908],[-0.564899,51.71154],[-0.556245,51.70408],[-0.548869,51.70191],[-0.54546,51.69584],[-0.55027,51.68752],[-0.549918,51.68146],[-0.546399,51.67874],[-0.526695,51.6801],[-0.525307,51.67705],[-0.511679,51.67812],[-0.507741,51.67417],[-0.515593,51.66784],[-0.5221,51.66935],[-0.524196,51.65976],[-0.532424,51.66469],[-0.538249,51.66167],[-0.538235,51.65166],[-0.533617,51.64858],[-0.54098,51.63812],[-0.53736,51.63603],[-0.53158,51.61633],[-0.522012,51.60087],[-0.510738,51.59798],[-0.5023765494512875,51.59935046424429],[-0.501194,51.59166],[-0.487194,51.57426],[-0.484183,51.56181],[-0.4840304600210347,51.56170696908637],[-0.484622,51.56136],[-0.484762,51.5594],[-0.484195,51.55922],[-0.487632,51.55566],[-0.487075,51.55524],[-0.487289,51.55278],[-0.4864608466760602,51.55199146935996],[-0.49253,51.54737],[-0.497123,51.53908],[-0.490806,51.52871],[-0.493976,51.51658],[-0.490952,51.51027],[-0.485597,51.50704],[-0.4899244174193263,51.49883106574307],[-0.489996,51.49875],[-0.48997125255203516,51.49874222140751],[-0.49175340181185084,51.49536155698523],[-0.500688,51.49635],[-0.514188,51.49433],[-0.527642,51.49452],[-0.527345,51.50306],[-0.525164,51.50765],[-0.525858164901664,51.50908325264751],[-0.525931,51.50979],[-0.526211307147848,51.509812390721294],[-0.526462,51.51033],[-0.5320812048192196,51.51028127367258],[-0.557729,51.51233],[-0.559317,51.51519],[-0.556999,51.51888],[-0.563351,51.52005],[-0.563179,51.52045],[-0.5642956637835645,51.5206930198166],[-0.56409,51.52092],[-0.570485,51.52417],[-0.571409,51.52779],[-0.566816,51.52993],[-0.566798,51.53387],[-0.576563,51.5348],[-0.5797659139260818,51.529060167930005],[-0.6057804939730315,51.5325325852044],[-0.606122,51.53311],[-0.6084229949029253,51.532885305327504],[-0.6111197386867578,51.53324526576825],[-0.617351,51.53585],[-0.619229,51.53877],[-0.630551,51.5399],[-0.644573,51.53742],[-0.6475706654045001,51.53432643405108],[-0.6530914238824,51.531537684415404],[-0.660904,51.52837],[-0.661093,51.52001],[-0.6602005709563054,51.519580659136544],[-0.660202,51.51913],[-0.6591302489921549,51.51906573533446],[-0.656333,51.51772],[-0.654352,51.51481],[-0.654945,51.50967],[-0.659672,51.50786],[-0.660126,51.50433],[-0.656374063703617,51.50346748590888],[-0.656479,51.50321],[-0.6561049231903162,51.503018498308734],[-0.65599,51.50066],[-0.65413,51.4996],[-0.644418,51.50075],[-0.645246,51.4959],[-0.638995,51.4951],[-0.637874,51.4933],[-0.640551,51.49131],[-0.647059,51.49083],[-0.651707,51.48671],[-0.666215,51.4895],[-0.677577,51.49529],[-0.681996,51.50396],[-0.686059,51.50822],[-0.692794,51.51125],[-0.699207,51.51065],[-0.702494,51.51202],[-0.70063,51.51845],[-0.700956,51.52404],[-0.6997406718239227,51.52805881428743],[-0.698666,51.52974],[-0.698924,51.53003],[-0.697894,51.53278],[-0.6982736324310385,51.532909980407325],[-0.6977476354470188,51.53464933298396],[-0.697634,51.53483],[-0.6976723339471361,51.53489833794374],[-0.69694,51.53732],[-0.69219,51.54293],[-0.690485,51.54749],[-0.690269,51.55712],[-0.696176,51.56615],[-0.701711,51.56665],[-0.705701,51.56325],[-0.710789,51.56524],[-0.712204,51.57412],[-0.715302,51.57759],[-0.719379,51.57873],[-0.728617,51.57806],[-0.757313,51.56585],[-0.762947,51.56741],[-0.7674392999001953,51.56687673828487],[-0.7691491997700205,51.567243981644296],[-0.772225,51.56867],[-0.776982,51.56667],[-0.782925,51.55718],[-0.787195,51.55474],[-0.794512,51.55216],[-0.810218,51.55373],[-0.824276,51.55148],[-0.829474,51.54656],[-0.837746,51.54798],[-0.843538,51.54578],[-0.856108,51.54969],[-0.86113,51.54955],[-0.866639,51.55638],[-0.873964,51.56214],[-0.880833,51.56309],[-0.886261,51.56139],[-0.890248,51.55779],[-0.8950624738816836,51.550261154036335],[-0.902739,51.55173],[-0.90172,51.55622],[-0.910516,51.55817],[-0.912275,51.56023],[-0.913296,51.55999],[-0.922351,51.56493],[-0.924196,51.56448],[-0.924454,51.56378],[-0.927844,51.5664],[-0.927758,51.56786],[-0.929947,51.56829],[-0.929904,51.56893],[-0.938642,51.57152],[-0.940091,51.57635],[-0.939935,51.58207],[-0.941534,51.58555],[-0.928536,51.58994],[-0.928193,51.59054],[-0.924872,51.59082],[-0.916386,51.59992],[-0.920763,51.60349],[-0.929884,51.60428],[-0.930785,51.60279],[-0.933704,51.60191],[-0.935554,51.60222],[-0.935655,51.60322],[-0.941792,51.60456],[-0.943122,51.60551],[-0.942135,51.60765],[-0.943723,51.60954],[-0.943594,51.61082],[-0.940504,51.6134],[-0.938187,51.61729],[-0.938444,51.61831],[-0.945912,51.61895],[-0.947757,51.62073],[-0.949946,51.62124],[-0.950289,51.62907],[-0.948615,51.63131],[-0.943067,51.63027],[-0.937637,51.63533],[-0.93489,51.63559],[-0.934398,51.63714],[-0.937371,51.6414],[-0.944495,51.64705],[-0.944925,51.64838],[-0.943637,51.6515],[-0.944066,51.65195],[-0.947714,51.65211],[-0.945997,51.6536],[-0.938916,51.65389],[-0.938444,51.65434],[-0.933166,51.65221],[-0.930891,51.65344],[-0.931063,51.65498],[-0.928836,51.65552],[-0.927029,51.65163],[-0.9266,51.65221],[-0.927188,51.65455],[-0.925472,51.65455],[-0.922609,51.65639],[-0.922523,51.65685],[-0.924013,51.65929],[-0.927961,51.66137],[-0.928917,51.66345],[-0.931492,51.66467],[-0.928874,51.66638],[-0.928231,51.66513],[-0.924626,51.66558],[-0.923712,51.6679],[-0.917243,51.67239],[-0.913552,51.67287],[-0.91175,51.6742],[-0.896558,51.66999],[-0.896387,51.66949],[-0.892439,51.66792],[-0.877547,51.66853],[-0.880937,51.67196],[-0.884456,51.67377],[-0.89467,51.67441],[-0.89722,51.67588],[-0.896987,51.67665],[-0.893383,51.67918],[-0.89171,51.67843],[-0.886731,51.68155],[-0.881667,51.68048],[-0.879607,51.68093],[-0.880122,51.68245],[-0.888834,51.68825],[-0.891023,51.68873],[-0.891481,51.68848],[-0.893352,51.6893],[-0.894777,51.69095],[-0.888763,51.70037],[-0.889364,51.70138],[-0.886517,51.70501],[-0.888963,51.70738],[-0.889478,51.70722],[-0.887297,51.71476],[-0.888105,51.71868],[-0.891752,51.72158],[-0.895872,51.72205],[-0.90158,51.72854],[-0.900765,51.72968],[-0.908919,51.73614],[-0.909133,51.73683],[-0.917244,51.73718],[-0.919519,51.73909],[-0.919004,51.73933],[-0.920119,51.74116],[-0.920291,51.74387],[-0.923939,51.74791],[-0.928522,51.74595],[-0.932513,51.74975],[-0.932299,51.75057],[-0.933243,51.75214],[-0.936376,51.7536],[-0.944358,51.75336],[-0.95513,51.75803],[-0.974139,51.75778],[-0.978989,51.76038],[-0.981182,51.75839],[-0.980839,51.75738],[-0.981869,51.75589],[-0.98144,51.75557],[-0.981354,51.75483],[-0.980924,51.75472],[-0.980753,51.7536],[-0.984529,51.75201],[-0.98822,51.75233],[-0.987705,51.75313],[-0.989078,51.75286],[-0.993198,51.75392],[-0.99337,51.7544],[-0.998606,51.75339],[-0.998692,51.75451],[-0.999636,51.75408],[-1.003756,51.75461],[-1.0047,51.75424],[-1.007637,51.75482],[-1.007787,51.75607],[-1.016241,51.75617],[-1.016286,51.75587],[-1.025562,51.75584],[-1.030449,51.75796],[-1.032335,51.75649],[-1.03242,51.75288],[-1.031133,51.75147],[-1.031221,51.75031],[-1.029762,51.74866],[-1.029419,51.74654],[-1.03002,51.74553],[-1.036714,51.74383],[-1.044182,51.74505],[-1.045297,51.74441],[-1.045727,51.74473],[-1.045641,51.74547],[-1.048439,51.74811],[-1.0517,51.74912],[-1.053331,51.75071],[-1.052988,51.7514],[-1.067837,51.75454],[-1.069038,51.75645],[-1.077192,51.75873],[-1.080883,51.75644],[-1.083036,51.76003],[-1.081706,51.76667],[-1.079174,51.7697],[-1.079646,51.77007],[-1.078874,51.77126],[-1.080676,51.77222],[-1.080259,51.77287],[-1.082439,51.77357],[-1.079651,51.77731],[-1.083365,51.78076],[-1.095932,51.78233],[-1.096898,51.78024],[-1.105867,51.78141],[-1.105481,51.78167],[-1.114965,51.78703],[-1.121875,51.78711],[-1.122862,51.78857],[-1.120158,51.79234],[-1.123505,51.79425],[-1.121572,51.79668],[-1.11757,51.79915],[-1.120177,51.80032],[-1.121403,51.80471],[-1.124793,51.80755],[-1.124278,51.80768],[-1.123076,51.81026],[-1.12269,51.80997],[-1.118871,51.8105],[-1.118012,51.81129],[-1.117454,51.81432],[-1.110631,51.81734],[-1.119514,51.82087],[-1.127411,51.82888],[-1.129814,51.8292],[-1.130668,51.83088],[-1.140791,51.83446],[-1.123806,51.84304],[-1.121531,51.84543],[-1.103979,51.84079],[-1.091319,51.83424],[-1.089989,51.83424],[-1.086856,51.83153],[-1.076771,51.8292],[-1.072479,51.83052],[-1.071749,51.83384],[-1.067673,51.83503],[-1.066986,51.83397],[-1.062008,51.83233],[-1.058274,51.83583],[-1.046987,51.8397],[-1.047116,51.83989],[-1.04673,51.83996],[-1.046866,51.84037],[-1.051993,51.83988],[-1.062265,51.84415],[-1.062909,51.84686],[-1.063767,51.84771],[-1.061879,51.84855],[-1.065956,51.85266],[-1.065784,51.8528],[-1.06617,51.85322],[-1.063166,51.8542],[-1.063596,51.85465],[-1.063209,51.85478],[-1.063596,51.85526],[-1.062995,51.85542],[-1.064411,51.85746],[-1.063681,51.85778],[-1.064025,51.85812],[-1.063767,51.85831],[-1.066213,51.86451],[-1.065184,51.86483],[-1.06557,51.86581],[-1.064325,51.86629],[-1.065656,51.86788],[-1.06454,51.86814],[-1.06896,51.87397],[-1.068917,51.87437],[-1.070677,51.87408],[-1.07102,51.8736],[-1.072608,51.87389],[-1.072779,51.87482],[-1.075998,51.87543],[-1.076256,51.87585],[-1.076041,51.87636],[-1.076771,51.87808],[-1.076599,51.87871],[-1.072479,51.88112],[-1.071449,51.8811],[-1.070462,51.88203],[-1.070634,51.8824],[-1.069818,51.88306],[-1.070248,51.88452],[-1.071749,51.88483],[-1.068917,51.88648],[-1.069346,51.88716],[-1.070205,51.88743],[-1.070591,51.88854],[-1.077157,51.88769],[-1.077286,51.88812],[-1.076685,51.88878],[-1.092921,51.89346],[-1.091419,51.89722],[-1.086913,51.89754],[-1.084381,51.89926],[-1.085883,51.90093],[-1.085454,51.90177],[-1.085711,51.90318],[-1.084896,51.90442],[-1.085883,51.90545],[-1.082235,51.91186],[-1.082707,51.91567],[-1.080004,51.91618],[-1.079317,51.91708],[-1.086403,51.92059],[-1.086317,51.92276],[-1.082627,51.92298],[-1.082541,51.92636],[-1.082026,51.9262],[-1.081339,51.92737],[-1.08194,51.92774],[-1.081683,51.92816],[-1.078335,51.92737],[-1.074812,51.93071],[-1.077836,51.93148],[-1.062371,51.93488],[-1.055848,51.94272],[-1.055762,51.94589],[-1.054818,51.94615],[-1.05456,51.94822],[-1.054989,51.94891],[-1.065804,51.94753],[-1.075074,51.94356],[-1.078936,51.94303],[-1.080309,51.94457],[-1.079022,51.94642],[-1.081597,51.9507],[-1.089407,51.95388],[-1.088721,51.95552],[-1.095158,51.9571],[-1.090351,51.96377],[-1.088377,51.96509],[-1.087519,51.96684],[-1.086747,51.96668],[-1.083914,51.97107],[-1.084086,51.97202],[-1.082455,51.97255],[-1.078164,51.97926],[-1.079419,51.97978],[-1.054989,52.0012],[-1.052914,52.00189],[-1.057822,52.00305],[-1.057822,52.00379],[-1.058937,52.00463],[-1.058423,52.00701],[-1.059624,52.00812],[-1.074559,52.00648],[-1.075846,52.00812],[-1.081934,52.00802],[-1.082076,52.00741],[-1.086256,52.00695],[-1.086256,52.00639],[-1.087308,52.00627],[-1.087479,52.00599],[-1.090266,52.00627],[-1.090152,52.00695],[-1.091091,52.00883],[-1.091887,52.00904],[-1.092626,52.0107],[-1.094361,52.01105],[-1.094219,52.01165],[-1.095044,52.0121],[-1.095186,52.01312],[-1.095698,52.01352],[-1.095442,52.01446],[-1.096693,52.0153],[-1.098541,52.0152],[-1.100902,52.01273],[-1.107442,52.01371],[-1.107642,52.01448],[-1.111139,52.0159],[-1.112675,52.01569],[-1.113102,52.01665],[-1.114637,52.01683],[-1.114893,52.01637],[-1.116173,52.01663],[-1.116429,52.01583],[-1.118135,52.01543],[-1.119273,52.01642],[-1.119074,52.01562],[-1.133195,52.01963],[-1.133706,52.01935],[-1.136148,52.02026],[-1.136772,52.0227],[-1.135977,52.02333],[-1.136104,52.02565],[-1.126707,52.03738],[-1.126776,52.03807],[-1.12595,52.03866],[-1.126491,52.03938],[-1.125308,52.04006],[-1.125225,52.04062],[-1.12298,52.04198],[-1.12211,52.04486],[-1.116009,52.04767],[-1.104922,52.04892],[-1.102086,52.04803],[-1.098846,52.04879],[-1.097197,52.05039],[-1.095901,52.05055],[-1.095932,52.05104],[-1.091031,52.05117],[-1.08952,52.05195],[-1.08337,52.05206],[-1.083217,52.05256],[-1.082153,52.05265],[-1.080587,52.05672],[-1.076624,52.0582],[-1.077148,52.05863],[-1.076793,52.059],[-1.072076,52.05819],[-1.071133,52.05959],[-1.061833,52.06266],[-1.052552,52.05979],[-1.051739,52.06094],[-1.042281,52.06515],[-1.037529,52.06576],[-1.031127,52.06313],[-1.027281,52.06386],[-1.025951,52.06579],[-1.029488,52.07012],[-1.04248,52.07383],[-1.025914,52.07592],[-1.021136,52.07522],[-1.018664,52.07294],[-1.017048,52.07329],[-1.016505,52.07288],[-1.012768,52.07307],[-1.012317,52.07204],[-1.007258,52.07258],[-1.00594,52.072],[-1.005421,52.07225],[-1.006204,52.07286],[-1.005398,52.07367],[-0.999919,52.0726],[-0.994949,52.07325],[-0.984364,52.06977],[-0.980556,52.0717],[-0.973471,52.07286],[-0.967946,52.07093],[-0.961621,52.07781],[-0.951824,52.08149],[-0.949633,52.07974],[-0.947357,52.07988],[-0.945628,52.0781],[-0.946129,52.07737],[-0.939944,52.07583],[-0.944339,52.07342],[-0.944409,52.06998],[-0.939608,52.06753],[-0.942034,52.06649],[-0.940525,52.06505],[-0.94177,52.06425],[-0.939479,52.06222],[-0.934062,52.06244],[-0.93801,52.06138],[-0.936538,52.05843],[-0.931424,52.05393],[-0.929821,52.04955],[-0.930348,52.04575],[-0.929863,52.04519],[-0.930348,52.04375],[-0.930063,52.043],[-0.927854,52.0421],[-0.928006,52.04191],[-0.923867,52.03562],[-0.913579,52.02848],[-0.911159,52.02368],[-0.906389,52.02125],[-0.904523,52.02236],[-0.904026,52.02364],[-0.900924,52.02458],[-0.897875,52.02743],[-0.896714,52.02742],[-0.89102,52.03034],[-0.890028,52.03156],[-0.884237,52.02867],[-0.880404,52.02874],[-0.876907,52.03059],[-0.877264,52.03107],[-0.876122,52.03346],[-0.872983,52.03527],[-0.873259,52.03537],[-0.872033,52.03642],[-0.872794,52.03681],[-0.872917,52.03793],[-0.87121,52.04055],[-0.871407,52.04132],[-0.872106,52.04147],[-0.870302,52.04344],[-0.870461,52.04361],[-0.867639,52.04625],[-0.865448,52.04658],[-0.864884,52.0458],[-0.86334,52.04603],[-0.862695,52.04539],[-0.859113,52.04471],[-0.855523,52.04758],[-0.855529,52.04795],[-0.85283,52.05009],[-0.853783,52.05256],[-0.855391,52.05331],[-0.857923,52.05316],[-0.860369,52.05444],[-0.861124,52.05557],[-0.859957,52.05618],[-0.860437,52.0571],[-0.86013,52.05745],[-0.860717,52.05889],[-0.862849,52.05994],[-0.862524,52.06159],[-0.859788,52.06321],[-0.859619,52.06393],[-0.850341,52.06507],[-0.848928,52.06461],[-0.848789,52.06416],[-0.840339,52.0642],[-0.832714,52.06985],[-0.832698,52.07125],[-0.831935,52.07206],[-0.834927,52.07344],[-0.83506,52.07499],[-0.835859,52.07601],[-0.835443,52.07959],[-0.837273,52.08077],[-0.837856,52.0824],[-0.843931,52.0847],[-0.844067,52.08577],[-0.845343,52.08634],[-0.845564,52.08787],[-0.846417,52.08802],[-0.846502,52.08867],[-0.846088,52.08885],[-0.846578,52.09039],[-0.847186,52.09056],[-0.846571,52.09103],[-0.85033,52.09228],[-0.850775,52.09182],[-0.854663,52.09239],[-0.854921,52.09204],[-0.856453,52.09307],[-0.85798,52.09743],[-0.868637,52.09965],[-0.869014,52.10037],[-0.868739,52.10102],[-0.86601,52.10205],[-0.865357,52.10321],[-0.867184,52.10415],[-0.867472,52.10505],[-0.868583,52.10446],[-0.869849,52.10513],[-0.869432,52.10588],[-0.869696,52.10662],[-0.869086,52.10721],[-0.870084,52.10764],[-0.870135,52.10806],[-0.869033,52.10795],[-0.868554,52.10842],[-0.869968,52.11082],[-0.870521,52.11041],[-0.870615,52.11112],[-0.873153,52.11287],[-0.875629,52.11253],[-0.876067,52.11302],[-0.881832,52.11272],[-0.883726,52.11356],[-0.886083,52.11337],[-0.887072,52.11475],[-0.883042,52.11767],[-0.883118,52.11818],[-0.88213,52.11823],[-0.882244,52.11879],[-0.881483,52.11923],[-0.881597,52.12019],[-0.880911,52.12082],[-0.881126,52.12138],[-0.880595,52.12272],[-0.881126,52.12336],[-0.880807,52.1239],[-0.88024,52.12383],[-0.881142,52.12615],[-0.869597,52.13009],[-0.869881,52.13046],[-0.868742,52.13093],[-0.868463,52.13054],[-0.853831,52.13188],[-0.85343,52.13063],[-0.851799,52.12954],[-0.839324,52.13062],[-0.836215,52.13285],[-0.832794,52.13179],[-0.829641,52.13334],[-0.830174,52.1346],[-0.828509,52.13531],[-0.829801,52.13849],[-0.829446,52.13858],[-0.83001,52.13972],[-0.829738,52.13977],[-0.829979,52.14068],[-0.820149,52.14318],[-0.819909,52.14418],[-0.823263,52.14703],[-0.824738,52.15014],[-0.824339,52.15086],[-0.82738,52.15086],[-0.827944,52.15357],[-0.819161,52.15336],[-0.817557,52.15524],[-0.807597,52.15555],[-0.807618,52.15703],[-0.802774,52.15799],[-0.802401,52.15854],[-0.800314,52.15749],[-0.797289,52.15356],[-0.795246,52.15415],[-0.79461,52.15364],[-0.794869,52.15254],[-0.792777,52.15154],[-0.784322,52.15832],[-0.783567,52.16016],[-0.780318,52.16345],[-0.783278,52.16409],[-0.783225,52.16583],[-0.779489,52.16563],[-0.778019,52.16888],[-0.765055,52.17104],[-0.763588,52.16751],[-0.762478,52.16649],[-0.761963,52.16381],[-0.760745,52.16424],[-0.7598,52.16565],[-0.756548,52.16757],[-0.75038,52.16785],[-0.749503,52.16708],[-0.746612,52.16853],[-0.745514,52.17005],[-0.738743,52.17118],[-0.736869,52.1736],[-0.73437,52.17354],[-0.729382,52.17945],[-0.717941,52.18289],[-0.699237,52.19365],[-0.673283,52.19561],[-0.6699688515612072,52.19442093867311],[-0.669816,52.19352],[-0.658068,52.18789],[-0.643964,52.18689],[-0.640486,52.18171],[-0.631149,52.17944],[-0.630344,52.17407],[-0.636901,52.16828],[-0.632196,52.16123],[-0.632341,52.15712],[-0.642685,52.15333],[-0.637102,52.13817],[-0.619998,52.13119],[-0.607615,52.13139],[-0.600757,52.12445],[-0.597,52.11138],[-0.603447,52.10621],[-0.602504,52.10253],[-0.609409,52.09323],[-0.636538,52.07981],[-0.642944,52.06942],[-0.651772,52.06598],[-0.670744,52.04959],[-0.64571,52.03529],[-0.644888,52.02419],[-0.65294,52.01898],[-0.649979,52.01208],[-0.663672,51.99975],[-0.662308,51.98976],[-0.658273,51.98714],[-0.658092,51.98143],[-0.651063,51.97354],[-0.662466,51.95845],[-0.673292,51.9574],[-0.673967,51.94842],[-0.684246,51.94349],[-0.683963,51.93749],[-0.692948,51.92836],[-0.6930119160441881,51.92794465578633],[-0.701154,51.92711]]]}}
