{"type":"Feature","properties":{"sourceId":"bretagne"},"geometry":{"type":"Polygon","coordinates":[[[-1.928206226597407,48.8908836147644],[-1.966971,48.86383],[-1.9681,48.86001],[-1.666686,48.65142],[-1.571844,48.62329],[-1.567768,48.61266],[-1.551979,48.60578],[-1.543588,48.59616],[-1.546749,48.58753],[-1.545221,48.5787],[-1.533671,48.57756],[-1.529018,48.57186],[-1.531666,48.55854],[-1.537027,48.55117],[-1.535682,48.54597],[-1.523633,48.53861],[-1.519818,48.5281],[-1.499919,48.50791],[-1.491328,48.48732],[-1.474603,48.48285],[-1.467007,48.48489],[-1.459452,48.48221],[-1.449723,48.48389],[-1.441586,48.47758],[-1.442868,48.46977],[-1.428811,48.45935],[-1.397171,48.45851],[-1.380029,48.45334],[-1.369108,48.45791],[-1.362762,48.46381],[-1.35585,48.46449],[-1.342987,48.47109],[-1.344132,48.48096],[-1.339109,48.48719],[-1.327741,48.48399],[-1.324038,48.4941],[-1.299594,48.49673],[-1.291294,48.5038],[-1.278248,48.50677],[-1.267755,48.52233],[-1.266099,48.53404],[-1.252786,48.54049],[-1.238658,48.53521],[-1.204821,48.53607],[-1.200453,48.52967],[-1.191194,48.52598],[-1.169222,48.52782],[-1.157513,48.51785],[-1.148187,48.51536],[-1.120339,48.51875],[-1.104631,48.5107],[-1.09238,48.50809],[-1.0758568677317952,48.50602098769494],[-1.079394,48.503],[-1.081223,48.48086],[-1.070376,48.46524],[-1.068647,48.45569],[-1.070697,48.45105],[-1.081846,48.44478],[-1.086054,48.43356],[-1.081666,48.42386],[-1.082461,48.41269],[-1.070826,48.40322],[-1.058595,48.38376],[-1.06803,48.36709],[-1.061748,48.36218],[-1.062236,48.34724],[-1.050569,48.32846],[-1.062361,48.3142],[-1.083461,48.30053],[-1.092422,48.29083],[-1.096245,48.27533],[-1.102658,48.26911],[-1.104469,48.26222],[-1.093994,48.23192],[-1.087008,48.22401],[-1.085874,48.21722],[-1.089306,48.20811],[-1.079392,48.19868],[-1.083371,48.1762],[-1.080991,48.16765],[-1.076719,48.16284],[-1.076037,48.15755],[-1.067053,48.15573],[-1.063696,48.15041],[-1.061615,48.12469],[-1.051869,48.08912],[-1.043066,48.07701],[-1.029483,48.06799],[-1.036217,48.05247],[-1.03242,48.03952],[-1.037448,48.0334],[-1.02273,48.01467],[-1.020813,48.00641],[-1.024715,47.99712],[-1.041375,47.99277],[-1.050581,47.98746],[-1.063409,47.98808],[-1.072211,47.98535],[-1.102131,47.99182],[-1.125091,47.98935],[-1.130344,47.98304],[-1.132237,47.97417],[-1.158144,47.96606],[-1.16306,47.95838],[-1.164842,47.94103],[-1.169924,47.93562],[-1.168124,47.9247],[-1.171379,47.91756],[-1.177639,47.91262],[-1.180289,47.89919],[-1.184564,47.89518],[-1.192874,47.89444],[-1.199306,47.88888],[-1.200637,47.88188],[-1.199201,47.87602],[-1.194671,47.87241],[-1.194943,47.86808],[-1.202816,47.8614],[-1.215903,47.85987],[-1.225586,47.85337],[-1.225474,47.84935],[-1.217823,47.84247],[-1.219344,47.83305],[-1.226325,47.82351],[-1.236204,47.8208],[-1.238288,47.81488],[-1.244866,47.80881],[-1.241399,47.79738],[-1.24901,47.78082],[-1.355997,47.80082],[-1.363354,47.80879],[-1.372905,47.81168],[-1.379097,47.82403],[-1.388595,47.83064],[-1.398439,47.83166],[-1.405675,47.82891],[-1.417294,47.83105],[-1.424088,47.83534],[-1.439214,47.83363],[-1.456415,47.83508],[-1.462432,47.83843],[-1.470393,47.83652],[-1.478701,47.83833],[-1.485741,47.8308],[-1.473493,47.81474],[-1.472972,47.80572],[-1.492221,47.80107],[-1.504554,47.80363],[-1.534376,47.78664],[-1.553653,47.7879],[-1.567155,47.78206],[-1.587606,47.78197],[-1.596725,47.77685],[-1.604614,47.76612],[-1.624094,47.76582],[-1.629387,47.76103],[-1.631633,47.75219],[-1.639351,47.74244],[-1.64295,47.72653],[-1.661235,47.71368],[-1.690349,47.71574],[-1.712008,47.71061],[-1.715024,47.704],[-1.723198,47.70144],[-1.751329,47.71],[-1.772074,47.70119],[-1.819175,47.70788],[-1.827433,47.71323],[-1.841317,47.70849],[-1.858479,47.71081],[-1.86585,47.70888],[-1.869894,47.7033],[-1.878666,47.6984],[-1.89731,47.69844],[-1.937446,47.68897],[-1.958454,47.67386],[-1.964959,47.67498],[-1.966699,47.69035],[-1.974492,47.69687],[-1.989399,47.6835],[-2.008521,47.67509],[-2.013725,47.66994],[-2.039949,47.6721],[-2.051712,47.66385],[-2.051625,47.65749],[-2.054535,47.65324],[-2.075832,47.65436],[-2.082265,47.65254],[-2.092714,47.64395],[-2.099912,47.63123],[-2.087764,47.62119],[-2.087848,47.60723],[-2.105073,47.59722],[-2.104438,47.58292],[-2.10806,47.57792],[-2.101177,47.56925],[-2.10742,47.54836],[-2.101647,47.53725],[-2.116151,47.53098],[-2.132064,47.53363],[-2.137933,47.52814],[-2.157504,47.52395],[-2.15665,47.50149],[-2.16484,47.49348],[-2.181321,47.49497],[-2.18213,47.51281],[-2.184476,47.51472],[-2.215351,47.51098],[-2.231896,47.50083],[-2.244601,47.49703],[-2.253342,47.50166],[-2.251945,47.5076],[-2.254987,47.51424],[-2.262437,47.5159],[-2.281327,47.51411],[-2.286575,47.51802],[-2.296884,47.51852],[-2.300963,47.51637],[-2.300119,47.50932],[-2.305629,47.49438],[-2.315565,47.48677],[-2.315808,47.46715],[-2.320143,47.46322],[-2.354933,47.45884],[-2.368204,47.4668],[-2.381379,47.46519],[-2.389387,47.46026],[-2.399292,47.45876],[-2.413509,47.46322],[-2.41621,47.47361],[-2.421249,47.47889],[-2.429807,47.47826],[-2.438976,47.46969],[-2.454873,47.46427],[-2.457137,47.45463],[-2.461965,47.44925],[-2.6052623761199523,47.3702313341493],[-2.606214,47.36983],[-2.606248939748433,47.369687312033825],[-2.674666,47.33196],[-2.6277837179832217,47.281742955071884],[-2.644864,47.21199],[-5.291812,47.07722],[-5.848854,48.73763],[-3.116288650984003,49.32967133626424],[-2.795213,49.07351],[-2.1568713308209118,49.02756892576434],[-1.928206226597407,48.8908836147644]]]}}
