{"type":"Feature","properties":{"sourceId":"belgium"},"geometry":{"type":"MultiPolygon","coordinates":[[[[2.340725,51.31453],[3.01078,51.59839],[3.234284324012008,51.48462290661277],[3.242792,51.45818],[3.306017,51.43103],[3.350258,51.37673],[3.371675,51.35815],[3.371422,51.3471],[3.380865,51.33946],[3.38192,51.33537],[3.355429,51.31553],[3.370756,51.30293],[3.36301,51.29803],[3.377565,51.2858],[3.373119,51.27568],[3.40601,51.2543],[3.420358,51.25367],[3.426458,51.24184],[3.448568,51.23851],[3.531246,51.24537],[3.525554,51.27896],[3.582435,51.28398],[3.590697,51.29181],[3.586048,51.29815],[3.58992,51.30156],[3.640011,51.28518],[3.657541,51.2872],[3.69315,51.27314],[3.753589,51.26683],[3.768807,51.2569],[3.788309,51.25407],[3.785459,51.22651],[3.789446,51.21154],[3.824674,51.20596],[3.837323,51.21064],[3.874627,51.20794],[3.886517,51.19717],[3.959444,51.21294],[3.966785,51.22128],[3.980126,51.22262],[4.014192,51.2418],[4.040278,51.23833],[4.062695,51.24169],[4.167273,51.29012],[4.244665,51.3525],[4.222024,51.37104],[4.278407,51.37282],[4.278406889934505,51.372823569691704],[4.332372,51.37453],[4.340371,51.35473],[4.384498,51.35135],[4.422241,51.36214],[4.432594,51.36112],[4.434043,51.37691],[4.393899,51.41018],[4.387858,51.41998],[4.397519,51.425],[4.401744,51.43458],[4.39342,51.44904],[4.443222,51.46573],[4.465859,51.46823],[4.476857,51.47526],[4.537175,51.47927],[4.544128,51.47294],[4.52697,51.45018],[4.534364,51.42022],[4.574917,51.42981],[4.64147,51.41902],[4.671392,51.42389],[4.670006,51.44242],[4.694952,51.44937],[4.706865,51.46444],[4.718609,51.4664],[4.731148,51.48153],[4.748593,51.4873],[4.754141,51.4971],[4.778101,51.50142],[4.782196,51.49669],[4.814349,51.4919],[4.819916,51.48033],[4.837352,51.47891],[4.833136,51.46093],[4.820426,51.44923],[4.824689,51.4261],[4.787077,51.43569],[4.766441,51.43365],[4.763576,51.4303],[4.769536,51.41241],[4.789316,51.40599],[4.839025,51.41159],[4.867381,51.40611],[4.876084,51.41217],[4.888757,51.41218],[4.90576,51.40561],[4.913135,51.39849],[4.911727,51.39296],[4.921044,51.39069],[5.006537,51.44165],[5.013917,51.45484],[5.012929,51.46986],[5.036552,51.48414],[5.035358,51.47774],[5.044581,51.46836],[5.077345,51.46836],[5.100715,51.43182],[5.06835,51.3925],[5.128835,51.34524],[5.131953,51.3137],[5.162749,51.30732],[5.200519,51.31929],[5.238275,51.3036],[5.222979,51.26846],[5.236915,51.25852],[5.263199,51.26375],[5.295677,51.25852],[5.337141,51.26014],[5.349209,51.27218],[5.417866,51.25932],[5.444162,51.27934],[5.465753,51.28171],[5.485651,51.29692],[5.51387,51.29247],[5.527008,51.27927],[5.553776,51.2642],[5.551906,51.24401],[5.559201,51.2196],[5.56497,51.21808],[5.564970392226597,51.218080374650405],[5.648135,51.19614],[5.647189,51.19204],[5.657367,51.18182],[5.688692,51.18217],[5.70928,51.17742],[5.740733,51.18192],[5.745984,51.18629],[5.766246,51.18077],[5.772426,51.17741],[5.767215,51.16382],[5.774877,51.16027],[5.771871,51.15387],[5.777226,51.14833],[5.805567,51.15941],[5.816153,51.15606],[5.82463,51.16433],[5.829746,51.16062],[5.834189,51.15161],[5.847521,51.14496],[5.839765,51.13404],[5.819013,51.12923],[5.804669,51.11301],[5.811779,51.10514],[5.828523,51.10386],[5.82987,51.09896],[5.823016,51.09533],[5.806251,51.09913],[5.793639,51.0933],[5.793118,51.08655],[5.801836,51.07913],[5.793751,51.0727],[5.797835,51.06284],[5.772074,51.06496],[5.767694,51.04987],[5.755501,51.03584],[5.757832,51.0283],[5.773253,51.02276],[5.764155,51.01341],[5.764667,51.00065],[5.748154,50.98499],[5.735358,50.98098],[5.716823,50.96198],[5.725894,50.95235],[5.7461,50.95863],[5.756042,50.95314],[5.744784,50.9497],[5.738869,50.93755],[5.725882,50.92762],[5.721419,50.9119],[5.698111,50.91344],[5.693287,50.89948],[5.676125,50.8839],[5.642047,50.87348],[5.635965,50.84691],[5.652121,50.81774],[5.696357,50.80536],[5.688232,50.79559],[5.698492,50.78262],[5.680362,50.76391],[5.681583,50.75474],[5.699182,50.75228],[5.720635,50.7603],[5.740229,50.75426],[5.749096,50.7682],[5.773869,50.78021],[5.782796,50.7647],[5.792512,50.76668],[5.806889,50.75315],[5.831393,50.75563],[5.84299,50.76171],[5.849655,50.7505],[5.864401,50.7606],[5.885185,50.76631],[5.888615,50.75349],[5.900865,50.74848],[5.911786,50.75229],[5.914113,50.74753],[5.920645,50.74848],[5.958986,50.75926],[5.982748,50.74985],[6.019160500137302,50.75208620977536],[6.019201,50.75195],[6.025047,50.74938],[6.025009,50.7471],[6.027889,50.74607],[6.031166,50.74752],[6.03764,50.74453],[6.03197,50.73467],[6.030778,50.72465],[6.037657,50.7169],[6.043208,50.71714],[6.045546,50.72501],[6.066684,50.72084],[6.094494,50.7183],[6.112047,50.72004],[6.120466,50.71143],[6.118795,50.70633],[6.16186,50.66052],[6.178174,50.65128],[6.178072,50.6474],[6.161982,50.6443],[6.178642,50.63119],[6.171396,50.62769],[6.173729,50.62284],[6.1841,50.62119],[6.195948,50.63047],[6.216819,50.62796],[6.238735,50.6219],[6.26347,50.62508],[6.264146,50.61852],[6.253477,50.61014],[6.242704,50.60384],[6.24372,50.59864],[6.239362,50.58977],[6.222743,50.59348],[6.217025,50.58289],[6.203311,50.57832],[6.197883,50.57016],[6.18861,50.56833],[6.168355,50.55667],[6.174841,50.55248],[6.174865,50.53959],[6.194955,50.53408],[6.184153,50.52774],[6.192473,50.51962],[6.221242,50.4934],[6.229808,50.49148],[6.235855,50.49586],[6.250108,50.50007],[6.252165,50.4975],[6.265073,50.49642],[6.270893,50.50049],[6.281974,50.49713],[6.299009,50.49495],[6.308874,50.49872],[6.322428,50.49096],[6.339727,50.48684],[6.338218,50.483],[6.334259,50.47205],[6.339886,50.45454],[6.34972,50.45055],[6.373652,50.44904],[6.374302,50.43625],[6.360779,50.4186],[6.363654,50.40931],[6.337723,50.38013],[6.362936,50.35697],[6.373506187866893,50.35365063911336],[6.373506,50.35365],[6.396627,50.34639],[6.399327,50.33692],[6.402186,50.32711],[6.394689,50.32397],[6.394692623330185,50.323969021594706],[6.391522,50.32264],[6.382171,50.32333],[6.358797,50.31645],[6.354192,50.31813],[6.3438,50.31925],[6.338947,50.32371],[6.3307,50.32672],[6.316627,50.32436],[6.308274,50.32281],[6.295691,50.31333],[6.285336,50.29668],[6.283009,50.29292],[6.280403,50.28671],[6.278913,50.27584],[6.281624,50.27305],[6.278526,50.27301],[6.278459,50.27252],[6.258945,50.26959],[6.230175,50.26304],[6.211925,50.25747],[6.200669,50.25149],[6.193317,50.23908],[6.171981,50.23685],[6.170094,50.23578],[6.169209,50.23417],[6.167865,50.23075],[6.166937,50.23004],[6.161098,50.21942],[6.169571,50.21305],[6.173969,50.21064],[6.174706,50.20066],[6.17733,50.19274],[6.183067,50.18378],[6.18036,50.18359],[6.180443,50.18334],[6.144425,50.18042],[6.133097,50.17106],[6.132227,50.17016],[6.131864,50.16888],[6.140082,50.15733],[6.130732,50.1574],[6.128993,50.15054],[6.129474,50.1488],[6.147289,50.14614],[6.148776,50.14093],[6.13854,50.13635],[6.137881,50.13505],[6.135232900938857,50.1327106336419],[6.123691,50.13719],[6.113228,50.13739],[6.127695,50.14993],[6.120101,50.15594],[6.122501,50.16437],[6.101762,50.17199],[6.078237,50.17255],[6.07668,50.15913],[6.060695,50.15536],[6.034984,50.16356],[6.026268,50.18496],[5.961753,50.17631],[5.952856,50.13384],[5.891965,50.12041],[5.880997,50.08069],[5.857809,50.07186],[5.850872,50.0563],[5.861889,50.04581],[5.847923,50.02809],[5.815606,50.01437],[5.818057,49.99936],[5.834616,49.98656],[5.831293,49.97995],[5.806521,49.97321],[5.80524,49.96677],[5.786724,49.96816],[5.768802,49.96104],[5.768783,49.94239],[5.770728,49.93711],[5.760393,49.93252],[5.757834,49.91737],[5.733033,49.90285],[5.734598,49.89341],[5.775053,49.88057],[5.775668,49.87438],[5.749545,49.87554],[5.752288,49.85922],[5.740663,49.85152],[5.753989,49.84878],[5.746237,49.84783],[5.747012,49.84048],[5.740531,49.84142],[5.737197,49.83353],[5.745814,49.82435],[5.741591,49.82126],[5.750937,49.79094],[5.765172,49.78961],[5.786264,49.79079],[5.820728,49.74878],[5.824894,49.73767],[5.821381,49.72209],[5.843249,49.71822],[5.864811,49.72331],[5.875703,49.71118],[5.857944,49.68451],[5.861378,49.67446],[5.899339,49.66239],[5.899978,49.63907],[5.882749,49.63551],[5.87348,49.62033],[5.872364,49.60854],[5.845652,49.5981],[5.847116,49.58961],[5.85022,49.58448],[5.862888,49.58525],[5.868663,49.587],[5.859432,49.57158],[5.841293,49.56197],[5.8195596045157,49.550008570013716],[5.771656,49.56579],[5.699646,49.54849],[5.648722,49.55716],[5.60362,49.52331],[5.5573,49.53101],[5.473374,49.50552],[5.464153,49.55985],[5.418881,49.61136],[5.395055,49.61946],[5.393663496719477,49.61890974644045],[5.392588,49.62029],[5.34221,49.63741],[5.330195,49.66086],[5.269212,49.69903],[5.172503,49.69729],[5.166264,49.71575],[5.130979,49.72719],[5.095318,49.76647],[5.010602,49.78463],[4.99809,49.8034],[4.886018,49.80282],[4.864919,49.86129],[4.899263,49.9095],[4.815237,49.98043],[4.846397,50.04192],[4.843484,50.07472],[4.875612,50.08635],[4.901517,50.13981],[4.880676,50.15491],[4.824017,50.17007],[4.758854,50.13708],[4.695282,50.09427],[4.67542,50.06663],[4.671075,50.0073],[4.430317,49.94678],[4.309461,49.97151],[4.23155,49.96418],[4.230800130923465,49.95925246679886],[4.224963,49.96057],[4.215818,49.95857],[4.201232,49.95863],[4.199229,49.96052],[4.199842,49.96596],[4.197967,49.96866],[4.17897,49.97353],[4.173201,49.97837],[4.172813721514648,49.97833765342294],[4.18139,49.98989],[4.149156,50.02673],[4.236622,50.06639],[4.203708,50.13668],[4.150909,50.13764],[4.167066,50.20974],[4.229065,50.25562],[4.208602,50.27597],[4.099844,50.31431],[4.019507,50.36707],[3.907037,50.33462],[3.847269,50.35704],[3.745572,50.3571],[3.702368,50.31903],[3.680763,50.33713],[3.675957,50.4037],[3.672405,50.4527],[3.611669,50.49798],[3.570041,50.50262],[3.502235,50.49618],[3.527813,50.52325],[3.477201,50.53878],[3.383281,50.50011],[3.293582,50.53136],[3.285786,50.59875],[3.247681,50.66492],[3.270985,50.67452],[3.2657,50.70288],[3.247236,50.71366],[3.212998,50.7159],[3.201828,50.7358],[3.151858,50.79197],[3.112746,50.79655],[3.05609,50.78272],[3.004094,50.77965],[2.936352,50.74634],[2.900805,50.70449],[2.848185,50.72487],[2.811623,50.72165],[2.785034,50.75253],[2.724426,50.81543],[2.631189,50.83253],[2.610007,50.91976],[2.637097,50.94448],[2.612142,50.9923],[2.583292,51.00078],[2.565332,51.06589],[2.479568,51.20337],[2.4102768804669052,51.236418944212694],[2.340725,51.31453]]],[[[4.150931598151147,49.9777172290013],[4.166173278773721,49.97778302516198],[4.152967,49.97668],[4.150931598151147,49.9777172290013]]],[[[4.144466669099206,49.97768932082495],[4.146300485044395,49.97769723714675],[4.14487,49.97745],[4.144466669099206,49.97768932082495]]]]}}
