{"type":"Feature","properties":{"sourceId":"bahamas"},"geometry":{"type":"Polygon","coordinates":[[[-79.34379,27.2834],[-78.78879,27.97497],[-77.88197,27.80011],[-71.86673,23.77465],[-72.53175,21.95452],[-72.90642578307347,20.520435544686734],[-73.1431,20.46002],[-73.23503533875808,20.37774797554497],[-74.15547797207907,20.74489181530481],[-74.74927,21.06063],[-76.38074,21.74084],[-77.99847,22.88171],[-78.99548,23.08652],[-79.84967,23.32886],[-80.65613,23.60427],[-81.12387429193487,23.541841542743605],[-81.51857,23.66466],[-80.38255,24.43817],[-79.84425,24.5427],[-79.34379,27.2834]]]}}
