{"type":"Feature","properties":{"sourceId":"bourgogne"},"geometry":{"type":"MultiPolygon","coordinates":[[[[4.247609,46.16784],[4.254017,46.16928],[4.258943,46.1761],[4.258848,46.17889],[4.254467,46.18471],[4.244428,46.18644],[4.233502,46.17849],[4.224782,46.17657],[4.219113,46.18362],[4.205866,46.19312],[4.187045,46.18682],[4.185982,46.18217],[4.189887,46.17565],[4.187003,46.17313],[4.164234,46.17187],[4.133221,46.17603],[4.129541,46.18037],[4.103287,46.19678],[4.09449,46.19185],[4.077263,46.18926],[4.070016,46.18532],[4.059952,46.18688],[4.052361,46.18019],[4.033985,46.17186],[4.031083,46.16783],[4.019539,46.17096],[4.0027,46.1692],[3.994892,46.17103],[3.989792,46.16766],[3.978547,46.17742],[3.976637,46.18319],[3.972173,46.18518],[3.96989,46.18995],[3.971556,46.19277],[3.971106,46.19902],[3.96925,46.20108],[3.933569,46.2049],[3.917679,46.20138],[3.911533,46.20597],[3.898283,46.20879],[3.889773,46.21314],[3.889243,46.21527],[3.896308,46.22648],[3.895855,46.23845],[3.898524,46.24211],[3.904564,46.24223],[3.906533,46.2474],[3.903728,46.25229],[3.906714,46.25695],[3.903918,46.27132],[3.9004372249548025,46.273783211655285],[3.901512,46.27391],[3.897912,46.28329],[3.904845,46.29142],[3.915098,46.29424],[3.934365,46.29404],[3.94572,46.29797],[3.950128,46.30346],[3.953354,46.31619],[3.97087,46.31851],[3.98926,46.31238],[3.993726,46.31922],[4.005736,46.32555],[4.006639,46.32876],[4.003845,46.33048],[3.991098,46.33005],[3.988491,46.33274],[3.994264,46.37188],[3.985867,46.38228],[3.980944,46.39738],[3.990905,46.40786],[3.988384,46.4179],[3.99811,46.42495],[3.996714,46.43456],[4.008047,46.44243],[4.001139,46.45195],[4.004086,46.45948],[4.000274,46.46704],[3.982047,46.476],[3.976078,46.48201],[3.959311,46.48173],[3.960332,46.49118],[3.954186,46.49448],[3.932662,46.49392],[3.920648,46.49822],[3.910352,46.49832],[3.900198,46.49374],[3.891406,46.48482],[3.87021,46.49068],[3.863943,46.49587],[3.866714,46.51278],[3.858139,46.51782],[3.848437,46.51653],[3.846606,46.52018],[3.848302,46.52582],[3.838966,46.53396],[3.804719,46.52252],[3.796303,46.52951],[3.78215,46.53114],[3.779299,46.53814],[3.773735,46.54102],[3.753293,46.5389],[3.740405,46.54362],[3.735637,46.55065],[3.742372,46.55761],[3.745677,46.56612],[3.737771,46.59468],[3.739844,46.60245],[3.73498,46.60677],[3.719269,46.60926],[3.718921,46.61345],[3.726545,46.62308],[3.725743,46.62821],[3.711412,46.63691],[3.697939,46.66293],[3.674329,46.67395],[3.675562,46.68174],[3.673668,46.68524],[3.658045,46.69018],[3.654595,46.69967],[3.657371,46.70575],[3.655771,46.70891],[3.641131,46.7103],[3.639136,46.72718],[3.626602,46.73835],[3.632358,46.7521],[3.624588,46.7565],[3.600489,46.75449],[3.593081,46.76416],[3.587736,46.7638],[3.573416,46.74945],[3.592311,46.729],[3.591705,46.72488],[3.58346,46.72114],[3.576506,46.7261],[3.564802,46.71878],[3.554861,46.72405],[3.545293,46.72328],[3.545181,46.70751],[3.554395,46.69216],[3.553189,46.68707],[3.543043,46.68238],[3.537767,46.68916],[3.530407,46.69162],[3.510224,46.68508],[3.507202,46.67767],[3.484438,46.6625],[3.482253,46.65538],[3.459814,46.65524],[3.450494,46.66384],[3.451418,46.66925],[3.457215,46.67521],[3.455293,46.69088],[3.447825,46.69505],[3.435729,46.69637],[3.433116,46.70168],[3.436019,46.71392],[3.421597,46.71645],[3.410132,46.71389],[3.390279,46.71741],[3.378506,46.71526],[3.37288,46.70137],[3.365544,46.69412],[3.344909,46.68751],[3.316593,46.69173],[3.305654,46.70598],[3.301849,46.71843],[3.287922,46.71664],[3.270169,46.71922],[3.257447,46.70972],[3.227672,46.69872],[3.223303,46.69087],[3.213999,46.68525],[3.198303,46.68291],[3.166302,46.69592],[3.130246,46.72967],[3.088322,46.73864],[3.063734,46.75077],[3.050155,46.76033],[3.040696,46.7727],[3.038541,46.78727],[3.032845,46.79699],[3.0313112468517303,46.797111166939324],[3.032371,46.80242],[3.044183,46.81678],[3.057087,46.8259],[3.057596,46.83034],[3.05362,46.83725],[3.054318,46.84085],[3.05754,46.84429],[3.067914,46.85152],[3.063976,46.86526],[3.065169,46.88199],[3.059781,46.89643],[3.049887,46.90485],[3.048618,46.90982],[3.054741,46.92148],[3.062384,46.93064],[3.062987,46.93718],[3.076568,46.95402],[3.07606,46.95979],[3.069485,46.96456],[3.060443,46.97999],[3.06482,47.00316],[3.072002,47.01195],[3.074031,47.01804],[3.072986,47.02706],[3.074264,47.0343],[3.06763,47.04574],[3.061709,47.04422],[3.054386,47.04651],[3.044623,47.05195],[3.041652,47.05615],[3.028949,47.05776],[3.021661,47.0625],[3.018457,47.06678],[3.018954,47.07664],[3.030535,47.09326],[3.02913,47.12242],[3.027531,47.12748],[3.015423,47.14075],[3.015205,47.14529],[3.018537,47.15446],[3.014907,47.15945],[3.01204,47.17036],[3.00496,47.1857],[2.995274,47.20381],[2.981812,47.21947],[2.977288,47.22956],[2.97606,47.2356],[2.979324,47.24322],[2.980664,47.25387],[2.977667,47.26133],[2.972306,47.26743],[2.937949,47.28594],[2.926707,47.29686],[2.912471,47.30726],[2.904831,47.3107],[2.885595,47.3145],[2.875211,47.3219],[2.871234,47.33479],[2.868489,47.33778],[2.870445,47.34698],[2.889334,47.36597],[2.90518,47.39522],[2.91792,47.40647],[2.918883,47.42237],[2.928905,47.43249],[2.930012,47.43945],[2.913612,47.46968],[2.897618,47.4811],[2.889639,47.50559],[2.857581,47.53022],[2.849372,47.53417],[2.845727,47.53809],[2.843279,47.54474],[2.85949,47.55544],[2.863523,47.5492],[2.868419,47.54773],[2.871941,47.54953],[2.873925,47.55451],[2.89087,47.5543],[2.898427,47.55608],[2.906656,47.55962],[2.914001,47.56723],[2.957363,47.55951],[2.965867,47.56693],[2.96672,47.56986],[2.961199,47.57625],[2.961526,47.58211],[2.95715,47.58733],[2.949957,47.58738],[2.94264,47.59211],[2.935045,47.59912],[2.940778,47.6059],[2.94114,47.60864],[2.933092,47.62027],[2.930865,47.6275],[2.935625,47.6377],[2.947291,47.64462],[2.947326,47.64907],[2.937895,47.65627],[2.928872,47.6565],[2.925333,47.65845],[2.916927,47.66969],[2.921487,47.6801],[2.907334,47.6898],[2.901082,47.69503],[2.877776,47.70321],[2.882339,47.71155],[2.879092,47.71684],[2.87529,47.71727],[2.860835,47.70901],[2.853885,47.71434],[2.847713,47.71603],[2.848387,47.73298],[2.852725,47.73745],[2.856473,47.74758],[2.855655,47.75174],[2.85072,47.75821],[2.855925,47.76297],[2.861521,47.76263],[2.870543,47.76626],[2.909631,47.77052],[2.915419,47.7705],[2.923425,47.76573],[2.937057,47.76749],[2.947577,47.76731],[2.95399,47.77638],[2.962221,47.77677],[2.976572,47.78117],[2.987536,47.7873],[3.022519,47.7885],[3.025796,47.79672],[3.025946,47.80269],[3.021266,47.81115],[3.013744,47.81315],[3.015749,47.81771],[3.012945,47.82209],[3.011003,47.83443],[3.028251,47.83754],[3.030401,47.84219],[3.029676,47.85019],[3.021623,47.85907],[3.010564,47.86094],[2.993478,47.86701],[2.994577,47.86871],[3.004173,47.8714],[3.0095,47.87614],[3.009606,47.88088],[3.005797,47.88363],[3.0063,47.89599],[3.008128,47.90596],[3.017658,47.90927],[3.035767,47.91293],[3.041119,47.91003],[3.047686,47.91206],[3.05024,47.92525],[3.061461,47.92758],[3.064596,47.93161],[3.083803,47.94382],[3.098079,47.94985],[3.108346,47.96281],[3.12685,47.97173],[3.12661,47.98025],[3.118574,47.9865],[3.121238,47.99075],[3.119479,47.99603],[3.119584,48.00839],[3.116378,48.01079],[3.109579,48.00971],[3.104174,48.01177],[3.098385,48.01906],[3.100601,48.02453],[3.111111,48.0278],[3.111526,48.0317],[3.093877,48.03935],[3.08754,48.05229],[3.07942,48.05892],[3.060205,48.0634],[3.050351,48.071],[3.04802,48.07744],[3.04835,48.08936],[3.042404,48.09233],[3.037205,48.09797],[3.034596,48.11142],[3.032605,48.113],[3.020485,48.11347],[3.014739,48.11538],[3.023778,48.12947],[3.022491,48.13364],[3.010433,48.14389],[3.005933,48.14361],[2.997779,48.13875],[2.993458,48.14102],[2.981111,48.14836],[2.963364,48.15181],[2.956263,48.15653],[2.950803,48.16331],[2.937132470666819,48.16239452106419],[2.935769,48.17404],[2.937666,48.18062],[2.953719,48.19029],[2.971594,48.19317],[2.974722,48.19638],[2.974419,48.20135],[2.976878,48.20431],[2.986428,48.20681],[2.99229,48.20331],[3.005061,48.20596],[3.009699,48.21196],[3.012375,48.21952],[3.024134,48.22978],[3.022961,48.23627],[3.028565,48.24099],[3.031907,48.24743],[3.036413,48.24943],[3.042877,48.24803],[3.048511,48.24924],[3.045247,48.26182],[3.047341,48.26704],[3.046584,48.27135],[3.043409,48.27347],[3.028395,48.27672],[3.027774,48.28141],[3.03086,48.28609],[3.023884,48.29464],[3.028338,48.30018],[3.028706,48.30315],[3.022085,48.30478],[3.020016,48.30824],[3.031206,48.32092],[3.044299,48.32984],[3.044179,48.33299],[3.039139,48.33751],[3.040321,48.34472],[3.045382,48.35431],[3.050789,48.35862],[3.062605,48.35594],[3.079369,48.35992],[3.086438,48.35612],[3.095905,48.35636],[3.098771,48.35035],[3.103285,48.34809],[3.107911,48.35134],[3.114986,48.36313],[3.121023,48.36649],[3.128386,48.36599],[3.137585,48.36968],[3.146674,48.36436],[3.152554,48.36922],[3.16704,48.36956],[3.174041,48.37574],[3.180118,48.37344],[3.184293,48.36691],[3.190999,48.36886],[3.195617,48.36701],[3.200069,48.36242],[3.221307,48.36849],[3.228535,48.36891],[3.254209,48.36381],[3.262381,48.36728],[3.264021,48.37112],[3.270129,48.37546],[3.284841,48.37705],[3.289555,48.3746],[3.296644,48.37574],[3.305561,48.37165],[3.310571,48.37164],[3.314114,48.37493],[3.316984,48.37509],[3.335334,48.36899],[3.338687,48.37157],[3.351629,48.37353],[3.356441,48.36977],[3.36555,48.37111],[3.366886,48.37625],[3.364174,48.38139],[3.367149,48.3903],[3.369571,48.39245],[3.374339,48.39253],[3.378891,48.39746],[3.386551,48.39675],[3.401902,48.38843],[3.4131307797031023,48.38923065513017],[3.41157,48.37865],[3.412751,48.3752],[3.419973,48.37088],[3.426745,48.35725],[3.429581,48.35734],[3.438199,48.36398],[3.449134,48.36748],[3.450543,48.37164],[3.453443,48.37278],[3.469305,48.37265],[3.475576,48.36797],[3.497033,48.36816],[3.512628,48.35893],[3.518911,48.35218],[3.520336,48.34824],[3.532395,48.33846],[3.541465,48.33444],[3.543314,48.31877],[3.557952,48.31844],[3.560702,48.31538],[3.560229,48.31092],[3.565536,48.30654],[3.577642,48.30339],[3.580324,48.3],[3.585305,48.29892],[3.586663,48.29642],[3.58568,48.29266],[3.577034,48.28759],[3.577606,48.28322],[3.587369,48.27868],[3.598494,48.27777],[3.602156,48.27448],[3.609899,48.27408],[3.61635,48.26982],[3.62217,48.25732],[3.602503,48.24201],[3.598612,48.23621],[3.600019,48.23222],[3.604102,48.22917],[3.608576,48.23063],[3.614774,48.22995],[3.616748,48.22481],[3.612917,48.22074],[3.608983,48.21133],[3.598073,48.20289],[3.59237,48.20148],[3.574,48.18977],[3.574141,48.18762],[3.579214,48.18305],[3.593437,48.17738],[3.622291,48.19045],[3.634827,48.1868],[3.641078,48.18303],[3.645779,48.17717],[3.649894,48.16771],[3.65946,48.15818],[3.667777,48.13809],[3.690654,48.14364],[3.695209,48.14668],[3.705443,48.14311],[3.713423,48.14991],[3.720401,48.1528],[3.723821,48.15657],[3.722528,48.16256],[3.718115,48.16838],[3.720156,48.1729],[3.746779,48.16521],[3.750718,48.16031],[3.752606,48.15199],[3.741896,48.14396],[3.738639,48.13953],[3.738922,48.13122],[3.749551,48.12529],[3.756699,48.12378],[3.764039,48.13025],[3.768103,48.13161],[3.77481,48.12761],[3.779401,48.12018],[3.790086,48.11707],[3.793564,48.11073],[3.802086,48.10304],[3.796562,48.09262],[3.797054,48.08581],[3.80808,48.07892],[3.821345,48.06524],[3.82442,48.05943],[3.824887,48.0564],[3.822829,48.05315],[3.824492,48.04922],[3.8209,48.04333],[3.831165,48.03556],[3.841929,48.03403],[3.850351,48.02558],[3.869356,48.01483],[3.869504,48.01013],[3.867643,48.00798],[3.83803,48.00415],[3.838083,47.9986],[3.840409,47.99498],[3.845244,47.99264],[3.848591,47.98284],[3.85878,47.98254],[3.860882,47.98051],[3.861421,47.97539],[3.880293,47.97798],[3.884768,47.98503],[3.884249,47.98783],[3.886688,47.99199],[3.885946,47.99727],[3.893133,47.99927],[3.89973,47.99579],[3.905301,47.98532],[3.911396,47.97909],[3.912905,47.97568],[3.911818,47.97052],[3.906906,47.96514],[3.904025,47.95872],[3.903726,47.95399],[3.90105,47.95071],[3.902307,47.94614],[3.897848,47.94124],[3.898724,47.93653],[3.892912,47.92958],[3.893994,47.92778],[3.904854,47.92369],[3.912429,47.92858],[3.919178,47.92717],[3.92685,47.93273],[3.934737,47.93077],[3.944032,47.93259],[3.949013,47.92984],[3.961263,47.93459],[3.98109,47.9288],[3.991825,47.93118],[3.994613,47.93585],[4.005525,47.94026],[4.016466,47.92796],[4.025668,47.92752],[4.032465,47.93118],[4.045104,47.92405],[4.059887,47.93096],[4.058055,47.94068],[4.061071,47.94386],[4.076079,47.94163],[4.086673,47.94379],[4.090252,47.9415],[4.088737,47.93621],[4.0927,47.92568],[4.103397,47.92855],[4.110016,47.92451],[4.132703,47.93641],[4.14242,47.93623],[4.145831,47.94587],[4.149881,47.94748],[4.157159,47.95481],[4.164092,47.95782],[4.169227,47.95606],[4.17354,47.95753],[4.182768,47.95477],[4.185011,47.93914],[4.192708,47.93816],[4.203124,47.94045],[4.20897,47.94631],[4.206964,47.95814],[4.209449,47.96047],[4.213954,47.96116],[4.21171,47.96814],[4.21486,47.97106],[4.223496,47.96958],[4.225331,47.9676],[4.226425,47.96194],[4.220713,47.94945],[4.235929,47.93949],[4.243957,47.92926],[4.267168,47.92258],[4.276316,47.92233],[4.287924,47.92548],[4.29233,47.92451],[4.30374,47.93604],[4.301954,47.94799],[4.312742,47.95996],[4.33683,47.95728],[4.344068,47.95452],[4.360983,47.95573],[4.378949,47.96032],[4.384307,47.95856],[4.417945,47.96736],[4.426705,47.96519],[4.439298,47.95652],[4.447275,47.95504],[4.454377,47.95811],[4.463661,47.95774],[4.483837,47.96198],[4.492874,47.96657],[4.516152,47.96538],[4.532092,47.96861],[4.554472,47.96632],[4.56116,47.97186],[4.558186,47.98257],[4.555904,47.98695],[4.546956,47.98942],[4.542784,47.99241],[4.539165,47.99989],[4.539786,48.00265],[4.542185,48.00417],[4.550141,48.00367],[4.555903,48.01169],[4.565172,48.01498],[4.57298,48.02402],[4.586703,48.02843],[4.599075,48.02916],[4.607731,48.02709],[4.614628,48.02865],[4.62194,48.02312],[4.646883,48.02441],[4.653002,48.02137],[4.655462,48.01587],[4.664332,48.0187],[4.670047,48.01331],[4.699137,48.02235],[4.720549,48.00751],[4.740332,48.00336],[4.789145,48.0053],[4.791133,48.00324],[4.792067,47.9963],[4.797715,47.99041],[4.784127,47.97157],[4.783263,47.96824],[4.785471,47.96301],[4.805832,47.9609],[4.811167,47.95823],[4.823592,47.96094],[4.844709,47.95973],[4.855968,47.95157],[4.862101,47.943],[4.861158,47.93932],[4.852501,47.93208],[4.846415,47.93015],[4.843156,47.92459],[4.838907,47.92429],[4.827789,47.91589],[4.828768,47.91088],[4.832292,47.90643],[4.855846,47.89479],[4.859603,47.89505],[4.861606,47.89666],[4.863178,47.90472],[4.874274,47.91825],[4.894221,47.92155],[4.901243,47.91988],[4.906519,47.91161],[4.91252,47.90619],[4.915336,47.89731],[4.926149,47.88877],[4.926727,47.8705],[4.939821,47.8658],[4.952938,47.86453],[4.961847,47.85283],[4.961648,47.84893],[4.959053,47.84536],[4.959967,47.83833],[4.966153,47.8366],[4.967911,47.83097],[4.98022,47.82885],[4.983145,47.82657],[4.989603,47.8139],[4.986089,47.80435],[4.964004,47.79649],[4.955739,47.79109],[4.921628,47.78079],[4.916822,47.77747],[4.919716,47.77132],[4.915604,47.7672],[4.920673,47.7634],[4.922465,47.75783],[4.946885,47.76354],[4.957024,47.75974],[4.96374,47.7414],[4.955279,47.73232],[4.96327,47.73133],[4.965539,47.72768],[4.962262,47.72249],[4.962192,47.71513],[4.952824,47.70793],[4.952485,47.70238],[4.959031,47.69583],[4.967023,47.69195],[4.968173,47.68498],[4.979468,47.68464],[4.984079,47.68741],[4.996194,47.688],[5.004764,47.69285],[5.007057,47.69848],[5.028016,47.70824],[5.030424,47.7062],[5.030996,47.70215],[5.027553,47.69754],[5.028309,47.69235],[5.034007,47.69096],[5.047763,47.69257],[5.051119,47.69043],[5.049084,47.68112],[5.042417,47.67654],[5.049668,47.6719],[5.053096,47.66736],[5.062267,47.66591],[5.068661,47.66286],[5.074699,47.66288],[5.078286,47.65886],[5.086102,47.65577],[5.099429,47.65678],[5.108732,47.64847],[5.115353,47.64911],[5.124778,47.6455],[5.132741,47.64929],[5.1405,47.65043],[5.150611,47.66253],[5.157107,47.66693],[5.163472,47.67796],[5.171579,47.67904],[5.174228,47.67568],[5.172051,47.65412],[5.173914,47.65118],[5.179603,47.64868],[5.188346,47.64808],[5.19754,47.64329],[5.20917,47.64135],[5.218247,47.63282],[5.226443,47.62927],[5.228977,47.62465],[5.234702,47.6216],[5.236733,47.61563],[5.239315,47.61497],[5.244977,47.61788],[5.248743,47.61609],[5.248451,47.61193],[5.237031,47.59645],[5.246655,47.58882],[5.252276,47.57601],[5.256875,47.57553],[5.267368,47.57977],[5.278784,47.58045],[5.279732,47.58923],[5.281984,47.59147],[5.294115,47.59655],[5.302866,47.60483],[5.313299,47.60454],[5.32299,47.61086],[5.337316,47.60801],[5.341816,47.60269],[5.339065,47.59655],[5.341199,47.59358],[5.346273,47.59374],[5.354592,47.59028],[5.359725,47.59266],[5.368186,47.60294],[5.372988514528413,47.603761796025175],[5.373151,47.60348],[5.383651,47.59949],[5.389616,47.59313],[5.396293,47.59382],[5.405009,47.60102],[5.407991,47.60816],[5.414177,47.61305],[5.418861,47.62412],[5.423052,47.62827],[5.42739,47.63016],[5.440884,47.62867],[5.446676,47.62204],[5.461916,47.61381],[5.469959,47.6072],[5.476876,47.6059],[5.482492,47.58911],[5.483175,47.58212],[5.485949,47.5774],[5.483273,47.56887],[5.47887,47.56631],[5.478567,47.56416],[5.488582,47.56151],[5.494276,47.55572],[5.495502,47.54505],[5.485584,47.52924],[5.470432,47.52855],[5.465137,47.51811],[5.452211,47.50774],[5.445991,47.49764],[5.438523,47.49456],[5.431522,47.49949],[5.426565,47.49769],[5.398893,47.50045],[5.387474,47.48617],[5.385808,47.48083],[5.386933,47.47918],[5.393895,47.47847],[5.395333,47.47579],[5.394277,47.47293],[5.375533,47.46634],[5.3681,47.46821],[5.365799,47.46453],[5.377794,47.45764],[5.37905,47.44938],[5.389681,47.45184],[5.406129,47.46018],[5.410513,47.45871],[5.417671,47.448],[5.429242,47.44745],[5.432214,47.44589],[5.432912,47.44221],[5.42986,47.43629],[5.430986,47.43052],[5.429233,47.42104],[5.434352,47.41303],[5.439618,47.409],[5.438854,47.40609],[5.434856,47.40347],[5.431388,47.39174],[5.43864,47.39086],[5.45266,47.38209],[5.476377,47.39334],[5.49114,47.38845],[5.493134,47.37712],[5.487759,47.37045],[5.486805,47.35967],[5.49379,47.3445],[5.493993,47.33846],[5.491276,47.33176],[5.484862,47.32871],[5.481139,47.33302],[5.476233,47.3323],[5.472096,47.32091],[5.468492,47.31649],[5.475587,47.31224],[5.481229,47.31228],[5.485672,47.31491],[5.497817,47.31327],[5.502288,47.31101],[5.505505,47.30683],[5.513868,47.30618],[5.515559,47.30268],[5.503817,47.28735],[5.487212,47.28952],[5.486855,47.2677],[5.476854,47.25652],[5.482436,47.25102],[5.482754,47.24143],[5.472746,47.23115],[5.477207,47.22014],[5.464907,47.20855],[5.449754,47.20464],[5.444003,47.20061],[5.444176,47.19791],[5.455532,47.19041],[5.456655,47.18198],[5.449223,47.16264],[5.439674,47.15769],[5.436658,47.15354],[5.437692,47.14942],[5.435133,47.14301],[5.427459,47.13827],[5.413572,47.13401],[5.411955,47.13036],[5.407511,47.12757],[5.409122,47.1149],[5.397707,47.10652],[5.396489,47.09581],[5.390936,47.09231],[5.385462,47.0834],[5.368679,47.07885],[5.359051,47.0818],[5.345292,47.07826],[5.335187,47.07944],[5.322697,47.07487],[5.310375,47.06366],[5.305177,47.0644],[5.295354,47.05899],[5.293091,47.05402],[5.283861,47.04962],[5.2806,47.04092],[5.275335,47.03419],[5.274261,47.02674],[5.301647,47.01781],[5.302941,47.01541],[5.301131,47.00511],[5.298891,47.00318],[5.273522,46.99925],[5.269825,46.99129],[5.256829,46.98469],[5.252108,46.97901],[5.253541,46.97003],[5.255547,46.9665],[5.260705,46.96387],[5.262353,46.95694],[5.260861,46.95025],[5.252581,46.94844],[5.25076,46.94403],[5.260119,46.93747],[5.261285,46.92623],[5.270557,46.92695],[5.278782,46.93555],[5.287031,46.93948],[5.289952,46.93936],[5.293114,46.93546],[5.302047,46.93563],[5.30605,46.92909],[5.302395,46.92537],[5.302665,46.92344],[5.309348,46.91883],[5.311178,46.9097],[5.315334,46.9031],[5.328605,46.8863],[5.334922,46.88373],[5.340361,46.8887],[5.349047,46.89069],[5.362611,46.88153],[5.368945,46.8826],[5.371323,46.88598],[5.379334,46.88732],[5.387348,46.89169],[5.396323,46.89017],[5.399252,46.8873],[5.39884,46.88195],[5.40146,46.87351],[5.40025,46.87019],[5.403086,46.86636],[5.414591,46.85948],[5.427602,46.85891],[5.433686,46.85377],[5.443633,46.85074],[5.450674,46.85483],[5.454583,46.8546],[5.457142,46.85125],[5.455519,46.84547],[5.460106,46.83994],[5.456617,46.8327],[5.443654,46.8302],[5.429153,46.82775],[5.413447,46.82994],[5.410612,46.83427],[5.407198,46.83448],[5.390372,46.83165],[5.386367,46.82859],[5.369053,46.8273],[5.364523,46.82532],[5.360409,46.82019],[5.349255,46.81873],[5.342269,46.82655],[5.339094,46.82696],[5.334115,46.82055],[5.326012,46.8158],[5.329307,46.81007],[5.33208,46.79469],[5.336834,46.7931],[5.339932,46.78952],[5.34842,46.78841],[5.356516,46.78614],[5.365878,46.78106],[5.370446,46.77542],[5.37462,46.77348],[5.382693,46.77469],[5.387238,46.77106],[5.387643,46.76684],[5.383907,46.7626],[5.375565,46.75612],[5.365274,46.75229],[5.359865,46.73079],[5.382806,46.7299],[5.387782,46.72741],[5.389063,46.72235],[5.392449,46.72106],[5.394445,46.71751],[5.393404,46.7078],[5.400079,46.70594],[5.404798,46.70055],[5.403535,46.6956],[5.394091,46.68482],[5.402348,46.67834],[5.409891,46.67727],[5.416709,46.67354],[5.417295,46.66726],[5.421281,46.66099],[5.412249,46.65523],[5.4123,46.65331],[5.424686,46.64667],[5.437352,46.63792],[5.43854,46.63548],[5.435939,46.63036],[5.429493,46.62785],[5.424646,46.6217],[5.417503,46.61719],[5.400847,46.61543],[5.395269,46.61195],[5.395329,46.60901],[5.404255,46.6065],[5.410051,46.59873],[5.409614,46.59595],[5.405148,46.59122],[5.402584,46.58274],[5.390509,46.58096],[5.38343,46.58296],[5.36669,46.58081],[5.361054,46.57757],[5.365358,46.57113],[5.363193,46.56558],[5.35507,46.5629],[5.360949,46.55188],[5.358204,46.53682],[5.359903,46.53166],[5.357647,46.52767],[5.356996,46.51926],[5.368444,46.51488],[5.376637,46.51521],[5.387199,46.51208],[5.392893,46.50545],[5.4008,46.50362],[5.40743,46.49881],[5.417306,46.49999],[5.419399,46.49649],[5.416403,46.48923],[5.419027,46.48436],[5.408745,46.47131],[5.397312,46.46826],[5.383289,46.47252],[5.372898,46.46206],[5.368034,46.46188],[5.358847,46.46569],[5.345994,46.46265],[5.323287,46.46371],[5.320423,46.45608],[5.311324,46.45383],[5.309412,46.44727],[5.310555512150737,46.445345452849224],[5.309387,46.44489],[5.305748,46.44434],[5.291394,46.44859],[5.283979,46.44448],[5.266392,46.44961],[5.255995,46.44891],[5.253522,46.45391],[5.245008,46.45852],[5.241059,46.45911],[5.236515,46.45605],[5.223843,46.46725],[5.214207,46.46758],[5.214068,46.47212],[5.208819,46.47841],[5.208987,46.48296],[5.204228,46.48708],[5.204632,46.49211],[5.196397,46.50604],[5.181802,46.50818],[5.172304,46.51206],[5.167573,46.51004],[5.16843,46.50446],[5.166871,46.50189],[5.155658,46.5062],[5.141739,46.50671],[5.137612,46.50125],[5.11892,46.496],[5.115242,46.49167],[5.110252,46.49005],[5.096111,46.4965],[5.076788,46.48468],[5.055975,46.48252],[5.040828,46.4898],[5.028484,46.49079],[5.024432,46.49496],[5.012262,46.5001],[5.007315,46.50763],[5.000208,46.51053],[4.990874,46.51106],[4.982908,46.51427],[4.973783,46.5135],[4.970329,46.50471],[4.960054,46.50584],[4.955432,46.50355],[4.951526,46.49855],[4.943113,46.50415],[4.941168,46.51018],[4.934913,46.51194],[4.926792,46.49628],[4.915964,46.48636],[4.917499,46.47218],[4.915388,46.46124],[4.911379,46.45657],[4.900652,46.44961],[4.893415,46.44053],[4.892717,46.42681],[4.88935,46.41372],[4.890249,46.40384],[4.873077,46.38135],[4.860813,46.36883],[4.853183,46.35664],[4.853964,46.32775],[4.834103,46.29958],[4.825944,46.27256],[4.812945,46.26028],[4.810229,46.23847],[4.802269,46.2295],[4.795485,46.2174],[4.794051,46.20898],[4.795123,46.20209],[4.781615,46.18814],[4.780655,46.17557],[4.764368,46.17456],[4.758231,46.1708],[4.726581,46.17849],[4.718952,46.19395],[4.719589,46.20125],[4.727579,46.21104],[4.727758,46.21598],[4.719718,46.22074],[4.718042,46.22788],[4.720623,46.2307],[4.728207,46.23008],[4.729977,46.23251],[4.729351,46.23546],[4.725307,46.23944],[4.720242,46.23914],[4.717903,46.24248],[4.706674,46.24855],[4.699171,46.25007],[4.693395,46.24724],[4.687628,46.24825],[4.678032,46.25854],[4.679509,46.26922],[4.686033,46.26786],[4.69361,46.2729],[4.701022,46.27016],[4.706921,46.27505],[4.706859,46.27993],[4.697397,46.2898],[4.693982,46.2911],[4.691012,46.29865],[4.68861,46.3003],[4.68164,46.30148],[4.663947,46.29397],[4.652874,46.30242],[4.639771,46.29955],[4.637736,46.29759],[4.637047,46.28946],[4.628871,46.28739],[4.622386,46.28238],[4.62328,46.26958],[4.618511,46.26365],[4.612218,46.26569],[4.582293,46.26868],[4.571899,46.27517],[4.571203,46.2864],[4.568218,46.29171],[4.560628,46.29349],[4.555624,46.28966],[4.554403,46.28505],[4.549539,46.28254],[4.546489,46.27278],[4.537323,46.26867],[4.52286,46.2693],[4.503685,46.26593],[4.498614,46.27374],[4.48698,46.28547],[4.479311,46.28315],[4.471856,46.28422],[4.458733,46.29468],[4.451842,46.29527],[4.439026,46.29194],[4.435405,46.29815],[4.431012,46.3001],[4.428013,46.29911],[4.423403,46.29388],[4.410066,46.29379],[4.399529,46.28234],[4.398229,46.26646],[4.395043,46.26394],[4.392134,46.25786],[4.393676,46.25122],[4.389829,46.24618],[4.3936,46.23584],[4.388368,46.23044],[4.39027,46.21345],[4.387529,46.21146],[4.376479,46.20996],[4.374708,46.2037],[4.370312,46.20237],[4.367534,46.19875],[4.375233,46.18748],[4.374719,46.18565],[4.36233,46.18054],[4.358267,46.18067],[4.347628,46.18598],[4.343239,46.18487],[4.336727,46.1799],[4.328708,46.18125],[4.323168,46.17779],[4.315777,46.16921],[4.305882,46.17293],[4.294482,46.171],[4.292032,46.16913],[4.288194,46.15957],[4.280892,46.15484],[4.249085,46.15744],[4.247609,46.16784]]],[[[3.4131307797031027,48.38923065513017],[3.4131307797031023,48.38923065513017],[3.4155048937825683,48.38939993858461],[3.4131307797031027,48.38923065513017]]]]}}
