{"type":"Feature","properties":{"sourceId":"brandenburg"},"geometry":{"type":"Polygon","coordinates":[[[11.49445,53.0474],[11.44741,53.0732],[11.33446,53.04679],[11.26133,53.09753],[11.26064,53.12453],[11.37428,53.11731],[11.39454,53.14306],[11.45874,53.14389],[11.5353,53.13565],[11.54835,53.21426],[11.62457,53.24447],[11.69666,53.24919],[11.75056,53.22618],[11.79314,53.23378],[11.79451,53.25741],[11.85802,53.25679],[11.88755,53.28102],[11.94763,53.2802],[11.97201,53.30031],[12.01286,53.30298],[12.00806,53.33743],[12.04411,53.37637],[12.22984,53.36387],[12.28271,53.33764],[12.40082,53.30277],[12.45438,53.26295],[12.56561,53.27199],[12.7256,53.24755],[12.78774,53.20747],[13.0188,53.19472],[13.09673,53.24303],[13.29861,53.28595],[13.47919,53.3077],[13.54031,53.39787],[13.6124,53.43367],[13.70579,53.48662],[13.76621,53.48764],[13.77788,53.56009],[13.80775,53.56295],[13.88603,53.50826],[13.92586,53.44124],[14.04499,53.43511],[14.11984,53.44738],[14.24309,53.43838],[14.26144,53.3764],[14.1267,53.27692],[14.23553,53.26624],[14.31244,53.31529],[14.40617,53.33374],[14.42236,53.33495],[14.42438,53.30853],[14.43556,53.28224],[14.45457,53.278],[14.45867,53.2595],[14.41916,53.2189],[14.4117,53.20651],[14.38822,53.19557],[14.38151,53.1643],[14.39754,53.14575],[14.35989,53.04827],[14.32616,53.03146],[14.22813,52.98549],[14.1793,52.97135],[14.15209,52.95518],[14.15917,52.94373],[14.1573,52.93272],[14.16721,52.88861],[14.16275,52.8683],[14.12722,52.84415],[14.13975,52.83057],[14.21769,52.82373],[14.31225,52.76656],[14.36309,52.75281],[14.44839,52.68275],[14.46853,52.67235],[14.47787,52.65942],[14.53697,52.63869],[14.543725355325366,52.63585290975964],[14.49548,52.63082],[14.60768,52.57157],[14.58814,52.53073],[14.60687,52.49136],[14.53516,52.44068],[14.51916,52.3914],[14.56395,52.27811],[14.69344,52.23381],[14.67047,52.1966],[14.68337,52.17113],[14.66645,52.11221],[14.73403,52.06414],[14.70054,52.01112],[14.68737,51.92642],[14.57771,51.84762],[14.5761,51.81439],[14.63455,51.78112],[14.65454,51.71775],[14.73596,51.66095],[14.74512,51.613],[14.728816952842527,51.596683711789],[14.71035,51.60021],[14.69147,51.59819],[14.69095,51.57739],[14.6767,51.55776],[14.63877,51.55648],[14.61147,51.55263],[14.60684,51.56608],[14.5998,51.57462],[14.58263,51.58294],[14.56856,51.58475],[14.53886,51.57622],[14.54195,51.56341],[14.49629,51.56106],[14.44513,51.55893],[14.44204,51.54708],[14.38385,51.54367],[14.33166,51.52039],[14.26832,51.53513],[14.22232,51.5411],[14.137,51.54601],[14.11124,51.52611],[14.09511,51.5144],[14.08911,51.49987],[14.07023,51.49368],[14.07263,51.47443],[14.03744,51.48224],[14.02954,51.47358],[14.05083,51.44481],[14.03212,51.43603],[14.03641,51.41987],[14.01341,51.4067],[13.99281,51.38989],[13.99658,51.37478],[13.97427,51.37703],[13.97358,51.39621],[13.95298,51.39953],[13.90543,51.38517],[13.82921,51.38496],[13.81119,51.37446],[13.75196,51.37349],[13.74321,51.36385],[13.72501,51.36696],[13.69085,51.37682],[13.66751,51.37735],[13.6064,51.37178],[13.58974,51.3871],[13.57189,51.38839],[13.52881,51.38346],[13.52297,51.40595],[13.49413,51.40863],[13.46512,51.42929],[13.42855,51.43561],[13.40178,51.45679],[13.38478,51.44877],[13.36727,51.43892],[13.31989,51.43999],[13.28127,51.41109],[13.28041,51.40285],[13.22153,51.40038],[13.20231,51.43561],[13.20642,51.44727],[13.20591,51.45978],[13.18548,51.47433],[13.20196,51.4863],[13.21209,51.52402],[13.18909,51.55776],[13.16025,51.60107],[13.1218,51.62377],[13.0854,51.61759],[13.067885624199077,51.635417034560916],[13.21268,51.69454],[13.21028,51.7665],[13.18785,51.8745],[13.15073,51.90132],[12.66764,52.04136],[12.58663,52.00749],[12.48673,52.0611],[12.39939,52.0677],[12.27579,52.1668],[12.3289,52.22378],[12.28498,52.26162],[12.34423,52.35531],[12.36466,52.49235],[12.19968,52.55761],[12.21481,52.59396],[12.28285,52.61998],[12.24505,52.71829],[12.28873,52.80089],[12.25009,52.89119],[11.97122,52.90335],[11.86664,52.93121],[11.88596,52.95601],[11.62724,53.0566],[11.557721082381912,53.034591887599426],[11.49445,53.0474]],[[13.12986,52.57527],[13.14627,52.57771],[13.13915,52.55778],[13.12553,52.55872],[13.11192,52.53689],[13.11161,52.51213],[13.13977,52.51514],[13.15493,52.50799],[13.11037,52.48048],[13.09861,52.45126],[13.11284,52.44032],[13.08283,52.42202],[13.08469,52.40824],[13.12832,52.38407],[13.15833,52.38728],[13.1735,52.39125],[13.17412,52.40465],[13.23941,52.41749],[13.2456,52.40239],[13.27066,52.40069],[13.29325,52.40956],[13.31089,52.39502],[13.3375,52.4056],[13.36566,52.39266],[13.36721,52.38605],[13.38268,52.3853],[13.38392,52.37548],[13.42198,52.3734],[13.43343,52.3853],[13.42229,52.40796],[13.46283,52.41758],[13.47892,52.3921],[13.51776,52.39852],[13.52982,52.39436],[13.53044,52.38605],[13.56448,52.3853],[13.58738,52.38813],[13.60378,52.36905],[13.62606,52.37642],[13.63782,52.36773],[13.62978,52.34713],[13.63535,52.33825],[13.6502,52.33446],[13.67929,52.3649],[13.69538,52.36414],[13.70683,52.37793],[13.6994,52.38719],[13.71644,52.3965],[13.73096,52.39455],[13.74415,52.40912],[13.73699,52.41464],[13.74624,52.43571],[13.76225,52.4346],[13.76136,52.44883],[13.73179,52.4544],[13.72014,52.46499],[13.70007,52.47274],[13.69273,52.46728],[13.66818,52.47634],[13.64399,52.48202],[13.62715,52.47591],[13.61711,52.47853],[13.63378,52.49315],[13.64256,52.51431],[13.66343,52.52499],[13.66003,52.53284],[13.63888,52.53306],[13.64139,52.54418],[13.59176,52.55148],[13.58531,52.57272],[13.55305,52.59025],[13.5285,52.59542],[13.51041,52.59455],[13.50216,52.6063],[13.51005,52.62382],[13.52223,52.62719],[13.52813,52.64623],[13.48999,52.65921],[13.49261,52.67166],[13.47319,52.6783],[13.46461,52.67083],[13.45739,52.67211],[13.4452,52.662],[13.46262,52.65491],[13.46162,52.65223],[13.43611,52.65155],[13.4269,52.63962],[13.4157,52.64475],[13.3997,52.64978],[13.39219,52.64978],[13.38217,52.64002],[13.3684,52.6296],[13.33871,52.62591],[13.31403,52.6309],[13.31439,52.64306],[13.30688,52.65261],[13.31511,52.65694],[13.30938,52.66237],[13.27683,52.66345],[13.27826,52.64458],[13.25609,52.64306],[13.25823,52.63177],[13.21549,52.63134],[13.19296,52.60658],[13.20798,52.59137],[13.16667,52.60209],[13.15098,52.60013],[13.14379,52.5952],[13.12213,52.59031],[13.12027,52.58204],[13.12986,52.57527]]]}}
