{"type":"Feature","properties":{"sourceId":"burkina-faso"},"geometry":{"type":"Polygon","coordinates":[[[-2.763743,9.384107],[-2.786793,9.39654],[-2.927184,9.566359],[-3.053577,9.71226],[-3.076793,9.720707],[-3.099949,9.759955],[-3.148021,9.835278],[-3.17324,9.824062],[-3.190265,9.838621],[-3.264148,9.836111],[-3.310744,9.852395],[-3.334465,9.880811],[-3.365421,9.905707],[-3.554364,9.920497],[-3.596352,9.906421],[-3.661185,9.926132],[-3.755061,9.92433],[-3.79159,9.890983],[-3.932748,9.853742],[-3.96654,9.816864],[-4.022873,9.812307],[-4.038285,9.789705],[-4.181244,9.754203],[-4.247035,9.740424],[-4.242113,9.727098],[-4.273782,9.688145],[-4.273269,9.649615],[-4.304388,9.590462],[-4.323572,9.590873],[-4.35864,9.616163],[-4.366211,9.591558],[-4.380707,9.584083],[-4.412446,9.600547],[-4.436092,9.652305],[-4.506192,9.6369],[-4.595564,9.685602],[-4.611764,9.706421],[-4.625489,9.692035],[-4.649111,9.698588],[-4.660581,9.68024],[-4.695256,9.667516],[-4.716218,9.68235],[-4.779486,9.726582],[-4.817776,9.761989],[-4.828016,9.786146],[-4.804521,9.794289],[-4.824356,9.833057],[-4.839387,9.855827],[-4.883272,9.86114],[-4.915828,9.882453],[-4.935105,9.863522],[-4.974144,9.884669],[-4.982583,9.908885],[-4.966406,9.952161],[-4.996671,9.979698],[-4.999529,10.00584],[-4.993134,10.0193],[-5.001598,10.05337],[-5.064162,10.0708],[-5.074896,10.0827],[-5.069611,10.09742],[-5.088172,10.10327],[-5.15544,10.27415],[-5.18837,10.27482],[-5.200951,10.29598],[-5.327692,10.28358],[-5.353045,10.29158],[-5.367352,10.2753],[-5.41127,10.28642],[-5.447885,10.31292],[-5.496032,10.3718],[-5.527409,10.42192],[-5.51908,10.46466],[-5.468437,10.56157],[-5.470118,10.59753],[-5.487759,10.62477],[-5.476944,10.68472],[-5.478059,10.76248],[-5.42,10.84768],[-5.455534,10.89924],[-5.505524,10.97827],[-5.498112,11.07848],[-5.482872,11.09251],[-5.395661,11.11373],[-5.340043,11.14539],[-5.340043,11.21747],[-5.272065,11.25047],[-5.260694,11.39866],[-5.221377,11.45034],[-5.211667,11.53943],[-5.224036,11.57372],[-5.245724,11.59624],[-5.288771,11.6005],[-5.301575,11.62004],[-5.279834,11.67634],[-5.273911,11.75109],[-5.363046,11.78585],[-5.378177,11.80533],[-5.409922,11.81912],[-5.410782,11.83468],[-5.380924,11.84888],[-5.353172,11.83434],[-5.288573,11.86074],[-5.252904,11.87345],[-5.19296,11.91575],[-5.154714,11.95971],[-5.07548,11.99282],[-4.937682,12.01936],[-4.841607,12.03361],[-4.704273,12.07102],[-4.640833,12.07762],[-4.63508,12.11686],[-4.622214,12.13304],[-4.602446,12.1456],[-4.562073,12.14607],[-4.592286,12.20447],[-4.484227,12.28478],[-4.479668,12.34215],[-4.422684,12.35342],[-4.454957,12.40305],[-4.433671,12.49692],[-4.424058,12.59276],[-4.489289,12.64034],[-4.489976,12.7301],[-4.436944,12.72864],[-4.402776,12.74718],[-4.346837,12.75777],[-4.328529,12.75445],[-4.298806,12.72557],[-4.260633,12.72869],[-4.244157,12.74015],[-4.22905,12.8185],[-4.236603,12.86],[-4.228364,12.95237],[-4.276429,12.98516],[-4.320374,13.06945],[-4.352131,13.11509],[-4.351101,13.14268],[-4.301285,13.18858],[-4.265442,13.23928],[-4.197808,13.27771],[-4.100304,13.3963],[-4.074555,13.41166],[-4.050522,13.41767],[-3.974991,13.53152],[-3.943773,13.50402],[-3.932419,13.45941],[-3.891938,13.45023],[-3.893967,13.4297],[-3.954049,13.40398],[-3.953705,13.38895],[-3.890877,13.38695],[-3.831482,13.36891],[-3.796807,13.37927],[-3.738442,13.32682],[-3.733635,13.30845],[-3.671151,13.27938],[-3.58223,13.20519],[-3.549271,13.20051],[-3.543091,13.17778],[-3.443871,13.16842],[-3.433056,13.20321],[-3.454159,13.26012],[-3.445026,13.2845],[-3.242536,13.29763],[-3.262541,13.37339],[-3.283196,13.56056],[-3.258333,13.5844],[-3.254511,13.67618],[-3.280697,13.70002],[-3.269839,13.72207],[-3.250237,13.71971],[-3.204918,13.71004],[-3.107071,13.69236],[-3.017307,13.65438],[-2.998925,13.66133],[-2.891107,13.66276],[-2.913979,13.72029],[-2.913889,13.82361],[-2.890487,13.85873],[-2.893543,13.88126],[-2.863889,14.00528],[-2.853013,14.04001],[-2.84134,14.07131],[-2.682832,14.13616],[-2.605395,14.22088],[-2.475358,14.30897],[-2.293544,14.25224],[-2.10632,14.16283],[-2.0155,14.19574],[-1.993333,14.48189],[-1.329347,14.75497],[-1.078035,14.80542],[-0.721483,15.09013],[-0.427964,15.09271],[-0.387255,15.02063],[-0.237766,15.08804],[0.062816,14.98442],[0.166511,14.98923],[0.241699,15.00946],[0.248222,14.91227],[0.251342,14.75125],[0.177258,14.52334],[0.197821,14.47066],[0.38847,14.04683],[0.41954,14.02885],[0.432569,13.99003],[0.479513,13.96098],[0.474169,13.91876],[0.501515,13.90096],[0.523439,13.86037],[0.571515,13.82568],[0.590118,13.79563],[0.625039,13.78353],[0.62748,13.76452],[0.606944,13.71877],[0.625412,13.69558],[0.774102,13.69825],[0.867468,13.6425],[0.907011,13.63156],[0.978795,13.58036],[1.002414,13.57506],[1.026827,13.53259],[1.038894,13.47277],[1.17444,13.406],[1.204373,13.39735],[1.247983,13.40241],[1.29879,13.3629],[1.283202,13.33698],[1.249444,13.32917],[1.196937,13.31401],[1.179207,13.30334],[1.001529,13.36249],[0.997524,13.10205],[0.979156,13.01125],[1.162147,13.01158],[1.334152,12.83691],[1.582299,12.63977],[1.866378,12.61945],[1.920833,12.70747],[1.987423,12.741],[2.098265,12.73532],[2.149571,12.70152],[2.206842,12.63883],[2.230087,12.5974],[2.273174,12.47705],[2.274083,12.41732],[2.257427,12.40379],[2.071534,12.35614],[2.380922104126998,11.944665934096879],[2.250823,11.67107],[2.002944,11.4632],[1.645771,11.46683],[1.48796,11.51232],[1.390457,11.46421],[1.129531,11.28751],[0.903625,11.02073],[0.8997137187566833,11.000355847137216],[0.914895,11.00023],[0.656741,11.00237],[0.503875,10.94013],[0.5101045682131932,10.967724060541661],[0.510521,10.96883],[0.510437985398028,10.969200942031533],[0.511176,10.97247],[0.505381,11.00102],[0.503618,11.01399],[0.017252,11.116],[-0.004377,11.11373],[-0.138132,11.14395],[-0.141502671737292,11.136063301872769],[-0.268822,11.16922],[-0.263329,11.12114],[-0.323067,11.10598],[-0.360489,11.05814],[-0.396317,11.11023],[-0.423288,11.09249],[-0.430527,11.02747],[-0.477608,11.01487],[-0.536102,10.96618],[-0.566191,10.97885],[-0.587409,10.90678],[-0.619633,10.8923],[-0.679808,10.94636],[-0.693169,10.99006],[-0.840454,10.98939],[-0.868264,10.95703],[-0.894699,10.95434],[-0.938988,10.99141],[-1.105156,10.99849],[-1.112709,10.98029],[-1.387368,10.98804],[-1.435384,11.00809],[-1.600228,11.01231],[-1.609497,10.95569],[-2.157818,10.96786],[-2.500077,10.98265],[-2.730103,10.99883],[-2.825203,11.0022],[-2.830635,10.96811],[-2.810072,10.94502],[-2.80881,10.91926],[-2.886462,10.75986],[-2.925012,10.72094],[-2.895791,10.68831],[-2.931184,10.63386],[-2.930511,10.61828],[-2.890488,10.54909],[-2.865956,10.49437],[-2.858592,10.46074],[-2.763741,10.42391],[-2.772638,10.40158],[-2.823283,10.38219],[-2.828186,10.30426],[-2.759658,10.27326],[-2.746671,10.24981],[-2.751747,10.22213],[-2.787513,10.19094],[-2.776734,10.14278],[-2.78012,10.07177],[-2.73239,9.958698],[-2.717098,9.826363],[-2.72633,9.807088],[-2.749725,9.794422],[-2.779739,9.742776],[-2.777052,9.698765],[-2.748287,9.685134],[-2.735776,9.643209],[-2.684722,9.508131],[-2.673887,9.483604],[-2.685442,9.472243],[-2.739535,9.388015],[-2.763743,9.384107]]]}}
