{"type":"Feature","properties":{"sourceId":"bangladesh"},"geometry":{"type":"Polygon","coordinates":[[[92.20242,21.19882],[92.17941,21.18201],[92.20036,21.16408],[92.26696,21.07777],[92.28413,20.98068],[92.31297,20.89185],[92.38549,20.72713],[92.57904,20.3266],[91.08528,18.58403],[89.52239,19.19483],[89.01998,21.78118],[89.03424,21.85857],[89.0135,21.88654],[89.01704,21.92011],[89.03103,21.93348],[89.02926,22.09127],[89.03607,22.11695],[89.03205,22.22144],[88.98632,22.28315],[88.97558,22.32214],[88.96232,22.4112],[88.93114,22.56126],[88.92261,22.6588],[88.91013,22.72473],[88.90174,22.75789],[88.90314,22.87329],[88.88947,22.89411],[88.86105,22.93229],[88.85143,22.9368],[88.84502,22.96053],[88.83506,23.0075],[88.84218,23.0205],[88.86401,23.05945],[88.85107,23.0757],[88.86052,23.10722],[88.8786,23.12022],[88.8923,23.1205],[88.93536,23.17997],[88.94651,23.20254],[88.88523,23.22321],[88.81307,23.21077],[88.78716,23.20887],[88.76699,23.21776],[88.73298,23.23337],[88.71404,23.2446],[88.68988,23.2896],[88.69228,23.30852],[88.73668,23.39512],[88.74351,23.42047],[88.74353,23.45888],[88.72246,23.49246],[88.69529,23.50446],[88.65035,23.5412],[88.60245,23.589],[88.57067,23.59554],[88.54602,23.64741],[88.54928,23.7125],[88.55437,23.76985],[88.54459,23.78659],[88.55599,23.79733],[88.5696,23.79581],[88.57811,23.82252],[88.56511,23.85111],[88.56623,23.86867],[88.58101,23.88148],[88.61936,23.88915],[88.71636,23.93639],[88.69321,24.07341],[88.68862,24.0901],[88.69789,24.10555],[88.68977,24.14822],[88.69962,24.17629],[88.71184,24.19249],[88.72814,24.24728],[88.49406,24.31155],[88.2578,24.45323],[88.12005,24.50026],[88.10184,24.52014],[88.01848,24.64388],[87.99765,24.66732],[88.06652,24.78241],[88.12578,24.91521],[88.1318,24.94616],[88.14862,24.94754],[88.18009,24.96493],[88.22639,24.97117],[88.35157,24.9079],[88.38815,24.94394],[88.40542,24.98609],[88.45095,25.14544],[88.42729,25.1977],[88.4326,25.21574],[88.44536,25.21923],[88.46039,25.20623],[88.47163,25.22178],[88.50025,25.22077],[88.68829,25.21957],[88.72032,25.21556],[88.75035,25.1929],[88.77517,25.19885],[88.7839,25.18658],[88.79978,25.18142],[88.8234,25.21264],[88.84362,25.22354],[88.8801,25.20461],[88.88461,25.19321],[88.94197,25.24705],[88.94622,25.25889],[88.95308,25.28233],[88.9256,25.29514],[88.90883,25.30455],[88.87977,25.32196],[88.8564,25.34436],[88.83288,25.35792],[88.81791,25.39299],[88.80383,25.41028],[88.81931,25.4282],[88.81616,25.4462],[88.7173,25.47267],[88.69977,25.46132],[88.64328,25.4686],[88.53486,25.50003],[88.5276,25.52427],[88.48546,25.55377],[88.45539,25.58646],[88.43624,25.59154],[88.44456,25.65513],[88.40023,25.66279],[88.36446,25.68936],[88.30513,25.74789],[88.14949,25.76596],[88.13317,25.77496],[88.10677,25.792],[88.09155,25.82603],[88.07582,25.91841],[88.08615,25.93673],[88.13131,26.01882],[88.15965,26.04748],[88.15056,26.07416],[88.14854,26.09637],[88.16333,26.1186],[88.16943,26.15397],[88.19146,26.17199],[88.22338,26.18232],[88.34156,26.2885],[88.36484,26.31351],[88.39379,26.32582],[88.4068,26.34555],[88.42788,26.34601],[88.45288,26.38537],[88.51084,26.36896],[88.47324,26.45889],[88.41848,26.4635],[88.37351,26.47933],[88.36595,26.45121],[88.35048,26.43795],[88.32194,26.47935],[88.32322,26.49952],[88.34043,26.51472],[88.36897,26.59867],[88.40327,26.64677],[88.4269,26.6389],[88.43146,26.57231],[88.44012,26.55487],[88.49004,26.54984],[88.5905,26.48288],[88.63406,26.48104],[88.69655,26.41987],[88.71252,26.39456],[88.73863,26.35665],[88.824,26.29479],[88.81756,26.26035],[88.85708,26.23692],[88.85862,26.27556],[88.9333,26.3505],[88.90566,26.36096],[88.90137,26.41094],[88.92639,26.40844],[88.92806,26.41397],[88.91969,26.41739],[88.92489,26.43246],[88.9563,26.45997],[88.96514,26.45966],[89.03767,26.4034],[89.08625,26.4014],[89.09981,26.39249],[89.1386,26.32419],[89.16261,26.14927],[89.16452,26.13756],[89.2313,26.12662],[89.26821,26.09363],[89.30323,26.05185],[89.37086,26.01359],[89.40468,26.04321],[89.4227,26.04969],[89.4306,26.04861],[89.46905,26.00202],[89.5154,26.01421],[89.55265,26.00449],[89.54493,25.97255],[89.57634,25.98613],[89.57153,26.02532],[89.6038,26.06758],[89.63762,26.06881],[89.58784,26.09209],[89.58733,26.15744],[89.63316,26.2323],[89.67968,26.24262],[89.68912,26.23091],[89.7056,26.175],[89.75212,26.16022],[89.77049,26.13448],[89.76002,26.11321],[89.78457,26.10905],[89.79847,26.09009],[89.80207,26.05971],[89.78508,26.04398],[89.80946,26.04876],[89.84314,26.0116],[89.87606,25.97888],[89.89391,25.94384],[89.83984,25.84779],[89.82508,25.82014],[89.8395,25.78073],[89.8443,25.76063],[89.85392,25.71393],[89.87228,25.66365],[89.88276,25.63595],[89.88464,25.61754],[89.87786,25.58015],[89.86756,25.54384],[89.85383,25.53787],[89.86314,25.51572],[89.85563,25.46707],[89.82456,25.37394],[89.8502,25.29769],[89.86044,25.29173],[89.90033,25.31601],[89.9195,25.31974],[90.07934,25.25664],[90.11473,25.23399],[90.29159,25.20498],[90.33184,25.19414],[90.38638,25.16375],[90.43769,25.15739],[90.46623,25.17187],[90.52256,25.18469],[90.60389,25.17667],[90.65266,25.1911],[90.68416,25.16962],[90.73807,25.16827],[90.75852,25.18349],[90.77783,25.18596],[90.82022,25.16039],[90.88543,25.17139],[90.95856,25.17822],[91.06533,25.20432],[91.22528,25.20417],[91.25856,25.21775],[91.34514,25.18413],[91.55012,25.1586],[91.56914,25.17506],[91.59259,25.18251],[91.6045,25.17444],[91.60831,25.14948],[91.64727,25.13667],[91.68722,25.1426],[91.70814,25.16899],[91.73861,25.15988],[91.74158,25.1734],[91.75639,25.18383],[91.79101,25.17533],[91.93195,25.19327],[91.97869,25.18389],[92.04219,25.19769],[92.11934,25.17997],[92.14866,25.15203],[92.17563,25.14579],[92.19724,25.14908],[92.24493,25.10255],[92.3473,25.07845],[92.43107,25.03335],[92.49424,24.95073],[92.50523,24.89983],[92.48875,24.85965],[92.39811,24.84438],[92.38086,24.85287],[92.37253,24.8725],[92.36292,24.87086],[92.33811,24.87678],[92.26833,24.90107],[92.30507,24.73374],[92.22885,24.4934],[92.17323,24.41589],[92.12517,24.379],[91.99762,24.32113],[91.95969,24.30611],[91.91677,24.13547],[91.88965,24.12482],[91.81755,24.18841],[91.75816,24.13297],[91.64761,24.1032],[91.59714,24.0822],[91.59353,24.07013],[91.54495,24.06794],[91.4193,24.09035],[91.38256,23.96837],[91.31149,23.98186],[91.30257,23.96649],[91.28162,23.92005],[91.23562,23.89494],[91.25999,23.84094],[91.23562,23.76461],[91.2236,23.55644],[91.25381,23.47962],[91.25175,23.45915],[91.27613,23.43332],[91.3266,23.3618],[91.45775,23.26216],[91.46084,23.24592],[91.51199,23.18581],[91.5604,23.03835],[91.55593,23.00703],[91.57627,22.98672],[91.60892,22.98049],[91.64254,22.99523],[91.67383,22.99157],[91.68741,23.00035],[91.71943,23.00312],[91.75181,23.03475],[91.77167,23.04453],[91.76928,23.06121],[91.77643,23.07665],[91.8015,23.08033],[91.80902,23.09107],[91.78553,23.19239],[91.75841,23.24737],[91.75872,23.27565],[91.78212,23.33074],[91.82694,23.39196],[91.83738,23.41675],[91.87727,23.44296],[91.94904,23.49033],[91.90681,23.74261],[92.28584,23.78158],[92.41218,23.28109],[92.406,22.95017],[92.46712,22.90211],[92.53097,22.73186],[92.5605,22.51509],[92.6168,22.16579],[92.63534,21.87297],[92.69714,21.27402],[92.58179,21.22154],[92.35588,21.42623],[92.20994,21.3081],[92.22733,21.2788],[92.2237,21.22922],[92.20242,21.19882]]]}}
