{"type":"Feature","properties":{"sourceId":"britain-and-ireland"},"geometry":{"type":"MultiPolygon","coordinates":[[[[-1.4154756783110722,49.86260277496044],[-1.458586,49.88523],[-2.0042005718112135,49.82554500216139],[-2.0067108951871044,49.997873158167074],[0.257806,50.21031],[0.7263450186941256,50.4602777418266],[0.058076,50.10375],[-1.4154756783110722,49.86260277496044]]],[[[-1.77381,49.0],[-2.1568702756399594,49.02756829502649],[-2.1568713308209118,49.02756892576434],[-1.826746,49.00381],[-1.791572,49.0524],[-1.8929891996530668,49.35161453781205],[-1.8929889326527263,49.35161431865717],[-1.77381,49.0]]],[[[-7.598576,49.4192],[-8.162724427432467,49.60002242352003],[-5.9476200197958535,51.68678975849399],[-6.804976331591336,50.03204837423448],[-6.820424,50.0162],[-6.816989683305244,50.00886199306346],[-7.068725,49.523],[-6.269662093537218,49.59796097760877],[-6.142681,49.57808],[-6.100627,49.5839],[-5.99687022061052,49.623551885800005],[-2.499412847451949,49.95165224149981],[-3.573306,49.69429],[-3.1162886509840058,49.32967133626424],[-3.9237416185053524,49.15472747479941],[-7.598576,49.4192]]],[[[-14.867507413045743,57.46893939531147],[-12.338491225773275,56.87779361596414],[-11.860235855506291,56.75996576573956],[-14.1318,56.86553],[-14.40224,56.67119],[-10.76456,50.43397],[-14.867507413045743,57.46893939531147]]],[[[-15.05625,57.79256],[-6.171774880766279,60.00599599688107],[-6.171816747269595,60.0059839203419],[-12.08287,58.53333],[-14.9907,57.68017],[-14.937407483786643,57.58879100657726],[-15.05625,57.79256]]],[[[0.243531,61.09084],[0.14239347733279525,59.93252159710125],[0.14239347712593206,59.932521597733356],[0.216055,60.77616],[-0.2303334006318962,61.0714539017859],[-0.24044993622478406,61.10236674944838],[0.243531,61.09084]]],[[[3.404317976547408,51.989729274253435],[3.345328,51.94233],[3.4386031177627263,51.907292683805295],[1.9172742467971269,51.09564957037639],[1.4165216535789282,50.86282182397662],[1.951517,51.1862],[2.513672,52.68668],[2.133265,53.84908],[0.799897,55.79959],[3.404317976547408,51.989729274253435]]],[[[0.9326215645074573,50.57032819907259],[1.2843544433837726,50.782933294760575],[1.2923539389162932,50.762248769265305],[0.9326215645074573,50.57032819907259]]],[[[-5.128636170881685,53.73236],[-4.779833592792254,53.73236],[-4.8910591924713716,53.62190452556874],[-5.149074563015814,53.51571434306535],[-5.128636170881685,53.73236]]],[[[-5.026562296698862,54.34978172545824],[-5.077687467395787,54.27241301709815],[-5.067186424562784,54.383723403361664],[-5.026562296698862,54.34978172545824]]]]}}
