{"type":"Feature","properties":{"sourceId":"benin"},"geometry":{"type":"Polygon","coordinates":[[[0.903625,11.02073],[1.129531,11.28751],[1.390457,11.46421],[1.48796,11.51232],[1.645771,11.46683],[2.002944,11.4632],[2.250823,11.67107],[2.403259,11.99164],[2.35176,12.26822],[2.847518,12.43658],[3.351262,11.95432],[3.448333,11.87676],[3.495712,11.86802],[3.582229,11.78469],[3.630294,11.69258],[3.492965,11.43628],[3.758697,11.12788],[3.861694,10.5938],[3.795089,10.39192],[3.630294,10.40813],[3.611068,10.25479],[3.706512,10.18586],[3.623428,9.948562],[3.526611,9.847099],[3.363876,9.824772],[3.379669,9.707704],[3.175735,9.464641],[3.172988,9.282399],[3.099517,9.077011],[2.811813,9.0526],[2.78366,8.587132],[2.769927,8.219646],[2.741088,7.786514],[2.810439,7.433965],[2.769069,7.040416],[2.736111,7.013838],[2.717914,6.95318],[2.745724,6.929835],[2.743149,6.844112],[2.737141,6.784882],[2.786665,6.767239],[2.797393,6.749169],[2.785463,6.728456],[2.788467,6.693592],[2.734394,6.637668],[2.756881,6.569118],[2.735252,6.536374],[2.714309,6.515908],[2.730446,6.48589],[2.712593,6.463717],[2.712593,6.374671],[2.786765,6.147578],[1.656625,5.984817],[1.656523591523769,5.985670550814497],[1.686811,5.993211],[1.630483,6.235954],[1.630697,6.24069],[1.637435,6.245084],[1.643872,6.243036],[1.653056,6.248795],[1.666231,6.247686],[1.681724,6.251824],[1.708932,6.256901],[1.803016,6.279919],[1.810942,6.288169],[1.799784,6.325365],[1.789526,6.345983],[1.789792,6.384679],[1.775253,6.418684],[1.781244,6.424995],[1.763064,6.461642],[1.756392,6.478131],[1.740893,6.491436],[1.714797,6.508686],[1.707527,6.530515],[1.699827,6.54769],[1.698715,6.555705],[1.66809,6.580939],[1.654563,6.584257],[1.638874,6.604571],[1.614132,6.629142],[1.620258,6.652351],[1.597847,6.70074],[1.595489,6.713814],[1.605852,6.726847],[1.627148,6.734527],[1.623514,6.751742],[1.630117,6.761184],[1.614926,6.831884],[1.598767,6.870792],[1.606665,6.873555],[1.609068,6.880073],[1.610621,6.905943],[1.58495,6.941144],[1.566718,6.973023],[1.563148,6.994074],[1.646299,6.992627],[1.648895,7.425367],[1.6605,7.533355],[1.646384,7.636733],[1.644183,7.756867],[1.650794,7.776942],[1.640579,7.847533],[1.639452,8.022345],[1.636269,8.360702],[1.618474,8.373396],[1.628279,8.397337],[1.635219,8.446848],[1.663343,8.483462],[1.665663,8.497733],[1.626772,8.549208],[1.629809,8.879665],[1.624939,9.034103],[1.612326,9.09623],[1.570226,9.173901],[1.510497,9.217976],[1.421424,9.323096],[1.405311,9.37893],[1.395342,9.488916],[1.385518,9.499301],[1.366192,9.488172],[1.344288,9.54174],[1.372405,9.5937],[1.372263,9.630694],[1.378785,9.647852],[1.37083,9.66394],[1.368089,9.765507],[1.377446,9.806927],[1.368154,9.829002],[1.359194,9.997714],[1.101203,10.15395],[0.782209,10.38025],[0.813598,10.55974],[0.807226,10.71182],[0.883869,10.79752],[0.893256,10.85751],[0.909146,10.87572],[0.894059,10.91897],[0.916409,10.97631],[0.914895,11.00023],[0.8997137187566833,11.000355847137216],[0.903625,11.02073]]]}}
