{"type":"Feature","properties":{"sourceId":"beijing"},"geometry":{"type":"Polygon","coordinates":[[[115.4457,40.03051],[115.5109,40.07177],[115.5581,40.09908],[115.5784,40.11773],[115.6508,40.13295],[115.6864,40.13157],[115.6919,40.12649],[115.6926,40.13161],[115.7029,40.13466],[115.7199,40.13],[115.746,40.16294],[115.7643,40.17704],[115.7833,40.18025],[115.7968,40.16261],[115.8375,40.14673],[115.8429,40.15362],[115.8362,40.16792],[115.844,40.17763],[115.8398,40.18314],[115.8458,40.19009],[115.8626,40.18792],[115.8755,40.2167],[115.8902,40.23636],[115.901,40.23826],[115.9185,40.25451],[115.9573,40.25988],[115.9159,40.32155],[115.9102,40.3525],[115.8924,40.35309],[115.8572,40.35655],[115.8353,40.37499],[115.7861,40.42715],[115.7623,40.44198],[115.764,40.44652],[115.7646,40.45129],[115.7676,40.45521],[115.7705,40.45968],[115.7665,40.4604],[115.7627,40.46406],[115.7641,40.48521],[115.7236,40.49579],[115.7417,40.53768],[115.7636,40.55646],[115.7949,40.56363],[115.8125,40.58671],[115.8647,40.59962],[115.9011,40.61786],[115.9518,40.61382],[115.9907,40.58854],[116.0158,40.60613],[116.0881,40.63154],[116.127,40.66892],[116.1545,40.66645],[116.1675,40.70563],[116.1945,40.73776],[116.2065,40.74375],[116.2256,40.78873],[116.2494,40.79224],[116.2731,40.76962],[116.4031,40.78054],[116.4439,40.77144],[116.4415,40.78561],[116.3557,40.87835],[116.3236,40.90365],[116.327,40.92454],[116.3608,40.9484],[116.4305,40.90145],[116.447,40.98884],[116.545,41.00192],[116.5958,40.97912],[116.6049,41.01242],[116.6065,41.05308],[116.6326,41.06382],[116.6879,41.04402],[116.6949,41.01488],[116.6815,40.9808],[116.6856,40.96033],[116.7198,40.93167],[116.7155,40.91027],[116.7838,40.88237],[116.7986,40.84706],[116.8181,40.84771],[116.8484,40.84304],[116.8928,40.79939],[116.8913,40.77781],[116.9182,40.78067],[116.9399,40.73997],[117.0034,40.6971],[117.1021,40.70771],[117.1464,40.6973],[117.1587,40.69945],[117.208,40.69268],[117.2542,40.68168],[117.2935,40.66007],[117.3856,40.68689],[117.4189,40.68578],[117.4487,40.67693],[117.474,40.68259],[117.5095,40.66384],[117.5086,40.63864],[117.4826,40.63083],[117.4686,40.63167],[117.4614,40.64613],[117.4476,40.64496],[117.4478,40.62561],[117.4219,40.62242],[117.4264,40.57081],[117.3814,40.55535],[117.3572,40.56963],[117.3098,40.57361],[117.2561,40.54922],[117.2464,40.53735],[117.2581,40.52032],[117.2607,40.51054],[117.2434,40.50995],[117.2096,40.50982],[117.2149,40.49403],[117.2311,40.46941],[117.2314,40.45955],[117.2609,40.4397],[117.2404,40.41996],[117.2357,40.4197],[117.235,40.39369],[117.2287,40.38546],[117.2482,40.35936],[117.2507,40.34916],[117.2697,40.33385],[117.2694,40.31651],[117.2874,40.29995],[117.2906,40.28476],[117.3126,40.28516],[117.3282,40.28876],[117.3377,40.25353],[117.3356,40.24658],[117.3662,40.23276],[117.38159701844867,40.22944964103354],[117.3685,40.22017],[117.3736,40.1912],[117.3766,40.18504],[117.3941,40.18438],[117.3726,40.17677],[117.3427,40.17192],[117.3433,40.14883],[117.3026,40.14043],[117.2751,40.1197],[117.2355,40.11602],[117.2042,40.09672],[117.2018,40.07768],[117.204243118714,40.07301517020545],[117.2009,40.06835],[117.19339917615874,40.06576221577477],[117.19099202747272,40.0658113669783],[117.1748,40.06769],[117.1558,40.07242],[117.1484,40.06533],[117.1284,40.06086],[117.0942,40.07131],[117.077,40.06342],[117.0593,40.05942],[117.0451,40.04904],[117.0295,40.04095],[117.0227,40.03031],[117.0162,40.02591],[116.9934,40.02781],[116.9826,40.0357],[116.9635,40.03425],[116.9562,40.04707],[116.9399,40.03971],[116.9244,40.04956],[116.9113,40.0422],[116.9063,40.04989],[116.8964,40.04569],[116.8646,40.03846],[116.827,40.04713],[116.818,40.04523],[116.8181,40.03636],[116.8163,40.02571],[116.7961,40.02702],[116.774,40.03235],[116.7667,40.01026],[116.7719,40.00145],[116.7706,39.99225],[116.7584,39.9714],[116.7571,39.95811],[116.7676,39.96035],[116.7739,39.95331],[116.7822,39.93574],[116.7811,39.91882],[116.788,39.88531],[116.8059,39.88972],[116.8211,39.87806],[116.8453,39.86067],[116.8628,39.84433],[116.8787,39.84558],[116.8914,39.84374],[116.8948,39.84808],[116.903,39.85184],[116.9116,39.84927],[116.922,39.83438],[116.9248,39.81269],[116.938,39.8001],[116.9354,39.79377],[116.9483,39.78638],[116.9433,39.77457],[116.921,39.77972],[116.9115,39.77497],[116.9162,39.76738],[116.9095,39.76052],[116.9018,39.75498],[116.909,39.74178],[116.9121,39.7301],[116.8933,39.72416],[116.882,39.72244],[116.8827,39.71419],[116.882,39.70494],[116.8882,39.69464],[116.8893,39.68929],[116.89612324280812,39.68984885607762],[116.8955,39.68936],[116.897,39.6883],[116.899,39.67681],[116.8793,39.67555],[116.8423,39.66861],[116.815,39.635],[116.8238,39.62579],[116.8036,39.6168],[116.80019466250208,39.612352040650855],[116.7866,39.60794],[116.7873,39.59491],[116.7751,39.59154],[116.7696,39.59266],[116.7676,39.59782],[116.7576,39.60893],[116.7454,39.61541],[116.7315,39.61382],[116.7242,39.6168],[116.7226,39.62057],[116.7111,39.61799],[116.7008,39.61495],[116.7,39.60893],[116.7051,39.60747],[116.7213,39.59815],[116.7226,39.59134],[116.7048,39.58611],[116.6976,39.58565],[116.687,39.5965],[116.6763,39.59683],[116.6735,39.59901],[116.6435,39.59729],[116.6162,39.59769],[116.6046,39.61614],[116.5885,39.61554],[116.581,39.61984],[116.5663,39.61673],[116.5663,39.60476],[116.5378,39.59173],[116.5206,39.59021],[116.5242,39.57123],[116.5006,39.54654],[116.4714,39.54999],[116.4754,39.53509],[116.4619,39.52708],[116.4398,39.50874],[116.4412,39.48165],[116.4513,39.45409],[116.4443,39.44673],[116.4287,39.44083],[116.4105,39.4468],[116.3398,39.4519],[116.3236,39.45561],[116.3073,39.47417],[116.284,39.4892],[116.2737,39.48808],[116.2502,39.49762],[116.2368,39.5098],[116.236,39.5478],[116.2196,39.56415],[116.215,39.57229],[116.2013,39.57453],[116.1889,39.58472],[116.179,39.58572],[116.1509,39.58029],[116.1442,39.57129],[116.125,39.56573],[116.1061,39.56799],[116.0985,39.56931],[116.0937,39.57308],[116.0258,39.56997],[116.0258,39.57189],[116.0169,39.57394],[116.0137,39.58433],[116.0043,39.57513],[115.9883,39.5752],[115.9815,39.59087],[115.9739,39.59121],[115.9732,39.5697],[115.9623,39.56084],[115.9502,39.55918],[115.9276,39.58128],[115.9208,39.59114],[115.9049,39.59841],[115.9043,39.58896],[115.9103,39.58201],[115.9059,39.56593],[115.8877,39.56739],[115.8882,39.55449],[115.8791,39.54628],[115.8659,39.54443],[115.8387,39.54092],[115.8193,39.53],[115.8253,39.50437],[115.7449,39.5096],[115.7372,39.52119],[115.736,39.53019],[115.728,39.54231],[115.715,39.54138],[115.7091,39.5576],[115.6854,39.56296],[115.6902,39.57268],[115.6865,39.57725],[115.6865,39.5828],[115.6869,39.58611],[115.6835,39.58915],[115.6805,39.59339],[115.6733,39.60132],[115.6266,39.59471],[115.5789,39.58492],[115.5643,39.58783],[115.5391,39.61243],[115.5171,39.58704],[115.503,39.58823],[115.5039,39.60913],[115.5104,39.6357],[115.4939,39.64588],[115.4708,39.64813],[115.4788,39.73346],[115.4579,39.73623],[115.4315,39.74679],[115.4176,39.77028],[115.4206,39.78031],[115.4787,39.80036],[115.5099,39.78994],[115.5406,39.81104],[115.5066,39.83451],[115.4981,39.88471],[115.513,39.89841],[115.4845,39.91764],[115.4467,39.93936],[115.4155,39.94896],[115.416,39.97515],[115.434,40.01039],[115.4457,40.03051]]]}}
