{"type":"Feature","properties":{"sourceId":"bolivia"},"geometry":{"type":"Polygon","coordinates":[[[-63.78182,-12.38896],[-63.09517,-12.60281],[-62.7491,-12.97579],[-62.64816,-12.943],[-62.14142,-13.08616],[-61.82419,-13.49246],[-61.58524,-13.47377],[-61.00159,-13.4731],[-60.62325,-13.70203],[-60.4612,-13.79074],[-60.37399,-13.98138],[-60.43579,-14.25041],[-60.2655,-14.6188],[-60.22568,-15.10527],[-60.56334,-15.10279],[-60.23186,-15.4646],[-60.168,-16.26082],[-59.49406,-16.274],[-58.44658,-16.30169],[-58.39508,-16.24302],[-58.27423,-16.23841],[-58.31955,-16.50588],[-58.40195,-17.05547],[-58.14652,-17.35588],[-57.88284,-17.43124],[-57.74483,-17.55992],[-57.66534,-17.83651],[-57.70535,-17.83858],[-57.43481,-18.23913],[-57.54448,-18.24538],[-57.75496,-18.89281],[-57.71599,-18.89459],[-57.68457,-19.01019],[-57.70483,-19.03891],[-57.77727,-19.03875],[-58.10532,-19.75249],[-57.82654,-19.96947],[-57.88422,-20.06625],[-58.08133391851645,-20.150737200534294],[-58.1414,-19.91933],[-58.11153,-19.81481],[-59.01897,-19.24958],[-59.99721,-19.24012],[-61.76619,-19.58822],[-61.9845,-20.07518],[-62.32016,-20.54603],[-62.32279,-21.05592],[-62.69475,-22.21539],[-62.68751739888382,-22.261170702842833],[-62.80266,-22.17628],[-62.82532,-22.11713],[-62.82326,-22.00704],[-63.65848,-22.00497],[-63.67487,-22.05812],[-63.68422,-22.05756],[-63.69161,-22.02837],[-63.72628,-22.00386],[-63.9176,-22.00497],[-63.9521,-22.09598],[-64.01836,-22.24239],[-64.11038,-22.42404],[-64.29646,-22.90148],[-64.34898,-22.87554],[-64.35186,-22.7338],[-64.40666,-22.72758],[-64.44855,-22.64158],[-64.43825,-22.54998],[-64.58931,-22.38246],[-64.56631,-22.28401],[-64.65197,-22.20123],[-64.72458,-22.20648],[-65.00816,-22.09836],[-65.48392,-22.09821],[-65.58228,-22.09956],[-65.60988,-22.10003],[-65.65464,-22.11554],[-65.77789,-22.11363],[-66.20979,-21.83728],[-66.27296,-22.09073],[-66.76735,-22.45038],[-67.15256,-22.83695],[-67.57004,-22.92551],[-67.92572,-22.87238],[-68.09738,-21.98635],[-68.41873,-20.97041],[-68.54576,-20.96721],[-68.76274,-20.45983],[-68.81493,-20.09463],[-68.55812,-19.93979],[-68.71588,-19.74441],[-68.45955,-19.41286],[-68.62258,-19.27647],[-68.88496,-19.06423],[-68.96668,-18.94136],[-69.05182,-18.62282],[-69.06555,-18.42685],[-69.09885,-18.23555],[-69.16683,-18.16086],[-69.0834,-18.05285],[-69.28803,-17.97351],[-69.31343,-17.92876],[-69.35223,-17.72907],[-69.47411,-17.60541],[-69.47445,-17.37587],[-69.5759,-17.29533],[-69.65675,-17.29017],[-69.56543,-17.15719],[-69.40475,-17.01969],[-69.30897,-16.91067],[-69.21764,-16.81736],[-69.1761,-16.72433],[-69.02092,-16.65461],[-69.04264,-16.57154],[-68.99689,-16.41699],[-68.81287,-16.33464],[-68.97268,-16.1977],[-69.01199,-16.22588],[-69.10091,-16.23182],[-69.2125,-16.18962],[-69.44595,-15.58997],[-69.15756,-15.2292],[-69.29009,-15.11323],[-69.37592,-14.96469],[-69.36596,-14.79513],[-69.2482,-14.59156],[-68.93097,-14.13391],[-69.11225,-13.66467],[-68.9035,-12.8841],[-68.7703,-12.61086],[-68.67828,-12.49491],[-69.57779,-10.94237],[-69.52955,-10.93192],[-69.40956,-10.91422],[-68.78815,-10.98231],[-68.75699,-10.99857],[-68.74635,-11.00868],[-68.74746,-11.02098],[-68.75021,-11.03758],[-68.69957,-11.1272],[-68.44345,-11.02208],[-68.06511,-10.64036],[-67.68402,-10.60324],[-67.59338,-10.49524],[-67.32765,-10.29803],[-66.64169,-9.871451],[-66.18713,-9.774023],[-65.45517,-9.63866],[-65.35904,-9.672506],[-65.26154,-9.837625],[-65.26497,-10.22641],[-65.36797,-10.4034],[-65.33501,-10.69974],[-65.33638,-10.76316],[-65.34084,-10.79385],[-65.25055,-10.88118],[-65.23956,-11.10968],[-64.99787,-11.86197],[-64.49661,-12.20917],[-64.46159,-12.35543],[-64.22642,-12.44731],[-63.78182,-12.38896]]]}}
