{"type":"Feature","properties":{"sourceId":"basse-normandie"},"geometry":{"type":"Polygon","coordinates":[[[0.730744,48.19564],[0.722302,48.19635],[0.714347,48.21071],[0.702464,48.21728],[0.693167,48.23434],[0.68414,48.2391],[0.678553,48.25075],[0.663353,48.25793],[0.651056,48.26102],[0.636783,48.25562],[0.63594,48.24714],[0.640933,48.23578],[0.634122,48.2317],[0.626524,48.23495],[0.622189,48.24177],[0.611126,48.23956],[0.605061,48.24213],[0.567188,48.24266],[0.547656,48.24739],[0.536046,48.24697],[0.533827,48.24949],[0.534595,48.25746],[0.531605,48.2608],[0.511844,48.26441],[0.492326,48.28103],[0.491362,48.28636],[0.498917,48.29735],[0.491663,48.30345],[0.487303,48.30336],[0.479541,48.29616],[0.465074,48.30282],[0.442621,48.30193],[0.430676,48.30431],[0.419105,48.318],[0.405683,48.31237],[0.39389,48.31847],[0.380575,48.33274],[0.378127,48.343],[0.3824,48.35036],[0.377326,48.36538],[0.377003,48.37751],[0.371242,48.38688],[0.371986,48.3984],[0.369043,48.41118],[0.37758,48.41798],[0.377264,48.42367],[0.36585,48.4362],[0.361281,48.44855],[0.354886,48.45509],[0.337666,48.45933],[0.323705,48.4694],[0.309233,48.46961],[0.297534,48.47729],[0.275256,48.47667],[0.267796,48.4803],[0.259082,48.47415],[0.249524,48.47154],[0.213457,48.46995],[0.19136,48.45941],[0.175704,48.46196],[0.173387,48.45843],[0.17539,48.4489],[0.162211,48.44617],[0.156705,48.4369],[0.127122,48.43216],[0.117672,48.43304],[0.112506,48.42888],[0.112237,48.42157],[0.100907,48.40815],[0.085381,48.40819],[0.068489,48.40354],[0.061106,48.39332],[0.065106,48.38282],[0.060896,48.37712],[0.015549,48.37898],[0.001863,48.38703],[-0.002402,48.39366],[-0.016494,48.39068],[-0.02025,48.3832],[-0.030618,48.3832],[-0.034922,48.37872],[-0.052043,48.37303],[-0.057305,48.37755],[-0.060312,48.3866],[-0.058066,48.39211],[-0.060162,48.40877],[-0.057194,48.41478],[-0.060137,48.42039],[-0.05983,48.42954],[-0.054769,48.43979],[-0.053753,48.44937],[-0.066429,48.45399],[-0.073772,48.44789],[-0.10652,48.4448],[-0.125581,48.44691],[-0.148463,48.45454],[-0.15219,48.45986],[-0.154314,48.4811],[-0.15918,48.49345],[-0.166167,48.49872],[-0.174045,48.50063],[-0.175645,48.50981],[-0.168906,48.51785],[-0.156393,48.52365],[-0.155652,48.52766],[-0.18052,48.53875],[-0.197245,48.55362],[-0.20874,48.55994],[-0.217528,48.5557],[-0.239079,48.56181],[-0.242752,48.56079],[-0.251741,48.54948],[-0.244176,48.5445],[-0.239336,48.53574],[-0.249455,48.52479],[-0.259596,48.52368],[-0.264371,48.52001],[-0.264986,48.51296],[-0.270347,48.50531],[-0.286177,48.50415],[-0.292251,48.51311],[-0.320154,48.51899],[-0.33117,48.50923],[-0.335988,48.4987],[-0.348889,48.49773],[-0.350183,48.49404],[-0.346987,48.48796],[-0.353296,48.48126],[-0.369216,48.48559],[-0.375155,48.49305],[-0.390639,48.49665],[-0.398148,48.50503],[-0.408428,48.50304],[-0.424461,48.50434],[-0.431719,48.50892],[-0.447355,48.51153],[-0.464401,48.50916],[-0.471597,48.50177],[-0.478305,48.49909],[-0.492861,48.49922],[-0.509982,48.50366],[-0.515179,48.49584],[-0.534052,48.48914],[-0.537983,48.48217],[-0.546048,48.47884],[-0.549979,48.47111],[-0.564535,48.47074],[-0.572284,48.46612],[-0.595263,48.46904],[-0.613787,48.45699],[-0.624975,48.45428],[-0.651214,48.44117],[-0.657784,48.44586],[-0.657019,48.45999],[-0.668702,48.47971],[-0.678748,48.47557],[-0.680732,48.46869],[-0.691705,48.46554],[-0.701319,48.46464],[-0.70747,48.46844],[-0.715734,48.4667],[-0.726743,48.46887],[-0.729094,48.46308],[-0.713558,48.45652],[-0.71273,48.4478],[-0.759856,48.43358],[-0.765907,48.4342],[-0.770356,48.43933],[-0.781667,48.44432],[-0.780617,48.45489],[-0.782922,48.46125],[-0.792039,48.46242],[-0.798415,48.45668],[-0.8145,48.4531],[-0.818336,48.45738],[-0.822201,48.47194],[-0.834199,48.4777],[-0.846317,48.49453],[-0.859604,48.49804],[-0.881013,48.49633],[-0.893873,48.49204],[-0.907714,48.49383],[-0.924341,48.50158],[-0.92813,48.51075],[-0.954584,48.51386],[-0.959772,48.5099],[-0.96004,48.50287],[-0.971223,48.49219],[-1.003452,48.48666],[-1.017706,48.48971],[-1.030555,48.4983],[-1.057496,48.50896],[-1.072415,48.50559],[-1.09238,48.50809],[-1.104631,48.5107],[-1.120339,48.51875],[-1.148187,48.51536],[-1.157513,48.51785],[-1.169222,48.52782],[-1.191194,48.52598],[-1.200453,48.52967],[-1.204821,48.53607],[-1.238658,48.53521],[-1.252786,48.54049],[-1.266099,48.53404],[-1.267755,48.52233],[-1.278248,48.50677],[-1.291294,48.5038],[-1.299594,48.49673],[-1.324038,48.4941],[-1.327741,48.48399],[-1.339109,48.48719],[-1.344132,48.48096],[-1.342987,48.47109],[-1.35585,48.46449],[-1.362762,48.46381],[-1.369108,48.45791],[-1.380029,48.45334],[-1.397171,48.45851],[-1.428811,48.45935],[-1.442868,48.46977],[-1.441586,48.47758],[-1.449723,48.48389],[-1.459452,48.48221],[-1.467007,48.48489],[-1.474603,48.48285],[-1.491328,48.48732],[-1.499919,48.50791],[-1.519818,48.5281],[-1.523633,48.53861],[-1.535682,48.54597],[-1.537027,48.55117],[-1.531666,48.55854],[-1.529018,48.57186],[-1.533671,48.57756],[-1.545221,48.5787],[-1.546749,48.58753],[-1.543588,48.59616],[-1.551979,48.60578],[-1.567768,48.61266],[-1.571844,48.62329],[-1.666686,48.65142],[-1.9681,48.86001],[-1.966971,48.86383],[-1.742237,49.02067],[-1.740294,49.02466],[-1.820311,49.29196],[-1.8929891996530668,49.35161453781205],[-1.909196,49.39943],[-1.999514,49.50381],[-2.001981,49.67317],[-2.03199,49.76171],[-2.003339,49.7664],[-2.0042005718112135,49.82554500216139],[-1.458586,49.88523],[-0.777729,49.52787],[0.077022,49.43492],[0.16250155577604072,49.43722078812218],[0.279773,49.43666],[0.293993,49.42929],[0.295799,49.40963],[0.299596,49.40609],[0.302814,49.39947],[0.30297,49.39351],[0.306945,49.38826],[0.300997,49.37581],[0.300815,49.37023],[0.304585,49.36042],[0.318605,49.34491],[0.320581,49.33816],[0.310492,49.32276],[0.29696,49.31447],[0.310977,49.31083],[0.313802,49.30356],[0.319998,49.29817],[0.319367,49.29448],[0.308517,49.28672],[0.308129,49.28205],[0.312861,49.27883],[0.326182,49.27669],[0.33,49.2832],[0.343555,49.29308],[0.348477,49.29421],[0.354572,49.29292],[0.36382,49.29427],[0.377304,49.28824],[0.379787,49.28541],[0.381499,49.26957],[0.380081,49.2663],[0.369412,49.26286],[0.364289,49.26433],[0.339791,49.25427],[0.31986,49.2536],[0.31809,49.25184],[0.319131,49.24804],[0.332845,49.23628],[0.337836,49.22944],[0.353054,49.22379],[0.365681,49.21518],[0.380018,49.21561],[0.389917,49.21005],[0.391076,49.20609],[0.387158,49.19812],[0.386134,49.18522],[0.391521,49.1756],[0.389109,49.16147],[0.384701,49.15734],[0.384651,49.15311],[0.390631,49.14912],[0.403507,49.14856],[0.411103,49.14483],[0.422438,49.14618],[0.424943,49.14462],[0.426625,49.13995],[0.423299,49.13288],[0.407335,49.12914],[0.408277,49.12191],[0.405604,49.11514],[0.39968,49.11091],[0.399978,49.10473],[0.397414,49.09904],[0.398951,49.09485],[0.396098,49.08939],[0.398473,49.08584],[0.406436,49.08472],[0.408304,49.0827],[0.410086,49.08483],[0.413285,49.08513],[0.415602,49.08305],[0.414903,49.07894],[0.411272,49.07787],[0.40836,49.08041],[0.403551,49.07747],[0.390416,49.07898],[0.386791,49.07496],[0.378498,49.07238],[0.376825,49.06086],[0.374349,49.05788],[0.368073,49.05615],[0.365818,49.05221],[0.379229,49.04617],[0.380324,49.04317],[0.378818,49.03894],[0.380868,49.0367],[0.390471,49.03263],[0.42573,49.03051],[0.430269,49.02261],[0.438678,49.02248],[0.441372,49.01678],[0.432745,49.00532],[0.429244,48.98937],[0.42326,48.98536],[0.423965,48.98143],[0.430779,48.97614],[0.430471,48.96934],[0.415105,48.95478],[0.401906,48.93895],[0.389918,48.92853],[0.386469,48.92066],[0.385726,48.90942],[0.397431,48.90616],[0.405419,48.89934],[0.410916,48.8995],[0.415662,48.89734],[0.419828,48.88572],[0.439187,48.88376],[0.441892,48.88035],[0.452099,48.87783],[0.458192,48.87886],[0.458472,48.88512],[0.462457,48.88721],[0.474996,48.88569],[0.493948,48.87763],[0.506354,48.87608],[0.511555,48.87929],[0.519541,48.87967],[0.55127,48.87299],[0.566756,48.88639],[0.575232,48.89114],[0.578214,48.89197],[0.586741,48.88935],[0.58836,48.88523],[0.585316,48.8821],[0.584514,48.87555],[0.589753,48.87144],[0.597758,48.87372],[0.602522,48.87238],[0.603538,48.86928],[0.601216,48.8618],[0.607678,48.85916],[0.608576,48.85219],[0.615709,48.85142],[0.617634,48.84943],[0.614241,48.83898],[0.606619,48.8332],[0.607418,48.83123],[0.621041,48.82804],[0.635525,48.82111],[0.642533,48.81513],[0.6654,48.80812],[0.688713,48.79228],[0.694541,48.79314],[0.710717,48.78811],[0.715264,48.78417],[0.720982,48.78651],[0.72947,48.7851],[0.738952,48.77565],[0.753603,48.7702],[0.753543,48.76568],[0.747746,48.7602],[0.760539,48.75133],[0.769544,48.74081],[0.769709,48.73807],[0.766144,48.73319],[0.759828,48.72933],[0.75698,48.7218],[0.740031,48.71702],[0.72736,48.70663],[0.731493,48.70196],[0.749421,48.70316],[0.762709,48.69684],[0.76451,48.69229],[0.758983,48.68686],[0.763172,48.67484],[0.767991,48.66892],[0.78329,48.66574],[0.793095,48.67356],[0.796797,48.67392],[0.806883,48.66969],[0.81436,48.66903],[0.8176230239113066,48.671457699136305],[0.816311,48.66416],[0.826886,48.65049],[0.826194,48.63875],[0.833792,48.6337],[0.821582,48.61825],[0.822372,48.61377],[0.848683,48.61133],[0.854504,48.58436],[0.870338,48.57562],[0.893399,48.57475],[0.903665,48.56882],[0.928029,48.56174],[0.941945,48.54938],[0.933119,48.54077],[0.934393,48.53591],[0.969718,48.52514],[0.967502,48.51674],[0.95339,48.49965],[0.957586,48.49381],[0.958446,48.4814],[0.942977,48.47442],[0.940797,48.47089],[0.943239,48.46172],[0.957869,48.44652],[0.968282,48.44435],[0.973942,48.44618],[0.979067,48.44135],[0.977424,48.43633],[0.960721,48.42613],[0.947451,48.41371],[0.951872,48.39734],[0.940845,48.39484],[0.910717,48.36842],[0.900538,48.36941],[0.884182,48.35399],[0.87016,48.35353],[0.859536,48.34712],[0.846641,48.34693],[0.828311,48.33991],[0.814466,48.34625],[0.806813,48.3417],[0.789592,48.33839],[0.785978,48.33168],[0.772241,48.32138],[0.770853,48.30661],[0.779383,48.30584],[0.794477,48.29568],[0.810206,48.29116],[0.80612,48.28642],[0.797562,48.28356],[0.791023,48.26998],[0.794558,48.26014],[0.803179,48.25281],[0.809257,48.24049],[0.828088,48.22211],[0.833005,48.21059],[0.811991,48.20245],[0.808916,48.19489],[0.755939,48.17802],[0.737016,48.18679],[0.730744,48.19564]]]}}
