{"type":"Feature","properties":{"sourceId":"bedfordshire"},"geometry":{"type":"Polygon","coordinates":[[[-0.304816,51.98803],[-0.311201,51.98015],[-0.364747,51.98203],[-0.361305,51.97648],[-0.351545,51.97571],[-0.347628,51.97219],[-0.348339,51.95716],[-0.372088,51.94612],[-0.38475,51.9506],[-0.381516,51.95875],[-0.382376,51.9769],[-0.388769,51.97595],[-0.392077,51.96716],[-0.397221,51.96475],[-0.401123,51.95419],[-0.400243,51.94846],[-0.403784,51.943],[-0.400611,51.9322],[-0.387698,51.92704],[-0.381931,51.91936],[-0.383287,51.91376],[-0.375555,51.89955],[-0.363742,51.89578],[-0.348514,51.88009],[-0.349277,51.87491],[-0.352644,51.873],[-0.352722,51.86721],[-0.347886,51.85859],[-0.337678,51.85026],[-0.341415,51.84473],[-0.356659,51.83819],[-0.362167,51.83913],[-0.367506,51.82956],[-0.373688,51.82727],[-0.399026,51.83543],[-0.420988,51.84739],[-0.425705,51.84476],[-0.439273,51.84931],[-0.447758,51.84567],[-0.453872,51.85001],[-0.464937,51.84834],[-0.471386,51.85305],[-0.474138,51.85108],[-0.469456,51.8463],[-0.470701,51.84352],[-0.479021,51.84025],[-0.488435,51.8406],[-0.491394,51.83342],[-0.500643,51.83465],[-0.505085,51.82605],[-0.499721,51.82202],[-0.500556,51.81456],[-0.521699,51.8036],[-0.544432,51.81392],[-0.545503,51.81856],[-0.555532,51.82726],[-0.5498,51.83005],[-0.544091,51.82737],[-0.542285,51.83067],[-0.557961,51.84302],[-0.56596,51.84606],[-0.572915,51.85368],[-0.572916,51.85842],[-0.585203,51.86824],[-0.609367,51.87359],[-0.620113,51.88269],[-0.63512,51.88043],[-0.652586,51.88488],[-0.674517,51.89942],[-0.695558,51.89916],[-0.704092,51.90936],[-0.693819,51.9227],[-0.692948,51.92836],[-0.683963,51.93749],[-0.684246,51.94349],[-0.673967,51.94842],[-0.673292,51.9574],[-0.662466,51.95845],[-0.651063,51.97354],[-0.658092,51.98143],[-0.658273,51.98714],[-0.662308,51.98976],[-0.663672,51.99975],[-0.649979,52.01208],[-0.65294,52.01898],[-0.644888,52.02419],[-0.64571,52.03529],[-0.670744,52.04959],[-0.651772,52.06598],[-0.642944,52.06942],[-0.636538,52.07981],[-0.609409,52.09323],[-0.602504,52.10253],[-0.603447,52.10621],[-0.597,52.11138],[-0.600757,52.12445],[-0.607615,52.13139],[-0.619998,52.13119],[-0.637102,52.13817],[-0.642685,52.15333],[-0.632341,52.15712],[-0.632196,52.16123],[-0.636901,52.16828],[-0.630344,52.17407],[-0.631149,52.17944],[-0.640486,52.18171],[-0.643964,52.18689],[-0.658068,52.18789],[-0.669816,52.19352],[-0.67061,52.1982],[-0.663502,52.20883],[-0.641665,52.22775],[-0.655386,52.26923],[-0.640492,52.27433],[-0.631875,52.27267],[-0.62742,52.27683],[-0.611293,52.28136],[-0.603198,52.28078],[-0.585356,52.27449],[-0.584565,52.27045],[-0.57783,52.26772],[-0.565579,52.2563],[-0.554649,52.2601],[-0.542909,52.25823],[-0.539952,52.26206],[-0.541013,52.2671],[-0.534422,52.27218],[-0.536274,52.28022],[-0.543874,52.29049],[-0.51963,52.3131],[-0.521046,52.3192],[-0.487362,52.32312],[-0.476537,52.32062],[-0.464721,52.32483],[-0.444433,52.31658],[-0.434564,52.31574],[-0.431086,52.30867],[-0.433086,52.29906],[-0.429024,52.29352],[-0.421378,52.29084],[-0.41964,52.287],[-0.41132,52.28682],[-0.406729,52.28943],[-0.399124,52.28175],[-0.380463,52.28462],[-0.373611,52.2818],[-0.370372,52.27276],[-0.379995,52.26906],[-0.37656,52.26568],[-0.376325,52.25287],[-0.37103,52.23616],[-0.3563,52.23644],[-0.346176,52.23286],[-0.344998,52.2431],[-0.334505,52.24492],[-0.319972,52.2447],[-0.312345,52.24146],[-0.293382,52.24251],[-0.284669,52.23905],[-0.284477,52.23437],[-0.297424,52.21987],[-0.295211,52.21263],[-0.291072,52.20949],[-0.260915,52.2115],[-0.260461,52.20726],[-0.250118,52.19731],[-0.239237,52.19103],[-0.242605,52.18132],[-0.248961,52.1819],[-0.255077,52.17636],[-0.229725,52.16871],[-0.215284,52.16012],[-0.223335,52.14646],[-0.171936,52.14157],[-0.160029,52.14596],[-0.15003,52.14547],[-0.148191,52.14098],[-0.142787,52.13887],[-0.142022,52.11751],[-0.144592,52.11378],[-0.147816,52.08895],[-0.155034,52.07942],[-0.162381,52.07569],[-0.171412,52.05868],[-0.19372,52.06011],[-0.216044,52.03666],[-0.19976,52.01113],[-0.200234,52.00824],[-0.213151,52.00649],[-0.236426,51.99603],[-0.241903,51.99659],[-0.246523,51.98377],[-0.255784,51.98317],[-0.260451,51.97769],[-0.274899,51.9795],[-0.278144,51.99172],[-0.284793,51.99524],[-0.286702,51.99938],[-0.295713,51.9986],[-0.293923,51.99406],[-0.304816,51.98803]]]}}
