{"type":"Feature","properties":{"sourceId":"bulgaria"},"geometry":{"type":"Polygon","coordinates":[[[25.21192,41.27481],[25.11429,41.32949],[25.08173,41.32939],[25.05075,41.35531],[24.93887,41.378],[24.91141,41.39675],[24.88147,41.3833],[24.83346,41.38891],[24.82246,41.34738],[24.8035,41.33777],[24.7412,41.37487],[24.72205,41.40748],[24.65823,41.40736],[24.64531,41.42246],[24.60903,41.41645],[24.52165,41.55497],[24.48128,41.54353],[24.45227,41.51345],[24.39908,41.52808],[24.37118,41.50916],[24.34107,41.51515],[24.30578,41.50206],[24.28742,41.53921],[24.25833,41.55918],[24.18528,41.50675],[24.09649,41.53765],[24.07143,41.51691],[24.08114,41.46362],[24.05028,41.44285],[24.01478,41.44942],[23.96753,41.43011],[23.92294,41.46209],[23.89518,41.44266],[23.80589,41.42723],[23.77064,41.39239],[23.67777,41.40231],[23.6352,41.36702],[23.54782,41.38402],[23.52338,41.39473],[23.44448,41.39612],[23.40757,41.39561],[23.34045,41.35864],[23.31831,41.39561],[23.24059,41.37336],[23.22891,41.3286],[23.185,41.31083],[23.09596,41.30816],[22.92163,41.33226],[22.921650283073575,41.332542695337956],[22.92915,41.33256],[22.97049,41.3498],[22.97255,41.39558],[22.96252,41.41734],[22.9857,41.44785],[22.96707,41.4903],[22.97724,41.51375],[22.96758,41.53454],[22.97921,41.56256],[22.95777,41.59469],[22.95795,41.63439],[22.98761,41.64249],[22.99766,41.66568],[23.04012,41.70847],[23.03658,41.73231],[23.01452,41.77095],[22.97431,41.77929],[22.94939,41.81737],[22.93187,41.8673],[22.90805,41.88709],[22.9007,41.91592],[22.88384,41.93612],[22.8844,41.97784],[22.87218,42.02567],[22.82851,42.02887],[22.79941,42.05204],[22.78443,42.04408],[22.73982,42.0533],[22.71824,42.07416],[22.68068,42.07102],[22.57372,42.12108],[22.52416,42.15444],[22.5055,42.20022],[22.47573,42.20949],[22.45567,42.24527],[22.41767,42.27422],[22.40566,42.29486],[22.37448532242856,42.31167779867822],[22.41434,42.32708],[22.43211,42.31954],[22.4568,42.32594],[22.49018,42.39212],[22.52479,42.38891],[22.55093,42.45049],[22.57016,42.49507],[22.47615,42.56361],[22.4495,42.57169],[22.4818,42.6765],[22.46884,42.6883],[22.49828,42.72173],[22.50927,42.74336],[22.46447,42.77739],[22.45601,42.79409],[22.45039,42.79688],[22.44927,42.80261],[22.44267,42.82216],[22.47683,42.83154],[22.51536,42.85464],[22.53646,42.8777],[22.57656,42.86011],[22.61683,42.89293],[22.63811,42.8772],[22.67719,42.86328],[22.70591,42.87733],[22.74986,42.88609],[22.77831,42.918],[22.78602,42.95199],[22.79032,42.98153],[22.84899,43.00088],[22.86392,43.01984],[22.89997,43.03464],[22.92486,43.07955],[22.95053,43.08904],[22.98512,43.109],[22.99542,43.12792],[23.01035,43.19254],[22.99038,43.20743],[22.94218,43.20867],[22.85424,43.28665],[22.83183,43.3338],[22.73946,43.39911],[22.67761,43.3996],[22.65692,43.43525],[22.61025,43.43402],[22.57666,43.4654],[22.55422,43.46375],[22.51192,43.51631],[22.50061,43.58088],[22.49594,43.63773],[22.48292,43.65755],[22.41073,43.70025],[22.4049,43.76018],[22.36113,43.81248],[22.38275,43.84691],[22.39941,43.9136],[22.39082,43.92634],[22.41074,43.93783],[22.42052,43.99244],[22.41348,44.00356],[22.53942,44.01801],[22.5505,44.05273],[22.58223,44.05293],[22.62692,44.06282],[22.62205,44.09831],[22.61287,44.10602],[22.62875,44.14717],[22.62986,44.15893],[22.64368,44.18503],[22.64419,44.18885],[22.63887,44.1902],[22.67046,44.20768],[22.67921,44.21556],[22.679003371241873,44.21705289277748],[22.69552,44.20817],[22.75716,44.20259],[22.92092,44.11074],[23.00256,44.10386],[23.05399,44.07579],[23.05285,44.05048],[23.01258,44.01022],[22.97207,44.00356],[22.92932,43.99862],[22.8919,43.98577],[22.85096,43.8752],[22.8664,43.84952],[22.90263,43.83651],[23.0583,43.80569],[23.13432,43.81403],[23.2659,43.85478],[23.42988,43.85908],[23.51192,43.84616],[23.618,43.80148],[23.70287,43.8147],[23.77467,43.80992],[23.85798,43.76595],[23.97714,43.75143],[24.17463,43.69136],[24.34529,43.70699],[24.40458,43.73935],[24.50449,43.76973],[24.6236,43.75097],[24.7383,43.69366],[24.81073,43.72074],[24.8806,43.71169],[24.90086,43.71392],[24.91922,43.72472],[24.95253,43.73327],[25.00025,43.73253],[25.09913,43.6896],[25.17002,43.70511],[25.25946,43.68767],[25.34589,43.63564],[25.36039,43.62756],[25.39275,43.62315],[25.48442,43.65224],[25.55924,43.65418],[25.66778,43.69759],[25.76929,43.71243],[25.80034,43.74809],[25.86816,43.7818],[25.94799,43.86226],[26.04938,43.91466],[26.09806,43.97306],[26.13841,43.99266],[26.20052,43.996],[26.37792,44.0509],[26.54915,44.06181],[26.63515,44.06206],[26.69935,44.08154],[26.76008,44.08684],[26.91509,44.14712],[27.04302,44.15044],[27.14069,44.14465],[27.19966,44.12681],[27.27293,44.1354],[27.28661,44.11027],[27.29622,44.07698],[27.35922,44.06132],[27.40213,44.01529],[27.46943,44.02516],[27.60847,44.01566],[27.64349,44.05145],[27.67748,44.0317],[27.71627,43.95946],[27.84107,43.96885],[27.91798,44.01109],[27.94922,43.98577],[27.999,43.84517],[28.23478,43.76852],[28.44944,43.74034],[29.18819,43.74437],[28.66395,41.97519],[27.97978,41.97503],[27.91309,41.96417],[27.86874,41.98855],[27.83336,41.98163],[27.8456,41.95569],[27.83904,41.93999],[27.81247,41.93396],[27.71448,41.96628],[27.59982,41.92924],[27.57805,41.89884],[27.55985,41.8965],[27.50892,41.94376],[27.44236,41.96028],[27.38716,42.0003],[27.36202,42.04627],[27.33179,42.05251],[27.28602,42.08655],[27.2353,42.09872],[27.20284,42.04725],[27.06774,42.08357],[27.02705,42.07669],[27.03289,42.06115],[27.01418,42.04139],[26.96285,41.98731],[26.86518,41.9831],[26.84192,41.96382],[26.79528,41.97917],[26.75088,41.95448],[26.66914,41.96268],[26.63412,41.9697],[26.56597,41.92514],[26.5888,41.90419],[26.58331,41.87109],[26.53919,41.82097],[26.37543,41.8179],[26.33818,41.76132],[26.33423,41.7375],[26.36204,41.71521],[26.36178,41.70656],[26.33835,41.71041],[26.30779,41.7065],[26.27312,41.71201],[26.22869,41.72871],[26.16865,41.73689],[26.11628,41.70585],[26.08097,41.70327],[26.0804,41.65557],[26.10382,41.63636],[26.14204,41.64],[26.16155,41.60967],[26.15897,41.56529],[26.18336,41.56009],[26.19286,41.5274],[26.16963,41.47895],[26.20988,41.43892],[26.17382,41.41844],[26.13442,41.34646],[26.035,41.33976],[25.98223,41.31156],[25.88708,41.29575],[25.82689,41.33352],[25.78044,41.31178],[25.72857,41.30763],[25.71274,41.28246],[25.65631,41.30282],[25.61021,41.29498],[25.568,41.30809],[25.52802,41.26882],[25.48053,41.27793],[25.28508,41.22681],[25.22763,41.24011],[25.21192,41.27481]]]}}
