{"type":"Feature","properties":{"sourceId":"bristol"},"geometry":{"type":"Polygon","coordinates":[[[-2.689762,51.53203],[-2.673623,51.54562],[-2.662599,51.53756],[-2.662103,51.53069],[-2.650823,51.52193],[-2.650921,51.51586],[-2.649128,51.51391],[-2.638259,51.5134],[-2.625885,51.51602],[-2.606547,51.51481],[-2.581311,51.51871],[-2.57976,51.5176],[-2.580238,51.51501],[-2.586761,51.50802],[-2.585344,51.5044],[-2.581923,51.50288],[-2.568959,51.50076],[-2.562455,51.49751],[-2.554877,51.49767],[-2.550885,51.49387],[-2.544498,51.49457],[-2.537987,51.49828],[-2.529599,51.49758],[-2.523876,51.49407],[-2.515324,51.49495],[-2.509759,51.49005],[-2.514211,51.48376],[-2.509871,51.47407],[-2.510332,51.4638],[-2.516237,51.45778],[-2.517918,51.45194],[-2.524948,51.44655],[-2.525599,51.43814],[-2.522433,51.43346],[-2.510041,51.43034],[-2.509528,51.42802],[-2.519762,51.42884],[-2.522164,51.42479],[-2.526516,51.42374],[-2.531525,51.41799],[-2.535403,51.41008],[-2.543392,51.40617],[-2.56033,51.40813],[-2.570446,51.39822],[-2.58101,51.39881],[-2.59288,51.39611],[-2.622685,51.40246],[-2.627799,51.40064],[-2.63412,51.40252],[-2.636638,51.40731],[-2.632226,51.41413],[-2.638304,51.42302],[-2.635704,51.42655],[-2.634749,51.43503],[-2.636116,51.4378],[-2.641314,51.44071],[-2.629441,51.45148],[-2.633171,51.45753],[-2.635334,51.46574],[-2.652091,51.47285],[-2.654093,51.47884],[-2.661205,51.4839],[-2.674201,51.47858],[-2.685092,51.47928],[-2.698734,51.49016],[-2.734665,51.50217],[-2.729436,51.52607],[-2.689762,51.53203]]]}}
