{"type":"Feature","properties":{"sourceId":"belize"},"geometry":{"type":"Polygon","coordinates":[[[-86.97776,16.67244],[-88.44261,16.04472],[-88.79336,15.94091],[-88.91184,15.8953],[-88.91956,15.88308],[-89.0206,15.89039],[-89.1184,15.89401],[-89.18756,15.89553],[-89.22463,15.88323],[-89.22892,15.89566],[-89.20933,16.18302],[-89.17894,16.67237],[-89.15165,17.0581],[-89.15234,17.26574],[-89.1568,17.81832],[-89.15646,17.94052],[-89.13586,17.97351],[-89.07699,17.99759],[-89.03889,18.00916],[-89.00583,17.99452],[-89.00069,17.98968],[-88.98747,17.96223],[-88.9416,17.96223],[-88.9103,17.92389],[-88.86615,17.89901],[-88.861,17.92471],[-88.84943,17.94266],[-88.79499,17.9814],[-88.77184,18.03399],[-88.7273,18.06362],[-88.72288,18.10538],[-88.71477,18.11698],[-88.70507,18.16158],[-88.69581,18.18956],[-88.68095,18.20147],[-88.61184,18.2903],[-88.60679,18.2963],[-88.60432,18.29995],[-88.60319,18.3014],[-88.60205,18.30331],[-88.55535,18.3724],[-88.54647,18.39625],[-88.54191,18.40389],[-88.52484,18.45438],[-88.52118,18.46421],[-88.51653,18.46816],[-88.47662,18.4984],[-88.44325,18.48565],[-88.4118,18.49737],[-88.39874,18.49703],[-88.38593,18.48637],[-88.37985,18.48052],[-88.36703,18.48999],[-88.35189,18.49097],[-88.32291,18.49235],[-88.24487,18.47593],[-88.2428,18.42016],[-88.02481,18.42315],[-88.02406,18.17252],[-87.91406,18.16885],[-87.90985,18.15809],[-87.90053,18.1684],[-87.89718,18.16829],[-87.88491,18.17529],[-87.86848,18.20212],[-87.86792,18.20213],[-87.85252,18.19022],[-87.84627,18.18994],[-87.84459,18.18853],[-87.82447,18.18899],[-87.82265,18.18891],[-87.82125,18.18906],[-87.05974,18.20651],[-86.85983,18.20537],[-86.97776,16.67244]]]}}
