{"type":"Feature","properties":{"sourceId":"cambridgeshire"},"geometry":{"type":"Polygon","coordinates":[[[-0.482499,52.64867],[-0.460315,52.65562],[-0.42288,52.64987],[-0.387122,52.65687],[-0.334985,52.67525],[-0.319815,52.67616],[-0.290672,52.67171],[-0.277404,52.66711],[-0.207983,52.67171],[-0.107998,52.6743],[-0.063826,52.67857],[-0.03144,52.66851],[-0.028998,52.66272],[0.021024,52.6665],[0.046936,52.68237],[0.047536,52.6886],[0.042862,52.69232],[0.042574,52.71503],[0.047063,52.72018],[0.062914,52.72892],[0.088467,52.72527],[0.098223,52.73192],[0.112379,52.73161],[0.132453,52.74092],[0.170431,52.74155],[0.173256,52.73758],[0.169127,52.72379],[0.157978,52.70736],[0.155598,52.68366],[0.18582,52.67915],[0.185309,52.65481],[0.179555,52.65386],[0.17894,52.65103],[0.171899,52.651],[0.192847,52.63573],[0.220958,52.62209],[0.214097,52.61801],[0.218596,52.61588],[0.218421,52.61317],[0.206624,52.61037],[0.202561,52.60178],[0.194153,52.59988],[0.195955,52.59366],[0.20072,52.59237],[0.20099,52.58368],[0.216505,52.58095],[0.216238,52.5761],[0.220061,52.57291],[0.217958,52.56857],[0.207437,52.56527],[0.218916,52.56045],[0.214897,52.55469],[0.206353,52.55389],[0.206247,52.54921],[0.216298,52.54926],[0.215463,52.54567],[0.209685,52.543],[0.214633,52.53737],[0.2088,52.53312],[0.21512,52.53372],[0.22036,52.531],[0.226057,52.53418],[0.232209,52.52835],[0.223747,52.51977],[0.213488,52.5202],[0.236098,52.50926],[0.239605,52.51065],[0.246419,52.50229],[0.256193,52.50937],[0.3094,52.5153],[0.318065,52.51449],[0.320053,52.50935],[0.331601,52.51067],[0.345135,52.50342],[0.362126,52.50071],[0.367391,52.50282],[0.368794,52.49648],[0.381833,52.48081],[0.392817,52.47693],[0.402798,52.46686],[0.429877,52.45564],[0.429244,52.45283],[0.425111,52.45219],[0.425387,52.44617],[0.431021,52.43644],[0.425961,52.43256],[0.426403,52.42899],[0.377011,52.40887],[0.40904,52.36264],[0.420264,52.35923],[0.42165,52.35393],[0.427333,52.35545],[0.444142,52.34958],[0.437732,52.33256],[0.427383,52.32841],[0.432375,52.31774],[0.445673,52.31937],[0.459174,52.31744],[0.463265,52.31025],[0.502339,52.29069],[0.506513,52.28551],[0.498962,52.27985],[0.499433,52.27144],[0.423877,52.25482],[0.393218,52.27882],[0.379312,52.28363],[0.362056,52.29614],[0.357198,52.27912],[0.34346,52.26826],[0.363229,52.24929],[0.348821,52.24098],[0.367585,52.23072],[0.383501,52.23462],[0.395228,52.23256],[0.411144,52.24098],[0.420861,52.24077],[0.412805,52.24762],[0.428233,52.25411],[0.443924,52.2444],[0.456339,52.2491],[0.465659,52.24215],[0.47275,52.24179],[0.480692,52.23435],[0.488688,52.24011],[0.495468,52.24086],[0.516191,52.22676],[0.514336,52.21286],[0.510354,52.21215],[0.505207,52.20605],[0.504038,52.19517],[0.496386,52.18726],[0.495762,52.17758],[0.490379,52.16996],[0.494276,52.16799],[0.492412,52.16378],[0.477541,52.16571],[0.470355,52.1616],[0.462772,52.16909],[0.4524,52.17151],[0.445761,52.16955],[0.445694,52.16372],[0.439833,52.16373],[0.436973,52.15809],[0.420993,52.15857],[0.421384,52.13931],[0.418851,52.13215],[0.410475,52.13246],[0.407507,52.12928],[0.411005,52.12645],[0.410005,52.12267],[0.397347,52.12079],[0.399496,52.11754],[0.390993,52.11588],[0.383819,52.10261],[0.396373,52.09694],[0.39265,52.08998],[0.395229,52.08922],[0.395304,52.08585],[0.403041,52.08365],[0.404257,52.07349],[0.408794,52.07072],[0.404735,52.06255],[0.391396,52.05889],[0.382466,52.04901],[0.38963,52.04463],[0.391063,52.03545],[0.371276,52.03574],[0.362181,52.04324],[0.345328,52.04814],[0.321818,52.07243],[0.310383,52.07539],[0.307918,52.07876],[0.285577,52.08879],[0.276982,52.09062],[0.251615,52.07507],[0.234526,52.08739],[0.204295,52.09075],[0.194805,52.07394],[0.185418,52.07215],[0.191463,52.0629],[0.191206,52.05911],[0.18695,52.05508],[0.169152,52.05355],[0.166888,52.04651],[0.1504,52.05096],[0.127802,52.04563],[0.126112,52.05096],[0.118351,52.05838],[0.106918,52.05847],[0.107632,52.04922],[0.103077,52.04487],[0.102625,52.03792],[0.095876,52.03227],[0.093742,52.02071],[0.081311,52.00666],[0.07063054683434057,52.00561797045463],[0.066358,52.00872],[0.060504,52.01534],[0.061501,52.01965],[0.053483,52.02568],[0.041177,52.05476],[0.004244,52.05148],[-0.011812,52.06319],[-0.024863,52.06495],[-0.037918,52.05964],[-0.055366,52.04792],[-0.107631,52.03022],[-0.121405,52.02138],[-0.123888,52.02205],[-0.120711,52.02924],[-0.122107,52.03407],[-0.132652,52.04751],[-0.14413,52.04862],[-0.153188,52.05348],[-0.148817,52.05818],[-0.149855,52.06433],[-0.145842,52.06958],[-0.147908,52.07454],[-0.1545968827379144,52.079997130438855],[-0.147816,52.08895],[-0.144592,52.11378],[-0.142022,52.11751],[-0.142787,52.13887],[-0.148191,52.14098],[-0.15003,52.14547],[-0.160029,52.14596],[-0.171936,52.14157],[-0.223335,52.14646],[-0.215284,52.16012],[-0.229725,52.16871],[-0.255077,52.17636],[-0.248961,52.1819],[-0.242605,52.18132],[-0.239237,52.19103],[-0.250118,52.19731],[-0.260461,52.20726],[-0.260915,52.2115],[-0.291072,52.20949],[-0.295211,52.21263],[-0.297424,52.21987],[-0.284477,52.23437],[-0.284669,52.23905],[-0.293382,52.24251],[-0.312345,52.24146],[-0.319972,52.2447],[-0.334505,52.24492],[-0.344998,52.2431],[-0.346176,52.23286],[-0.3563,52.23644],[-0.37103,52.23616],[-0.376325,52.25287],[-0.37656,52.26568],[-0.379995,52.26906],[-0.370372,52.27276],[-0.373611,52.2818],[-0.380463,52.28462],[-0.399124,52.28175],[-0.406729,52.28943],[-0.41132,52.28682],[-0.41964,52.287],[-0.421378,52.29084],[-0.429024,52.29352],[-0.433086,52.29906],[-0.431086,52.30867],[-0.434564,52.31574],[-0.444433,52.31658],[-0.46422430471112397,52.32462802168113],[-0.463796,52.33026],[-0.465916,52.33958],[-0.479965,52.34159],[-0.4769,52.34954],[-0.497755,52.36074],[-0.498369,52.36579],[-0.487651,52.37358],[-0.446576,52.38227],[-0.443317,52.38296],[-0.436288,52.38748],[-0.415315,52.40299],[-0.41602,52.41069],[-0.400669,52.41449],[-0.36169,52.43287],[-0.36226,52.43451],[-0.368611,52.43617],[-0.362435,52.44581],[-0.354586,52.45568],[-0.35211,52.46041],[-0.34068,52.4666],[-0.341544,52.46971],[-0.346503,52.47795],[-0.349351,52.4832],[-0.358067,52.49671],[-0.351318,52.50377],[-0.353939,52.50739],[-0.35776,52.50681],[-0.390376,52.52033],[-0.408008,52.52342],[-0.410479,52.52516],[-0.411879,52.52709],[-0.410856,52.52921],[-0.404173,52.53145],[-0.40119,52.53557],[-0.400363,52.5391],[-0.400959,52.54812],[-0.402646,52.54976],[-0.414541,52.55267],[-0.415529,52.56086],[-0.408381,52.56119],[-0.406267,52.56553],[-0.414479,52.57906],[-0.419246,52.58201],[-0.425331,52.58336],[-0.477682,52.57498],[-0.478614,52.5784],[-0.492193,52.58278],[-0.489791,52.59012],[-0.480208,52.60227],[-0.478652,52.61309],[-0.473402,52.61352],[-0.472654,52.61635],[-0.47009,52.61751],[-0.470055,52.6242],[-0.473144,52.62921],[-0.485663,52.63531],[-0.488429,52.63453],[-0.493592,52.641],[-0.49564127789587226,52.64102175034432],[-0.49688794202433645,52.64207925313095],[-0.482499,52.64867]]]}}
