{"type":"Feature","properties":{"sourceId":"central-zone"},"geometry":{"type":"MultiPolygon","coordinates":[[[[81.39153,17.77681],[81.16562,17.81865],[81.05164,17.77092],[80.99808,17.78334],[80.92667,18.10605],[80.84495,18.14063],[80.73578,18.1589],[80.49408,18.60395],[80.41786,18.5994],[80.354,18.57727],[80.32379,18.59744],[80.23041,18.73731],[80.25101,18.94006],[80.3128,19.15166],[80.43228,19.33188],[80.57236,19.42127],[80.74539,19.29786],[80.80788,19.43778],[80.84255,19.51546],[80.65784,19.60216],[80.55725,19.74667],[80.39555,19.78641],[80.40104,19.91913],[80.41237,19.96141],[80.51502,19.9669],[80.53253,20.10269],[80.38422,20.14073],[80.37872,20.25576],[80.60051,20.34334],[80.58197,20.38969],[80.59021,20.57815],[80.50095,20.57365],[80.46043,20.627],[80.56,20.69639],[80.54575,20.77136],[80.53322,20.91783],[80.45631,20.91655],[80.41443,21.01016],[80.43228,21.11269],[80.44807,21.17481],[80.64995,21.30089],[80.40413,21.36421],[80.38559,21.40449],[80.39863,21.44668],[80.30937,21.55209],[80.19676,21.61722],[80.07591,21.54698],[80.04364,21.54443],[79.99832,21.52079],[79.91592,21.50355],[79.82803,21.52846],[79.73808,21.58913],[79.66187,21.54634],[79.52866,21.52974],[79.45244,21.66764],[79.18259,21.63573],[79.13521,21.61084],[78.96217,21.47927],[78.71979,21.4486],[78.43071,21.4863],[78.38539,21.57189],[78.08533,21.42814],[77.90062,21.36613],[77.71111,21.34631],[77.61085,21.35142],[77.48245,21.36613],[77.4234,21.45435],[77.40211,21.5655],[77.55249,21.56039],[77.5264,21.6887],[77.46803,21.74547],[77.20024,21.68168],[77.08282,21.70337],[76.88438,21.58083],[76.7601,21.42175],[76.67702,21.2401],[76.63376,21.17545],[76.38588,21.06143],[76.16478,21.06528],[76.09955,21.1588],[76.14006,21.2017],[76.10573,21.31368],[75.95673,21.37124],[75.53787,21.35909],[75.26733,21.37892],[75.09498,21.44987],[75.04623,21.54762],[74.80179,21.59679],[74.56284,21.65615],[74.49623,21.71485],[74.49074,21.78947],[74.42001,21.96788],[74.30191,21.91948],[74.18655,21.91247],[74.14192,21.93158],[74.08424,22.00099],[74.04991,22.26813],[74.01489,22.52271],[74.0554,22.57217],[74.26277,22.65774],[74.36989,22.66091],[74.42963,22.81669],[74.3692,22.90085],[74.32388,22.95207],[74.29907002411505,23.054562081550998],[74.31221,23.04688],[74.50104,23.07721],[74.59648,23.13278],[74.74068,23.20096],[74.75784,23.22368],[74.6878,23.27857],[74.5388,23.32271],[74.61571,23.44309],[74.72488,23.49096],[74.84848,23.54699],[74.94598,23.61685],[74.9501,23.76775],[74.92126,23.89777],[74.96384,23.95739],[74.99336,24.03643],[74.95354,24.05775],[74.90273,24.16993],[74.91577,24.21754],[74.88144,24.25385],[74.78668,24.26575],[74.84505,24.38963],[74.86702,24.44653],[74.81415,24.47465],[74.7448,24.49527],[74.79424,24.58272],[74.80179,24.62455],[74.95216,24.62268],[75.00847,24.68071],[75.02701,24.72875],[75.12176,24.87024],[75.12554,24.95774],[75.17292,25.00099],[75.18837,25.02931],[75.28278,25.02899],[75.3336,25.03708],[75.31437,25.0094],[75.30373,24.98637],[75.33291,24.95213],[75.31677,24.91166],[75.28931,24.96894],[75.25669,24.97205],[75.25394,24.95213],[75.27283,24.92225],[75.22167,24.84283],[75.14923,24.71191],[75.18768,24.68696],[75.48157,24.66636],[75.56723,24.69358],[75.61306,24.67198],[75.7727,24.68945],[75.82592,24.59614],[75.89561,24.55587],[75.82214,24.46903],[75.78094,24.4759],[75.73048,24.42371],[75.71983,24.3815],[75.73116,24.33052],[75.76309,24.29266],[75.80395,24.23914],[75.76515,24.21628],[75.73837,24.14644],[75.78129,24.09286],[75.82523,24.059],[75.77511,24.04866],[75.7497,24.00194],[75.67314,24.02358],[75.5135,24.03424],[75.45959,23.97653],[75.4493,23.91315],[75.49633,23.88521],[75.53203,23.86606],[75.55195,23.80922],[75.57598,23.7954],[75.68653,23.74544],[75.77545,23.84063],[75.89905,23.87203],[75.94231,23.89651],[75.98865,23.92821],[76.12976,24.07531],[76.15448,24.21378],[76.52286,24.15004],[76.66534,24.18372],[76.69418,24.16116],[76.79787,24.11104],[76.90567,24.11292],[76.95476,24.19718],[76.86378,24.3765],[76.8679,24.45028],[76.98189,24.44715],[77.02858,24.48027],[77.05913,24.51745],[77.08282,24.58647],[77.07149,24.64608],[77.04128,24.71097],[76.95614,24.77458],[76.86173,24.75494],[76.81881,24.81977],[76.93279,24.84438],[76.95305,24.869],[76.9273,24.91571],[76.87271,24.96272],[76.8837,25.03459],[76.96438,25.04673],[77.09003,25.05232],[77.17175,25.08],[77.20676,25.1027],[77.30942,25.07254],[77.41722,25.10083],[77.44263,25.18382],[77.37121,25.45568],[76.86078,25.33596],[76.67599,25.35737],[76.64886,25.38591],[76.60698,25.39707],[76.59393,25.43583],[76.56509,25.47985],[76.51668,25.63131],[76.52801,25.72754],[76.59153,25.86355],[76.62792,25.86355],[76.64886,25.89598],[76.73401,25.89413],[76.80027,25.93273],[76.81675,25.96947],[76.9194,26.07652],[77.09106,26.17177],[77.20299,26.21829],[77.2926,26.27125],[77.34547,26.33404],[77.44812,26.35558],[77.54494,26.40663],[77.72861,26.49331],[77.82372,26.54062],[77.90542,26.61431],[78.01048,26.672],[78.08533,26.65728],[78.2309,26.8253],[78.29269,26.9184],[78.24051,26.9588],[78.11657,26.95497],[78.02421,26.92085],[77.75848,26.9386],[77.58202,26.83755],[77.51644,26.84888],[77.49584,26.84858],[77.47902,26.77259],[77.45533,26.78515],[77.42374,26.81948],[77.43919,26.8547],[77.76535,26.99429],[77.76707,27.01754],[77.74956,27.03558],[77.68433,27.05209],[77.57687,27.04353],[77.57755,27.07411],[77.53155,27.09153],[77.60468,27.11567],[77.69085,27.19021],[77.64175,27.25707],[77.61807,27.30101],[77.62699,27.31413],[77.62768,27.34219],[77.55627,27.35622],[77.50442,27.38488],[77.44812,27.39768],[77.44297,27.43425],[77.44125,27.46167],[77.39628,27.51284],[77.37328,27.52715],[77.34821,27.56855],[77.35989,27.57768],[77.36195,27.59654],[77.32555,27.6078],[77.36126,27.65038],[77.34684,27.7045],[77.31319,27.79171],[77.29809,27.80537],[77.35165,27.84333],[77.41619,27.84545],[77.47919,27.88476],[77.5367,27.91737],[77.55661,27.93921],[77.55524,27.98955],[77.5058,28.07925],[77.51884,28.12286],[77.51541,28.14829],[77.56348,28.1604],[77.56142,28.25903],[77.51816,28.26266],[77.50648,28.39261],[77.50048,28.41209],[77.45687,28.44243],[77.41997,28.47548],[77.37173,28.50113],[77.36212,28.50309],[77.32109,28.54819],[77.2974,28.57699],[77.30684,28.58528],[77.31508,28.59402],[77.3386,28.60065],[77.34392,28.60276],[77.34289,28.62431],[77.33397,28.6332],[77.31989,28.63983],[77.32418,28.64977],[77.32281,28.66227],[77.32882,28.67447],[77.33568,28.68261],[77.32744,28.70128],[77.33345,28.71408],[77.31594,28.71634],[77.29878,28.71242],[77.29122,28.71091],[77.29225,28.72386],[77.27594,28.73786],[77.25861,28.73922],[77.26204,28.75351],[77.24118,28.76059],[77.24213,28.77639],[77.22908,28.78902],[77.21123,28.79414],[77.22702,28.81821],[77.23011,28.87595],[77.24316,28.91712],[77.21363,28.94026],[77.20848,29.00364],[77.16042,29.10838],[77.17003,29.38337],[77.13226,29.54897],[77.16042,29.67672],[77.16522,29.73457],[77.26204,29.96683],[77.4246,30.09672],[77.51198,30.19054],[77.593,30.30384],[77.61429,30.36873],[77.58511,30.4096],[77.69978,30.44113],[77.77393,30.48685],[77.79865,30.49972],[77.80741,30.49683],[77.82303,30.50075],[77.83298,30.52944],[77.82646,30.55664],[77.8014,30.6131],[77.80003,30.66095],[77.76775,30.70819],[77.71935,30.75777],[77.76878,30.82472],[77.81136,30.8539],[77.81445,30.88867],[77.84603,30.95082],[77.90886,31.12644],[78.03314,31.14172],[78.15124,31.17873],[78.32565,31.20693],[78.89007,31.07176],[79.04388,31.08352],[79.02122,31.17286],[78.88389,31.35716],[78.91836794766738,31.397447601842185],[79.11117,31.49075],[79.57397,31.02234],[79.74701,31.03646],[80.21255,30.82501],[80.33083,30.66331],[81.02692,30.27212],[81.02789709832406,30.27051307837287],[80.93885,30.29725],[80.82392,30.328],[80.76771,30.3832],[80.7105,30.42151],[80.69714,30.4205],[80.6548,30.45049],[80.60035,30.47822],[80.5691,30.47292],[80.50886,30.4331],[80.53835,30.40941],[80.59985,30.44066],[80.64723,30.37311],[80.65631,30.34186],[80.71882,30.31262],[80.77691,30.24227],[80.85479,30.147],[80.72199,30.03386],[80.583,29.95821],[80.54249,29.86804],[80.43331,29.81086],[80.40138,29.79596],[80.35778,29.74709],[80.36293,29.72324],[80.40138,29.60092],[80.33787,29.55405],[80.3334,29.52179],[80.23487,29.44289],[80.23693,29.41268],[80.30216,29.30197],[80.28156,29.2184],[80.24311,29.22709],[80.23487,29.19833],[80.24551,29.13897],[80.1844,29.14137],[80.13874,29.10718],[80.04913,28.91592],[80.05394,28.82362],[80.36611,28.61293],[80.54027,28.53027],[80.54632,28.65033],[80.91606,28.41685],[81.20544,28.33581],[81.30295,28.12407],[81.4091,28.13323],[81.47598,28.07319],[81.90033,27.8245],[81.99921,27.91555],[82.45102,27.65677],[82.69821,27.68718],[82.72293,27.49],[83.03741,27.44126],[83.17749,27.43395],[83.29559,27.30955],[83.3822,27.33384],[83.45489,27.4632],[83.62106,27.4571],[83.82590625025662,27.357436867752714],[83.825,27.35347],[83.80508,27.3126],[83.95615,27.17952],[83.92044,27.11842],[83.93349,27.07013],[83.97125,27.0683],[84.04472,26.88288],[84.19372,26.73825],[84.29466,26.65298],[84.06738,26.6671],[83.90774,26.53632],[83.88336,26.51236],[83.89435,26.43246],[84.06051,26.36726],[84.14703,26.34881],[84.13879,26.27618],[84.00146,26.26633],[83.98636,26.16407],[84.03374,26.08886],[84.16454,25.98305],[84.43748,25.84841],[84.57104,25.76589],[84.51507,25.73898],[84.38805,25.79618],[84.2363,25.75414],[84.14497,25.74548],[84.07562,25.75537],[84.02069,25.68733],[84.00009,25.62419],[83.93486,25.56908],[83.86688,25.52633],[83.8662,25.50898],[83.80989,25.47117],[83.73367,25.41971],[83.53454,25.32479],[83.4034,25.25044],[83.34641,25.20199],[83.34194,25.15554],[83.31104,25.01904],[83.33508,24.99104],[83.35156,24.8665],[83.38795,24.77738],[83.51429,24.56024],[83.38074,24.53463],[83.29697,24.09286],[83.46794,24.01699],[83.55514,23.85695],[83.67977,23.81629],[83.69917,23.81519],[83.70157,23.80074],[83.71857,23.73947],[83.72681,23.71621],[83.71033,23.68037],[83.75496,23.59986],[83.8044,23.57657],[83.96439,23.55203],[83.95409,23.36873],[84.03854,23.31956],[84.01657,23.14731],[84.14429,22.95017],[84.35852,22.93753],[84.2411,22.78505],[84.07287,22.65964],[83.99666,22.58802],[83.9637,22.5208],[83.98018,22.38881],[83.86139,22.35643],[83.63342,22.24144],[83.54896,22.10934],[83.52219,22.0481],[83.52562,21.9717],[83.57008,21.87536],[83.48905,21.82517],[83.46176,21.79138],[83.41919,21.69954],[83.37662,21.62616],[83.3567,21.60381],[83.32375,21.50163],[83.37662,21.36357],[83.26641,21.38979],[83.21457,21.26858],[83.13766,21.12998],[83.05492,21.14119],[83.00857,21.17865],[82.96806,21.20362],[82.9351,21.17801],[82.84962,21.17257],[82.72121,21.17193],[82.63607,21.16072],[82.60448,21.07393],[82.61719,21.04253],[82.57118,20.98164],[82.5214,20.93547],[82.48467,20.9143],[82.45651,20.83539],[82.42252,20.84181],[82.41051,20.87132],[82.37892,20.88512],[82.34596,20.89666],[82.33223,20.84277],[82.33738,20.73139],[82.36656,20.63664],[82.33669,20.60547],[82.32124,20.56433],[82.3542,20.5219],[82.37789,20.50839],[82.36313,20.14556],[82.38785,20.04755],[82.60448,19.98464],[82.70782,19.98432],[82.70027,19.90816],[82.70233,19.83874],[82.64946,19.83615],[82.5959,19.79449],[82.58062,19.82081],[82.60654,19.86231],[82.60929,19.87587],[82.47505,19.91655],[82.23747,20.00626],[82.07405,20.0627],[81.95389,20.11236],[81.92848,20.10204],[81.90136,20.06561],[81.86188,20.05496],[81.8351,19.95399],[81.8454,19.91719],[81.86634,19.89589],[81.94908,19.85747],[81.97895,19.7932],[82.04247,19.77575],[82.02049,19.5022],[82.07954,19.49961],[82.11937,19.42321],[82.16194,19.12052],[82.22786,18.93941],[82.1743,18.91603],[82.12623,18.78737],[81.95526,18.70479],[81.88728,18.66706],[81.88522,18.62347],[81.93466,18.59614],[81.65451,18.35192],[81.60129,18.31542],[81.51976,18.26799],[81.50036,18.19283],[81.51272,18.16053],[81.49796,18.09299],[81.46706,18.05024],[81.39221,17.89512],[81.36749,17.82486],[81.38054,17.78056],[81.39621074264623,17.783493778894385],[81.39153,17.77681]]],[[[81.06949,30.20211],[81.06893358843715,30.201801771264563],[81.06700414031232,30.206198208520902],[81.06949,30.20211]]]]}}
