{"type":"Feature","properties":{"sourceId":"centro-oeste"},"geometry":{"type":"Polygon","coordinates":[[[-60.65198,-13.55153],[-60.41575,-13.42596],[-60.31206,-13.06503],[-60.11744,-12.87645],[-60.09531,-12.59868],[-59.87903,-12.44021],[-59.83318,-12.34313],[-59.92482,-12.25079],[-60.02149,-11.93597],[-60.13965,-11.8434],[-60.14227,-11.57664],[-59.9644,-11.39888],[-59.95773,-11.34089],[-60.03052,-11.16394],[-60.30743,-11.11024],[-60.36697,-11.13665],[-60.48524,-11.02411],[-61.5799,-10.99705],[-61.51805,-10.75345],[-61.5053,-10.43604],[-61.63314,-10.15159],[-61.54478,-9.875626],[-61.60472,-9.710973],[-61.52991,-9.636686],[-61.66496,-9.265453],[-61.56381,-9.206661],[-61.58917,-9.093339],[-61.52012,-8.915473],[-61.606,-8.776113],[-58.43113,-8.754115],[-58.47175,-8.700502],[-58.45039,-8.492931],[-58.35892,-8.306787],[-58.3235,-8.08956],[-58.41768,-7.836697],[-58.23733,-7.601471],[-58.24656,-7.432735],[-58.14461,-7.317334],[-58.07222,-7.346056],[-57.94899,-7.510434],[-57.78669,-7.975355],[-57.60886,-8.204641],[-57.64719,-8.408137],[-57.56058,-8.719121],[-57.41083,-8.754585],[-57.37361,-8.843474],[-57.17446,-8.904893],[-57.01982,-9.068975],[-57.00493,-9.187669],[-56.80849,-9.217554],[-56.74144,-9.352241],[-50.18944,-9.813272],[-50.26159,-10.02612],[-50.35226,-10.13822],[-50.39516,-10.36912],[-50.55724,-10.66858],[-50.57536,-11.0683],[-50.70647,-11.44721],[-50.69243,-11.54403],[-50.68543,-11.57623],[-50.66826,-11.57657],[-50.64285,-11.5981],[-50.67906,-11.74594],[-50.6069,-11.89121],[-50.64587,-12.18011],[-50.58778,-12.4431],[-50.65496,-12.61133],[-50.54347,-12.80219],[-50.38076,-12.51599],[-50.14233,-12.3658],[-50.11561,-12.3976],[-50.18443,-12.50691],[-50.16302,-12.57396],[-50.26831,-12.80198],[-49.90579,-12.93131],[-49.38474,-13.22699],[-49.38105,-13.08106],[-49.25365,-12.85642],[-49.11323,-12.75933],[-48.98355,-12.89559],[-48.85463,-12.77245],[-48.54474,-13.11618],[-48.44697,-13.1194],[-48.42522,-13.23461],[-48.13867,-13.12078],[-48.11985,-13.25296],[-48.06213,-13.20313],[-47.81398,-13.28089],[-47.68458,-13.39731],[-47.69976,-13.16291],[-47.64384,-13.07235],[-47.5505,-13.08997],[-47.53017,-13.14722],[-47.4049,-13.21148],[-47.30341,-13.2161],[-46.98263,-13.08435],[-46.77464,-12.94352],[-46.48139,-12.92909],[-46.42388,-12.79183],[-46.34177,-12.8419],[-46.33015,-12.94429],[-46.12046,-12.88603],[-46.08089,-12.91474],[-46.10534,-12.98527],[-46.24092,-13.03836],[-46.27987,-13.10318],[-46.25873,-13.30049],[-46.0664,-13.23005],[-46.00863,-13.28091],[-46.18509,-13.43399],[-46.19779,-13.53523],[-46.13041,-13.594],[-46.21055,-13.67901],[-46.22396,-13.92663],[-46.18134,-14.11907],[-46.03254,-14.17707],[-45.87758,-14.37401],[-45.96738,-14.46738],[-45.97499,-14.78914],[-46.06858,-14.96039],[-46.30307,-14.95497],[-46.36292,-14.83146],[-46.48379,-14.75919],[-46.51999,-14.79643],[-46.48913,-15.08365],[-46.62796,-15.12162],[-46.80024,-15.04986],[-46.87471,-15.06933],[-46.89394,-15.20498],[-46.80369,-15.32757],[-46.91043,-15.5426],[-46.82355,-15.6095],[-46.77543,-15.88463],[-47.13657,-15.98495],[-47.27104,-16.05093],[-47.30322,-16.13094],[-47.29491,-16.25389],[-47.41931,-16.48958],[-47.22721,-16.64375],[-47.09956,-17.01042],[-47.49031,-17.43024],[-47.45195,-17.48988],[-47.30403,-17.50324],[-47.23913,-17.59057],[-47.2408,-17.68654],[-47.32627,-17.83917],[-47.2561,-18.07387],[-47.55938,-18.25823],[-47.60765,-18.36034],[-47.94811,-18.53096],[-48.26199,-18.37616],[-48.31305,-18.41523],[-48.58162,-18.36509],[-48.81722,-18.41106],[-48.92211,-18.34673],[-49.05493,-18.44128],[-49.15715,-18.45067],[-49.37696,-18.67422],[-49.51613,-18.55368],[-49.77923,-18.67467],[-50.00712,-18.63776],[-50.07867,-18.70475],[-50.29507,-18.72433],[-50.46979,-18.96294],[-50.50871,-19.11866],[-50.7044,-19.21605],[-50.79322,-19.31756],[-50.83232,-19.41251],[-50.80469,-19.51136],[-50.90984,-19.51233],[-50.89727,-19.59653],[-51.00466,-19.71985],[-50.98343,-20.0972],[-51.03277,-20.2553],[-51.12621,-20.32872],[-51.30444,-20.34205],[-51.35388,-20.38164],[-51.39645,-20.45243],[-51.55881,-20.65746],[-51.61377,-20.77216],[-51.59396,-20.95195],[-51.70847,-21.01376],[-51.83695,-21.16436],[-51.84517,-21.28042],[-51.85959,-21.35142],[-51.94761,-21.52709],[-52.05872,-21.55339],[-52.01567,-21.65469],[-52.06387,-21.72091],[-52.10095,-21.74898],[-52.13734,-21.75567],[-52.15485,-21.77066],[-52.18025,-21.84206],[-52.46938,-22.24312],[-53.0333,-22.56326],[-53.05250200577833,-22.589484888471958],[-53.10448,-22.61084],[-53.08436274344301,-22.632998274601295],[-53.08696736461702,-22.636555501934136],[-53.20679,-22.70842],[-53.3194,-22.73946],[-53.5302,-22.87491],[-53.58101,-22.90527],[-53.65036,-22.99316],[-53.64555,-23.12331],[-53.6998,-23.21169],[-53.71971,-23.28172],[-53.76846,-23.35991],[-53.86528,-23.40655],[-53.95249,-23.4349],[-53.99368,-23.45443],[-54.00879,-23.48655],[-54.0239,-23.56587],[-54.08363,-23.77765],[-54.09101,-23.86088],[-54.08157,-23.87799],[-54.08398,-23.89839],[-54.1032,-23.94013],[-54.10578,-23.95598],[-54.12998,-23.97982],[-54.14251,-23.98437],[-54.16483,-23.99143],[-54.20551,-24.02452],[-54.23332,-24.04396],[-54.25948685753168,-24.05715534404245],[-54.27459,-23.97687],[-54.66788,-23.75817],[-55.04817,-23.91736],[-55.36217,-23.91182],[-55.48745,-23.49815],[-55.47053,-23.18636],[-55.59991,-22.86058],[-55.56248,-22.63364],[-55.82388,-22.23269],[-56.17748,-22.21584],[-56.39033,-22.01966],[-56.52916,-22.04557],[-56.65106,-22.17681],[-56.84217,-22.20836],[-57.3406,-22.16801],[-57.60502,-22.03982],[-57.91372,-22.03567],[-57.82878,-21.68285],[-57.89337,-21.53068],[-57.80106,-21.34787],[-57.76251,-20.94605],[-57.82285,-20.6944],[-57.94091,-20.59021],[-57.94891,-20.41691],[-58.03486,-20.32978],[-58.08133391851645,-20.150737200534294],[-57.88422,-20.06625],[-57.82654,-19.96947],[-58.10532,-19.75249],[-57.77727,-19.03875],[-57.70483,-19.03891],[-57.68457,-19.01019],[-57.71599,-18.89459],[-57.75496,-18.89281],[-57.54448,-18.24538],[-57.43481,-18.23913],[-57.70535,-17.83858],[-57.66534,-17.83651],[-57.74483,-17.55992],[-57.88284,-17.43124],[-58.14652,-17.35588],[-58.40195,-17.05547],[-58.31955,-16.50588],[-58.27423,-16.23841],[-58.39508,-16.24302],[-58.44658,-16.30169],[-59.49406,-16.274],[-60.168,-16.26082],[-60.23186,-15.4646],[-60.56334,-15.10279],[-60.22568,-15.10527],[-60.2655,-14.6188],[-60.43579,-14.25041],[-60.37399,-13.98138],[-60.4612,-13.79074],[-60.62325,-13.70203],[-60.718807604507006,-13.644208986097718],[-60.65198,-13.55153]]]}}
