{"type":"Feature","properties":{"sourceId":"cameroon"},"geometry":{"type":"Polygon","coordinates":[[[8.530155,4.807464],[8.785262,5.258442],[8.824786,5.841363],[9.31264,6.353575],[9.75,6.81],[10.0926,7.036171],[10.5782,7.180038],[10.76,7.03],[11.26807,6.562907],[11.59144,7.016025],[11.98267,7.667555],[12.22,8.44],[12.4197,8.627318],[12.76269,8.830729],[12.8351,9.385137],[12.99897,9.507942],[13.19968,9.580602],[13.22001,9.893611],[13.2505,10.08878],[13.42186,10.13788],[13.461,10.24601],[13.47301,10.33113],[13.49293,10.39125],[13.52486,10.46992],[13.54305,10.61708],[13.56571,10.64306],[13.57567,10.69907],[13.66356,10.84309],[13.70579,10.96074],[13.73016,11.01163],[13.78372,11.01062],[13.81428,11.07465],[13.87256,11.1315],[13.87865,11.13419],[13.87788,11.13773],[13.87316,11.14169],[13.87771,11.1507],[13.90989,11.18775],[13.9165,11.19819],[13.93152,11.21233],[13.94543,11.24441],[13.96422,11.30013],[13.97615,11.31444],[14.00671,11.30906],[14.10009,11.28111],[14.13829,11.25384],[14.1455,11.25232],[14.15099,11.2471],[14.15554,11.24382],[14.15923,11.24904],[14.17408,11.24281],[14.18258,11.24289],[14.21562,11.26958],[14.23553,11.29895],[14.28068,11.31545],[14.35055,11.36022],[14.42642,11.42484],[14.61559,11.52511],[14.62418,11.64618],[14.53766,11.71074],[14.54246,11.7336],[14.5998,11.78738],[14.59774,11.87676],[14.61044,12.05174],[14.65576,12.15916],[14.59705,12.19037],[14.54487,12.23433],[14.50779,12.29673],[14.48959,12.32525],[14.44153,12.34704],[14.29047,12.35241],[14.22026,12.36021],[14.21528,12.36717],[14.21693,12.37073],[14.2206,12.37302],[14.21472,12.37706],[14.20122,12.38259],[14.19522,12.38869],[14.19245,12.39494],[14.18618,12.40334],[14.17219,12.40879],[14.17258,12.42333],[14.17498,12.43008],[14.1882,12.43825],[14.18009,12.44819],[14.17296,12.47965],[14.17666,12.48217],[14.18532,12.48208],[14.18884,12.48636],[14.18944,12.50119],[14.2,12.5368],[14.07143,13.09278],[14.47984,13.09278],[14.56787,12.93028],[14.57611,12.88678],[14.57096,12.83122],[14.55071,12.79598],[14.555,12.77916],[14.55809,12.77774],[14.56384,12.78744],[14.5707,12.78912],[14.57766,12.78452],[14.62212,12.7764],[14.68022,12.72659],[14.69739,12.73194],[14.72031,12.72483],[14.7294,12.71252],[14.7488,12.69092],[14.76803,12.67568],[14.81798,12.64553],[14.83875,12.63632],[14.85661,12.57618],[14.8839,12.4644],[14.90656,12.40892],[14.91205,12.38276],[14.91188,12.33229],[14.91428,12.18383],[14.89111,12.16621],[14.95874,12.10546],[14.9699,12.10244],[14.98621,12.10982],[14.99685,12.12426],[15.02054,12.12224],[15.03239,12.11385],[15.04097,12.10563],[15.03908,12.08448],[15.05007,12.07592],[15.06243,12.06047],[15.05745,12.01296],[15.08577,12.00759],[15.08938,11.99499],[15.08509,11.98072],[15.06243,11.92396],[15.09659,11.85307],[15.12628,11.79023],[15.10878,11.72872],[15.08492,11.64686],[15.14706,11.56345],[15.13762,11.51283],[15.08286,11.35686],[15.1,11.22],[15.1206,11.09014],[15.1,10.99],[15.1038,10.86888],[15.0765,10.82353],[15.1395,10.70076],[15.168,10.63294],[15.15289,10.5506],[15.19547,10.51313],[15.21435,10.51313],[15.26396,10.46502],[15.36423,10.27877],[15.38343,10.2587],[15.40207,10.24765],[15.4261,10.21428],[15.45642,10.18997],[15.50239,10.11794],[15.57655,10.08211],[15.68041,10.01238],[15.69895,9.992858],[15.41519,9.919479],[15.14946,9.974938],[15.06294,9.938417],[14.94965,9.962088],[14.80545,9.926243],[14.46213,9.984405],[14.22386,9.986434],[14.1552,9.81936],[13.99795,9.640693],[14.04259,9.620384],[14.31381,9.380645],[14.39072,9.288498],[14.36943,9.195649],[14.90158,8.820618],[15.12405,8.665203],[15.21812,8.515157],[15.60608,7.779711],[15.6047,7.675608],[15.57861,7.60347],[15.50926,7.512939],[15.43442,7.406729],[15.25864,7.247366],[15.23048,7.10907],[15.06432,6.763489],[14.96441,6.732974],[14.86382,6.497829],[14.80854,6.341232],[14.74606,6.253872],[14.57062,6.163768],[14.43844,6.071597],[14.45457,5.996143],[14.50676,5.907019],[14.53508,5.902665],[14.55791,5.905653],[14.57019,5.912056],[14.58736,5.926313],[14.60383,5.927509],[14.62289,5.891822],[14.61894,5.851779],[14.62469,5.821296],[14.63448,5.714892],[14.6077,5.597536],[14.64134,5.514842],[14.60701,5.408211],[14.55791,5.301562],[14.53937,5.279683],[14.67602,5.209597],[14.70039,5.108727],[14.70142,4.954827],[14.6973,4.932252],[14.72305,4.861786],[14.72305,4.799865],[14.72168,4.763257],[14.74296,4.625705],[14.78863,4.56787],[14.86965,4.505581],[14.96303,4.449447],[15.01162,4.426599],[15.02724,4.376879],[15.03891,4.37782],[15.08217,4.317141],[15.1086,4.21871],[15.11049,4.141839],[15.1268,4.113417],[15.17658,4.074207],[15.19615,4.059482],[15.09556,4.008795],[15.11873,3.938241],[15.27099,3.725857],[15.50171,3.472985],[15.80177,3.126119],[15.88142,3.12749],[16.01154,3.018813],[16.06751,2.935498],[16.09978,2.856635],[16.09188,2.699235],[16.09978,2.460868],[16.15677,2.358991],[16.174825647294625,2.300191528285971],[16.16338,2.275763],[16.02205,2.205807],[16.05547,1.816558],[15.76624,1.977665],[14.60712,2.267143],[13.23629,2.193938],[13.33347633001228,2.199127939882078],[13.33534,2.227604],[13.22204,2.308565],[12.90276,2.275632],[12.30743,2.29793],[12.12376,2.299645],[11.88206,2.306506],[11.66542,2.325716],[11.39007,2.308221],[11.35978,2.290468],[11.34879,2.224602],[11.35025,2.191581],[11.350928429333164,2.1741402320778818],[11.36138822847906,2.174021794834794],[11.26493,2.175114],[11.20846,2.204275],[11.14769,2.171168],[10.40019,2.176981],[9.980049,2.191238],[9.854221,2.262081],[9.843578,2.328804],[9.821623,2.356931],[9.44236274335827,3.1825446770441004],[9.420774,3.340699],[9.330052872001646,3.4270326354717735],[9.161202,3.794605],[8.797636,4.147134],[8.655333887543824,4.05555509371348],[8.35,4.31],[8.33,4.34],[8.354096,4.538881],[8.530155,4.807464]]]}}
