{"type":"Feature","properties":{"sourceId":"chile"},"geometry":{"type":"Polygon","coordinates":[[[-65.5141,-56.43137],[-67.2138,-58.45195],[-77.05557,-54.52076],[-113.2233,-26.13435],[-73.58078,-20.67947],[-71.45974826859386,-18.976380897485544],[-70.33458,-18.33444],[-70.11746,-18.33795],[-69.73692,-18.17643],[-69.76278,-17.68535],[-69.675,-17.67107],[-69.47423106076482,-17.52367974130289],[-69.47411,-17.60541],[-69.35223,-17.72907],[-69.31343,-17.92876],[-69.28803,-17.97351],[-69.0834,-18.05285],[-69.16683,-18.16086],[-69.09885,-18.23555],[-69.06555,-18.42685],[-69.05182,-18.62282],[-68.96668,-18.94136],[-68.88496,-19.06423],[-68.62258,-19.27647],[-68.45955,-19.41286],[-68.71588,-19.74441],[-68.55812,-19.93979],[-68.81493,-20.09463],[-68.76274,-20.45983],[-68.54576,-20.96721],[-68.41873,-20.97041],[-68.09738,-21.98635],[-67.92572,-22.87238],[-67.57004,-22.92551],[-67.16220178337505,-22.838995310759067],[-66.99882,-23.00044],[-67.32648,-24.02538],[-68.28078,-24.34935],[-68.55162,-24.58836],[-68.62011,-24.81717],[-68.44595,-25.0658],[-68.55582,-25.14476],[-68.63052,-25.43524],[-68.64137,-26.50722],[-68.3489,-26.92771],[-68.60693,-27.09636],[-68.76133,-27.08588],[-68.84844,-27.13115],[-69.20484,-27.90816],[-69.70118,-28.37779],[-69.97565,-29.18743],[-70.03755,-29.35428],[-69.95038,-29.73744],[-70.01824,-30.10003],[-69.847,-30.16294],[-69.97775,-30.32288],[-70.20264,-30.32249],[-70.35748,-31.0002],[-70.5377,-31.08557],[-70.62295,-31.59949],[-70.5117,-31.85844],[-70.29402,-31.95849],[-70.41077,-31.9809],[-70.44343,-32.05325],[-70.28486,-32.45564],[-70.19589,-32.50891],[-70.19517,-32.75732],[-70.00981,-32.90747],[-70.06223,-33.01233],[-70.14906,-33.04145],[-70.02502,-33.37388],[-69.83371,-33.34911],[-69.95948,-33.77235],[-69.87771,-34.20233],[-70.06901,-34.24694],[-70.07752,-34.38253],[-70.35687,-34.72532],[-70.32933,-34.83081],[-70.42629,-35.12462],[-70.63128,-35.23712],[-70.59764,-35.34459],[-70.50607,-35.38014],[-70.42788,-35.73781],[-70.44219,-36.14876],[-70.59553,-36.12118],[-70.77062,-36.35412],[-70.90086,-36.34336],[-70.96469,-36.43366],[-71.07654,-36.43571],[-71.2345,-36.83303],[-71.20495,-36.91075],[-71.27586,-36.9637],[-71.17697,-37.1077],[-71.27241,-37.28686],[-71.18031,-37.4828],[-71.26668,-37.68295],[-71.23505,-37.86541],[-71.08724,-38.09054],[-71.03346,-38.45451],[-70.89411,-38.57644],[-70.95844,-38.70272],[-71.25594,-38.74909],[-71.47673,-38.89162],[-71.45202,-39.31025],[-71.58545,-39.55159],[-71.68665,-39.50983],[-71.77001,-39.61946],[-71.74365,-39.86164],[-71.67779,-39.92156],[-71.8856,-40.10093],[-71.87961,-40.24227],[-71.76665,-40.35676],[-71.87117,-40.38959],[-71.91507,-40.61832],[-72.02097,-40.73647],[-71.9023,-41.06778],[-71.94135,-41.60926],[-71.83133,-41.78089],[-71.78041,-42.12128],[-72.06032,-42.10593],[-72.17802,-42.13207],[-72.20024,-42.17229],[-72.14365,-42.40333],[-72.0441,-42.41231],[-72.06314,-42.53751],[-72.18733,-42.66619],[-72.18001,-42.8948],[-71.94149,-43.11061],[-71.73869,-43.19234],[-71.80268,-43.29535],[-71.91512,-43.319],[-71.95542,-43.44292],[-71.87866,-43.56195],[-71.63263,-43.65888],[-71.78725,-43.80985],[-71.70007,-43.98287],[-71.9047,-44.10354],[-71.86374,-44.44274],[-71.40536,-44.44891],[-71.20209,-44.5359],[-71.28469,-44.60892],[-71.2897,-44.75036],[-71.47444,-44.68048],[-72.11766,-44.73884],[-72.07949,-44.93988],[-71.61593,-45.03146],[-71.40574,-45.27206],[-71.7885,-45.50505],[-71.8548,-45.61169],[-71.77408,-45.85187],[-71.66595,-45.89232],[-71.63332,-45.97063],[-71.97019,-46.14972],[-71.7985,-46.26925],[-71.71488,-46.64453],[-71.98699,-46.82499],[-71.97791,-47.0608],[-72.07162,-47.2755],[-72.38448,-47.41759],[-72.3839,-47.57888],[-72.5731,-47.72062],[-72.57678,-47.96054],[-72.37166,-48.15995],[-72.3428,-48.29046],[-72.42158,-48.31422],[-72.46698,-48.45706],[-72.63621,-48.45823],[-72.59462,-48.77255],[-72.80952,-48.90039],[-72.96385,-48.89084],[-73.23151,-49.2473],[-73.49883,-49.19103],[-73.56804,-49.5458],[-73.61453,-49.91795],[-73.57703,-50.15788],[-73.39438,-50.58008],[-73.22709,-50.66897],[-73.22154,-50.87193],[-72.76983,-50.68829],[-72.39293,-50.69005],[-72.31217,-50.90093],[-72.46252,-51.08654],[-72.3623,-51.25935],[-72.49598,-51.597],[-72.02273,-51.88832],[-72.09055,-51.93758],[-72.05562,-52.01749],[-70.01629,-52.05707],[-68.51023,-52.39432],[-68.66375,-52.66716],[-68.61804,-54.92151],[-68.18753,-54.89288],[-67.96138,-54.88571],[-67.71808,-54.91261],[-67.47633,-54.92785],[-67.3094,-54.9245],[-66.86027,-55.02017],[-66.68136,-55.13738],[-65.59592759752732,-55.252236806792425],[-65.5141,-56.43137]]]}}
