{"type":"Feature","properties":{"sourceId":"centro"},"geometry":{"type":"Polygon","coordinates":[[[9.724877187195125,42.55714198110971],[9.751243,42.77488],[9.488495304576041,43.104684199518225],[9.320258,43.49438],[9.306459,43.49428],[9.754377366591138,43.84875055687507],[9.949801,43.88412],[10.02332,44.0444],[10.03433,44.05946],[10.06702,44.07981],[10.07536,44.09289],[10.07195,44.1027],[10.04853,44.11901],[10.02988,44.12277],[10.01651,44.12266],[10.00043,44.11435],[9.998011,44.12125],[9.986709,44.12864],[9.982352,44.16101],[9.975969,44.17004],[9.969324,44.17377],[9.92983,44.17078],[9.915995,44.17489],[9.915033,44.17881],[9.923906,44.18934],[9.937978,44.19673],[9.930167,44.20334],[9.915604,44.2059],[9.910558,44.21426],[9.890831,44.21202],[9.8717,44.20165],[9.870313,44.20658],[9.879995,44.22558],[9.865387,44.23909],[9.865884,44.25252],[9.858386,44.27119],[9.817199,44.29049],[9.80523,44.28912],[9.77137,44.3093],[9.75615,44.32683],[9.732908,44.3344],[9.721178,44.35919],[9.710526,44.36975],[9.696686250179907,44.369091936801475],[9.717282,44.37975],[9.743699,44.37802],[9.749097,44.38629],[9.761683,44.38792],[9.762259,44.39124],[9.757367,44.39693],[9.758245,44.40351],[9.77489,44.41505],[9.800573,44.44181],[9.817678,44.44992],[9.819348,44.46121],[9.822265,44.46442],[9.861298,44.46858],[9.876758,44.46672],[9.898762,44.46917],[9.909483,44.46586],[9.924035,44.46982],[9.959402,44.46445],[9.96572,44.46043],[9.969702,44.45009],[9.976115,44.44444],[9.998804,44.44135],[10.00217,44.42966],[9.998198,44.42088],[9.989261,44.41086],[9.98757,44.4041],[9.994252,44.39572],[10.00766,44.38652],[10.03267,44.37749],[10.0427,44.3712],[10.05512,44.36899],[10.06447,44.36157],[10.09008,44.35006],[10.09958,44.34311],[10.10753,44.34831],[10.12971,44.35208],[10.14775,44.34985],[10.16015,44.34248],[10.16186,44.33348],[10.18809,44.31359],[10.19696,44.31225],[10.20988,44.3001],[10.21913,44.30138],[10.22624,44.29731],[10.23648,44.28059],[10.25367,44.26741],[10.27091,44.27155],[10.29754,44.28291],[10.3048,44.28212],[10.3169,44.27325],[10.34365,44.26696],[10.35987,44.26911],[10.37358,44.26637],[10.3817,44.25845],[10.40482,44.24642],[10.4123,44.23344],[10.42968,44.2246],[10.43796,44.22315],[10.44608,44.22652],[10.46302,44.22731],[10.47303,44.22172],[10.48379,44.2199],[10.48714,44.2146],[10.48296,44.20491],[10.48739,44.19598],[10.51639,44.17845],[10.51994,44.17236],[10.51717,44.1663],[10.52343,44.15515],[10.56638,44.13531],[10.57665,44.12837],[10.58325,44.11685],[10.5939,44.11233],[10.60362,44.11181],[10.61619,44.11746],[10.62605,44.11841],[10.62669,44.13794],[10.63511,44.14388],[10.6404,44.15451],[10.65668,44.15333],[10.6657,44.14912],[10.69055,44.15468],[10.70863,44.15228],[10.73435,44.15406],[10.75579,44.15048],[10.77284,44.13204],[10.79467,44.12469],[10.80249,44.11704],[10.81784,44.10986],[10.83304,44.11206],[10.84242,44.10583],[10.8434,44.10064],[10.84864,44.09555],[10.8749,44.0973],[10.88913,44.09099],[10.90105,44.0811],[10.89721,44.06436],[10.90957,44.06],[10.91909,44.06064],[10.92982,44.07314],[10.94463,44.07862],[10.95664,44.08729],[10.97198,44.10565],[10.97486,44.11494],[10.99585,44.12776],[10.99948,44.1337],[11.00555,44.13546],[11.01088,44.13381],[11.01209,44.1278],[11.00265,44.12277],[11.00041,44.10927],[11.01154,44.10142],[11.01842,44.09992],[11.0225,44.09504],[11.04097,44.09355],[11.04904,44.08789],[11.07321,44.08947],[11.08993,44.08753],[11.1036,44.09673],[11.12761,44.10595],[11.13931,44.1053],[11.15864,44.10963],[11.20876,44.09647],[11.22802,44.09929],[11.24787,44.09504],[11.25513,44.10141],[11.26599,44.10331],[11.2619,44.11758],[11.25186,44.11862],[11.22886,44.13051],[11.22062,44.13125],[11.20349,44.14255],[11.20398,44.14784],[11.21549,44.14787],[11.24044,44.15631],[11.27071,44.15632],[11.2818,44.15146],[11.29023,44.16172],[11.32448,44.17918],[11.32737,44.19202],[11.33257,44.19672],[11.34387,44.2022],[11.38133,44.19765],[11.38907,44.20334],[11.39144,44.21062],[11.39892,44.21922],[11.41668,44.23127],[11.42373,44.23308],[11.44724,44.21991],[11.44977,44.21265],[11.44382,44.20135],[11.45663,44.1863],[11.47787,44.18084],[11.48172,44.17456],[11.50257,44.16001],[11.51042,44.16067],[11.51404,44.15595],[11.52073,44.15322],[11.52863,44.15502],[11.5441,44.1501],[11.5534,44.1564],[11.55719,44.16271],[11.5626,44.16453],[11.56741,44.16381],[11.57395,44.15806],[11.58985,44.1589],[11.6021,44.15442],[11.61074,44.15641],[11.61374,44.14603],[11.60204,44.14039],[11.59748,44.12813],[11.58546,44.12462],[11.58135,44.11631],[11.58411,44.1098],[11.60104,44.11583],[11.61351,44.11664],[11.6372,44.10915],[11.64906,44.09665],[11.6771,44.11161],[11.68259,44.11935],[11.70358,44.11723],[11.74202,44.12315],[11.74754,44.1207],[11.74578,44.10655],[11.7373,44.09983],[11.7325,44.08814],[11.70828,44.06901],[11.69461,44.05341],[11.69068,44.03603],[11.68031,44.02519],[11.66265,44.02291],[11.65456,44.01891],[11.65596,44.00969],[11.64654,44.00624],[11.64819,43.99859],[11.64313,43.99039],[11.65229,43.97344],[11.66327,43.97129],[11.6702,43.96442],[11.68689,43.95572],[11.68756,43.95184],[11.67993,43.93852],[11.68355,43.93246],[11.71246,43.91971],[11.71023,43.91197],[11.71223,43.90224],[11.70568,43.88773],[11.70895,43.87532],[11.72002,43.87206],[11.73115,43.86097],[11.78372,43.84488],[11.7912,43.83458],[11.81154,43.82278],[11.81619,43.81502],[11.83978,43.80582],[11.85005,43.80627],[11.85591,43.81248],[11.86564,43.81357],[11.88538,43.80566],[11.89656,43.80528],[11.90859,43.80866],[11.91058,43.79819],[11.91721,43.79166],[11.94635,43.7877],[11.95217,43.7739],[11.98438,43.75999],[12.00533,43.76315],[12.01864,43.75843],[12.02881,43.75814],[12.04178,43.75141],[12.05116,43.75422],[12.05783,43.75058],[12.06356,43.74059],[12.07671,43.73802],[12.10685,43.75047],[12.12599,43.7468],[12.14311,43.75029],[12.16099,43.75829],[12.17128,43.74544],[12.19372,43.72977],[12.20104,43.73553],[12.20454,43.74472],[12.21053,43.74782],[12.2148,43.75467],[12.23089,43.75596],[12.24071,43.74904],[12.24677,43.74872],[12.25585,43.75113],[12.26067,43.7572],[12.28534,43.76304],[12.28984,43.76958],[12.29182,43.79247],[12.31601,43.80236],[12.32113,43.81305],[12.33758,43.82277],[12.3402,43.83396],[12.34987,43.84882],[12.34971,43.8636],[12.35659,43.87066],[12.38983,43.88075],[12.39969,43.87049],[12.4081,43.87309],[12.42076,43.86963],[12.43375,43.87064],[12.43417,43.87708],[12.42552,43.88449],[12.41999,43.89923],[12.41478,43.90454],[12.414568286730205,43.90576029176341],[12.42345,43.91068],[12.47605,43.90429],[12.49325,43.92303],[12.494284010767263,43.922614976810394],[12.49149,43.92066],[12.49082,43.91418],[12.50066,43.91095],[12.51933,43.8964],[12.53364,43.89439],[12.53576,43.88748],[12.52879,43.88431],[12.52775,43.87672],[12.53279,43.86713],[12.54107,43.86166],[12.56376,43.86764],[12.56803,43.87835],[12.57214,43.88112],[12.58532,43.88048],[12.58927,43.8725],[12.58727,43.86397],[12.59911,43.85887],[12.59867,43.84982],[12.60749,43.84063],[12.60877,43.82964],[12.62257,43.81879],[12.6306,43.81875],[12.64587,43.82407],[12.67469,43.82162],[12.68533,43.82745],[12.68158,43.8385],[12.68622,43.84899],[12.69811,43.8506],[12.70525,43.85627],[12.72494,43.859],[12.73561,43.86833],[12.73525,43.87313],[12.72733,43.88153],[12.72943,43.88784],[12.73727,43.89592],[12.73165,43.90855],[12.73202,43.92309],[12.74875,43.94416],[12.75787,43.96094],[12.75557,43.97086],[12.90975,44.08114],[12.989161656468193,44.18610400388733],[14.10538,43.83003],[14.404161530482865,43.57409449540949],[14.635620331842974,43.327341130030895],[13.92574,42.89018],[13.72425,42.84649],[13.70371,42.81682],[13.6565,42.79742],[13.61933,42.80424],[13.57285,42.79303],[13.54217,42.80247],[13.51293,42.77172],[13.51071,42.74429],[13.48347,42.72476],[13.45201,42.72381],[13.44033,42.6923],[13.4247,42.69499],[13.39404,42.68012],[13.36168,42.68327],[13.37322,42.66023],[13.40976,42.65161],[13.41774,42.64183],[13.39998,42.60912],[13.40138,42.58873],[13.38644,42.57636],[13.29315,42.56319],[13.27592,42.57567],[13.24529,42.56651],[13.20196,42.57731],[13.16802,42.53172],[13.18566,42.51578],[13.18595,42.4773],[13.13569,42.44512],[13.20098,42.39576],[13.19509,42.37683],[13.17384,42.35832],[13.23185,42.32612],[13.24836,42.27797],[13.28736,42.24593],[13.33865,42.23072],[13.34901,42.22011],[13.3472,42.20699],[13.37714,42.1957],[13.38812,42.18066],[13.33615,42.15786],[13.30844,42.13224],[13.24549,42.12121],[13.19064,42.15055],[13.16835,42.14468],[13.12617,42.16781],[13.10393,42.1685],[13.09242,42.13974],[13.04374,42.11104],[13.02908,42.08129],[13.03599,42.05647],[13.05981,42.02611],[13.08823,42.01888],[13.10241,42.03508],[13.14265,42.0239],[13.28938,41.96041],[13.31131,41.9606],[13.34659,41.93133],[13.36933,41.93035],[13.39138,41.90542],[13.37231,41.87186],[13.38168,41.82873],[13.40688,41.84453],[13.45418,41.82995],[13.47225,41.81552],[13.50884,41.80803],[13.53009,41.77854],[13.54634,41.77056],[13.57398,41.76676],[13.62868,41.79152],[13.64257,41.81662],[13.6623,41.81872],[13.70307,41.79731],[13.73296,41.80533],[13.77235,41.75653],[13.78876,41.75283],[13.81279,41.76154],[13.86412,41.73832],[13.89891,41.74059],[13.9251,41.72256],[13.94044,41.69743],[13.99032,41.66546],[14.01844,41.61139],[14.01903,41.588],[14.01056,41.57679],[14.03107,41.56264],[14.02638,41.53685],[14.03322,41.51871],[13.99112,41.49818],[13.99995,41.48114],[13.98242,41.45672],[13.96343,41.4537],[13.9045,41.41567],[13.88417,41.41461],[13.89577,41.40221],[13.88202,41.36879],[13.88538,41.33574],[13.90187,41.31355],[13.89606,41.29404],[13.88542,41.28416],[13.84254,41.27513],[13.84744,41.26197],[13.83467,41.24388],[13.77575,41.23102],[13.00344,40.34679],[12.72135,40.21443],[9.704908,42.21992],[9.757779,42.48093],[9.724877187195125,42.55714198110971]]]}}
