{"type":"Feature","properties":{"sourceId":"costa-rica"},"geometry":{"type":"Polygon","coordinates":[[[-82.40233772551827,9.840092151668392],[-82.56817,9.574322],[-82.61,9.560361],[-82.60706,9.507815],[-82.63916,9.504598],[-82.74061,9.592626],[-82.84447,9.624784],[-82.86181,9.625799],[-82.89047,9.572314],[-82.89116,9.53558],[-82.85494,9.500874],[-82.937,9.474419],[-82.94128,9.076332],[-82.72911,8.927131],[-82.85717,8.861666],[-82.88464,8.838259],[-82.92206,8.775493],[-82.92378,8.750723],[-82.84515,8.632619],[-82.84309,8.551146],[-82.84206,8.493086],[-82.8709,8.442489],[-82.93716,8.440112],[-83.05321,8.344671],[-83.05741,8.322679],[-82.9509,8.22984],[-82.89425,8.093222],[-82.90661,8.052771],[-82.9569,7.938631],[-82.97035619527534,7.90431987530876],[-86.57229,4.937746],[-87.82473,4.937746],[-86.82139,11.10308],[-86.36878245833265,11.113181057673279],[-86.36351,11.10721],[-85.70023,11.05544],[-85.60307,11.20905],[-85.52616,11.16527],[-85.43072,11.12619],[-84.90818,10.93344],[-84.68124,11.07364],[-84.43199,10.94524],[-84.37397,10.96175],[-84.24076,10.81375],[-84.20574,10.7726],[-84.01382,10.74292],[-83.93349,10.70177],[-83.86276,10.70919],[-83.66467,10.79385],[-83.65196,10.82083],[-83.6293,11.02478],[-83.34037450941116,11.047944692024808],[-82.40233772551827,9.840092151668392]]]}}
