{"type":"Feature","properties":{"sourceId":"cataluna"},"geometry":{"type":"MultiPolygon","coordinates":[[[[4.174794,41.69753],[1.61521633024606,40.23146407763338],[0.530433,40.52124],[0.495071,40.53076],[0.47224,40.53676],[0.449753,40.54524],[0.439453,40.5502],[0.445804,40.57941],[0.398941,40.60822],[0.348387,40.60907],[0.319891,40.6163],[0.299206,40.62757],[0.291138,40.62588],[0.280752,40.63102],[0.278177,40.63623],[0.269852,40.64385],[0.275345,40.66085],[0.304527,40.68845],[0.267105,40.71292],[0.241356,40.70875],[0.233459,40.74101],[0.19874011461071556,40.741761228358484],[0.233974,40.76481],[0.285129,40.8181],[0.258865,40.87497],[0.24908,40.88458],[0.277061,40.93245],[0.298176,40.97005],[0.285473,41.02097],[0.236549,41.05114],[0.249595,41.12721],[0.307617,41.16043],[0.321693,41.21159],[0.385723,41.23122],[0.389499,41.27806],[0.37817,41.35091],[0.347786,41.41248],[0.361519,41.45161],[0.346241,41.48145],[0.396881,41.48415],[0.452499,41.54122],[0.430698,41.60505],[0.354824,41.60068],[0.36169,41.63174],[0.33268,41.67894],[0.397739,41.73046],[0.465717,41.76184],[0.546226,41.81828],[0.561719,41.85093],[0.581417,41.84834],[0.612659,41.87173],[0.610771,41.91658],[0.646305,41.9794],[0.667934,42.00734],[0.70673,42.10294],[0.718918,42.16277],[0.767584,42.32276],[0.772562,42.35144],[0.748701,42.38568],[0.738745,42.4118],[0.728273,42.42783],[0.717287,42.43429],[0.71351,42.47798],[0.741062,42.50488],[0.752306,42.53424],[0.760889,42.57015],[0.77033,42.61008],[0.699691,42.65921],[0.668898275944525,42.687370021577365],[0.681699,42.68734],[0.68917,42.71239],[0.664481,42.75647],[0.685407,42.8488],[0.851898,42.82326],[0.929862,42.78272],[0.941806,42.78718],[1.063964,42.77432],[1.15799,42.70307],[1.278561,42.71122],[1.333942,42.71582],[1.436179,42.59784],[1.4402668783270647,42.59795335086956],[1.438435,42.59415],[1.426877,42.58816],[1.425462,42.58302],[1.42706,42.57964],[1.432189,42.57396],[1.4391,42.5714],[1.440757,42.56769],[1.439293,42.5653],[1.425075,42.55933],[1.422267,42.55657],[1.417926,42.54958],[1.417284,42.54524],[1.413231,42.54054],[1.412368,42.53539],[1.418424,42.53466],[1.432726,42.53875],[1.439242,42.54239],[1.448611,42.53948],[1.450811,42.53722],[1.453762,42.52632],[1.461872,42.51882],[1.464971,42.51099],[1.458482,42.5052],[1.443706,42.497],[1.42467,42.4936],[1.416205,42.4823],[1.431915,42.48079],[1.438712,42.4754],[1.438924,42.4642],[1.442015,42.45929],[1.440259,42.4555],[1.442449,42.44766],[1.441415,42.44436],[1.446745,42.43823],[1.455187,42.43475],[1.496092,42.43182],[1.516233,42.4276],[1.526696,42.43094],[1.552964,42.43216],[1.555366,42.44413],[1.561262,42.44835],[1.559832,42.45295],[1.562176,42.45673],[1.568163,42.45668],[1.57346,42.45122],[1.579288,42.44863],[1.582195,42.44947],[1.58365,42.455],[1.588192,42.4611],[1.598097,42.46594],[1.606145,42.46316],[1.622826,42.46431],[1.631851,42.46153],[1.636481,42.46621],[1.642056,42.46534],[1.65738,42.46718],[1.663632,42.47359],[1.664056,42.49188],[1.669608,42.49946],[1.672551,42.49924],[1.680592,42.49304],[1.689655,42.49373],[1.703251,42.48851],[1.711506,42.49092],[1.7163078503608917,42.49566119165301],[1.715368,42.49186],[1.897025,42.44444],[1.930762,42.44482],[1.967745,42.3693],[2.015824,42.34351],[2.103023,42.35347],[2.131985,42.40938],[2.204567,42.41458],[2.25449,42.42562],[2.402161,42.39066],[2.480866,42.33811],[2.548566,42.32755],[2.559084,42.34963],[2.691517,42.33398],[2.663866,42.37779],[2.708677,42.41289],[2.78853,42.40826],[2.837709,42.4449],[3.026463,42.46648],[3.083413,42.42015],[3.176237,42.43371],[3.450666,42.37538],[3.516318466995728,42.463204955717444],[3.584288,42.45791],[4.174794,41.69753]]],[[[0.6688982759445237,42.687370021577365],[0.6582765566940542,42.68739493272808],[0.668898275944525,42.687370021577365],[0.6688982759445237,42.687370021577365]]]]}}
