{"type":"Feature","properties":{"sourceId":"congo-brazzaville"},"geometry":{"type":"Polygon","coordinates":[[[12.79402,-4.465373],[11.82521,-5.195885],[10.94417,-4.106426],[11.17914,-3.654545],[11.46213,-3.455916],[11.80429,-3.631098],[11.86639,-3.341831],[11.65686,-3.22024],[11.63485,-2.911065],[11.48268,-2.864523],[11.58076,-2.619552],[11.54553,-2.279001],[12.07275,-2.344989],[12.3994,-2.276417],[12.38544,-1.864367],[12.65195,-1.76169],[12.86878,-1.873584],[13.10341,-2.287189],[13.45312,-2.359588],[13.77473,-2.028414],[13.97218,-2.406594],[14.07141,-2.415488],[14.19806,-1.958477],[14.4044,-1.881244],[14.37142,-1.629156],[14.41964,-1.406918],[14.38292,-0.976088],[14.49148,-0.603913],[14.33578,-0.439534],[14.15768,-0.478194],[14.13705,-0.288638],[13.85334,-0.252969],[13.81896,0.251648],[14.03802,0.609358],[14.29794,0.695195],[14.41561,0.94643],[14.16475,1.329778],[13.85635,1.360932],[13.52828,1.204949],[13.1063,1.19519],[13.18177,1.369581],[13.06504,1.570032],[13.0944,1.90385],[13.23629,2.193938],[14.60712,2.267143],[15.76624,1.977665],[16.05547,1.816558],[16.02205,2.205807],[16.16338,2.275763],[16.43239,2.849913],[16.42065,3.159348],[16.60113,3.569588],[17.45178,3.740932],[18.19732,3.585719],[18.50166,3.678577],[18.66508,3.461333],[18.66783,3.248838],[18.62869,3.128176],[18.5511,3.063725],[18.4045,2.725298],[18.15711,2.215852],[18.08624,1.531724],[18.02822,1.425673],[17.97707,1.321332],[17.93209,1.120191],[17.85656,0.992497],[18.02097,0.373923],[17.73463,-0.196192],[17.74567,-0.528022],[17.65778,-0.67427],[17.31892,-1.04227],[17.19738,-1.052911],[17.14863,-1.059777],[17.11155,-1.108863],[16.91708,-1.288123],[16.54541,-1.896854],[16.36482,-2.064982],[16.22818,-2.141834],[16.22578,-2.16585],[16.25564,-2.624812],[16.24878,-3.303678],[15.96296,-3.958959],[15.55322,-4.04755],[15.52059,-4.087219],[15.48901,-4.236513],[15.47268,-4.259764],[15.40666,-4.291263],[15.3177,-4.288386],[15.27967,-4.299154],[15.25701,-4.321415],[15.22319,-4.322427],[15.1968,-4.330184],[15.18057,-4.364924],[15.17777,-4.391777],[14.83934,-4.824355],[14.7098,-4.970327],[14.35225,-4.906327],[14.33025,-4.384958],[13.95673,-4.576924],[13.79869,-4.518311],[13.74328,-4.788145],[13.49481,-4.916158],[13.39607,-4.965672],[12.79402,-4.465373]]]}}
