{"type":"Feature","properties":{"sourceId":"chubu"},"geometry":{"type":"Polygon","coordinates":[[[135.9765,36.42909],[136.0717,36.46069],[136.1334,36.51448],[136.2162,36.55475],[136.4325,36.79072],[136.4893,36.88069],[136.4871,36.96129],[136.4126,37.10712],[136.4127,37.20293],[136.6554,37.905],[136.6895,37.96458],[136.7701,38.0292],[136.8615,38.06214],[138.0178,38.20687],[138.1178,38.34377],[138.1891,38.39077],[138.2791,38.47766],[138.3586,38.5233],[139.0357,38.67039],[139.1371,38.90717],[139.1875,38.89402],[139.2824,38.78408],[139.3416,38.6932],[139.3946,38.57789],[139.4876,38.5535],[139.5526,38.56272],[139.6014,38.53583],[139.7287,38.50331],[139.7213,38.40523],[139.7531,38.37211],[139.8541,38.35119],[139.9077,38.29737],[139.909,38.27237],[139.8666,38.2238],[139.79,38.18314],[139.7143,38.19398],[139.6964,38.17042],[139.7036,38.11425],[139.6874,38.08886],[139.7022,38.05519],[139.6658,38.02616],[139.6385,37.91177],[139.6717,37.86747],[139.7199,37.86115],[139.7511,37.81688],[139.6789,37.75787],[139.6359,37.70415],[139.6343,37.68153],[139.5649,37.64017],[139.5817,37.54647],[139.5997,37.53147],[139.5931,37.50702],[139.5661,37.49184],[139.4359,37.50334],[139.4008,37.45065],[139.3603,37.4564],[139.22,37.42843],[139.2169,37.40513],[139.2475,37.37641],[139.2442,37.34577],[139.2208,37.28117],[139.1798,37.23743],[139.2031,37.21104],[139.2283,37.21579],[139.2632,37.16736],[139.2469,37.11131],[139.2699,37.04474],[139.2504,36.93675],[139.2271,36.93223],[139.2218,36.94695],[139.177,36.95376],[139.1647,36.98998],[139.1034,37.0416],[139.0973,37.01143],[139.0525,36.97904],[138.9774,36.96685],[138.9871,36.8854],[138.9331,36.87575],[138.9347,36.82449],[138.8411,36.80301],[138.8237,36.75365],[138.7839,36.73514],[138.7353,36.75002],[138.7127,36.72827],[138.536,36.68651],[138.5442,36.66594],[138.5325,36.64464],[138.4745,36.63028],[138.438,36.58673],[138.4379,36.55282],[138.4101,36.49137],[138.4155,36.44498],[138.4715,36.41631],[138.5065,36.42481],[138.535,36.41464],[138.5956,36.43452],[138.6558,36.41534],[138.6628,36.30084],[138.6153,36.26697],[138.6451,36.21211],[138.6465,36.17155],[138.6105,36.14857],[138.6531,36.1263],[138.6514,36.03272],[138.7199,35.99189],[138.7485,35.94238],[138.7452,35.91566],[138.7845,35.90835],[138.8173,35.87607],[138.8551,35.87584],[138.8891,35.85685],[138.9504,35.86286],[138.9785,35.83559],[138.9972,35.76959],[139.0333,35.72789],[139.1127,35.6987],[139.1407,35.6743],[139.1395,35.56399],[139.1187,35.52722],[138.9405,35.43314],[138.9409,35.41129],[139.0056,35.40985],[139.0227,35.36152],[139.0269,35.32113],[138.9864,35.25465],[139.0004,35.20628],[139.0436,35.16103],[139.1327,35.14263],[139.1573,35.10143],[139.3824,35.11659],[139.3965,35.10699],[139.4292,34.99362],[139.3424,34.94364],[139.2229,34.78478],[139.1911,34.66338],[139.1218,34.56363],[139.0942,34.46994],[139.0257,34.40467],[138.9489,34.36213],[138.212,34.38168],[137.9494,34.45498],[137.792,34.43472],[137.6651,34.45472],[137.45682079499906,34.33981849133257],[136.9135,34.6292],[136.8386,34.62912],[136.8105,34.63137],[136.7639,34.65494],[136.7346,34.68323],[136.7044,34.70884],[136.6947,34.73061],[136.7079,34.76682],[136.7067,34.78797],[136.7168,34.86357],[136.7255,34.89386],[136.7444,34.92169],[136.7399,34.9528],[136.7412,34.95808],[136.7468,34.96644],[136.7546,34.97115],[136.767,34.98841],[136.7735,35.01131],[136.7722,35.02117],[136.7739,35.02473],[136.7617,35.0389],[136.7546,35.05392],[136.7519,35.07982],[136.7322,35.09817],[136.7145,35.10658],[136.6961,35.12552],[136.6775,35.13038],[136.6699,35.13774],[136.6567,35.16184],[136.6529,35.16423],[136.6454,35.16669],[136.6433,35.16263],[136.6444,35.15255],[136.6425,35.1493],[136.6301,35.15148],[136.6242,35.14852],[136.6169,35.15149],[136.6136,35.1601],[136.6074,35.16773],[136.6072,35.17278],[136.6036,35.17849],[136.595,35.18218],[136.5936,35.18736],[136.5889,35.18834],[136.5865,35.1909],[136.5861,35.19535],[136.5783,35.19966],[136.5764,35.20347],[136.5633,35.20803],[136.5578,35.22162],[136.5501,35.22333],[136.5515,35.23374],[136.543,35.23763],[136.5417,35.24055],[136.5427,35.24591],[136.5382,35.24978],[136.5341,35.2584],[136.5274,35.25881],[136.5156,35.25517],[136.5125,35.25091],[136.5093,35.24021],[136.5056,35.23671],[136.501,35.23661],[136.4965,35.23918],[136.4894,35.23824],[136.483,35.24101],[136.4785,35.23772],[136.4699,35.23758],[136.4658,35.2392],[136.4604,35.23666],[136.4515,35.22937],[136.447,35.22278],[136.4404,35.21919],[136.4361,35.22134],[136.4344,35.22874],[136.4325,35.23031],[136.429,35.23],[136.4205,35.22366],[136.414,35.22122],[136.4013,35.22711],[136.3957,35.23067],[136.3932,35.23483],[136.3864,35.23755],[136.3834,35.24175],[136.3836,35.24577],[136.3925,35.25057],[136.3982,35.25751],[136.3955,35.26232],[136.3972,35.28077],[136.3942,35.2901],[136.4078,35.30431],[136.4089,35.30948],[136.4133,35.31465],[136.414,35.32995],[136.4235,35.34825],[136.4225,35.3547],[136.4153,35.35741],[136.4143,35.36941],[136.4171,35.37194],[136.427,35.37223],[136.4375,35.37793],[136.4456,35.38907],[136.4418,35.39472],[136.4269,35.40401],[136.4214,35.41355],[136.4146,35.41933],[136.4153,35.42334],[136.42,35.42708],[136.4189,35.43218],[136.4242,35.43909],[136.4243,35.44363],[136.4275,35.44814],[136.4225,35.45761],[136.4216,35.46675],[136.4196,35.46857],[136.4148,35.46813],[136.4053,35.47077],[136.3988,35.48196],[136.3888,35.48931],[136.39,35.49659],[136.3936,35.503],[136.3989,35.50863],[136.4044,35.51029],[136.4069,35.51329],[136.4025,35.52102],[136.4011,35.53118],[136.3982,35.53314],[136.3851,35.53505],[136.3814,35.5419],[136.3816,35.546],[136.3731,35.56098],[136.3621,35.55979],[136.3574,35.5458],[136.3523,35.53978],[136.3437,35.54022],[136.3397,35.54954],[136.3372,35.55156],[136.3295,35.55206],[136.3222,35.54897],[136.3196,35.55014],[136.3179,35.55671],[136.3202,35.56498],[136.324,35.56946],[136.3257,35.58384],[136.3196,35.60713],[136.3249,35.61686],[136.316,35.62466],[136.3068,35.62374],[136.2984,35.61927],[136.2898,35.62236],[136.2885,35.62857],[136.2828,35.63636],[136.2838,35.64569],[136.2785,35.65332],[136.2819,35.65842],[136.2816,35.66197],[136.2704,35.66965],[136.2571,35.67337],[136.2504,35.67754],[136.2435,35.67688],[136.2346,35.68373],[136.2266,35.68208],[136.2196,35.68566],[136.2143,35.68529],[136.2088,35.68876],[136.2035,35.68909],[136.199,35.6921],[136.1947,35.70113],[136.1916,35.70363],[136.1682,35.70459],[136.1636,35.6998],[136.1564,35.70162],[136.1499,35.69903],[136.1478,35.6902],[136.1332,35.66903],[136.1359,35.66452],[136.1456,35.66172],[136.1485,35.65923],[136.1502,35.64808],[136.1571,35.638],[136.1587,35.62494],[136.1688,35.61216],[136.1749,35.59844],[136.1739,35.59288],[136.1653,35.58311],[136.1664,35.57405],[136.1641,35.57268],[136.1508,35.57419],[136.1451,35.5732],[136.1389,35.57696],[136.132,35.57603],[136.1206,35.57789],[136.1171,35.58323],[136.1133,35.58403],[136.1111,35.58066],[136.1098,35.57204],[136.1067,35.56858],[136.1088,35.56129],[136.1042,35.55548],[136.1077,35.54369],[136.1034,35.53593],[136.0979,35.53542],[136.094,35.53859],[136.0826,35.54183],[136.0758,35.53537],[136.0747,35.53174],[136.0697,35.52828],[136.0642,35.52989],[136.0609,35.53318],[136.0488,35.53579],[136.0446,35.53292],[136.0261,35.53062],[136.0252,35.52339],[136.0197,35.51464],[136.014,35.51211],[136.0105,35.50473],[136.0093,35.49666],[136.004,35.49311],[135.9897,35.494],[135.9818,35.49044],[135.9727,35.50161],[135.968,35.50408],[135.9623,35.50351],[135.9544,35.50827],[135.947,35.52218],[135.939,35.52155],[135.93,35.49589],[135.9234,35.49041],[135.9211,35.48577],[135.9214,35.4804],[135.9148,35.47145],[135.9158,35.46649],[135.9132,35.45201],[135.9085,35.44721],[135.9131,35.43686],[135.9127,35.433],[135.9015,35.43015],[135.8918,35.42024],[135.8925,35.41451],[135.8898,35.40513],[135.8746,35.39863],[135.8657,35.3959],[135.8585,35.39868],[135.8566,35.40153],[135.8567,35.40966],[135.8536,35.41271],[135.8493,35.41217],[135.839,35.41563],[135.8346,35.41354],[135.8248,35.41599],[135.8197,35.41407],[135.8129,35.41435],[135.8094,35.40925],[135.8069,35.38796],[135.8046,35.38639],[135.7951,35.38871],[135.7902,35.38766],[135.789,35.38092],[135.7783,35.37451],[135.7771,35.36819],[135.7677,35.35865],[135.7576,35.35553],[135.7452,35.36022],[135.7399,35.35961],[135.7379,35.35389],[135.7328,35.3522],[135.7185,35.3567],[135.7125,35.35454],[135.7094,35.34906],[135.7014,35.34587],[135.6771,35.35177],[135.6683,35.3583],[135.6619,35.35822],[135.6522,35.36147],[135.642,35.36821],[135.6362,35.36597],[135.6238,35.37113],[135.615,35.37226],[135.6102,35.37086],[135.6071,35.3729],[135.5956,35.37421],[135.5884,35.37006],[135.5796,35.37628],[135.5716,35.37595],[135.5646,35.37892],[135.5374,35.37797],[135.5299,35.38078],[135.5286,35.38525],[135.5329,35.39327],[135.5313,35.3979],[135.5277,35.40133],[135.5312,35.41031],[135.5267,35.42131],[135.5215,35.42399],[135.516,35.42378],[135.5113,35.42578],[135.5026,35.42324],[135.499,35.42722],[135.502,35.43315],[135.4985,35.43856],[135.4911,35.44104],[135.4868,35.4496],[135.4785,35.45132],[135.4619,35.46563],[135.4608,35.47266],[135.463,35.47691],[135.4719,35.48588],[135.4774,35.48897],[135.4745,35.49992],[135.4774,35.50586],[135.4546,35.5197],[135.4515,35.52367],[135.4516,35.52625],[135.4567,35.53831],[135.4613,35.54321],[135.4624,35.5474],[135.4665,35.55022],[135.4955,35.55835],[135.5013,35.56825],[135.5145,35.58004],[135.9114,35.76269],[135.57420104743227,36.21361336762234],[135.9765,36.42909]]]}}
