{"type":"Feature","properties":{"sourceId":"cumbria"},"geometry":{"type":"Polygon","coordinates":[[[-2.946542,55.05995],[-2.937251,55.06059],[-2.941731,55.06289],[-2.928422,55.07105],[-2.918914,55.07441],[-2.917178,55.07697],[-2.900064,55.07716],[-2.896261,55.07886],[-2.893039,55.08594],[-2.894086,55.08662],[-2.885264,55.08748],[-2.883993,55.08863],[-2.882573,55.09321],[-2.883171,55.09359],[-2.880928,55.09547],[-2.876816,55.09557],[-2.87149,55.10081],[-2.872457,55.10256],[-2.87149,55.10402],[-2.845271,55.11227],[-2.84508,55.11318],[-2.838394,55.11875],[-2.839668,55.11941],[-2.838438,55.12229],[-2.835354,55.12161],[-2.827992,55.12508],[-2.827494,55.12696],[-2.82839,55.12804],[-2.817844,55.13765],[-2.816451,55.13816],[-2.81287,55.13651],[-2.789988,55.13992],[-2.789192,55.1414],[-2.784018,55.14174],[-2.782118,55.1459],[-2.775382,55.14854],[-2.775303,55.14954],[-2.766124,55.15159],[-2.766763,55.15218],[-2.760618,55.15392],[-2.759341,55.15528],[-2.754073,55.1562],[-2.754153,55.15688],[-2.7512,55.15661],[-2.750482,55.15734],[-2.748886,55.15747],[-2.747768,55.15843],[-2.745853,55.1588],[-2.744656,55.1603],[-2.74282,55.16016],[-2.74282,55.16089],[-2.740984,55.16103],[-2.740585,55.16249],[-2.707824,55.17265],[-2.6897613263435995,55.1883498381849],[-2.675948,55.17529],[-2.684226,55.16683],[-2.677777,55.15879],[-2.678275,55.15521],[-2.675129,55.15411],[-2.6742,55.15118],[-2.669475,55.14698],[-2.660687,55.14463],[-2.656952,55.13564],[-2.646726,55.13011],[-2.632334,55.1268],[-2.621021,55.12808],[-2.602923,55.12378],[-2.600016,55.11504],[-2.594941,55.11271],[-2.594396,55.10459],[-2.584091,55.09609],[-2.58041073889566,55.0953991930009],[-2.579825,55.09503],[-2.579331555455718,55.09519662382103],[-2.577112,55.09478],[-2.570144,55.09605],[-2.567337,55.09119],[-2.562294,55.0895],[-2.56378,55.08449],[-2.562499,55.08256],[-2.557307,55.08009],[-2.55069,55.07987],[-2.540211,55.08328],[-2.532131,55.08176],[-2.517817,55.08398],[-2.506566,55.08818],[-2.498908,55.08647],[-2.492623,55.08458],[-2.502215,55.07533],[-2.5015,55.07369],[-2.494703,55.07063],[-2.493923,55.06738],[-2.503713,55.06411],[-2.504948,55.06202],[-2.502522,55.05678],[-2.49677,55.05448],[-2.495102,55.04998],[-2.48454,55.04369],[-2.483768,55.04094],[-2.492349,55.03854],[-2.510723,55.0372],[-2.515764,55.03591],[-2.526815,55.03418],[-2.531836,55.03158],[-2.539474,55.03016],[-2.545791,55.02767],[-2.547448,55.02445],[-2.552813,55.0222],[-2.564169,55.02144],[-2.572089,55.01806],[-2.57567,55.01215],[-2.574103,55.00843],[-2.574867,55.00365],[-2.570397,55.0026],[-2.569923,55.00092],[-2.575225,54.99231],[-2.574118,54.98782],[-2.586564,54.98313],[-2.600283,54.97468],[-2.601842,54.97203],[-2.599424,54.96474],[-2.595483,54.96267],[-2.569785,54.95823],[-2.571902,54.9485],[-2.568198,54.94043],[-2.565121,54.93928],[-2.560406,54.93323],[-2.552964,54.93133],[-2.551486,54.92872],[-2.560007,54.92452],[-2.566594,54.91976],[-2.568154,54.90957],[-2.5935141480821327,54.88999666782345],[-2.598397629929576,54.8880336139818],[-2.60526,54.88633],[-2.606682,54.88457],[-2.589053,54.86877],[-2.578868,54.85998],[-2.575361,54.85368],[-2.581257,54.84863],[-2.582328,54.84284],[-2.578283,54.83483],[-2.568118,54.82262],[-2.556976,54.81528],[-2.531768,54.8056],[-2.523669,54.80523],[-2.496878,54.80941],[-2.481186,54.81612],[-2.460037,54.83254],[-2.456208,54.83053],[-2.45181,54.83116],[-2.420487,54.84263],[-2.402086,54.85072],[-2.391604,54.83193],[-2.370106,54.81938],[-2.348851,54.80599],[-2.32871,54.80365],[-2.322582,54.79393],[-2.319083,54.79239],[-2.3139489548409524,54.7911765362933],[-2.314635,54.79092],[-2.315131,54.78182],[-2.31307,54.77399],[-2.323341,54.76501],[-2.324543,54.76039],[-2.328093,54.74765],[-2.3291,54.73906],[-2.333511,54.73228],[-2.331214,54.7253],[-2.3432,54.7167],[-2.343359,54.71312],[-2.346146,54.70984],[-2.346486,54.70321],[-2.356677,54.69844],[-2.355238,54.69097],[-2.349924,54.68294],[-2.34569,54.68184],[-2.336331,54.67423],[-2.330859,54.67308],[-2.327935,54.6696],[-2.322418,54.6677],[-2.306839,54.66804],[-2.294592,54.66218],[-2.293671,54.65141],[-2.301244,54.64552],[-2.30757,54.6434],[-2.312289,54.63864],[-2.326146,54.63178],[-2.310466,54.6119],[-2.305342,54.59534],[-2.272295,54.58137],[-2.262613,54.57293],[-2.246752,54.56402],[-2.2113,54.54968],[-2.211112,54.5429],[-2.197835,54.53155],[-2.183393,54.53431],[-2.174012,54.5307],[-2.175565,54.52111],[-2.169128,54.5172],[-2.164151,54.50473],[-2.16771,54.48985],[-2.162412,54.46644],[-2.1703047806253966,54.45840371427232],[-2.170337,54.45838],[-2.173557,54.45868],[-2.171284,54.46018],[-2.171032,54.46114],[-2.177409,54.46158],[-2.180061,54.45838],[-2.182397,54.45743],[-2.190029,54.44864],[-2.236274,54.44824],[-2.2388,54.44989],[-2.239085,54.44956],[-2.244109,54.45006],[-2.24645,54.45172],[-2.267926,54.44687],[-2.265708,54.44288],[-2.270749,54.44171],[-2.271657,54.44089],[-2.2769,54.44012],[-2.276698,54.43942],[-2.284058,54.43801],[-2.292427,54.43872],[-2.29152,54.4349],[-2.29205,54.43118],[-2.294734,54.43091],[-2.295843,54.42911],[-2.300511,54.42663],[-2.303137,54.42626],[-2.305412,54.42239],[-2.308271,54.42029],[-2.307831,54.41755],[-2.308623,54.41579],[-2.305941,54.40737],[-2.307085,54.40397],[-2.305282,54.40157],[-2.306055,54.39857],[-2.304767,54.39673],[-2.291892,54.39033],[-2.291978,54.38908],[-2.293352,54.38763],[-2.292484,54.38396],[-2.297634,54.37679],[-2.317384,54.37658],[-2.323993,54.37018],[-2.335065,54.36388],[-2.339614,54.36383],[-2.345708,54.35958],[-2.363046,54.35448],[-2.367767,54.35568],[-2.366903,54.35464],[-2.361582,54.35234],[-2.359779,54.35004],[-2.348364,54.34667],[-2.348063,54.34454],[-2.335446,54.33989],[-2.334974,54.33713],[-2.335618,54.33581],[-2.335446,54.33478],[-2.326134,54.33148],[-2.320769,54.33143],[-2.319181,54.3282],[-2.310427,54.32435],[-2.313044,54.31909],[-2.312916,54.31859],[-2.315233,54.31406],[-2.319181,54.31138],[-2.32064,54.31251],[-2.323516,54.31128],[-2.320168,54.30715],[-2.321241,54.30527],[-2.324546,54.30362],[-2.324503,54.30081],[-2.320125,54.30021],[-2.319911,54.29954],[-2.321627,54.29578],[-2.324159,54.2936],[-2.317036,54.28746],[-2.318151,54.28649],[-2.319095,54.28401],[-2.321241,54.28328],[-2.320898,54.28228],[-2.321198,54.28145],[-2.325619,54.27987],[-2.323988,54.27942],[-2.322057,54.27769],[-2.321756,54.27571],[-2.320125,54.27516],[-2.31592,54.27063],[-2.315748,54.26895],[-2.31798,54.26732],[-2.31858,54.26587],[-2.318151,54.26396],[-2.320597,54.2604],[-2.31858,54.25744],[-2.321756,54.25408],[-2.322057,54.24887],[-2.323516,54.24764],[-2.322872,54.24531],[-2.325104,54.24142],[-2.326606,54.24242],[-2.329095,54.24235],[-2.340167,54.23733],[-2.349179,54.23829],[-2.34978,54.23896],[-2.350209,54.2424],[-2.359736,54.24734],[-2.362526,54.2511],[-2.372096,54.24819],[-2.372439,54.24037],[-2.395742,54.24044],[-2.400987,54.23404],[-2.402901,54.22712],[-2.413338,54.2272],[-2.422822,54.22487],[-2.42956,54.22522],[-2.432907,54.22419],[-2.4527597145049285,54.22588897337513],[-2.451688,54.22732],[-2.455908,54.24645],[-2.559742,54.20589],[-2.607492,54.20204],[-2.642429,54.20936],[-2.684838,54.17143],[-2.726311,54.17498],[-2.731835,54.19135],[-2.799413,54.20558],[-2.837198,54.18319],[-2.907395,54.17696],[-2.911342,54.16945],[-2.8938259143043386,54.145015287542954],[-3.376278,53.90063],[-3.907471,54.63426],[-3.277739,54.95919],[-3.233932,54.95654],[-3.195738,54.96255],[-3.181902,54.96126],[-3.150894,54.95253],[-3.134494,54.96537],[-3.101799,54.97409],[-3.07451,54.97142],[-3.074184,54.98145],[-3.057558,54.98588],[-3.050803,54.99543],[-3.044367,54.99856],[-3.043568,54.9996],[-3.046185,55.00002],[-3.045285,55.00695],[-3.046057,55.00786],[-3.046873,55.00796],[-3.047474,55.01007],[-3.040951,55.01537],[-3.039277,55.01576],[-3.04138,55.01992],[-3.034213,55.02255],[-3.03138,55.02668],[-3.03314,55.02956],[-3.03138,55.03096],[-3.031252,55.03232],[-3.027432,55.03401],[-3.026316,55.03664],[-3.031123,55.03797],[-3.031724,55.03957],[-3.033655,55.03876],[-3.035414,55.03913],[-3.036444,55.0406],[-3.038891,55.04097],[-3.039406,55.04159],[-3.037989,55.04296],[-3.039105,55.045],[-3.043139,55.04552],[-3.04271,55.04719],[-3.050521,55.04788],[-3.050743,55.04871],[-3.053747,55.04817],[-3.050485,55.05279],[-3.002085,55.05612],[-2.96025,55.05259],[-2.946542,55.05995]]]}}
