{"type":"Feature","properties":{"sourceId":"crimean-fed-district"},"geometry":{"type":"Polygon","coordinates":[[[35.86723,44.74156],[35.63792,44.77878],[35.19419,44.54824],[34.75216,44.53336],[34.56984,44.35196],[34.25741,44.18416],[33.73338,44.13411],[33.28842,44.28003],[33.08447,44.45073],[33.04632,44.63244],[33.18807,44.79736],[33.1961,44.89718],[32.81426,45.08492],[32.58196,45.06437],[32.24215,45.18556],[32.15053,45.4186],[32.29008,45.63796],[32.76382,45.87799],[33.50204,46.05619],[33.57418,46.17282],[33.57107,46.24987],[33.64373,46.28118],[34.35945,46.10523],[34.48616,45.99791],[34.56099,46.04619],[34.64487,46.03539],[34.834,45.94033],[34.86024,45.85082],[34.95522,45.81513],[35.25239,45.8388],[35.5479,45.57771],[35.78323,45.6953],[35.99696,45.67179],[36.33254,45.72272],[36.40147,45.71506],[36.67035,45.62701],[36.68355,45.4569],[36.6655,45.35975],[36.60493,45.30823],[36.59946,45.28328],[36.59548,45.25102],[36.58703,45.24249],[36.55542,45.21999],[36.53275,45.19745],[36.53582,45.17545],[36.54478,45.13462],[36.56986,45.05136],[36.61162,44.94026],[36.58723,44.86916],[36.3213,44.7814],[35.86723,44.74156]]]}}
