{"type":"Feature","properties":{"sourceId":"castilla-la-mancha"},"geometry":{"type":"Polygon","coordinates":[[[-2.368756,38.0201],[-2.42506,38.03011],[-2.479992,38.04917],[-2.530289,38.06837],[-2.551575,38.08039],[-2.555695,38.08823],[-2.515526,38.12767],[-2.470036,38.17303],[-2.456989,38.2193],[-2.445316,38.27997],[-2.487889,38.296],[-2.495442,38.37154],[-2.494755,38.38997],[-2.5593,38.40195],[-2.573719,38.41016],[-2.580242,38.42428],[-2.579899,38.47375],[-2.576466,38.49068],[-2.594147,38.50855],[-2.616034,38.51103],[-2.672425,38.49444],[-2.703667,38.49632],[-2.748642,38.51943],[-2.876015,38.44848],[-2.964936,38.4552],[-2.992401,38.4076],[-3.003044,38.39469],[-3.066903,38.46784],[-3.124237,38.43369],[-3.36628,38.44122],[-3.422585,38.4041],[-3.46653,38.39469],[-3.5812,38.40033],[-3.615189,38.38957],[-3.735695,38.40975],[-3.813286,38.41244],[-3.842469,38.36858],[-3.981171,38.36239],[-4.155236,38.37638],[-4.259606,38.39603],[-4.261322,38.34543],[-4.283638,38.33681],[-4.451523,38.3963],[-4.590226,38.47832],[-4.674683,38.5385],[-4.811669,38.58924],[-4.869004,38.60909],[-4.877587,38.68069],[-4.937668,38.67693],[-5.006333,38.6898],[-5.050278,38.719],[-5.051252957496672,38.72213803905719],[-5.035515,38.72878],[-4.989338,38.73306],[-4.966164,38.75971],[-4.907456,38.88328],[-4.840508,38.87687],[-4.828577,38.93565],[-4.834156,38.94753],[-4.923248,38.97302],[-4.954319,39.05225],[-4.882221,39.02972],[-4.859734,39.02839],[-4.829521,39.04505],[-4.81699,39.06385],[-4.860764,39.09556],[-4.804459,39.19248],[-4.64241,39.15802],[-4.643269,39.17239],[-4.723263,39.2627],[-4.742832,39.31637],[-4.697857,39.32062],[-4.659405,39.42187],[-4.683781,39.46403],[-4.871407,39.37969],[-5.020752,39.45793],[-5.052166,39.49464],[-5.108986,39.51622],[-5.118427,39.52112],[-5.125637,39.54046],[-5.195847,39.59696],[-5.154305,39.6439],[-5.139885,39.66835],[-5.13216,39.71551],[-5.165463,39.80181],[-5.172329,39.79944],[-5.17971,39.80082],[-5.208807,39.80056],[-5.259705,39.75867],[-5.306397,39.76685],[-5.30674,39.79192],[-5.276528,39.86232],[-5.309143,39.89525],[-5.393257,39.89446],[-5.356522,39.98712],[-5.365792,40.06178],[-5.355149,40.10171],[-5.32631,40.11563],[-5.329144507422807,40.11955273074917],[-5.207348,40.11169],[-5.194473,40.09252],[-5.066929,40.15434],[-5.012341,40.16418],[-4.993973,40.12245],[-4.955864,40.13584],[-4.930287,40.13978],[-4.928742,40.17153],[-4.828148,40.22647],[-4.821625,40.25543],[-4.808922,40.279],[-4.766007,40.26708],[-4.747639,40.2773],[-4.694424,40.2862],[-4.689446,40.25765],[-4.648934,40.20169],[-4.584514218603772,40.218687595022736],[-4.589539,40.20641],[-4.543705,40.19736],[-4.520703,40.19841],[-4.435558,40.23341],[-4.401398,40.27272],[-4.369126,40.29026],[-4.351616,40.23669],[-4.298229,40.2148],[-4.268704,40.22961],[-4.250851,40.26525],[-4.244757,40.27298],[-4.233856,40.2735],[-4.229908,40.27547],[-4.227247,40.26938],[-4.202185,40.26761],[-4.191628,40.29491],[-4.178495,40.28817],[-4.152918,40.24887],[-4.146137,40.24357],[-4.103651,40.23924],[-4.086056,40.25221],[-4.0767,40.2642],[-4.063139,40.25654],[-4.052754,40.2511],[-4.029579,40.24665],[-4.030266,40.23584],[-3.994389,40.20759],[-3.956537,40.2108],[-3.957911,40.19822],[-3.953962,40.19035],[-3.948641,40.18753],[-3.934565,40.20077],[-3.911047,40.18818],[-3.886929,40.18792],[-3.870106,40.18871],[-3.856373,40.18019],[-3.854656,40.16897],[-3.842297,40.16222],[-3.834744,40.16071],[-3.809166,40.1672],[-3.803244,40.1735],[-3.77655,40.13919],[-3.745051,40.13007],[-3.721275,40.14332],[-3.690634,40.13144],[-3.683553,40.13131],[-3.668146,40.14217],[-3.666987,40.13578],[-3.662052,40.12573],[-3.630467,40.11536],[-3.611927,40.1088],[-3.630982,40.07978],[-3.631325,40.05824],[-3.662224,40.04076],[-3.700333,40.02288],[-3.748226,39.98278],[-3.809338,39.95844],[-3.847017,39.94311],[-3.866415,39.93745],[-3.878689,39.92922],[-3.878775,39.91283],[-3.87105,39.90388],[-3.820925,39.88623],[-3.802729,39.88116],[-3.752775,39.92257],[-3.69381,39.94554],[-3.628922,39.96502],[-3.621969,39.99027],[-3.592615,40.00102],[-3.588667,40.01266],[-3.574526,40.01317],[-3.573539,40.01536],[-3.517857,40.01986],[-3.509102,40.04036],[-3.447132,40.03629],[-3.400612,40.03235],[-3.307915,40.05245],[-3.276501,40.04523],[-3.200455,40.05771],[-3.171787,40.08451],[-3.163204,40.06323],[-3.118057,40.05876],[-3.086643,40.06783],[-3.050423,40.0979],[-3.051281,40.11182],[-3.056259,40.11497],[-3.063512,40.12196],[-3.071065,40.13095],[-3.076623,40.13665],[-3.089175,40.14166],[-3.095484,40.14424],[-3.089047,40.15624],[-3.069134,40.15454],[-3.065958,40.15762],[-3.076,40.22345],[-3.090935,40.26407],[-3.102093,40.28267],[-3.110848,40.28778],[-3.125096,40.28254],[-3.145008,40.26839],[-3.178311,40.24717],[-3.191014,40.25359],[-3.150244,40.33091],[-3.138571,40.35008],[-3.136683,40.37395],[-3.12767,40.40559],[-3.150845,40.43251],[-3.155222,40.44068],[-3.173075,40.44113],[-3.196249,40.44499],[-3.193417,40.47803],[-3.197193,40.50192],[-3.199082,40.51504],[-3.208094,40.52065],[-3.221312,40.5262],[-3.225861,40.53552],[-3.231354,40.54042],[-3.24852,40.54577],[-3.28414,40.53813],[-3.289976,40.5335],[-3.29401,40.53735],[-3.279848,40.55222],[-3.286972,40.55835],[-3.282423,40.56266],[-3.281307,40.5727],[-3.293924,40.57589],[-3.309031,40.58091],[-3.320103,40.61115],[-3.322163,40.63467],[-3.312464,40.64926],[-3.317356,40.65649],[-3.336325,40.64261],[-3.33993,40.6406],[-3.371945,40.67979],[-3.378553,40.68396],[-3.392372,40.69587],[-3.402157,40.69457],[-3.408337,40.67374],[-3.414002,40.67387],[-3.41795,40.68142],[-3.426533,40.68506],[-3.437863,40.67856],[-3.450909,40.68767],[-3.45932,40.69821],[-3.45211,40.70771],[-3.437348,40.72072],[-3.431168,40.73152],[-3.439751,40.75961],[-3.444557,40.77144],[-3.463526,40.78542],[-3.484211,40.786],[-3.496056,40.78925],[-3.500176,40.78938],[-3.498631,40.79146],[-3.50009,40.79568],[-3.490133,40.79718],[-3.474941,40.82005],[-3.469277,40.83927],[-3.463955,40.85615],[-3.469448,40.86381],[-3.436489,40.87407],[-3.437004,40.89068],[-3.442326,40.9043],[-3.388252,41.00491],[-3.42001,41.02809],[-3.420181,41.08155],[-3.428421,41.08789],[-3.445587,41.08375],[-3.463097,41.09229],[-3.470307,41.09643],[-3.481293,41.09863],[-3.505755,41.13658],[-3.536997,41.16864],[-3.5378786266692255,41.16855986279961],[-3.502321,41.18033],[-3.473482,41.18595],[-3.44739,41.21708],[-3.40662,41.21656],[-3.420525,41.27936],[-3.301735,41.26439],[-3.218994,41.31392],[-3.060379,41.28297],[-2.913094,41.33197],[-2.860909,41.33223],[-2.849236,41.28193],[-2.714653,41.28271],[-2.582474,41.22799],[-2.531662,41.1709],[-2.470551,41.12023],[-2.461968,41.08246],[-2.351761,41.09125],[-2.319832,41.07236],[-2.235718,41.10264],[-2.130318,41.12514],[-2.077446,41.09333],[-2.0604054600700423,41.14242919314046],[-2.057877,41.14143],[-1.935654,41.13264],[-1.872483,41.10523],[-1.624604,40.92389],[-1.639024,40.89483],[-1.569672,40.73685],[-1.592332,40.58267],[-1.689149,40.6004],[-1.818238,40.40252],[-1.728287,40.27376],[-1.54564,40.18832],[-1.452256,40.17835],[-1.4592114007096528,40.14355918326351],[-1.465989,40.13768],[-1.454659,40.12062],[-1.421013,40.10486],[-1.428223,40.09252],[-1.387024,40.01631],[-1.374665,40.00632],[-1.338616,40.01158],[-1.253128,39.99106],[-1.209526,39.95252],[-1.221028,39.94094],[-1.206436,39.91513],[-1.216393,39.84202],[-1.245232,39.78348],[-1.279392,39.74165],[-1.306172,39.6809],[-1.365395,39.70138],[-1.404019,39.68262],[-1.449166,39.63306],[-1.4744,39.57361],[-1.498947,39.56984],[-1.523409,39.55588],[-1.522465,39.54595],[-1.50753,39.54449],[-1.507359,39.54132],[-1.514053,39.49795],[-1.531649,39.45747],[-1.526241,39.43268],[-1.508989,39.41703],[-1.481438,39.39322],[-1.457062,39.35952],[-1.387882,39.35129],[-1.356125,39.33934],[-1.336212,39.33178],[-1.303082,39.32992],[-1.223774,39.31239],[-1.167984,39.30588],[-1.177254,39.28064],[-1.194592,39.20486],[-1.200085,39.18237],[-1.230641,39.15402],[-1.242657,39.11608],[-1.258793,39.10809],[-1.273728,39.05332],[-1.270123,39.03959],[-1.23373,39.02425],[-1.156655,38.93952],[-1.140518,38.92777],[-1.102753,38.92616],[-0.973664,38.93898],[-0.93916,38.89237],[-0.937443,38.81216],[-0.934353,38.7858],[-0.964394,38.77777],[-0.961304,38.75823],[-0.942249,38.72851],[-0.929718,38.70574],[-0.918732,38.69563],[-0.932293,38.68109],[-0.963364,38.65938],[-1.009026,38.66058],[-1.02590350033982,38.65884114049746],[-1.034088,38.66112],[-1.109963,38.71271],[-1.115456,38.7407],[-1.18618,38.76024],[-1.253815,38.74096],[-1.341019,38.68283],[-1.368485,38.70842],[-1.423073,38.68578],[-1.452599,38.65013],[-1.456375,38.58494],[-1.492253,38.56696],[-1.503754,38.53366],[-1.48161,38.4232],[-1.487961,38.37988],[-1.542721,38.34825],[-1.601257,38.31769],[-1.664601,38.31728],[-1.683483,38.33425],[-1.676789,38.36118],[-1.697045,38.37813],[-1.743908,38.38446],[-1.772232,38.38177],[-1.797123,38.37504],[-1.851883,38.33735],[-1.873512,38.32132],[-1.909561,38.30139],[-1.994877,38.28765],[-2.014446,38.30327],[-2.047577,38.30907],[-2.065602,38.30139],[-2.173748,38.23198],[-2.218723,38.20851],[-2.274685,38.11552],[-2.33923,38.06904],[-2.351246,38.02822],[-2.3446528896642564,38.02188176628951],[-2.368756,38.0201]]]}}
