{"type":"Feature","properties":{"sourceId":"cook-islands"},"geometry":{"type":"Polygon","coordinates":[[[-155.9099,-7.918114],[-154.9049,-8.508367],[-155.4393,-11.35762],[-158.2149,-12.42739],[-158.1311,-15.86266],[-154.8056,-19.25722],[-156.3231,-21.40556],[-156.1425,-24.89417],[-158.3031,-25.28867],[-166.1372,-19.8979],[-166.30117688320425,-19.625264699491467],[-166.62797105072215,-17.635220006552107],[-166.5747,-17.644],[-165.0366,-15.64418],[-168.0908,-9.968829],[-168.1041930416839,-9.971131476987493],[-167.73114390291397,-8.195010092814966],[-159.2758,-5.800506],[-157.3261,-7.046975],[-155.9099,-7.918114]]]}}
