{"type":"Feature","properties":{"sourceId":"central-african-republic"},"geometry":{"type":"Polygon","coordinates":[[[15.5472,7.520257],[15.7259,7.528256],[15.81276,7.453029],[15.98099,7.497622],[16.03455,7.579307],[16.19694,7.638179],[16.39675,7.725281],[16.40053,7.797058],[16.43452,7.815426],[16.50593,7.85454],[16.59348,7.89603],[16.6721,7.738549],[16.74557,7.63954],[16.78196,7.611977],[16.82041,7.545273],[16.88873,7.624908],[16.94881,7.653831],[17.09335,7.713374],[17.22141,7.780391],[17.29351,7.839235],[17.46036,7.909292],[17.65915,7.996338],[18.03577,8.020136],[18.55443,8.074549],[18.66832,8.229931],[18.7793,8.273484],[19.06994,8.680681],[18.82787,8.849124],[18.95107,9.014964],[20.42284,9.235731],[21.59486,10.3147],[21.68612,10.64494],[22.38436,11.03264],[22.92605,10.95879],[23.35428,10.42191],[23.75115,9.843278],[23.66366,8.827402],[24.30725,8.762941],[24.29351,8.388151],[24.8518,8.205411],[25.29282,7.836081],[26.48159,6.729001],[26.43389,6.411041],[26.68745,6.099542],[27.26806,5.781334],[27.47578,5.085815],[27.45655,5.004079],[27.10466,5.174264],[26.88284,5.019863],[26.47384,5.029417],[25.40306,5.264324],[25.33342,5.014616],[25.06755,4.914064],[24.72475,4.876622],[24.44209,5.00539],[23.40191,4.555891],[23.08502,4.697564],[22.91027,4.80876],[22.90718,4.755046],[22.84967,4.681139],[22.79543,4.72066],[22.74204,4.613898],[22.74221,4.551784],[22.7211,4.468615],[22.5618,4.202618],[22.46138,4.121293],[22.27066,4.104685],[21.6864,4.225233],[21.23829,4.274518],[21.171,4.294032],[20.97015,4.413506],[20.76553,4.401183],[20.56847,4.399472],[20.45345,4.486414],[20.36591,4.696879],[20.08026,4.897704],[19.91169,4.971929],[19.74278,5.099836],[19.44524,5.104117],[19.21509,4.939094],[19.03107,4.748888],[18.79795,4.429252],[18.73787,4.365924],[18.6462,4.347439],[18.59264,4.351547],[18.56724,4.333745],[18.55488,4.30533],[18.61427,4.229324],[18.66131,4.104],[18.66406,3.975574],[18.60397,3.714551],[18.64791789309977,3.4841476172526837],[18.50166,3.678577],[18.19732,3.585719],[17.45178,3.740932],[16.60113,3.569588],[16.42065,3.159348],[16.43239,2.849913],[16.174825647294625,2.300191528285971],[16.15677,2.358991],[16.09978,2.460868],[16.09188,2.699235],[16.09978,2.856635],[16.06751,2.935498],[16.01154,3.018813],[15.88142,3.12749],[15.80177,3.126119],[15.50171,3.472985],[15.27099,3.725857],[15.11873,3.938241],[15.09556,4.008795],[15.19615,4.059482],[15.17658,4.074207],[15.1268,4.113417],[15.11049,4.141839],[15.1086,4.21871],[15.08217,4.317141],[15.03891,4.37782],[15.02724,4.376879],[15.01162,4.426599],[14.96303,4.449447],[14.86965,4.505581],[14.78863,4.56787],[14.74296,4.625705],[14.72168,4.763257],[14.72305,4.799865],[14.72305,4.861786],[14.6973,4.932252],[14.70142,4.954827],[14.70039,5.108727],[14.67602,5.209597],[14.53937,5.279683],[14.55791,5.301562],[14.60701,5.408211],[14.64134,5.514842],[14.6077,5.597536],[14.63448,5.714892],[14.62469,5.821296],[14.61894,5.851779],[14.62289,5.891822],[14.60383,5.927509],[14.58736,5.926313],[14.57019,5.912056],[14.55791,5.905653],[14.53508,5.902665],[14.50676,5.907019],[14.45457,5.996143],[14.43844,6.071597],[14.57062,6.163768],[14.74606,6.253872],[14.80854,6.341232],[14.86382,6.497829],[14.96441,6.732974],[15.06432,6.763489],[15.23048,7.10907],[15.25864,7.247366],[15.43442,7.406729],[15.50926,7.512939],[15.519202361154528,7.525917974732237],[15.5472,7.520257]]]}}
