{"type":"Feature","properties":{"sourceId":"champagne-ardenne"},"geometry":{"type":"Polygon","coordinates":[[[4.430317,49.94678],[4.671075,50.0073],[4.67542,50.06663],[4.695282,50.09427],[4.758854,50.13708],[4.824017,50.17007],[4.880676,50.15491],[4.901517,50.13981],[4.875612,50.08635],[4.843484,50.07472],[4.846397,50.04192],[4.815237,49.98043],[4.899263,49.9095],[4.864919,49.86129],[4.886018,49.80282],[4.99809,49.8034],[5.010602,49.78463],[5.095318,49.76647],[5.130979,49.72719],[5.166264,49.71575],[5.172503,49.69729],[5.269212,49.69903],[5.330195,49.66086],[5.34221,49.63741],[5.392588,49.62029],[5.393663496719477,49.61890974644045],[5.386988,49.61627],[5.379389,49.60675],[5.375145,49.59553],[5.352277,49.59148],[5.344208,49.59682],[5.339232,49.59705],[5.328028,49.58298],[5.316366,49.57552],[5.314521,49.56987],[5.303898,49.55991],[5.283325,49.55512],[5.276296,49.54743],[5.265506,49.54646],[5.255802,49.55777],[5.241019,49.56265],[5.23577,49.57184],[5.208133,49.57723],[5.198984,49.57084],[5.184021,49.57201],[5.167162,49.5667],[5.157234,49.57636],[5.152674,49.58754],[5.146183,49.59272],[5.119279,49.59569],[5.111643,49.59418],[5.102517,49.57748],[5.107245,49.5696],[5.107117,49.56408],[5.103421,49.56004],[5.095648,49.55972],[5.086219,49.54595],[5.085735,49.53712],[5.089996,49.53152],[5.089463,49.52784],[5.07669,49.51221],[5.060737,49.50986],[5.057014,49.50698],[5.056162,49.50167],[5.066924,49.49294],[5.072018,49.48492],[5.079518,49.48223],[5.081517,49.46849],[5.094415,49.45717],[5.104509,49.45504],[5.104553,49.44951],[5.098985,49.44672],[5.097707,49.44301],[5.10324,49.43088],[5.104118,49.41856],[5.09622,49.41686],[5.091263,49.41067],[5.074621,49.40366],[5.078042,49.39955],[5.09709,49.39052],[5.09624,49.38021],[5.087602,49.37376],[5.058047,49.3732],[5.051262,49.36699],[5.051714,49.35887],[5.035204,49.34391],[5.024597,49.33837],[5.024749,49.32658],[5.03154,49.31809],[5.023204,49.30948],[5.035764,49.30221],[5.038347,49.29325],[5.046983,49.29015],[5.047096,49.2766],[5.035758,49.27398],[5.026391,49.27695],[4.999507,49.26793],[4.994505,49.26539],[4.991569,49.25922],[4.964502,49.2503],[4.958204,49.24223],[4.949188,49.23881],[4.950312,49.23445],[4.967931,49.23214],[4.975416,49.21803],[4.984599,49.20983],[4.975716,49.20207],[4.965161,49.20183],[4.949775,49.19595],[4.937215,49.18516],[4.949247,49.17345],[4.970318,49.13461],[4.991395,49.11113],[4.99494,49.10259],[4.996378,49.07716],[5.001335,49.06629],[4.995905,49.05174],[4.963119,49.02085],[4.972697,49.01921],[5.010079,49.03243],[5.028758,49.02469],[5.033875,49.01302],[5.028974,49.00702],[5.027082,48.99805],[5.004943,48.99584],[4.991465,48.98443],[4.995032,48.98031],[5.002645,48.97992],[5.006989,48.97645],[5.030466,48.9762],[5.033705,48.97143],[5.026925,48.95639],[5.011735,48.94755],[5.009948,48.94023],[4.999943,48.94092],[4.970335,48.93106],[4.948605,48.93293],[4.934794,48.92448],[4.928574,48.91382],[4.916378,48.90691],[4.90996,48.89741],[4.918839,48.8908],[4.917512,48.88129],[4.90927,48.86807],[4.917785,48.86278],[4.928324,48.84248],[4.913272,48.83738],[4.886321,48.81763],[4.889534,48.81012],[4.886022,48.80097],[4.887743,48.79613],[4.919836,48.78758],[4.929189,48.78738],[4.932178,48.7814],[4.939911,48.7771],[4.948119,48.76698],[4.975157,48.7512],[4.979358,48.74253],[4.998596,48.73929],[5.003725,48.73566],[5.005859,48.72727],[5.002562,48.71633],[4.994538,48.70932],[5.00095,48.69852],[4.988043,48.69443],[4.985892,48.68456],[4.988682,48.68138],[5.002471,48.67915],[5.004854,48.67595],[5.003357,48.66895],[4.992731,48.66314],[4.990145,48.6565],[4.992462,48.64508],[4.999976,48.63576],[4.991866,48.62199],[4.996939,48.61372],[5.012913,48.60766],[5.032594,48.61069],[5.043221,48.62214],[5.053277,48.62784],[5.056825,48.61329],[5.069098,48.59397],[5.089211,48.59043],[5.112915,48.59112],[5.116541,48.58242],[5.144151,48.55862],[5.153599,48.55731],[5.159597,48.56104],[5.166608,48.56132],[5.172439,48.55365],[5.190444,48.54587],[5.192929,48.53582],[5.204236,48.53482],[5.211467,48.52611],[5.222237,48.52419],[5.228012,48.52759],[5.259652,48.51852],[5.270221,48.51171],[5.284347,48.51186],[5.294613,48.50622],[5.306912,48.51164],[5.31514,48.50628],[5.324757,48.50455],[5.342001,48.48908],[5.346171,48.48129],[5.355896,48.47569],[5.380092,48.46876],[5.397597,48.46993],[5.401403,48.46572],[5.400999,48.45384],[5.406072,48.44503],[5.431365,48.42994],[5.439398,48.43024],[5.445775,48.42105],[5.44092,48.41313],[5.42761,48.40452],[5.410689,48.39576],[5.400105,48.3959],[5.39127,48.39238],[5.405175,48.38113],[5.427425,48.37999],[5.431281,48.37775],[5.430719,48.3736],[5.421422,48.36798],[5.415068,48.35845],[5.416968,48.35097],[5.414669,48.34183],[5.424032,48.3294],[5.44405,48.3341],[5.461292,48.34713],[5.469606,48.34665],[5.48034,48.35334],[5.495844,48.35273],[5.518476,48.34625],[5.522189,48.33286],[5.535406,48.31699],[5.582654,48.27954],[5.587481,48.2716],[5.601708,48.28247],[5.615243,48.28673],[5.648899,48.2674],[5.64907,48.25927],[5.638889,48.24382],[5.640702,48.23945],[5.676224,48.22662],[5.689136,48.23],[5.715429,48.21294],[5.724276,48.19554],[5.717197,48.1923],[5.696162,48.19173],[5.687153,48.18379],[5.678069,48.1809],[5.683035,48.16248],[5.671628,48.13717],[5.660714,48.13116],[5.654097,48.12168],[5.657979,48.11042],[5.636546,48.10014],[5.626578,48.08405],[5.632488,48.07859],[5.641277,48.07639],[5.645988,48.07018],[5.657146,48.06642],[5.663421,48.07064],[5.663304,48.07956],[5.672552,48.07645],[5.679981,48.07772],[5.693113,48.07191],[5.69742,48.06466],[5.712328,48.05878],[5.716942,48.05235],[5.719383,48.04231],[5.741503,48.04667],[5.757232,48.03592],[5.763134,48.02782],[5.772373,48.02563],[5.783033,48.01155],[5.784761,48.00092],[5.791246,47.99558],[5.787516,47.98687],[5.77602,47.97832],[5.78677,47.94989],[5.806048,47.94473],[5.811145,47.94693],[5.815988,47.9543],[5.830577,47.95484],[5.844133,47.96309],[5.854861,47.94364],[5.866486,47.942],[5.883066090187876,47.925749454143336],[5.883076,47.92606],[5.882904,47.92067],[5.888067,47.91032],[5.886241,47.90492],[5.883519,47.90291],[5.875172,47.90187],[5.851822,47.9073],[5.847948,47.90555],[5.842687,47.89592],[5.836531,47.89171],[5.829851,47.88157],[5.819924,47.87003],[5.8222,47.8602],[5.820935,47.85638],[5.814315,47.85023],[5.802568,47.84878],[5.799785,47.85156],[5.799175,47.85675],[5.786122,47.85657],[5.775469,47.85959],[5.76118,47.86111],[5.743188,47.84958],[5.742109,47.84248],[5.744538,47.83209],[5.743681,47.82588],[5.740525,47.8208],[5.730842,47.8192],[5.721878,47.82281],[5.706409,47.82318],[5.700318,47.82512],[5.691221,47.82231],[5.680582,47.80968],[5.675359,47.77881],[5.678716,47.77026],[5.679958,47.7688],[5.689186,47.76769],[5.697505,47.76919],[5.70566,47.76723],[5.70488,47.75281],[5.705226,47.74498],[5.692026,47.73759],[5.68847,47.73356],[5.683226,47.72357],[5.682754,47.71133],[5.691021,47.70516],[5.693465,47.6951],[5.68986,47.68778],[5.680545,47.68781],[5.673467,47.68366],[5.668263,47.68673],[5.659935,47.68598],[5.656255,47.68084],[5.64822,47.6767],[5.632729,47.67853],[5.616223,47.67464],[5.605364,47.67639],[5.594229,47.67887],[5.593529,47.68381],[5.58352,47.70345],[5.567406,47.70849],[5.548214,47.6932],[5.527577,47.67431],[5.511255,47.67555],[5.482905,47.68594],[5.474541,47.68265],[5.461349,47.67468],[5.43643,47.67247],[5.419877,47.67913],[5.405172,47.67394],[5.397796,47.65318],[5.396345,47.6444],[5.384435,47.63551],[5.371702,47.61981],[5.370908,47.60737],[5.372988514528414,47.603761796025175],[5.368186,47.60294],[5.359725,47.59266],[5.354592,47.59028],[5.346273,47.59374],[5.341199,47.59358],[5.339065,47.59655],[5.341816,47.60269],[5.337316,47.60801],[5.32299,47.61086],[5.313299,47.60454],[5.302866,47.60483],[5.294115,47.59655],[5.281984,47.59147],[5.279732,47.58923],[5.278784,47.58045],[5.267368,47.57977],[5.256875,47.57553],[5.252276,47.57601],[5.246655,47.58882],[5.237031,47.59645],[5.248451,47.61193],[5.248743,47.61609],[5.244977,47.61788],[5.239315,47.61497],[5.236733,47.61563],[5.234702,47.6216],[5.228977,47.62465],[5.226443,47.62927],[5.218247,47.63282],[5.20917,47.64135],[5.19754,47.64329],[5.188346,47.64808],[5.179603,47.64868],[5.173914,47.65118],[5.172051,47.65412],[5.174228,47.67568],[5.171579,47.67904],[5.163472,47.67796],[5.157107,47.66693],[5.150611,47.66253],[5.1405,47.65043],[5.132741,47.64929],[5.124778,47.6455],[5.115353,47.64911],[5.108732,47.64847],[5.099429,47.65678],[5.086102,47.65577],[5.078286,47.65886],[5.074699,47.66288],[5.068661,47.66286],[5.062267,47.66591],[5.053096,47.66736],[5.049668,47.6719],[5.042417,47.67654],[5.049084,47.68112],[5.051119,47.69043],[5.047763,47.69257],[5.034007,47.69096],[5.028309,47.69235],[5.027553,47.69754],[5.030996,47.70215],[5.030424,47.7062],[5.028016,47.70824],[5.007057,47.69848],[5.004764,47.69285],[4.996194,47.688],[4.984079,47.68741],[4.979468,47.68464],[4.968173,47.68498],[4.967023,47.69195],[4.959031,47.69583],[4.952485,47.70238],[4.952824,47.70793],[4.962192,47.71513],[4.962262,47.72249],[4.965539,47.72768],[4.96327,47.73133],[4.955279,47.73232],[4.96374,47.7414],[4.957024,47.75974],[4.946885,47.76354],[4.922465,47.75783],[4.920673,47.7634],[4.915604,47.7672],[4.919716,47.77132],[4.916822,47.77747],[4.921628,47.78079],[4.955739,47.79109],[4.964004,47.79649],[4.986089,47.80435],[4.989603,47.8139],[4.983145,47.82657],[4.98022,47.82885],[4.967911,47.83097],[4.966153,47.8366],[4.959967,47.83833],[4.959053,47.84536],[4.961648,47.84893],[4.961847,47.85283],[4.952938,47.86453],[4.939821,47.8658],[4.926727,47.8705],[4.926149,47.88877],[4.915336,47.89731],[4.91252,47.90619],[4.906519,47.91161],[4.901243,47.91988],[4.894221,47.92155],[4.874274,47.91825],[4.863178,47.90472],[4.861606,47.89666],[4.859603,47.89505],[4.855846,47.89479],[4.832292,47.90643],[4.828768,47.91088],[4.827789,47.91589],[4.838907,47.92429],[4.843156,47.92459],[4.846415,47.93015],[4.852501,47.93208],[4.861158,47.93932],[4.862101,47.943],[4.855968,47.95157],[4.844709,47.95973],[4.823592,47.96094],[4.811167,47.95823],[4.805832,47.9609],[4.785471,47.96301],[4.783263,47.96824],[4.784127,47.97157],[4.797715,47.99041],[4.792067,47.9963],[4.791133,48.00324],[4.789145,48.0053],[4.740332,48.00336],[4.720549,48.00751],[4.699137,48.02235],[4.670047,48.01331],[4.664332,48.0187],[4.655462,48.01587],[4.653002,48.02137],[4.646883,48.02441],[4.62194,48.02312],[4.614628,48.02865],[4.607731,48.02709],[4.599075,48.02916],[4.586703,48.02843],[4.57298,48.02402],[4.565172,48.01498],[4.555903,48.01169],[4.550141,48.00367],[4.542185,48.00417],[4.539786,48.00265],[4.539165,47.99989],[4.542784,47.99241],[4.546956,47.98942],[4.555904,47.98695],[4.558186,47.98257],[4.56116,47.97186],[4.554472,47.96632],[4.532092,47.96861],[4.516152,47.96538],[4.492874,47.96657],[4.483837,47.96198],[4.463661,47.95774],[4.454377,47.95811],[4.447275,47.95504],[4.439298,47.95652],[4.426705,47.96519],[4.417945,47.96736],[4.384307,47.95856],[4.378949,47.96032],[4.360983,47.95573],[4.344068,47.95452],[4.33683,47.95728],[4.312742,47.95996],[4.301954,47.94799],[4.30374,47.93604],[4.29233,47.92451],[4.287924,47.92548],[4.276316,47.92233],[4.267168,47.92258],[4.243957,47.92926],[4.235929,47.93949],[4.220713,47.94945],[4.226425,47.96194],[4.225331,47.9676],[4.223496,47.96958],[4.21486,47.97106],[4.21171,47.96814],[4.213954,47.96116],[4.209449,47.96047],[4.206964,47.95814],[4.20897,47.94631],[4.203124,47.94045],[4.192708,47.93816],[4.185011,47.93914],[4.182768,47.95477],[4.17354,47.95753],[4.169227,47.95606],[4.164092,47.95782],[4.157159,47.95481],[4.149881,47.94748],[4.145831,47.94587],[4.14242,47.93623],[4.132703,47.93641],[4.110016,47.92451],[4.103397,47.92855],[4.0927,47.92568],[4.088737,47.93621],[4.090252,47.9415],[4.086673,47.94379],[4.076079,47.94163],[4.061071,47.94386],[4.058055,47.94068],[4.059887,47.93096],[4.045104,47.92405],[4.032465,47.93118],[4.025668,47.92752],[4.016466,47.92796],[4.005525,47.94026],[3.994613,47.93585],[3.991825,47.93118],[3.98109,47.9288],[3.961263,47.93459],[3.949013,47.92984],[3.944032,47.93259],[3.934737,47.93077],[3.92685,47.93273],[3.919178,47.92717],[3.912429,47.92858],[3.904854,47.92369],[3.893994,47.92778],[3.892912,47.92958],[3.898724,47.93653],[3.897848,47.94124],[3.902307,47.94614],[3.90105,47.95071],[3.903726,47.95399],[3.904025,47.95872],[3.906906,47.96514],[3.911818,47.97052],[3.912905,47.97568],[3.911396,47.97909],[3.905301,47.98532],[3.89973,47.99579],[3.893133,47.99927],[3.885946,47.99727],[3.886688,47.99199],[3.884249,47.98783],[3.884768,47.98503],[3.880293,47.97798],[3.861421,47.97539],[3.860882,47.98051],[3.85878,47.98254],[3.848591,47.98284],[3.845244,47.99264],[3.840409,47.99498],[3.838083,47.9986],[3.83803,48.00415],[3.867643,48.00798],[3.869504,48.01013],[3.869356,48.01483],[3.850351,48.02558],[3.841929,48.03403],[3.831165,48.03556],[3.8209,48.04333],[3.824492,48.04922],[3.822829,48.05315],[3.824887,48.0564],[3.82442,48.05943],[3.821345,48.06524],[3.80808,48.07892],[3.797054,48.08581],[3.796562,48.09262],[3.802086,48.10304],[3.793564,48.11073],[3.790086,48.11707],[3.779401,48.12018],[3.77481,48.12761],[3.768103,48.13161],[3.764039,48.13025],[3.756699,48.12378],[3.749551,48.12529],[3.738922,48.13122],[3.738639,48.13953],[3.741896,48.14396],[3.752606,48.15199],[3.750718,48.16031],[3.746779,48.16521],[3.720156,48.1729],[3.718115,48.16838],[3.722528,48.16256],[3.723821,48.15657],[3.720401,48.1528],[3.713423,48.14991],[3.705443,48.14311],[3.695209,48.14668],[3.690654,48.14364],[3.667777,48.13809],[3.65946,48.15818],[3.649894,48.16771],[3.645779,48.17717],[3.641078,48.18303],[3.634827,48.1868],[3.622291,48.19045],[3.593437,48.17738],[3.579214,48.18305],[3.574141,48.18762],[3.574,48.18977],[3.59237,48.20148],[3.598073,48.20289],[3.608983,48.21133],[3.612917,48.22074],[3.616748,48.22481],[3.614774,48.22995],[3.608576,48.23063],[3.604102,48.22917],[3.600019,48.23222],[3.598612,48.23621],[3.602503,48.24201],[3.62217,48.25732],[3.61635,48.26982],[3.609899,48.27408],[3.602156,48.27448],[3.598494,48.27777],[3.587369,48.27868],[3.577606,48.28322],[3.577034,48.28759],[3.58568,48.29266],[3.586663,48.29642],[3.585305,48.29892],[3.580324,48.3],[3.577642,48.30339],[3.565536,48.30654],[3.560229,48.31092],[3.560702,48.31538],[3.557952,48.31844],[3.543314,48.31877],[3.541465,48.33444],[3.532395,48.33846],[3.520336,48.34824],[3.518911,48.35218],[3.512628,48.35893],[3.497033,48.36816],[3.475576,48.36797],[3.469305,48.37265],[3.453443,48.37278],[3.450543,48.37164],[3.449134,48.36748],[3.438199,48.36398],[3.429581,48.35734],[3.426745,48.35725],[3.419973,48.37088],[3.412751,48.3752],[3.41157,48.37865],[3.4131307797031027,48.38923065513017],[3.415646,48.38941],[3.423767,48.41271],[3.423556,48.4165],[3.4154,48.4176],[3.411903,48.42278],[3.39968,48.42551],[3.396764,48.42786],[3.397721,48.43199],[3.406026,48.43884],[3.408664,48.44952],[3.401048,48.46146],[3.400556,48.469],[3.392433,48.47286],[3.391129,48.47724],[3.396042,48.48161],[3.403714,48.48468],[3.409939,48.48434],[3.42214,48.48924],[3.434729,48.48913],[3.436446,48.49685],[3.427752,48.5082],[3.424763,48.51513],[3.411646,48.5254],[3.411449,48.52926],[3.413473,48.53098],[3.421624,48.53191],[3.43891,48.5268],[3.456732,48.52826],[3.474235,48.53939],[3.48254,48.54047],[3.487136,48.54433],[3.487269,48.54767],[3.484797,48.55086],[3.47919,48.553],[3.475038,48.56526],[3.469761,48.56893],[3.470802,48.57277],[3.474512,48.57571],[3.486655,48.57994],[3.494175,48.58835],[3.517041,48.58888],[3.514284,48.59537],[3.509833,48.60007],[3.511261,48.60497],[3.535033,48.60896],[3.543985,48.61474],[3.558249,48.61493],[3.560409,48.61758],[3.545658,48.62975],[3.529741,48.63526],[3.528485,48.63908],[3.534713,48.64595],[3.533838,48.64773],[3.516011,48.64497],[3.492284,48.64876],[3.488528,48.64753],[3.484268,48.64276],[3.473279,48.63802],[3.458982,48.63766],[3.457416,48.64171],[3.461687,48.65358],[3.447666,48.66212],[3.446354,48.67034],[3.45138,48.67841],[3.455317,48.68111],[3.464279,48.68463],[3.472374,48.68477],[3.474595,48.68868],[3.4744,48.69472],[3.478931,48.69735],[3.477705,48.70027],[3.468436,48.70599],[3.467068,48.71137],[3.469351,48.71728],[3.467981,48.72843],[3.470757,48.7385],[3.467889,48.7398],[3.443333,48.73865],[3.438666,48.74304],[3.437502,48.75399],[3.429002,48.7596],[3.421793,48.75572],[3.414616,48.75599],[3.409287,48.75396],[3.398523,48.75829],[3.39887,48.76259],[3.410916,48.78113],[3.421901,48.78281],[3.428817,48.77815],[3.437802,48.78174],[3.442748,48.78136],[3.444754,48.79031],[3.442177,48.7991],[3.444021,48.80927],[3.4605,48.81404],[3.463433,48.81714],[3.469461,48.81922],[3.480461,48.81103],[3.487807,48.81416],[3.486799,48.82499],[3.492506,48.83531],[3.486306,48.85228],[3.486242351218891,48.85228026976355],[3.48768,48.85778],[3.4858,48.86231],[3.486803,48.86471],[3.504012,48.87062],[3.511313,48.89144],[3.516051,48.89473],[3.527332,48.90882],[3.544063,48.91402],[3.549035,48.91169],[3.558542,48.91475],[3.564736,48.91082],[3.571262,48.9143],[3.577318,48.92313],[3.574674,48.92982],[3.577473,48.93851],[3.590885,48.94311],[3.603892,48.94261],[3.601942,48.94937],[3.603158,48.95372],[3.597462,48.95812],[3.597861,48.96202],[3.600766,48.96391],[3.605068,48.96289],[3.609319,48.96495],[3.6167,48.96384],[3.6216,48.96506],[3.627797,48.98017],[3.627205,48.98478],[3.640496,49.00214],[3.665547,49.00442],[3.678947,49.01348],[3.680151,49.01912],[3.67501,49.02275],[3.664684,49.03847],[3.659268,49.03893],[3.650327,49.04412],[3.643375,49.0404],[3.629425,49.04078],[3.612105,49.03505],[3.591344,49.03556],[3.587687,49.03759],[3.587386,49.0444],[3.590846,49.05825],[3.602601,49.06171],[3.605401,49.06882],[3.611005,49.07217],[3.625366,49.06963],[3.633023,49.07126],[3.640264,49.07766],[3.640272,49.08127],[3.632446,49.08845],[3.62364,49.10582],[3.609889,49.12156],[3.609838,49.1242],[3.613184,49.12851],[3.612801,49.13532],[3.615151,49.13745],[3.621233,49.13843],[3.621013,49.14713],[3.626245,49.1502],[3.655552,49.14722],[3.68473,49.15343],[3.695905,49.14928],[3.702827,49.14026],[3.739212,49.15549],[3.750351,49.15668],[3.749779,49.166],[3.753745,49.17224],[3.751776,49.17889],[3.741913,49.18055],[3.729831,49.17957],[3.724758,49.17592],[3.722199,49.17603],[3.709887,49.18128],[3.708017,49.18625],[3.702594,49.18927],[3.702121,49.1919],[3.706511,49.20026],[3.698064,49.20783],[3.692151,49.2064],[3.689794,49.20235],[3.686427,49.20111],[3.679285,49.208],[3.667202,49.21173],[3.661152,49.21143],[3.657744,49.21355],[3.657365,49.21625],[3.659929,49.22031],[3.669954,49.22128],[3.671816,49.23025],[3.679524,49.23521],[3.677094,49.23989],[3.66856,49.24675],[3.660941,49.26161],[3.661063,49.26545],[3.666352,49.26949],[3.654644,49.27945],[3.659395,49.28688],[3.658411,49.29165],[3.643699,49.29854],[3.64766,49.31346],[3.665229,49.31873],[3.669159,49.32274],[3.690183,49.32602],[3.701378,49.33155],[3.742798,49.33561],[3.744209,49.33704],[3.742865,49.34405],[3.746173,49.34681],[3.758107,49.34664],[3.761494,49.3492],[3.774587,49.35316],[3.780224,49.35075],[3.801581,49.35753],[3.820301,49.35597],[3.832974,49.3489],[3.853317,49.34382],[3.858926,49.34887],[3.859935,49.35463],[3.855895,49.3606],[3.857476,49.3673],[3.861027,49.37225],[3.860236,49.3772],[3.862098,49.38051],[3.878445,49.3843],[3.892124,49.39081],[3.910652,49.39359],[3.917957,49.40219],[3.926163,49.40484],[3.93999,49.39147],[3.94181,49.38768],[3.95394,49.38216],[3.96123,49.37631],[3.977325,49.37825],[3.992717,49.37668],[3.995933,49.37036],[4.000188,49.36769],[4.007066,49.36697],[4.012232,49.3573],[4.021627,49.35912],[4.031106,49.35796],[4.036938,49.3598],[4.038775,49.38679],[4.041305,49.39498],[4.048872,49.40361],[4.051335,49.41264],[4.049406,49.41757],[4.044477,49.42126],[4.044899,49.42936],[4.040972,49.43794],[4.047641,49.44367],[4.052506,49.44261],[4.061053,49.44582],[4.068201,49.4435],[4.069664,49.44548],[4.058256,49.45376],[4.055766,49.46013],[4.043462,49.47093],[4.041745,49.50447],[4.045126,49.50696],[4.058016,49.50732],[4.063012,49.51227],[4.062745,49.51692],[4.064759,49.51891],[4.067587,49.51889],[4.071571,49.51529],[4.076691,49.51763],[4.078813,49.52857],[4.07635,49.54212],[4.060156,49.54593],[4.058342,49.54941],[4.069113,49.56278],[4.075662,49.56494],[4.077987,49.57057],[4.077077,49.57237],[4.062928,49.57709],[4.063505,49.58878],[4.067146,49.59529],[4.060981,49.59748],[4.055991,49.59705],[4.052667,49.60113],[4.046653,49.60209],[4.032424,49.61506],[4.031374,49.61906],[4.033278,49.62118],[4.03884,49.6222],[4.0476,49.63394],[4.055598,49.63308],[4.068084,49.63597],[4.07958,49.63263],[4.085611,49.62815],[4.099111,49.62714],[4.104284,49.63158],[4.111387,49.63006],[4.116276,49.6318],[4.126507,49.65023],[4.123739,49.65869],[4.12861,49.67498],[4.149215,49.67677],[4.150479,49.67875],[4.1465,49.68479],[4.147903,49.68817],[4.185804,49.69782],[4.186549,49.70338],[4.193897,49.71076],[4.196052,49.71578],[4.207549,49.72254],[4.214663,49.72264],[4.233156,49.72959],[4.233192,49.73184],[4.227925,49.73402],[4.228727,49.74239],[4.233819,49.74811],[4.25051,49.75617],[4.250359,49.758],[4.244179,49.76187],[4.243511,49.7681],[4.233861,49.77035],[4.228444,49.77436],[4.214338,49.7739],[4.211331,49.77842],[4.212377,49.78123],[4.224593,49.78743],[4.227968,49.79294],[4.222322,49.79973],[4.222686,49.80528],[4.218758,49.80893],[4.225048,49.83249],[4.230876,49.83574],[4.233892,49.84699],[4.244779,49.8513],[4.24933,49.85556],[4.25402,49.86971],[4.25518,49.88665],[4.253171,49.89074],[4.256744,49.9047],[4.246396,49.90347],[4.237826,49.90503],[4.23545,49.90626],[4.234034,49.91027],[4.223228,49.91166],[4.219003,49.91553],[4.222642,49.93761],[4.23122,49.94591],[4.233868,49.95856],[4.230800130923465,49.95925246679886],[4.23155,49.96418],[4.309461,49.97151],[4.430317,49.94678]]]}}
