{"type":"Feature","properties":{"sourceId":"castilla-y-leon"},"geometry":{"type":"Polygon","coordinates":[[[-6.870947,40.27436],[-6.865942,40.28403],[-6.865469,40.30181],[-6.820871,40.32719],[-6.79671,40.33083],[-6.793289,40.36878],[-6.838646,40.40461],[-6.856156,40.45348],[-6.821137,40.50127],[-6.80452,40.51169],[-6.807519,40.5514],[-6.849633,40.56207],[-6.842766,40.59362],[-6.835814,40.59825],[-6.82929,40.60346],[-6.826544,40.60789],[-6.822767,40.61174],[-6.798477,40.66124],[-6.80706,40.6641],[-6.811622,40.69742],[-6.831865,40.74223],[-6.831341,40.77023],[-6.820956,40.80142],[-6.8256,40.81849],[-6.828272,40.84586],[-6.803395,40.84824],[-6.810547,40.88045],[-6.830377,40.87994],[-6.850531,40.90085],[-6.860021,40.94147],[-6.933364,41.01432],[-6.931644,41.02981],[-6.916194,41.03942],[-6.907697,41.03712],[-6.904221,41.03469],[-6.897655,41.03356],[-6.87933,41.02916],[-6.864009,41.02819],[-6.843238,41.02887],[-6.822853,41.03301],[-6.813626,41.03926],[-6.808562,41.04673],[-6.803412,41.04887],[-6.782169,41.06887],[-6.775303,41.07864],[-6.770067,41.08919],[-6.765947,41.09125],[-6.763802,41.09585],[-6.760197,41.09844],[-6.757536,41.10316],[-6.759338,41.10658],[-6.776736,41.1285],[-6.702551,41.18846],[-6.693919,41.20909],[-6.649343,41.24942],[-6.616345,41.25019],[-6.590002,41.25803],[-6.572309,41.24112],[-6.522519,41.27795],[-6.512146,41.27316],[-6.506996,41.26749],[-6.483135,41.27548],[-6.49189,41.28284],[-6.493552,41.28732],[-6.486912,41.29283],[-6.471291,41.30109],[-6.466656,41.30296],[-6.442881,41.30573],[-6.439276,41.31927],[-6.425285,41.34254],[-6.397614,41.36369],[-6.393228,41.38594],[-6.366379,41.39698],[-6.334733,41.38723],[-6.334772,41.41522],[-6.297736,41.4363],[-6.307896,41.4487],[-6.28521,41.47926],[-6.279202,41.48228],[-6.272807,41.48592],[-6.268988,41.48759],[-6.265769,41.48797],[-6.26328,41.48785],[-6.26401,41.4891],[-6.267057,41.4919],[-6.269331,41.49431],[-6.267614,41.49765],[-6.265555,41.49996],[-6.257057,41.49926],[-6.256285,41.50395],[-6.260061,41.51166],[-6.258245,41.51488],[-6.246205,41.5172],[-6.196614,41.58026],[-6.19801,41.58996],[-6.23457,41.60482],[-6.285455,41.65226],[-6.354218,41.67291],[-6.374641,41.67264],[-6.439706,41.68],[-6.453438,41.66445],[-6.498993,41.65298],[-6.549569,41.67907],[-6.559182,41.69701],[-6.556168,41.72065],[-6.571633,41.74422],[-6.556137,41.76815],[-6.547637,41.79538],[-6.523529,41.87339],[-6.574293,41.88182],[-6.548705,41.93965],[-6.585526,41.96432],[-6.59895,41.94696],[-6.617454,41.93895],[-6.670349,41.93623],[-6.696975,41.93063],[-6.750448,41.94124],[-6.776676,41.98399],[-6.803122,41.98357],[-6.821389,41.94297],[-6.892903,41.9384],[-6.943012,41.94185],[-6.971684,41.97034],[-6.981559,41.96434],[-6.982773864688938,41.96615310617263],[-6.978378,41.97034],[-6.986962,41.98782],[-6.976962,42.00125],[-6.974988,42.00753],[-6.955033,42.02915],[-6.970139,42.05745],[-7.011595,42.05694],[-7.001553,42.08408],[-6.987047,42.10077],[-6.941128,42.14107],[-6.870232,42.21555],[-6.795388,42.20716],[-6.784058,42.21352],[-6.762772,42.25813],[-6.735993,42.29763],[-6.727066,42.36184],[-6.779423,42.3848],[-6.806717,42.38866],[-6.828239,42.41023],[-6.828218,42.41603],[-6.819677,42.42088],[-6.81221,42.4265],[-6.819227,42.43497],[-6.817467,42.44332],[-6.80397,42.46836],[-6.823025,42.49685],[-6.838303,42.49881],[-6.878557,42.50311],[-6.931686,42.52418],[-6.963787,42.52019],[-6.976061,42.51311],[-7.050905,42.51463],[-7.04936,42.56376],[-7.027044,42.58589],[-7.039747,42.60181],[-7.039147,42.63137],[-6.999664,42.64173],[-7.013054,42.66937],[-7.037516,42.69411],[-7.025585,42.70685],[-7.016916,42.71],[-6.993742,42.72337],[-6.984043,42.71656],[-6.969194,42.72457],[-6.95838,42.74726],[-6.946449,42.73825],[-6.935806,42.73743],[-6.892376,42.76315],[-6.859245,42.78784],[-6.835041,42.82348],[-6.837616,42.83456],[-6.810322,42.87131],[-6.823314243455272,42.907261248561646],[-6.772728,42.87886],[-6.754017,42.881],[-6.721916,42.91394],[-6.710758,42.91218],[-6.590595,42.91419],[-6.541157,42.90879],[-6.508713,42.92425],[-6.488629,42.91721],[-6.427345,42.93858],[-6.40297,42.99812],[-6.354046,43.04543],[-6.330528,43.02975],[-6.262207,43.0118],[-6.227188,43.0049],[-6.132431,43.0172],[-6.089688,43.02912],[-5.989781,43.05622],[-5.959397,43.01481],[-5.893479,42.97514],[-5.842667,42.96333],[-5.801983,42.96044],[-5.752373,42.96773],[-5.722847,43.03841],[-5.68903,43.05371],[-5.641136,43.03477],[-5.569039,43.01996],[-5.537453,43.0162],[-5.493851,43.01871],[-5.386391,43.04669],[-5.37489,43.08544],[-5.328369,43.07691],[-5.280304,43.0739],[-5.211983,43.08243],[-5.091133,43.10048],[-5.067788,43.17113],[-5.050965,43.17213],[-4.997063,43.16988],[-4.934922,43.22044],[-4.898186,43.2342],[-4.86763,43.21068],[-4.844460326987396,43.18183786010895],[-4.861622,43.17501],[-4.846173,43.16087],[-4.858189,43.12392],[-4.835873,43.09923],[-4.774246,43.07089],[-4.772873,43.05246],[-4.740601,43.0172],[-4.638462,43.01406],[-4.557095,43.01645],[-4.473152,43.03715],[-4.460793,43.05559],[-4.434014,43.04368],[-4.403629,43.03276],[-4.373932,42.99172],[-4.350758,42.96886],[-4.243984,42.95479],[-4.242096,42.91872],[-4.226475,42.86514],[-4.23111,42.8586],[-4.21463,42.84325],[-4.198494,42.84186],[-4.152317,42.86401],[-4.136009,42.85344],[-4.186993,42.82399],[-4.188709,42.80888],[-4.151287,42.78558],[-4.082108,42.75874],[-4.037304,42.75949],[-4.042111,42.78205],[-4.027176,42.78633],[-4.003658,42.80346],[-4.004688,42.76541],[-3.979969,42.75458],[-3.943062,42.75987],[-3.908043,42.76642],[-3.892594,42.79691],[-3.864441,42.78293],[-3.817749,42.79767],[-3.809166,42.81568],[-3.818093,42.87307],[-3.824959,42.9279],[-3.839894,42.94851],[-3.872681,42.96622],[-3.973275,42.92802],[-3.957138,42.99084],[-3.938599,43.00339],[-3.906327,43.01369],[-3.846588,43.03627],[-3.824959,43.06312],[-3.750115,43.08042],[-3.695526,43.11753],[-3.644371,43.17063],[-3.604546,43.14559],[-3.483696,43.12905],[-3.439408,43.12755],[-3.4196686812329413,43.13035284831297],[-3.419495,43.12993],[-3.3937307129072725,43.13403586248489],[-3.389969,43.13457],[-3.389726726002568,43.1346739480474],[-3.389626,43.13469],[-3.253155,43.19316],[-3.227921,43.17151],[-3.216076,43.17076],[-3.187065,43.16638],[-3.168869,43.17514],[-3.145695,43.16763],[-3.165436,43.15536],[-3.170586,43.14546],[-3.186722,43.12141],[-3.181572,43.11301],[-3.15239,43.10086],[-3.161831,43.07215],[-3.144493,43.06287],[-3.152905,43.03188],[-3.182259,43.02962],[-3.179856,43.01783],[-3.148098,43.00314],[-3.089218,42.99812],[-3.045101,42.98092],[-3.051796,42.97162],[-3.018665,42.94901],[-2.992916,42.94034],[-3.031025,42.90967],[-3.090763,42.90489],[-3.10175,42.91683],[-3.145352,42.93908],[-3.205776,42.95316],[-3.227749,42.95291],[-3.244915,42.94411],[-3.282509,42.90389],[-3.29092,42.88376],[-3.284912,42.8698],[-3.228092,42.82562],[-3.135567,42.78545],[-3.155308,42.75332],[-3.129902,42.75332],[-3.082009,42.75432],[-3.040466,42.73579],[-2.981415,42.69972],[-2.964592,42.70565],[-2.93232,42.70616],[-2.933006,42.69859],[-2.922621,42.6996],[-2.918501,42.69695],[-2.904425,42.69259],[-2.904682,42.68635],[-2.898502,42.6765],[-2.901077,42.6731],[-2.901077,42.66729],[-2.898073,42.65366],[-2.890692,42.6476],[-2.871294,42.63819],[-2.8688845639381566,42.637867011201934],[-2.907086,42.62777],[-2.948628,42.64292],[-3.007851,42.64621],[-3.023644,42.6428],[-3.086643,42.64305],[-3.08939,42.62524],[-3.072224,42.60465],[-3.073082,42.59467],[-3.140202,42.54195],[-3.126984,42.52943],[-3.091793,42.47628],[-3.051281,42.44613],[-3.079434,42.42232],[-3.091793,42.42612],[-3.106041,42.41573],[-3.108788,42.3848],[-3.114453,42.33736],[-3.110333,42.31007],[-3.097286,42.24631],[-3.136597,42.19775],[-3.08733,42.13082],[-3.068447,42.12713],[-3.036518,42.08026],[-2.943993,42.08001],[-2.917042,42.01448],[-2.883568,42.00517],[-2.790356,42.04164],[-2.747441,42.00479],[-2.670708,41.99458],[-2.574749,41.99216],[-2.507973,42.06714],[-2.435532,42.12904],[-2.309189,42.13515],[-2.27211,42.07835],[-2.125855,42.01818],[-2.129975,41.99471],[-2.117615,41.95438],[-2.034874,41.93676],[-2.026892,41.94443],[-1.982689,41.91403],[-1.904755,41.93012],[-1.8670613251186203,41.95418611757079],[-1.863213,41.91173],[-1.846733,41.88797],[-1.83815,41.82225],[-1.858063,41.78923],[-1.816178,41.73622],[-1.788369,41.72136],[-1.86184,41.66445],[-1.899262,41.64059],[-1.929474,41.6044],[-1.992989,41.61416],[-2.000542,41.58746],[-1.986809,41.48621],[-1.958657,41.4139],[-2.026291,41.39149],[-2.032814,41.43681],[-2.104569,41.45045],[-2.121048,41.435],[-2.128945,41.37887],[-2.16671,41.35568],[-2.17907,41.28735],[-2.167397,41.27729],[-2.154694,41.17969],[-2.057877,41.14143],[-2.0604054600700423,41.14242919314046],[-2.077446,41.09333],[-2.130318,41.12514],[-2.235718,41.10264],[-2.319832,41.07236],[-2.351761,41.09125],[-2.461968,41.08246],[-2.470551,41.12023],[-2.531662,41.1709],[-2.582474,41.22799],[-2.714653,41.28271],[-2.849236,41.28193],[-2.860909,41.33223],[-2.913094,41.33197],[-3.060379,41.28297],[-3.218994,41.31392],[-3.301735,41.26439],[-3.420525,41.27936],[-3.40662,41.21656],[-3.44739,41.21708],[-3.473482,41.18595],[-3.502321,41.18033],[-3.5378786266692113,41.16855986279962],[-3.604546,41.1625],[-3.730889,41.07198],[-3.793888,41.00037],[-3.883667,40.98094],[-3.945122,40.9318],[-3.968468,40.83927],[-3.988381,40.79029],[-4.074726,40.80134],[-4.114552,40.74973],[-4.148884,40.70628],[-4.178581,40.68272],[-4.176178,40.62281],[-4.220295,40.60822],[-4.260636,40.60861],[-4.272309,40.63271],[-4.293766,40.63363],[-4.293766,40.60692],[-4.283467,40.60222],[-4.293766,40.56598],[-4.326382,40.55437],[-4.33136,40.53481],[-4.330673,40.46236],[-4.347325,40.43845],[-4.336167,40.41611],[-4.412041,40.41389],[-4.420967,40.41049],[-4.443798,40.38931],[-4.451351,40.3799],[-4.523277,40.34864],[-4.552632,40.34458],[-4.53804,40.30663],[-4.538555,40.29904],[-4.570656,40.26224],[-4.583531,40.22109],[-4.584514218603773,40.218687595022736],[-4.648934,40.20169],[-4.689446,40.25765],[-4.694424,40.2862],[-4.747639,40.2773],[-4.766007,40.26708],[-4.808922,40.279],[-4.821625,40.25543],[-4.828148,40.22647],[-4.928742,40.17153],[-4.930287,40.13978],[-4.955864,40.13584],[-4.993973,40.12245],[-5.012341,40.16418],[-5.066929,40.15434],[-5.194473,40.09252],[-5.207348,40.11169],[-5.329144507422807,40.11955273074917],[-5.356608,40.15756],[-5.359612,40.21637],[-5.336266,40.26695],[-5.347596,40.26957],[-5.431366,40.25595],[-5.469132,40.22319],[-5.52681,40.19854],[-5.611611,40.22633],[-5.611267,40.23708],[-5.619507,40.25018],[-5.653153,40.25831],[-5.652123,40.27376],[-5.690232,40.29576],[-5.737954,40.2976],[-5.765076,40.28424],[-5.789452,40.28843],[-5.776062,40.31252],[-5.793572,40.35832],[-5.819664,40.35282],[-5.845757,40.33307],[-5.853138,40.3404],[-5.894509,40.32404],[-5.897083,40.31658],[-5.919399,40.28267],[-5.965061,40.29354],[-6.0145,40.31828],[-6.01244,40.34406],[-6.086254,40.35623],[-6.077671,40.36381],[-6.059303,40.39846],[-6.120587,40.42487],[-6.108227,40.44512],[-6.201954,40.48626],[-6.239891,40.48913],[-6.274567,40.47007],[-6.347351,40.4446],[-6.370182,40.4216],[-6.422711,40.40082],[-6.541844,40.34851],[-6.562786,40.32966],[-6.584587,40.27743],[-6.675568,40.26643],[-6.722088,40.27324],[-6.802769,40.25189],[-6.869899,40.27638],[-6.870946148478807,40.27435615999462],[-6.870947,40.27436]]]}}
