{"type":"Feature","properties":{"sourceId":"chugoku"},"geometry":{"type":"Polygon","coordinates":[[[134.12538632814687,36.31477000257306],[133.9644,36.29653],[134.3393,35.66689],[134.3443,35.65126],[134.3682,35.61535],[134.3702,35.60806],[134.3812,35.6021],[134.3861,35.60234],[134.3925,35.59706],[134.4015,35.59331],[134.4049,35.58711],[134.4058,35.57698],[134.4038,35.57049],[134.4067,35.56458],[134.4095,35.56168],[134.4147,35.5623],[134.4206,35.5587],[134.4225,35.55189],[134.4197,35.54478],[134.4221,35.53943],[134.4187,35.53327],[134.4185,35.5277],[134.4121,35.51847],[134.4116,35.51424],[134.4181,35.51216],[134.4277,35.50465],[134.4262,35.49614],[134.4353,35.47628],[134.4325,35.46592],[134.4363,35.45976],[134.439,35.44224],[134.4447,35.44046],[134.4523,35.43516],[134.4624,35.4352],[134.4742,35.42692],[134.4762,35.41963],[134.4754,35.41417],[134.4791,35.40787],[134.4703,35.38195],[134.4716,35.37708],[134.474,35.37377],[134.481,35.37204],[134.4887,35.36666],[134.5004,35.36516],[134.5034,35.35873],[134.509,35.35302],[134.5083,35.34432],[134.5034,35.33783],[134.5006,35.32633],[134.5024,35.31777],[134.5107,35.30818],[134.508,35.29392],[134.512,35.28003],[134.5099,35.27576],[134.5002,35.26943],[134.4854,35.2636],[134.4824,35.26078],[134.4793,35.25316],[134.4611,35.24508],[134.4588,35.23994],[134.4436,35.23803],[134.4355,35.23089],[134.4275,35.23434],[134.4235,35.23826],[134.4028,35.24223],[134.395,35.22915],[134.3816,35.22251],[134.3786,35.21046],[134.3822,35.19353],[134.3929,35.19068],[134.3989,35.1866],[134.408,35.18614],[134.4109,35.18396],[134.4109,35.17768],[134.4049,35.16591],[134.4106,35.15956],[134.4108,35.15395],[134.4051,35.14975],[134.3973,35.15352],[134.383,35.15374],[134.3785,35.15169],[134.3742,35.152],[134.3663,35.14761],[134.3613,35.14059],[134.3587,35.12899],[134.3551,35.1251],[134.3568,35.1202],[134.3516,35.11359],[134.3523,35.10057],[134.3483,35.09356],[134.3409,35.09112],[134.3367,35.09249],[134.3333,35.08877],[134.3181,35.08421],[134.3197,35.07053],[134.3133,35.06117],[134.3123,35.04834],[134.3073,35.04704],[134.3041,35.0439],[134.2969,35.04432],[134.2895,35.03872],[134.2806,35.03805],[134.2752,35.02664],[134.2674,35.02309],[134.2633,35.01728],[134.2622,35.01113],[134.2642,35.00465],[134.2781,34.99898],[134.2801,34.99468],[134.2766,34.98888],[134.2721,34.98722],[134.2696,34.98401],[134.2684,34.97927],[134.2735,34.97458],[134.2724,34.96211],[134.2667,34.95858],[134.2642,34.95444],[134.2592,34.95327],[134.2532,34.94662],[134.2529,34.93738],[134.2586,34.93281],[134.2647,34.93486],[134.2726,34.93088],[134.2742,34.9282],[134.2736,34.92386],[134.2814,34.91914],[134.2869,34.91135],[134.2919,34.90779],[134.2923,34.90514],[134.2861,34.8991],[134.2752,34.89513],[134.2665,34.88716],[134.262,34.88526],[134.2611,34.88235],[134.2632,34.87453],[134.2579,34.87096],[134.2578,34.86532],[134.2526,34.85684],[134.2516,34.85123],[134.2601,34.84441],[134.262,34.84096],[134.2605,34.83041],[134.2634,34.8255],[134.2666,34.8244],[134.2845,34.82744],[134.2871,34.82068],[134.2977,34.8124],[134.3036,34.81179],[134.3098,34.80189],[134.3144,34.79991],[134.3148,34.79179],[134.3174,34.78677],[134.3146,34.78063],[134.3191,34.77525],[134.3262,34.77153],[134.3269,34.76895],[134.3172,34.75656],[134.3153,34.74528],[134.3118,34.73832],[134.3193,34.73236],[134.3199,34.71845],[134.3234,34.71718],[134.3317,34.7251],[134.3567,34.70907],[134.34312026067337,34.64160750105436],[134.3285,34.65151],[134.0558,34.53424],[134.0223,34.50753],[134.0147,34.49817],[134.01,34.49973],[133.9981,34.49803],[133.9916,34.50534],[133.9835,34.52171],[133.9792,34.52447],[133.9715,34.52259],[133.9641,34.51157],[133.9663,34.49345],[133.9435,34.47821],[133.9416,34.47311],[133.9489,34.46363],[133.9489,34.44584],[133.8367,34.42021],[133.8298,34.41687],[133.8236,34.42556],[133.8149,34.4224],[133.8112,34.43002],[133.7994,34.43304],[133.7925,34.43229],[133.7854,34.42841],[133.7836,34.42208],[133.7712,34.4173],[133.7609,34.40998],[133.6496,34.4728],[133.5774,34.42388],[133.6026,34.37674],[133.5625,34.31272],[133.5198,34.28481],[133.2851,34.33007],[133.2369,34.31408],[133.2233,34.30591],[133.2153,34.29361],[133.2086,34.29049],[133.2048,34.28586],[133.2014,34.27669],[133.1938,34.27249],[133.18,34.28125],[133.1736,34.2923],[133.1672,34.29546],[133.1537,34.2953],[133.1513,34.28709],[133.1233,34.26955],[133.1123,34.25437],[133.0675,34.25338],[133.0639,34.26259],[133.0572,34.26929],[133.0567,34.2733],[133.0625,34.28325],[133.0461,34.30212],[133.0399,34.31325],[133.0142,34.31486],[133.0021,34.3036],[132.992,34.29737],[132.9655,34.30728],[132.9552,34.30344],[132.9232,34.2245],[132.928,34.21382],[132.9268,34.21003],[132.8745,34.20305],[132.8597,34.20119],[132.8595,34.1911],[132.8701,34.17956],[132.8778,34.14708],[132.7907,34.09977],[132.7297,34.14771],[132.4606,34.00974],[132.4716,33.96833],[132.497,33.95622],[132.4855,33.92575],[132.4473,33.88687],[132.4454,33.88433],[132.4146,33.77217],[132.0822,33.61695],[131.95375267449367,33.554979510562376],[131.8389,33.6679],[131.7877,33.80186],[131.5735,33.83238],[131.3305,33.75455],[131.2123,33.76428],[131.0879,33.89931],[131.071,33.95959],[131.0046,33.96693],[130.9671,33.95125],[130.9314,33.90012],[130.8971,33.89438],[130.8488,33.94042],[130.8362,33.98311],[130.7942,34.03444],[130.48,34.15666],[130.4455,34.18941],[129.8975,35.30194],[133.9121,36.9681],[134.12538632814687,36.31477000257306]]]}}
