{"type":"Feature","properties":{"sourceId":"congo-democratic-republic"},"geometry":{"type":"Polygon","coordinates":[[[27.63903,-12.26973],[27.61911,-12.22125],[27.51251,-12.08834],[27.47449,-11.9379],[27.46307,-11.92547],[27.39945,-11.8691],[27.34359,-11.82947],[27.23397,-11.77616],[27.22776,-11.75281],[27.24095,-11.68387],[27.21245,-11.5574],[27.01675,-11.59238],[26.88217,-11.96141],[26.46057,-11.90296],[25.88791,-11.79342],[25.34546,-11.56614],[25.37292,-11.16628],[24.83871,-11.24576],[24.42123,-11.40061],[24.41849,-11.08677],[24.09164,-10.85354],[24.027217994622532,-10.867443028607108],[24.02695,-10.86235],[23.94994,-10.87488],[23.85087,-10.98397],[23.47667,-10.8994],[23.18981,-11.05581],[22.85787,-11.02375],[22.57316,-10.9895],[22.48085,-11.01004],[22.42404,-11.13407],[22.30944,-11.17583],[22.25525,-11.09058],[22.21787,-10.87167],[22.34585,-10.77227],[22.32662,-10.67174],[22.32681,-10.49512],[22.3638,-10.36965],[22.26054,-10.14649],[22.22312,-9.905592],[22.09047,-9.834281],[21.893,-9.615644],[21.83931,-9.404439],[21.9754,-8.447921],[21.89575,-8.159836],[21.7773,-7.997697],[21.85764,-7.606531],[21.88168,-7.451326],[21.80923,-7.273249],[20.56915,-7.273248],[20.65361,-6.90734],[20.31235,-6.900523],[20.27595,-6.982317],[19.54296,-6.988792],[19.46069,-7.161773],[19.4887,-7.450958],[19.4664,-7.557865],[19.36066,-7.564672],[19.36659,-7.696437],[19.31602,-7.987837],[18.80722,-7.990557],[18.78525,-7.909631],[18.51608,-7.90419],[18.50372,-7.971517],[18.35747,-7.997357],[18.21396,-7.961317],[18.09654,-8.024554],[18.06084,-8.080304],[17.86137,-8.072146],[17.5692,-8.103418],[17.448,-7.82699],[17.32578,-7.695681],[17.31308,-7.619122],[17.1936,-7.426474],[17.12082,-7.346803],[16.98006,-7.067503],[16.92375,-6.908703],[16.72943,-6.386271],[16.74385,-6.14465],[16.64229,-5.997018],[16.5921,-5.863988],[16.48979,-5.833249],[16.16569,-5.84896],[15.6871,-5.851692],[15.30052,-5.855108],[14.95171,-5.855108],[14.69078,-5.868769],[14.27982,-5.853401],[14.24566,-5.868428],[14.18163,-5.834787],[13.99984,-5.82437],[13.58786,-5.863988],[13.51833,-5.858182],[13.45207,-5.863476],[13.42907,-5.856474],[13.21707,-5.850498],[13.1539,-5.874575],[13.1163,-5.896774],[13.09467,-5.865354],[13.07236,-5.864842],[13.04541,-5.857499],[12.84851,-5.904969],[12.77985,-5.965753],[12.63016,-6.001947],[12.43584,-6.061354],[12.31433,-5.96566],[12.13898,-5.946201],[12.11103,-5.886676],[12.20821,-5.777917],[12.28889,-5.747515],[12.5378,-5.746149],[12.53197,-5.257461],[12.53986,-5.136082],[12.46948,-5.097954],[12.56664,-5.049906],[12.61574,-5.026651],[12.63805,-4.956194],[12.67324,-4.96389],[12.72766,-4.956194],[12.81778,-4.844509],[12.93675,-4.738793],[13.03146,-4.716211],[13.05365,-4.683192],[13.058127389148623,-4.6848442443877865],[13.39607,-4.965672],[13.49481,-4.916158],[13.74328,-4.788145],[13.79869,-4.518311],[13.95673,-4.576924],[14.33025,-4.384958],[14.35225,-4.906327],[14.7098,-4.970327],[14.83934,-4.824355],[15.17777,-4.391777],[15.18057,-4.364924],[15.1968,-4.330184],[15.22319,-4.322427],[15.25701,-4.321415],[15.27967,-4.299154],[15.3177,-4.288386],[15.40666,-4.291263],[15.47268,-4.259764],[15.48901,-4.236513],[15.52059,-4.087219],[15.55322,-4.04755],[15.96296,-3.958959],[16.24878,-3.303678],[16.25564,-2.624812],[16.22578,-2.16585],[16.22818,-2.141834],[16.36482,-2.064982],[16.54541,-1.896854],[16.91708,-1.288123],[17.11155,-1.108863],[17.14863,-1.059777],[17.19738,-1.052911],[17.31892,-1.04227],[17.65778,-0.67427],[17.74567,-0.528022],[17.73463,-0.196192],[18.02097,0.373923],[17.85656,0.992497],[17.93209,1.120191],[17.97707,1.321332],[18.02822,1.425673],[18.08624,1.531724],[18.15711,2.215852],[18.4045,2.725298],[18.5511,3.063725],[18.62869,3.128176],[18.66783,3.248838],[18.66508,3.461333],[18.64791789309977,3.484147617252684],[18.60397,3.714551],[18.66406,3.975574],[18.66131,4.104],[18.61427,4.229324],[18.55488,4.30533],[18.56724,4.333745],[18.59264,4.351547],[18.6462,4.347439],[18.73787,4.365924],[18.79795,4.429252],[19.03107,4.748888],[19.21509,4.939094],[19.44524,5.104117],[19.74278,5.099836],[19.91169,4.971929],[20.08026,4.897704],[20.36591,4.696879],[20.45345,4.486414],[20.56847,4.399472],[20.76553,4.401183],[20.97015,4.413506],[21.171,4.294032],[21.23829,4.274518],[21.6864,4.225233],[22.27066,4.104685],[22.46138,4.121293],[22.5618,4.202618],[22.7211,4.468615],[22.74221,4.551784],[22.74204,4.613898],[22.79543,4.72066],[22.84967,4.681139],[22.90718,4.755046],[22.91027,4.80876],[23.08502,4.697564],[23.40191,4.555891],[24.44209,5.00539],[24.72475,4.876622],[25.06755,4.914064],[25.33342,5.014616],[25.40306,5.264324],[26.47384,5.029417],[26.88284,5.019863],[27.10466,5.174264],[27.429549810569263,5.017137135321464],[27.49741,4.907625],[27.77618,4.594222],[28.06595,4.387492],[28.43674,4.243705],[28.73337,4.45869],[29.01764,4.462798],[29.21951,4.324502],[29.38705,4.39913],[29.51271,4.654449],[29.79218,4.543571],[29.7805,4.377906],[30.12382,4.06907],[30.21034,3.92043],[30.53238,3.802595],[30.55057,3.615876],[30.62336,3.594632],[30.66833,3.621016],[30.72945,3.61896],[30.75966,3.633351],[30.77888,3.662817],[30.78781,3.616562],[30.80566,3.587437],[30.84755,3.573731],[30.84602860093997,3.490652795844548],[30.84532,3.485493],[30.87004,3.471956],[30.92068,3.503312],[30.93561,3.456535],[30.91879,3.389878],[30.88428,3.342153],[30.87656,3.313791],[30.85974,3.279858],[30.83639,3.271118],[30.79914,3.136403],[30.79725,3.106663],[30.79253,3.096379],[30.79159,3.068353],[30.77425,3.061582],[30.76489,3.051554],[30.77768,3.022584],[30.85218,2.958813],[30.87193,2.888181],[30.88669,2.86315],[30.88171,2.816686],[30.83622,2.770221],[30.8194,2.749646],[30.82103,2.729413],[30.80867,2.712438],[30.80566,2.70515],[30.80489,2.685945],[30.7461,2.587259],[30.75846,2.504257],[30.74481,2.493624],[30.73902,2.454522],[30.74099,2.448004],[30.74631,2.440372],[30.7512,2.417862],[30.77974,2.435056],[30.79657,2.424508],[30.81948,2.422622],[30.82897,2.423608],[30.84927,2.378029],[30.87038,2.366194],[30.88025,2.339952],[30.91021,2.32949],[30.93698,2.334464],[30.94377,2.344154],[30.95089,2.361906],[30.95046,2.366194],[30.94368,2.368081],[30.94994,2.383689],[30.95209,2.394665],[30.96248,2.393979],[30.98248,2.402898],[31.00479,2.394923],[31.0084,2.396381],[31.01114,2.38669],[31.02582,2.380516],[31.02762,2.375628],[31.0714,2.344069],[31.06788,2.338323],[31.06822,2.333006],[31.07225,2.322028],[31.07586,2.315854],[31.08401,2.308736],[31.08204,2.304962],[31.0774,2.303161],[31.06779,2.303761],[31.07569,2.295443],[31.09715,2.278119],[31.12358,2.263367],[31.13113,2.260623],[31.1344,2.262167],[31.14212,2.278462],[31.16246,2.274345],[31.17259,2.276446],[31.20117,2.286266],[31.20169,2.219027],[31.24769,2.197499],[31.30073,2.155901],[30.49084,1.237926],[30.4771,1.216301],[30.42389,1.200169],[30.3566,1.208064],[30.33047,1.164919],[30.2924,1.179231],[30.23118,1.141196],[30.21721,1.051882],[30.22219,1.020387],[30.21669,0.995929],[30.17659,0.96812],[30.14494,0.89432],[30.11301,0.899812],[30.07164,0.888141],[29.99044,0.852954],[29.97002,0.822402],[29.96075,0.775371],[29.9707,0.742243],[29.9671,0.723019],[29.96744,0.695212],[29.95972,0.681136],[29.95131,0.637881],[29.96761,0.602864],[29.96487,0.576773],[29.97551,0.516866],[29.96246,0.504163],[29.86702,0.388982],[29.81758,0.172348],[29.77243,0.170803],[29.73501,0.127029],[29.73621,0.119476],[29.73372,0.110292],[29.73235,0.102224],[29.73269,0.091066],[29.72849,0.080767],[29.71416,0.075359],[29.71858,0.060554],[29.71579,0.052099],[29.71767,0.049181],[29.71948,0.043023],[29.71879,0.037701],[29.71521,0.034804],[29.72411,-0.003347],[29.72797,-0.041885],[29.72729,-0.082312],[29.67957,-0.454211],[29.66789,-0.497812],[29.65382,-0.540553],[29.65141,-0.568361],[29.66,-0.578489],[29.64523,-0.594967],[29.65244,-0.630156],[29.62051,-0.704824],[29.62171,-0.731086],[29.6248,-0.732974],[29.62395,-0.793737],[29.63579,-0.828237],[29.62515,-0.85364],[29.62549,-0.897752],[29.58687,-0.897924],[29.5788,-0.905304],[29.58687,-0.974474],[29.58447,-0.982713],[29.57726,-1.109378],[29.57056,-1.190386],[29.60094,-1.222651],[29.59167,-1.251312],[29.59288,-1.291986],[29.60369,-1.316527],[29.589331465761646,-1.3769905061378338],[29.55701,-1.378592],[29.50055,-1.42373],[29.35856,-1.50667],[29.33521,-1.543735],[29.26706,-1.62859],[29.25977,-1.648408],[29.25058,-1.662393],[29.24267,-1.667705],[29.24437,-1.696884],[29.24171,-1.700176],[29.12673,-1.857492],[29.11754,-1.93624],[29.14545,-2.103564],[29.08825,-2.266933],[28.99697,-2.285389],[28.90658,-2.363227],[28.8593,-2.417353],[28.86512,-2.449977],[28.88958,-2.47656],[28.8913,-2.488908],[28.88743,-2.503485],[28.87284,-2.50863],[28.86673,-2.514847],[28.86098,-2.524193],[28.86128,-2.531996],[28.8704,-2.541514],[28.87756,-2.551653],[28.891,-2.559692],[28.89542,-2.597977],[28.90263,-2.64642],[28.89413,-2.651907],[28.8949,-2.661081],[28.91722,-2.682602],[28.94365,-2.695119],[28.96726,-2.705322],[28.98408,-2.699492],[29.03316157807754,-2.740807065273359],[29.0253,-2.759309],[29.00035,-2.781333],[29.00018,-2.810637],[29.00449,-2.817476],[29.01047,-2.821669],[29.02175,-2.823569],[29.02779,-2.828209],[29.05955,-2.84405],[29.06376,-2.853363],[29.06787,-2.865029],[29.07398,-2.865632],[29.08786,-2.889256],[29.08686,-2.901253],[29.09506,-2.921578],[29.104,-2.926945],[29.12127,-2.932462],[29.16372,-2.970867],[29.16336,-2.990955],[29.16638,-2.99758],[29.18343,-3.009943],[29.20265,-3.024348],[29.23867,-3.042359],[29.25102,-3.051344],[29.24796,-3.064296],[29.24504,-3.096101],[29.24554,-3.122338],[29.21835,-3.174047],[29.22407,-3.230395],[29.23056,-3.259221],[29.23774,-3.268372],[29.23564,-3.2718],[29.23697,-3.276175],[29.22682,-3.283187],[29.21172,-3.294122],[29.20942,-3.303194],[29.21646,-3.329883],[29.21028,-3.338236],[29.21281,-3.344097],[29.21066,-3.354695],[29.21079,-3.91694],[29.412377056048157,-4.426266329075593],[29.4049,-4.425826],[29.24395,-4.788438],[29.51751,-5.659716],[29.44721,-6.216513],[29.68231,-6.672789],[30.2481,-7.177198],[30.699117561081582,-8.2461077952198],[30.43419,-8.265854],[29.69948,-8.361654],[29.65794,-8.373203],[29.63562,-8.412262],[29.5709,-8.37643],[29.0839,-8.444865],[29.00013,-8.452336],[28.93215,-8.532812],[28.85151,-8.705905],[28.3482,-9.258865],[28.63843,-9.796416],[28.56837,-10.2263],[28.62659,-10.31323],[28.61604,-10.36271],[28.62131,-10.39578],[28.62514,-10.40804],[28.62453,-10.51988],[28.60393,-10.72201],[28.54179,-10.84005],[28.46832,-11.10126],[28.41923,-11.38984],[28.38936,-11.47397],[28.37631,-11.58935],[28.43193,-11.82468],[28.48789,-11.88482],[28.70899,-11.99802],[28.73817,-11.98484],[28.77251,-12.0504],[28.8604,-12.1491],[28.94588,-12.21521],[29.03412,-12.39433],[29.11892,-12.40104],[29.3129,-12.42417],[29.48044,-12.46775],[29.52404,-12.44093],[29.79904,-12.16353],[29.80316,-13.4317],[29.68369,-13.21856],[29.57382,-13.19048],[29.18243,-13.39029],[28.9373,-13.22524],[28.83362,-12.9798],[28.64754,-12.79372],[28.56583,-12.8667],[28.50265,-12.71671],[28.55141,-12.62761],[28.4539,-12.51032],[28.3588,-12.44504],[28.3461,-12.43985],[28.34104,-12.43021],[28.3243,-12.41822],[28.19092,-12.37488],[27.96467,-12.31518],[27.93188,-12.23936],[27.81232,-12.21907],[27.80871,-12.22242],[27.81283,-12.25027],[27.79979,-12.26159],[27.7797,-12.26537],[27.72786,-12.27887],[27.63903,-12.26973]]]}}
