{"type":"Feature","properties":{"sourceId":"croatia"},"geometry":{"type":"Polygon","coordinates":[[[16.33616,42.16483],[16.21414,42.17832],[16.07264,42.21859],[16.01734,42.26613],[15.97795,42.31885],[15.89082,42.72786],[14.97115,42.96964],[13.110417647710607,44.953327668380716],[13.427706442249747,45.53607581507988],[13.56194,45.48926],[13.59352,45.47085],[13.60588,45.46374],[13.64227,45.45616],[13.67575,45.44038],[13.71351,45.45134],[13.77926,45.46338],[13.81445,45.43207],[13.85342,45.42352],[13.88672,45.42303],[13.92019,45.4511],[13.97152,45.44604],[13.98525,45.45387],[14.0019,45.47987],[13.96723,45.50478],[14.0007,45.50611],[14.01186,45.51405],[14.07143,45.48084],[14.20807,45.46615],[14.23759,45.50226],[14.26643,45.47999],[14.2812,45.48721],[14.32222,45.4682],[14.37235,45.48397],[14.43501,45.50743],[14.5047,45.547],[14.51345,45.60191],[14.54246,45.61488],[14.57422,45.66181],[14.5998,45.66145],[14.59379,45.6261],[14.6289,45.60401],[14.64272,45.59861],[14.65138,45.59056],[14.67559,45.58774],[14.68632,45.57944],[14.69516,45.56346],[14.6864,45.55535],[14.68387,45.53694],[14.68559,45.53097],[14.69018,45.5263],[14.70033,45.52522],[14.71404,45.53239],[14.73001,45.52704],[14.76829,45.50472],[14.77979,45.50526],[14.80322,45.47927],[14.80708,45.47638],[14.81755,45.45814],[14.86965,45.46549],[14.90836,45.47488],[14.91815,45.49149],[14.91858,45.50442],[14.91591,45.51687],[14.93171,45.52698],[14.97522,45.49955],[14.98415,45.49612],[15.0287,45.48439],[15.04423,45.48734],[15.05204,45.49263],[15.05917,45.48655],[15.07204,45.48607],[15.08423,45.46627],[15.10182,45.46164],[15.12242,45.4464],[15.13581,45.44387],[15.14766,45.42845],[15.16336,45.42099],[15.17796,45.42081],[15.19152,45.42749],[15.19323,45.43327],[15.20319,45.42412],[15.22036,45.42442],[15.22654,45.42562],[15.24095,45.44652],[15.27357,45.46422],[15.32713,45.45134],[15.3467,45.45447],[15.36009,45.47337],[15.38567,45.48397],[15.38961,45.48794],[15.37176,45.49901],[15.34069,45.50935],[15.30413,45.54026],[15.30207,45.58389],[15.28971,45.59422],[15.28078,45.60395],[15.30945,45.61236],[15.30825,45.63049],[15.34052,45.63193],[15.35631,45.63733],[15.34944,45.64465],[15.36661,45.64237],[15.39013,45.63445],[15.40953,45.64861],[15.39219,45.66889],[15.37451,45.69287],[15.3582,45.71541],[15.34,45.71601],[15.31494,45.69407],[15.31031,45.70126],[15.29451,45.69815],[15.28404,45.71277],[15.27426,45.71181],[15.26327,45.72248],[15.28095,45.7389],[15.39682,45.78345],[15.4636,45.79099],[15.47819,45.79817],[15.47253,45.80966],[15.48712,45.82294],[15.51922,45.81923],[15.56179,45.83382],[15.57518,45.84722],[15.60368,45.83825],[15.64333,45.81851],[15.66719,45.83873],[15.71388,45.84327],[15.70101,45.85858],[15.68693,45.86826],[15.69483,45.88415],[15.68504,45.90303],[15.71457,45.92548],[15.70839,45.99291],[15.73517,46.04488],[15.72281,46.05739],[15.70084,46.06561],[15.66788,46.07692],[15.64728,46.09061],[15.63303,46.08942],[15.63063,46.09883],[15.61432,46.11145],[15.61552,46.13643],[15.609,46.14702],[15.61895,46.1551],[15.61449,46.16485],[15.6332,46.17353],[15.65174,46.1872],[15.64745,46.21061],[15.67766,46.2251],[15.70375,46.22023],[15.7271,46.21548],[15.76263,46.20407],[15.79147,46.2169],[15.80366,46.24184],[15.8016,46.25585],[15.84658,46.26309],[15.86855,46.26855],[15.90374,46.28444],[15.9161,46.28326],[15.93944,46.28658],[15.97893,46.30283],[16.02013,46.30876],[16.02699,46.32334],[16.08416,46.34337],[16.06133,46.39016],[16.0881,46.38661],[16.14492,46.40247],[16.1875,46.37654],[16.30337,46.37453],[16.31092,46.40188],[16.28225,46.41632],[16.26732,46.45761],[16.24844,46.49402],[16.26852,46.50241],[16.27178,46.51233],[16.30474,46.51021],[16.31727,46.51919],[16.33787,46.5258],[16.36585,46.5421],[16.388,46.53312],[16.40705,46.52521],[16.42765,46.52497],[16.44001,46.51269],[16.47795,46.50465],[16.50267,46.49225],[16.51743,46.47724],[16.57288,46.46943],[16.595621282265938,46.471003504599615],[16.65236,46.44839],[16.71295,46.39004],[16.75226,46.37666],[16.80479,46.37121],[16.8544,46.34728],[16.87758,46.28433],[16.89938,46.26487],[16.9356,46.24754],[16.96924,46.22367],[17.03997,46.20467],[17.06486,46.18744],[17.12219,46.16557],[17.15155,46.16759],[17.16734,46.11085],[17.19721,46.07752],[17.2221,46.06525],[17.2506,46.01163],[17.30261,45.97048],[17.32973,45.94041],[17.4365,45.91868],[17.44903,45.94399],[17.52766,45.93109],[17.55976,45.92966],[17.62877,45.89204],[17.64542,45.8392],[17.74412,45.81313],[17.83218,45.78033],[17.86737,45.76165],[17.92265,45.78093],[17.9932,45.78943],[18.03629,45.76692],[18.10221,45.75926],[18.12744,45.77782],[18.16709,45.77327],[18.26923,45.75219],[18.32897,45.74453],[18.44811,45.73207],[18.57651,45.79733],[18.62474,45.8361],[18.69856,45.91032],[18.75709,45.88726],[18.8055,45.87376],[18.820857604228046,45.88098007545926],[18.8261,45.86587],[18.85391,45.85391],[18.85408,45.84315],[18.83469,45.81205],[18.83915,45.77471],[18.90575,45.69611],[18.95107,45.6738],[18.89511,45.61908],[18.87966,45.56406],[18.93871,45.53124],[19.06128,45.5286],[19.08651,45.51862],[19.08514,45.496],[19.0024,45.49889],[18.98901,45.48698],[18.98197,45.45218],[18.98952,45.40616],[18.96515,45.38977],[18.96618,45.3753],[19.02214,45.34225],[19.09671,45.29394],[19.15569,45.26861],[19.25148,45.2396],[19.33147,45.228],[19.41559,45.228],[19.4379,45.19801],[19.41078,45.17647],[19.34418,45.17841],[19.32255,45.21059],[19.27654,45.21228],[19.26762,45.18301],[19.17423,45.20913],[19.15123,45.19414],[19.18728,45.1772],[19.1423,45.13652],[19.0805,45.15202],[19.07227,45.11496],[19.09183,45.05388],[19.09012,45.00462],[19.03965,44.97548],[19.10351,44.9648],[19.06849,44.90525],[19.03006,44.92903],[18.97739,44.90997],[19.01069152739683,44.86022739469792],[18.97098,44.85441],[18.85025,44.86171],[18.78164,44.90501],[18.7686,44.93151],[18.81134,44.932],[18.79967,44.99],[18.79752,44.99522],[18.74027,45.01785],[18.71684,45.03914],[18.67049,45.06376],[18.68491,45.07091],[18.6892,45.07522],[18.68955,45.08243],[18.67607,45.098],[18.63929,45.09201],[18.62818,45.09788],[18.53947,45.0964],[18.52801,45.08979],[18.52857,45.08604],[18.53909,45.06794],[18.50673,45.06018],[18.49287,45.06328],[18.48591,45.06249],[18.47368,45.06582],[18.4627,45.07764],[18.4318,45.10903],[18.41549,45.11291],[18.33069,45.10576],[18.31215,45.11666],[18.28614,45.12054],[18.27782,45.13598],[18.2646,45.14197],[18.24245,45.14222],[18.20177,45.12344],[18.2095,45.09291],[18.11525,45.08546],[18.07629,45.1384],[18.06839,45.14476],[18.05586,45.14536],[18.03552,45.13822],[18.02247,45.15008],[18.00874,45.1539],[17.99767,45.15275],[17.98307,45.14536],[17.97389,45.13446],[17.95956,45.11491],[17.93767,45.11363],[17.92497,45.10648],[17.92737,45.08419],[17.90325,45.06467],[17.86197,45.0466],[17.84454,45.04703],[17.78506,45.08522],[17.73854,45.09958],[17.71597,45.11491],[17.67271,45.13549],[17.65606,45.13683],[17.61263,45.11606],[17.5837,45.11648],[17.54239,45.13394],[17.5294,45.10986],[17.51399,45.10948],[17.50727,45.11477],[17.49118,45.13858],[17.45693,45.1404],[17.45727,45.14694],[17.45496,45.15662],[17.45238,45.16159],[17.43874,45.16189],[17.41427,45.13707],[17.35419,45.14125],[17.33316,45.15226],[17.33368,45.16515],[17.31214,45.1772],[17.27128,45.19238],[17.26021,45.17502],[17.25437,45.15617],[17.24755,45.14863],[17.24257,45.14682],[17.23369,45.14803],[17.22073,45.14694],[17.20416,45.15108],[17.18107,45.14936],[17.1361,45.16836],[17.06743,45.19825],[17.03997,45.22667],[17.02495,45.23694],[16.9519,45.26021],[16.93697,45.27772],[16.92367,45.27803],[16.91637,45.27259],[16.91491,45.26728],[16.9059,45.25507],[16.89199,45.25954],[16.88418,45.26003],[16.83981,45.23471],[16.8296,45.2179],[16.84153,45.19928],[16.83586,45.1896],[16.81269,45.18591],[16.77758,45.19341],[16.75527,45.20381],[16.72714,45.20913],[16.69999,45.20036],[16.64566,45.21077],[16.6212,45.22431],[16.59743,45.23271],[16.56408,45.2244],[16.54914,45.22268],[16.54438,45.22591],[16.53515,45.22809],[16.52679,45.22736],[16.50988,45.22304],[16.48988,45.21131],[16.4831,45.19226],[16.47091,45.18343],[16.47254,45.16994],[16.46421,45.14936],[16.40422,45.12048],[16.39323,45.11345],[16.38388,45.08255],[16.38516,45.07025],[16.37375,45.0526],[16.35381,45.03298],[16.35186,45.00796],[16.30277,45.00404],[16.26766,45.01931],[16.25118,45.0204],[16.08244,45.14161],[16.05042,45.17901],[16.0324,45.20121],[16.01789,45.21893],[15.97824,45.23332],[15.92211,45.23452],[15.84126,45.22872],[15.80091,45.20925],[15.7731,45.18627],[15.758,45.16352],[15.781,45.11666],[15.73774,45.06224],[15.77516,44.97816],[15.73894,44.9699],[15.73311,44.9354],[15.75371,44.8813],[15.7156,44.82179],[15.77602,44.74625],[15.82546,44.70478],[15.90614,44.72442],[16.04502,44.6143],[16.0124,44.589],[16.01377,44.56149],[16.13119,44.47826],[16.12278,44.39491],[16.12965,44.37626],[16.20552,44.3511],[16.18389,44.30653],[16.18681,44.2693],[16.20346,44.22651],[16.16192,44.21642],[16.16844,44.20313],[16.20981,44.20928],[16.25951,44.17577],[16.31676,44.11335],[16.43108,44.02763],[16.74076,43.77109],[16.85715,43.70263],[16.92925,43.63396],[16.961,43.61781],[17.01662,43.5646],[17.12159,43.51619],[17.14992,43.49067],[17.17548,43.48934],[17.22356,43.49733],[17.2772,43.46768],[17.28415,43.46039],[17.27257,43.42787],[17.24699,43.40467],[17.26416,43.36488],[17.29214,43.31956],[17.31488,43.28982],[17.34109,43.25185],[17.42706,43.21737],[17.42449,43.18759],[17.43075,43.17789],[17.4741,43.16124],[17.56087,43.12473],[17.61804,43.0986],[17.63851,43.08851],[17.64799,43.07415],[17.65679,43.05876],[17.66117,43.04731],[17.68378,43.01001],[17.70378,42.97953],[17.58379,42.94185],[17.54757,42.94109],[17.53349,42.92765],[17.6098,42.89691],[17.64241,42.88056],[17.69863,42.91772],[17.89012,42.80856],[18.06976,42.7218],[18.10616,42.6837],[18.13877,42.67701],[18.15508,42.65214],[18.1901,42.65366],[18.22117,42.6183],[18.24778,42.60023],[18.28983,42.61021],[18.34803,42.61312],[18.434639506113292,42.55447583335645],[18.43305,42.55214],[18.43046,42.52067],[18.44162,42.50875],[18.42948,42.48197],[18.46888,42.4626],[18.49293,42.43666],[18.52188,42.41879],[18.53725,42.39234],[18.378782408561825,42.2052557957897],[16.33616,42.16483]]]}}
