{"type":"Feature","properties":{"sourceId":"cuba"},"geometry":{"type":"Polygon","coordinates":[[[-84.03443,23.07974],[-83.44666,23.25145],[-83.02369,23.33722],[-82.34357,23.42718],[-81.64319,23.47253],[-80.65613,23.60427],[-79.84967,23.32886],[-78.99548,23.08652],[-77.99847,22.88171],[-76.38074,21.74084],[-74.74927,21.06063],[-74.07361,20.70136],[-73.86212,20.5317],[-73.70831,20.17634],[-73.77148,20.00609],[-73.95001,19.79432],[-74.30707,19.68833],[-74.91681,19.57192],[-77.78149,19.2533],[-78.0177,19.35957],[-78.56873,20.13332],[-79.1026,20.5034],[-79.61243,20.64307],[-80.30457,21.105],[-83.02369,21.01273],[-85.10663,21.33207],[-85.4242,21.94815],[-84.68262,22.77112],[-84.03443,23.07974]]]}}
