{"type":"Feature","properties":{"sourceId":"centre"},"geometry":{"type":"Polygon","coordinates":[[[0.824767,47.98593],[0.834663,47.99608],[0.835987,48.00439],[0.844124,48.01802],[0.844551,48.03131],[0.837128,48.03703],[0.825708,48.03351],[0.814173,48.03433],[0.809483,48.03933],[0.801417,48.04219],[0.798507,48.0474],[0.801443,48.06616],[0.805519,48.06849],[0.833735,48.06632],[0.844627,48.07053],[0.851241,48.09009],[0.850121,48.0962],[0.845574,48.09791],[0.84405,48.10175],[0.856917,48.12065],[0.857007,48.12918],[0.863899,48.13175],[0.870673,48.12942],[0.877068,48.13209],[0.914404,48.13261],[0.918996,48.13949],[0.914277,48.14349],[0.912797,48.15116],[0.886435,48.16434],[0.869787,48.16575],[0.859798,48.17021],[0.839464,48.16881],[0.824682,48.18171],[0.802987,48.19019],[0.8014551976626015,48.19251418152346],[0.808916,48.19489],[0.811991,48.20245],[0.833005,48.21059],[0.828088,48.22211],[0.809257,48.24049],[0.803179,48.25281],[0.794558,48.26014],[0.791023,48.26998],[0.797562,48.28356],[0.80612,48.28642],[0.810206,48.29116],[0.794477,48.29568],[0.779383,48.30584],[0.770853,48.30661],[0.772241,48.32138],[0.785978,48.33168],[0.789592,48.33839],[0.806813,48.3417],[0.814466,48.34625],[0.828311,48.33991],[0.846641,48.34693],[0.859536,48.34712],[0.87016,48.35353],[0.884182,48.35399],[0.900538,48.36941],[0.910717,48.36842],[0.940845,48.39484],[0.951872,48.39734],[0.947451,48.41371],[0.960721,48.42613],[0.977424,48.43633],[0.979067,48.44135],[0.973942,48.44618],[0.968282,48.44435],[0.957869,48.44652],[0.943239,48.46172],[0.940797,48.47089],[0.942977,48.47442],[0.958446,48.4814],[0.957586,48.49381],[0.95339,48.49965],[0.967502,48.51674],[0.969718,48.52514],[0.934393,48.53591],[0.933119,48.54077],[0.941945,48.54938],[0.928029,48.56174],[0.903665,48.56882],[0.893399,48.57475],[0.870338,48.57562],[0.854504,48.58436],[0.848683,48.61133],[0.822372,48.61377],[0.821582,48.61825],[0.833792,48.6337],[0.826194,48.63875],[0.826886,48.65049],[0.816311,48.66416],[0.8176230239113066,48.671457699136305],[0.828325,48.67942],[0.83385,48.67985],[0.841213,48.67756],[0.849754,48.68069],[0.852847,48.68374],[0.864398,48.68657],[0.864343,48.69363],[0.86959,48.69824],[0.868999,48.7027],[0.873917,48.71244],[0.881784,48.71591],[0.890089,48.71747],[0.899117,48.70931],[0.918018,48.70992],[0.921799,48.70795],[0.936559,48.71241],[0.94781,48.71242],[0.956621,48.71617],[0.962366,48.72459],[0.976917,48.72872],[0.984027,48.72475],[0.990845,48.72434],[0.998144,48.72693],[1.004434,48.72573],[1.016749,48.72704],[1.020573,48.73228],[1.023276,48.7329],[1.028507,48.7277],[1.034311,48.72742],[1.038962,48.7319],[1.036213,48.73536],[1.036629,48.73933],[1.046329,48.74288],[1.049531,48.7485],[1.056705,48.75186],[1.062962,48.75733],[1.066559,48.75577],[1.06999,48.74734],[1.085454,48.75204],[1.095658,48.74745],[1.100697,48.74887],[1.114415,48.74495],[1.116914,48.75224],[1.120677,48.75554],[1.120637,48.76318],[1.122593,48.76497],[1.129083,48.76517],[1.121758,48.77611],[1.120411,48.78381],[1.122664,48.78755],[1.129304,48.78707],[1.135041,48.78403],[1.145108,48.78387],[1.148996,48.77571],[1.157679,48.76822],[1.187154,48.77155],[1.207598,48.76493],[1.223504,48.75668],[1.23377,48.76206],[1.236276,48.76725],[1.243958,48.76843],[1.252698,48.76487],[1.2534,48.75801],[1.256432,48.75687],[1.269751,48.75614],[1.273013,48.76058],[1.287748,48.7629],[1.297285,48.76673],[1.311771,48.76346],[1.31959,48.75948],[1.327841,48.75914],[1.333499,48.76141],[1.341678,48.77063],[1.35357,48.77722],[1.359989,48.77819],[1.36613,48.78169],[1.374932,48.77986],[1.378763,48.78882],[1.378105,48.79252],[1.3595,48.81535],[1.362178,48.83236],[1.380307,48.84202],[1.390217,48.84497],[1.396594,48.85028],[1.399681,48.85546],[1.406202,48.85985],[1.424156,48.85999],[1.431387,48.86515],[1.440599,48.86337],[1.461306,48.87143],[1.466297,48.87672],[1.468194,48.88951],[1.472977,48.89676],[1.463902,48.90287],[1.460528,48.91524],[1.454392,48.91991],[1.454876,48.92432],[1.460686,48.92762],[1.461464,48.93509],[1.463959,48.93681],[1.479428,48.93911],[1.492516,48.93498],[1.499906,48.93792],[1.5014644803223742,48.939884374460384],[1.507186,48.93573],[1.506387,48.92669],[1.514263,48.92068],[1.520183,48.92391],[1.536939,48.92082],[1.540476,48.91348],[1.537064,48.90905],[1.537563,48.90457],[1.559248,48.88831],[1.558561,48.88448],[1.545748,48.87524],[1.544501,48.86949],[1.54913,48.86821],[1.555534,48.86335],[1.559131,48.86258],[1.562997,48.86527],[1.56762,48.86465],[1.578697,48.85913],[1.58032,48.85568],[1.576707,48.84857],[1.576478,48.84394],[1.586424,48.84208],[1.590092,48.83956],[1.588654,48.83474],[1.577654,48.8299],[1.588473,48.81814],[1.586689,48.81407],[1.579278,48.81126],[1.5759,48.80537],[1.576605,48.79515],[1.574152,48.79085],[1.575521,48.78273],[1.583636,48.77256],[1.58032,48.76595],[1.580719,48.76159],[1.606268,48.75855],[1.620399,48.74995],[1.62274,48.74677],[1.619342,48.73846],[1.614878,48.737],[1.600849,48.72302],[1.596177,48.7221],[1.586493,48.71164],[1.584602,48.70668],[1.575395,48.70309],[1.579941,48.7],[1.58151,48.69515],[1.590052,48.69179],[1.59574,48.69231],[1.606952,48.68692],[1.607453,48.68302],[1.603108,48.67567],[1.602928,48.67145],[1.599994,48.66873],[1.60201,48.662],[1.62023,48.6488],[1.63633,48.64655],[1.646629,48.63795],[1.648311,48.63161],[1.654969,48.62804],[1.654232,48.62164],[1.66608,48.61239],[1.67379,48.61245],[1.678253,48.61564],[1.686829,48.60999],[1.693024,48.61246],[1.703182,48.61047],[1.711285,48.61273],[1.714439,48.61195],[1.71589,48.60441],[1.700895,48.58541],[1.707112,48.58108],[1.708578,48.57702],[1.727238,48.57141],[1.731018,48.57335],[1.737336,48.57113],[1.743792,48.57126],[1.747509,48.57413],[1.756441,48.5732],[1.760058,48.57084],[1.76171,48.56399],[1.767587,48.55768],[1.78152,48.54984],[1.782062,48.54441],[1.774133,48.52746],[1.776364,48.51865],[1.774541,48.51457],[1.775081,48.51073],[1.782015,48.49949],[1.786337,48.49685],[1.784251,48.48973],[1.79082,48.48534],[1.791155,48.47746],[1.79902,48.4733],[1.800793,48.46487],[1.82007,48.46427],[1.83154,48.46578],[1.837531,48.45862],[1.838565,48.45171],[1.842644,48.44977],[1.844074,48.44516],[1.856233,48.44496],[1.870468,48.4386],[1.8796,48.43954],[1.903855,48.43731],[1.914251,48.44622],[1.921468,48.44685],[1.925789,48.45065],[1.929802,48.44857],[1.931896,48.44157],[1.935685,48.43817],[1.936164,48.42511],[1.92615,48.41671],[1.924636,48.41272],[1.927461,48.40919],[1.927261,48.40554],[1.932162,48.40219],[1.952412,48.40491],[1.970684,48.40003],[1.971761,48.39025],[1.965337,48.38056],[1.977002,48.37754],[1.978483,48.37279],[1.976513,48.36837],[1.981075,48.36525],[1.980266,48.36122],[1.972002,48.35652],[1.973004,48.3472],[1.967212,48.34148],[1.977739,48.3296],[1.973109,48.3236],[1.973868,48.31865],[1.957824,48.30787],[1.964009,48.29508],[1.970116,48.29279],[1.972062,48.2873],[2.007103,48.28354],[2.020212,48.285],[2.027521,48.28768],[2.041157,48.28346],[2.052486,48.28923],[2.055712,48.29343],[2.089509,48.29348],[2.092233,48.29799],[2.106356,48.30636],[2.110581,48.30388],[2.109973,48.29585],[2.135427,48.29789],[2.164293,48.29721],[2.164909,48.29945],[2.160329,48.30794],[2.160948,48.31059],[2.173123,48.3133],[2.181479,48.31047],[2.185326,48.31715],[2.186394,48.32454],[2.19057,48.3307],[2.206619,48.33991],[2.209212,48.3395],[2.215036,48.33315],[2.223131,48.33419],[2.227561,48.32822],[2.239957,48.32572],[2.240597,48.32287],[2.236873,48.31606],[2.245505,48.31282],[2.243535,48.30137],[2.245017,48.29699],[2.254459,48.29926],[2.26814,48.31141],[2.282482,48.31115],[2.296248,48.30678],[2.300851,48.31012],[2.301952,48.31398],[2.311084,48.32638],[2.321085,48.32978],[2.327537,48.32535],[2.335234,48.32505],[2.341015,48.31513],[2.352183,48.31287],[2.357582,48.30716],[2.364803,48.30938],[2.369458,48.30757],[2.389282,48.31056],[2.402505,48.31443],[2.418417,48.29952],[2.421142,48.29402],[2.421171,48.28854],[2.416362,48.27889],[2.416475,48.27208],[2.422163,48.25981],[2.429981,48.25414],[2.440641,48.25203],[2.445587,48.25284],[2.450606,48.24865],[2.470776,48.25238],[2.475065,48.24953],[2.475196,48.24375],[2.483149,48.23801],[2.503945,48.23705],[2.506145,48.23365],[2.505428,48.22543],[2.512021,48.22268],[2.512883,48.21398],[2.518299,48.20546],[2.517593,48.19609],[2.511849,48.19391],[2.512095,48.18658],[2.505975,48.18016],[2.511463,48.17406],[2.510952,48.17062],[2.513196,48.16653],[2.512056,48.16388],[2.504793,48.15876],[2.482004,48.16529],[2.47734,48.15828],[2.470883,48.15542],[2.470109,48.15115],[2.463981,48.14627],[2.459211,48.13824],[2.443041,48.13225],[2.440921,48.12383],[2.448706,48.12351],[2.45416,48.12122],[2.463322,48.127],[2.468211,48.1261],[2.476544,48.12806],[2.490027,48.12537],[2.513913,48.12537],[2.52129,48.12374],[2.524682,48.12847],[2.537719,48.13883],[2.560079,48.14034],[2.569823,48.13869],[2.575233,48.1301],[2.603191,48.13028],[2.622058,48.13503],[2.63979,48.13712],[2.644174,48.13556],[2.663667,48.11918],[2.666348,48.11921],[2.675343,48.12387],[2.692394,48.12262],[2.696474,48.12394],[2.706018,48.122],[2.722739,48.13615],[2.756282,48.14486],[2.757204,48.14833],[2.754156,48.1562],[2.756445,48.15926],[2.763804,48.16299],[2.771807,48.16047],[2.77968,48.16597],[2.791986,48.16329],[2.797352,48.16575],[2.80225,48.16246],[2.803441,48.15878],[2.797162,48.15241],[2.797624,48.14695],[2.795597,48.14196],[2.799602,48.13131],[2.807917,48.12901],[2.820185,48.12851],[2.824555,48.13173],[2.83707,48.13305],[2.842509,48.1375],[2.854657,48.14238],[2.868225,48.15498],[2.937133,48.16239],[2.9371324706668194,48.16239452106419],[2.950803,48.16331],[2.956263,48.15653],[2.963364,48.15181],[2.981111,48.14836],[2.993458,48.14102],[2.997779,48.13875],[3.005933,48.14361],[3.010433,48.14389],[3.022491,48.13364],[3.023778,48.12947],[3.014739,48.11538],[3.020485,48.11347],[3.032605,48.113],[3.034596,48.11142],[3.037205,48.09797],[3.042404,48.09233],[3.04835,48.08936],[3.04802,48.07744],[3.050351,48.071],[3.060205,48.0634],[3.07942,48.05892],[3.08754,48.05229],[3.093877,48.03935],[3.111526,48.0317],[3.111111,48.0278],[3.100601,48.02453],[3.098385,48.01906],[3.104174,48.01177],[3.109579,48.00971],[3.116378,48.01079],[3.119584,48.00839],[3.119479,47.99603],[3.121238,47.99075],[3.118574,47.9865],[3.12661,47.98025],[3.12685,47.97173],[3.108346,47.96281],[3.098079,47.94985],[3.083803,47.94382],[3.064596,47.93161],[3.061461,47.92758],[3.05024,47.92525],[3.047686,47.91206],[3.041119,47.91003],[3.035767,47.91293],[3.017658,47.90927],[3.008128,47.90596],[3.0063,47.89599],[3.005797,47.88363],[3.009606,47.88088],[3.0095,47.87614],[3.004173,47.8714],[2.994577,47.86871],[2.993478,47.86701],[3.010564,47.86094],[3.021623,47.85907],[3.029676,47.85019],[3.030401,47.84219],[3.028251,47.83754],[3.011003,47.83443],[3.012945,47.82209],[3.015749,47.81771],[3.013744,47.81315],[3.021266,47.81115],[3.025946,47.80269],[3.025796,47.79672],[3.022519,47.7885],[2.987536,47.7873],[2.976572,47.78117],[2.962221,47.77677],[2.95399,47.77638],[2.947577,47.76731],[2.937057,47.76749],[2.923425,47.76573],[2.915419,47.7705],[2.909631,47.77052],[2.870543,47.76626],[2.861521,47.76263],[2.855925,47.76297],[2.85072,47.75821],[2.855655,47.75174],[2.856473,47.74758],[2.852725,47.73745],[2.848387,47.73298],[2.847713,47.71603],[2.853885,47.71434],[2.860835,47.70901],[2.87529,47.71727],[2.879092,47.71684],[2.882339,47.71155],[2.877776,47.70321],[2.901082,47.69503],[2.907334,47.6898],[2.921487,47.6801],[2.916927,47.66969],[2.925333,47.65845],[2.928872,47.6565],[2.937895,47.65627],[2.947326,47.64907],[2.947291,47.64462],[2.935625,47.6377],[2.930865,47.6275],[2.933092,47.62027],[2.94114,47.60864],[2.940778,47.6059],[2.935045,47.59912],[2.94264,47.59211],[2.949957,47.58738],[2.95715,47.58733],[2.961526,47.58211],[2.961199,47.57625],[2.96672,47.56986],[2.965867,47.56693],[2.957363,47.55951],[2.914001,47.56723],[2.906656,47.55962],[2.898427,47.55608],[2.89087,47.5543],[2.873925,47.55451],[2.871941,47.54953],[2.868419,47.54773],[2.863523,47.5492],[2.85949,47.55544],[2.843279,47.54474],[2.845727,47.53809],[2.849372,47.53417],[2.857581,47.53022],[2.889639,47.50559],[2.897618,47.4811],[2.913612,47.46968],[2.930012,47.43945],[2.928905,47.43249],[2.918883,47.42237],[2.91792,47.40647],[2.90518,47.39522],[2.889334,47.36597],[2.870445,47.34698],[2.868489,47.33778],[2.871234,47.33479],[2.875211,47.3219],[2.885595,47.3145],[2.904831,47.3107],[2.912471,47.30726],[2.926707,47.29686],[2.937949,47.28594],[2.972306,47.26743],[2.977667,47.26133],[2.980664,47.25387],[2.979324,47.24322],[2.97606,47.2356],[2.977288,47.22956],[2.981812,47.21947],[2.995274,47.20381],[3.00496,47.1857],[3.01204,47.17036],[3.014907,47.15945],[3.018537,47.15446],[3.015205,47.14529],[3.015423,47.14075],[3.027531,47.12748],[3.02913,47.12242],[3.030535,47.09326],[3.018954,47.07664],[3.018457,47.06678],[3.021661,47.0625],[3.028949,47.05776],[3.041652,47.05615],[3.044623,47.05195],[3.054386,47.04651],[3.061709,47.04422],[3.06763,47.04574],[3.074264,47.0343],[3.072986,47.02706],[3.074031,47.01804],[3.072002,47.01195],[3.06482,47.00316],[3.060443,46.97999],[3.069485,46.96456],[3.07606,46.95979],[3.076568,46.95402],[3.062987,46.93718],[3.062384,46.93064],[3.054741,46.92148],[3.048618,46.90982],[3.049887,46.90485],[3.059781,46.89643],[3.065169,46.88199],[3.063976,46.86526],[3.067914,46.85152],[3.05754,46.84429],[3.054318,46.84085],[3.05362,46.83725],[3.057596,46.83034],[3.057087,46.8259],[3.044183,46.81678],[3.032371,46.80242],[3.0313112468517303,46.797111166939324],[3.025883,46.79754],[3.017316,46.80248],[2.993953,46.79975],[2.984013,46.80514],[2.967744,46.80668],[2.958586,46.80637],[2.94746,46.7947],[2.930978,46.79827],[2.911644,46.79305],[2.906067,46.7891],[2.905082,46.78101],[2.874938,46.77062],[2.872973,46.76203],[2.859506,46.75636],[2.842886,46.74445],[2.838697,46.73131],[2.826647,46.73801],[2.792918,46.73706],[2.779683,46.72463],[2.77001,46.72558],[2.761873,46.72319],[2.747294,46.73048],[2.742054,46.74291],[2.73411,46.74968],[2.728488,46.7515],[2.721901,46.74644],[2.713654,46.74727],[2.703037,46.74085],[2.69697,46.72664],[2.682855,46.72357],[2.681232,46.71672],[2.670181,46.71054],[2.666577,46.70391],[2.654492,46.69939],[2.647449,46.69303],[2.635304,46.69424],[2.621689,46.69155],[2.617306,46.67979],[2.627221,46.66821],[2.623724,46.66126],[2.61199,46.6644],[2.606485,46.6739],[2.597805,46.66914],[2.5691,46.6611],[2.564229,46.65391],[2.565318,46.6508],[2.589539,46.64455],[2.592984,46.63812],[2.589695,46.63203],[2.582392,46.62743],[2.581819,46.61751],[2.56828,46.61181],[2.566202,46.6083],[2.574963,46.60324],[2.580177,46.59122],[2.592864,46.59137],[2.598646,46.58842],[2.599244,46.58088],[2.604705,46.57172],[2.600441,46.56492],[2.606432,46.5566],[2.604008,46.55221],[2.582691,46.5451],[2.570198,46.53693],[2.537183,46.52408],[2.53329,46.5261],[2.531917,46.53185],[2.519957,46.53351],[2.5111,46.53035],[2.507841,46.52577],[2.501603,46.52507],[2.49603,46.53603],[2.481936,46.53495],[2.469671,46.52913],[2.446776,46.52335],[2.440823,46.52762],[2.429137,46.52895],[2.42104,46.52802],[2.412126,46.5229],[2.36443,46.52045],[2.332931,46.50323],[2.322173,46.49173],[2.326154,46.48032],[2.321449,46.47277],[2.316728,46.47206],[2.30565,46.47793],[2.298892,46.47382],[2.281263,46.45096],[2.280743,46.43686],[2.274475,46.42538],[2.2744978818608064,46.4249555700195],[2.250087,46.42886],[2.233834,46.42557],[2.212538,46.42653],[2.197311,46.43088],[2.183198,46.42569],[2.146291,46.42715],[2.129082,46.42253],[2.115167,46.42469],[2.10205,46.41313],[2.092788,46.41206],[2.081913,46.41488],[2.073633,46.42273],[2.046161,46.42383],[2.019689,46.43232],[1.996185,46.43338],[1.978893,46.44413],[1.929209,46.43482],[1.922683,46.44201],[1.91017,46.44609],[1.901989,46.44119],[1.883921,46.44326],[1.878544,46.4353],[1.855544,46.43648],[1.83943,46.43036],[1.826439,46.43171],[1.822491,46.43347],[1.819481,46.44141],[1.806675,46.44798],[1.799689,46.45686],[1.784315,46.45781],[1.745918,46.45196],[1.75623,46.42676],[1.746525,46.41429],[1.745839,46.4073],[1.724448,46.39346],[1.71074,46.3956],[1.700273,46.40871],[1.683843,46.42058],[1.661882,46.40818],[1.65227,46.39654],[1.639543,46.38857],[1.631478,46.39201],[1.6188,46.40283],[1.618328,46.40591],[1.625679,46.41757],[1.622275,46.42339],[1.616073,46.42547],[1.597988,46.42187],[1.591879,46.41112],[1.577935,46.4129],[1.552209,46.39819],[1.54894,46.40096],[1.546228,46.42034],[1.535465,46.4287],[1.523375,46.42938],[1.509134,46.42216],[1.506637,46.41441],[1.497696,46.40734],[1.494786,46.40111],[1.476607,46.39601],[1.462487,46.37963],[1.444308,46.3768],[1.439006,46.36901],[1.432511,46.36606],[1.431888,46.35803],[1.416204,46.35195],[1.413469,46.35339],[1.410666,46.36331],[1.397317,46.37425],[1.385837,46.37731],[1.36343,46.39863],[1.355889,46.40276],[1.342611,46.40364],[1.328927,46.39906],[1.313327,46.39765],[1.310335,46.39276],[1.311155,46.38699],[1.301581,46.37601],[1.285071,46.37631],[1.25965,46.38139],[1.249577,46.37918],[1.235324,46.36944],[1.217247,46.37235],[1.215653,46.37675],[1.217932,46.38695],[1.210981,46.39202],[1.186746,46.38061],[1.181212435909944,46.38449112695721],[1.198171,46.39911],[1.197356,46.40949],[1.214991,46.43109],[1.213953,46.43549],[1.20398,46.43718],[1.191938,46.43225],[1.187314,46.44337],[1.152626,46.45244],[1.146051,46.4655],[1.157775,46.46709],[1.16002,46.4703],[1.144483,46.48492],[1.140691,46.49191],[1.150451,46.50038],[1.15073,46.50364],[1.108539,46.53434],[1.092288,46.5402],[1.078444,46.53863],[1.065814,46.54219],[1.048914,46.53904],[1.026383,46.5395],[1.02414,46.54299],[1.026638,46.55156],[1.020862,46.56578],[1.016217,46.56976],[0.992191,46.5685],[0.982173,46.57609],[0.96426,46.57568],[0.958407,46.58035],[0.941672,46.58472],[0.938903,46.5967],[0.922687,46.59753],[0.914561,46.60331],[0.909056,46.62119],[0.898421,46.62893],[0.902294,46.63676],[0.91232,46.64642],[0.920046,46.64996],[0.912087,46.66388],[0.914553,46.67216],[0.913129,46.68147],[0.917961,46.68728],[0.930393,46.69272],[0.92736,46.70113],[0.916834,46.71291],[0.915336,46.72687],[0.905221,46.73317],[0.902771,46.73856],[0.883757,46.74121],[0.871981,46.74791],[0.860566,46.76217],[0.848546,46.76395],[0.832778,46.77736],[0.829558,46.78888],[0.81692,46.79163],[0.815148,46.79719],[0.819431,46.80431],[0.813051,46.81116],[0.811545,46.82887],[0.805869,46.83398],[0.795972,46.83554],[0.792474,46.83891],[0.793323,46.84312],[0.798688,46.84572],[0.797584,46.85208],[0.789236,46.85515],[0.775709,46.85455],[0.773242,46.85799],[0.774705,46.86352],[0.770043,46.86787],[0.754568,46.86448],[0.747487,46.87238],[0.735241,46.87859],[0.727844,46.88903],[0.708232,46.90375],[0.706751,46.90979],[0.711442,46.91727],[0.706274,46.92791],[0.708514,46.93838],[0.698569,46.9585],[0.698138,46.96829],[0.694426,46.97596],[0.67996,46.98002],[0.663545,46.98074],[0.657996,46.98757],[0.649091,46.99078],[0.634054,46.98954],[0.625808,46.99638],[0.626099,47.00496],[0.618233,47.01061],[0.575949,47.00743],[0.567502,47.00887],[0.56451,47.00112],[0.570895,46.9933],[0.572074,46.98167],[0.579339,46.97663],[0.597276,46.97201],[0.598876,46.96441],[0.596932,46.96057],[0.566597,46.9582],[0.542861,46.96287],[0.528867,46.95907],[0.521039,46.96099],[0.514004,46.95902],[0.504887,46.96249],[0.443777,46.9436],[0.436792,46.93377],[0.418423,46.94025],[0.404335,46.93968],[0.366459,46.9523],[0.358483,46.94993],[0.346802,46.93966],[0.322382,46.93471],[0.311426,46.94348],[0.30731,46.95754],[0.310836,46.96432],[0.304918,46.96963],[0.310726,46.97763],[0.307673,46.99007],[0.315015,46.99837],[0.30897,47.00424],[0.306117,47.01712],[0.312642,47.02546],[0.309127,47.03805],[0.311869,47.04473],[0.307029,47.05441],[0.297771,47.05644],[0.280245,47.04931],[0.270849,47.04946],[0.267065,47.05813],[0.269716,47.06925],[0.245207,47.07398],[0.234859,47.07174],[0.225672,47.06335],[0.210779,47.05696],[0.193459,47.06763],[0.181454,47.06355],[0.177498,47.0679],[0.178524,47.07161],[0.194554,47.08193],[0.203561,47.09143],[0.19074,47.10248],[0.183949,47.11662],[0.172504,47.11448],[0.158313,47.10549],[0.137978,47.11055],[0.13735,47.11369],[0.143021,47.12378],[0.141503,47.1271],[0.130113,47.12364],[0.124303,47.13059],[0.111782,47.13275],[0.106073,47.13087],[0.098779,47.12373],[0.083728,47.12421],[0.081774,47.12751],[0.084545,47.13559],[0.080776,47.14767],[0.068616,47.14833],[0.05682122666289924,47.163452881778156],[0.060872,47.16761],[0.065515,47.17503],[0.068989,47.1897],[0.059865,47.19608],[0.059216,47.20044],[0.06958,47.21109],[0.08146,47.21599],[0.07642,47.22473],[0.073963,47.24346],[0.078722,47.24985],[0.079416,47.26106],[0.084736,47.27063],[0.090878,47.2744],[0.089805,47.29254],[0.096261,47.30031],[0.101158,47.30166],[0.103996,47.30826],[0.113942,47.31452],[0.122417,47.32866],[0.139427,47.33397],[0.148544,47.34347],[0.150431,47.34722],[0.149047,47.35886],[0.185647,47.38001],[0.183941,47.38488],[0.173247,47.38944],[0.168633,47.40216],[0.17485,47.41069],[0.182706,47.41461],[0.18763,47.42339],[0.18534,47.45287],[0.19328,47.46134],[0.204357,47.48372],[0.222415,47.50124],[0.222302,47.50984],[0.227937,47.52771],[0.217366,47.5318],[0.211603,47.5295],[0.202611,47.541],[0.211095,47.55643],[0.211231,47.5623],[0.216549,47.56885],[0.236695,47.57722],[0.23589,47.60665],[0.258002,47.60936],[0.264766,47.60548],[0.26691,47.60028],[0.275989,47.59546],[0.32062,47.59205],[0.3347,47.58378],[0.338019,47.57724],[0.379576,47.56612],[0.404888,47.57853],[0.399802,47.58708],[0.398953,47.59511],[0.39234,47.59992],[0.385705,47.61126],[0.374725,47.61536],[0.368713,47.62185],[0.36971,47.62598],[0.384138,47.63833],[0.395261,47.63743],[0.40519,47.63075],[0.40808,47.62465],[0.424214,47.61534],[0.449774,47.61697],[0.459417,47.62796],[0.458494,47.63652],[0.470318,47.64338],[0.478683,47.64084],[0.500298,47.64262],[0.516239,47.65173],[0.523113,47.65065],[0.551364,47.65639],[0.563009,47.66634],[0.587947,47.66685],[0.616138,47.68091],[0.621982,47.69061],[0.620998,47.69512],[0.613235,47.69673],[0.602747,47.68961],[0.598236,47.69081],[0.595478,47.69554],[0.596387,47.70224],[0.587699,47.71065],[0.587634,47.71483],[0.596372,47.72098],[0.610903,47.72365],[0.622467,47.73774],[0.622671,47.74474],[0.627022,47.74877],[0.647543,47.75092],[0.677113,47.76659],[0.692047,47.76127],[0.704508,47.76528],[0.705481,47.77125],[0.696877,47.7797],[0.696857,47.78394],[0.70134,47.7868],[0.713326,47.78513],[0.733225,47.80465],[0.742976,47.80983],[0.742978,47.81691],[0.748622,47.82447],[0.761842,47.83087],[0.769301,47.82915],[0.777081,47.83875],[0.776114,47.85245],[0.765542,47.86001],[0.76701,47.86748],[0.760385,47.88676],[0.762202,47.89534],[0.77851,47.90599],[0.787775,47.90806],[0.791156,47.90564],[0.792968,47.8979],[0.81278,47.88619],[0.820182,47.89256],[0.816285,47.90613],[0.819137,47.91319],[0.815493,47.91884],[0.816507,47.93046],[0.85088,47.93994],[0.851775,47.94789],[0.83967,47.96979],[0.829789,47.97569],[0.824767,47.98593]]]}}
