{"type":"Feature","properties":{"sourceId":"colombia"},"geometry":{"type":"Polygon","coordinates":[[[-67.11563,1.1441],[-67.17585,1.305433],[-67.1241,1.432327],[-67.1961,1.80126],[-67.36046,1.919871],[-67.40767,2.164712],[-67.53231,2.016553],[-67.78215,1.947116],[-67.88734,1.778627],[-68.18079,1.933279],[-68.21759,1.863646],[-68.14461,1.780784],[-68.15271,1.695164],[-69.38657,1.690358],[-69.53611,1.72493],[-69.79468,1.654998],[-69.79348,1.138074],[-69.31316,1.12473],[-69.22242,1.085204],[-69.10274,0.884639],[-69.12376,0.734671],[-69.07913,0.643407],[-69.11396,0.597678],[-69.28011,0.564087],[-69.3781,0.587276],[-69.4781,0.683094],[-69.59545,0.577961],[-69.66771,0.614185],[-69.79355,0.535911],[-70.00681,0.50237],[-69.99575,-0.168908],[-69.89308,-0.290072],[-69.57704,-0.481104],[-69.52464,-0.634573],[-69.56764,-0.744881],[-69.38684,-0.979942],[-69.35887,-1.130135],[-69.36143,-1.37366],[-69.92107,-4.256799],[-69.97372,-4.25732],[-70.32734,-3.848408],[-70.52778,-3.91615],[-70.74773,-3.807178],[-70.11025,-2.765576],[-70.24676,-2.671068],[-70.26883,-2.599969],[-70.36015,-2.608288],[-70.48742,-2.511983],[-70.64527,-2.509032],[-70.7158,-2.378589],[-70.8866,-2.274179],[-70.99168,-2.343805],[-71.09255,-2.323723],[-71.16611,-2.416983],[-71.39777,-2.446666],[-71.44455,-2.364635],[-71.51627,-2.384875],[-71.56493,-2.282545],[-71.76743,-2.227654],[-71.89839,-2.408254],[-72.04473,-2.390486],[-72.15181,-2.515926],[-72.20918,-2.484678],[-72.38061,-2.525948],[-72.60984,-2.418469],[-72.6755,-2.488927],[-72.78473,-2.44768],[-72.94984,-2.488746],[-72.99482,-2.399317],[-73.14122,-2.355974],[-73.19312,-2.266266],[-73.20431,-2.176102],[-73.14258,-2.099172],[-73.1897,-1.838197],[-73.32422,-1.862905],[-73.56064,-1.730462],[-73.52492,-1.539204],[-73.61118,-1.446961],[-73.66058,-1.303028],[-73.86455,-1.269477],[-74.05974,-1.092653],[-74.2988,-1.00479],[-74.4235,-0.60029],[-74.59968,-0.42635],[-74.75561,-0.368764],[-74.80471,-0.246448],[-74.93524,-0.261645],[-75.17878,-0.088644],[-75.2680319372296,-0.1474148257308498],[-75.25021,-0.13077],[-75.2525,-0.108295],[-75.27259,-0.114984],[-75.35215,-0.082269],[-75.42386,-0.077432],[-75.52763,-0.009184],[-75.57467,0.021178],[-75.63091,0.056787],[-75.84278,0.134792],[-75.88716,0.151496],[-75.94209,0.211096],[-75.95158,0.244749],[-75.97447,0.250287],[-75.99789,0.304642],[-76.06532,0.345635],[-76.12667,0.378945],[-76.15674,0.398508],[-76.18199,0.381812],[-76.219,0.391773],[-76.22902,0.41258],[-76.25024,0.429145],[-76.27165,0.445808],[-76.29796,0.431627],[-76.32066,0.441527],[-76.36969,0.404307],[-76.41858,0.38654],[-76.42073,0.263791],[-76.50336,0.246675],[-76.53533,0.267681],[-76.58864,0.236168],[-76.62086,0.270722],[-76.71248,0.282826],[-76.73117,0.29846],[-76.7763,0.267931],[-76.80016,0.274022],[-76.84558,0.249483],[-76.90456,0.255679],[-76.93191,0.286672],[-76.98091,0.277873],[-76.99726,0.305284],[-77.02837,0.290996],[-77.07122,0.295342],[-77.10602,0.379175],[-77.16439,0.399388],[-77.21722,0.373645],[-77.28586,0.374235],[-77.32376,0.398371],[-77.38751,0.404723],[-77.42198,0.431644],[-77.50969,0.418516],[-77.51126,0.519995],[-77.46899,0.608049],[-77.47039,0.660103],[-77.49456,0.671445],[-77.5586,0.660052],[-77.65463,0.715768],[-77.68237,0.749311],[-77.65223,0.785573],[-77.65515,0.820788],[-77.68862,0.848027],[-77.7125,0.860852],[-77.74608,0.845123],[-77.77654,0.851002],[-77.82792,0.81599],[-77.86012,0.812209],[-77.95525,0.833865],[-77.98484,0.865847],[-78.08393,0.907497],[-78.10671,0.940874],[-78.1534,0.935222],[-78.18474,0.951312],[-78.19372,1.003045],[-78.26718,1.058601],[-78.24296,1.074651],[-78.24112,1.102391],[-78.27749,1.132298],[-78.30463,1.199181],[-78.32718,1.205562],[-78.39605,1.164666],[-78.41635,1.17025],[-78.43287,1.202733],[-78.45853,1.189656],[-78.50191,1.207183],[-78.53998,1.253655],[-78.61406,1.257269],[-78.65461,1.327612],[-78.87051,1.481616],[-79.05245,1.507978],[-79.33456569897236,1.533939766198806],[-83.23104,3.935162],[-82.72221,4.231208],[-81.76445,4.30503],[-78.0884,7.039141],[-78.07348953146798,7.068968917257353],[-78.06476,7.069657],[-77.99169,7.062519],[-77.883,7.217441],[-77.81199,7.437993],[-77.75727,7.44108],[-77.68524,7.498363],[-77.71408,7.666233],[-77.57836,7.488933],[-77.48306,7.553615],[-77.32735,7.756293],[-77.30148,7.866126],[-77.10767,7.926607],[-77.38116,8.46813],[-77.43473,8.514803],[-77.35418,8.637726],[-77.24075,8.98275],[-77.08126,9.489029],[-77.13192880752742,9.508511823970998],[-76.85253,10.28158],[-77.54183,10.4347],[-77.5663,10.65774],[-81.71679,11.36213],[-82.65565,11.57068],[-81.84656,14.50152],[-79.53972,16.41924],[-78.49407,16.30701],[-75.03364,11.67138],[-72.06026,13.08163],[-71.15659964927958,12.573737466814913],[-71.17451,12.53258],[-71.07389,12.27182],[-70.96412,12.14123],[-70.96486,11.98333],[-71.97571,11.65124],[-72.22982,11.18804],[-72.51291,11.11179],[-72.89841,10.45],[-72.9451,10.10881],[-73.02694,9.927733],[-72.99324,9.831228],[-73.38098,9.217018],[-73.36217,9.149235],[-73.24725,9.13003],[-73.02636,9.238061],[-72.96103,9.065902],[-72.83833,9.11803],[-72.77069,9.072603],[-72.65911,8.613271],[-72.4296,8.38178],[-72.42737,8.380506],[-72.42119,8.38178],[-72.41449,8.377194],[-72.4181,8.368024],[-72.41544,8.362589],[-72.41005,8.363735],[-72.4084,8.3652],[-72.40709,8.366898],[-72.4049,8.365115],[-72.40379,8.364712],[-72.40499,8.363141],[-72.39214,8.163936],[-72.36763,8.051752],[-72.41905,8.037869],[-72.492,7.943449],[-72.48745,7.930375],[-72.47767,7.922894],[-72.4641,7.914223],[-72.45827,7.881067],[-72.44728,7.85709],[-72.45346,7.828351],[-72.47249,7.796056],[-72.50295,7.47885],[-72.45356,7.378966],[-72.20874,7.345553],[-72.19536,7.230036],[-72.05349,7.010468],[-71.15239,6.997029],[-71.0237,6.94677],[-70.70541,7.063635],[-70.57132,7.040376],[-70.32679,6.906775],[-70.14409,6.946636],[-69.4294,6.079513],[-69.35253,6.103026],[-69.23178,6.051659],[-69.05725,6.186439],[-68.65648,6.100485],[-68.46058,6.154544],[-68.30206,6.134079],[-68.02867,6.167715],[-67.81731,6.288563],[-67.5048,6.191988],[-67.5199,6.115699],[-67.44872,6.004697],[-67.62782,5.828172],[-67.65176,5.500435],[-67.87961,5.297924],[-67.84605,5.041073],[-67.88457,4.527232],[-67.80946,4.404068],[-67.82594,4.228924],[-67.66406,3.781352],[-67.60641,3.724346],[-67.34661,3.386727],[-67.41698,3.280299],[-67.87793,2.894153],[-67.89014,2.779356],[-67.62981,2.775452],[-67.58761,2.642661],[-67.50638,2.633279],[-67.22685,2.349938],[-67.2466,2.23909],[-67.13742,2.096418],[-67.14966,1.967485],[-66.8853,1.354573],[-66.90903,1.282752],[-66.87003565306559,1.2095227232779528],[-67.11563,1.1441]]]}}
