{"type":"Feature","properties":{"sourceId":"central-fed-district"},"geometry":{"type":"Polygon","coordinates":[[[31.02717,55.79559],[31.38226,55.77573],[31.31302,55.94746],[31.44484,56.05578],[31.4274,56.26712],[31.21635,56.30532],[31.1744,56.3939],[30.96972,56.45285],[31.00833,56.60721],[30.87074,56.61222],[30.70329,56.75361],[30.69976,56.80453],[30.83468,56.85429],[30.98942,57.02046],[31.39938,56.95495],[31.60934,57.02768],[31.74684,57.14956],[31.93279,57.13626],[32.19087,57.22745],[32.25023,57.29775],[32.35456,57.26789],[32.7814,57.50357],[33.19063,57.48839],[33.28096,57.67498],[33.50909,57.76474],[33.51722,57.87189],[33.63629,57.9169],[33.49213,58.06468],[33.56599,58.15196],[33.69621,58.20612],[33.82704,58.18141],[33.99496,58.25034],[34.17836,58.25005],[34.67812,58.1176],[34.6769,58.23617],[34.79444,58.28278],[35.10213,58.25323],[35.21705,58.29779],[35.21589,58.40257],[35.30411,58.44789],[35.64605,58.49705],[35.85933,58.4584],[36.0889,58.5403],[36.47492,58.56397],[36.64294,58.73229],[36.74638,58.75392],[36.74418,58.83083],[36.85317,58.87408],[37.08063,58.89964],[37.19276,58.86277],[37.43014,58.61988],[37.63468,58.52963],[37.68887,58.6545],[37.87882,58.64994],[38.04883,58.76485],[38.4831,58.74317],[38.54664,58.80813],[38.65334,58.79478],[38.6958,58.83817],[38.87783,58.77423],[38.94244,58.85145],[38.89185,58.88415],[38.92456,58.97147],[39.12757,58.98777],[39.4865,58.9211],[39.61453,58.94009],[39.81211,58.86918],[39.89076,58.79151],[40.03719,58.77385],[40.20549,58.59016],[40.44114,58.5797],[40.67725,58.63151],[40.96273,58.62143],[41.13013,58.69307],[41.16673,58.74187],[41.12054,58.80965],[41.16727,58.85814],[41.13722,58.94522],[41.24605,59.02253],[41.3604,59.00826],[41.72761,59.14801],[42.00313,59.14664],[42.04715,59.20916],[41.85683,59.29122],[42.02744,59.46576],[42.23191,59.44233],[42.24439,59.34567],[42.30405,59.3115],[42.49983,59.37435],[42.64727,59.36383],[42.80426,59.21657],[43.02427,59.24508],[43.14119,59.32937],[43.30426,59.27392],[43.50895,59.34254],[43.5813,59.24909],[43.76662,59.30613],[43.96861,59.24782],[44.18006,59.27266],[44.3537,59.18075],[44.99089,59.1631],[45.04369,59.23333],[45.34661,59.25372],[45.94067,59.2157],[46.00675,59.35853],[46.33801,59.39441],[46.39563,59.6533],[47.13637,59.63105],[47.11059,59.41152],[47.27418,59.37792],[47.27537,59.21404],[47.50387,59.18579],[47.50582,59.11334],[47.5812,59.07948],[47.67023,58.89737],[47.49244,58.85841],[47.31951,58.88667],[47.36068,58.82451],[47.34047,58.76788],[47.11008,58.72565],[47.04279,58.67006],[47.03695,58.58663],[46.65339,58.53404],[46.60558,58.37334],[46.47519,58.35664],[46.36026,58.02833],[45.84282,58.00955],[45.72848,57.90901],[45.6191,57.88183],[45.52027,57.91275],[45.4586,57.99039],[45.28148,57.99683],[45.17468,58.05124],[44.89349,58.04074],[44.85933,57.9528],[44.90334,57.83408],[44.75846,57.66506],[44.60017,57.65985],[44.38621,57.49645],[43.92279,57.3835],[43.7388,57.41926],[43.47961,57.5438],[43.3474,57.45696],[43.35657,57.39755],[43.13266,57.17529],[43.33258,56.80168],[43.28632,56.76444],[43.16532,56.82169],[42.88723,56.767],[42.8616,56.68133],[42.96312,56.64255],[42.92884,56.45159],[42.7116,56.42203],[42.83095,56.31457],[42.81245,56.24369],[42.93505,56.23903],[43.00563,56.18951],[42.9978,56.12485],[42.74322,56.06503],[42.74218,55.94073],[42.54476,55.8982],[42.41518,55.75824],[42.23459,55.68895],[42.12191,55.57698],[42.1994,55.42679],[42.05993,55.36657],[41.89677,55.13704],[41.84106,55.11939],[42.0099,55.13356],[42.06764,55.01672],[42.50454,55.04108],[42.53039,54.90139],[42.48533,54.82538],[42.53405,54.73147],[42.66317,54.70454],[42.66812,54.62668],[42.72798,54.58371],[42.6223,54.45289],[42.65475,54.34911],[42.54423,54.33137],[42.49204,54.26075],[42.68458,54.19058],[42.72177,54.11154],[42.59393,54.11589],[42.59715,54.06007],[42.53619,54.03746],[42.38914,54.05512],[42.47084,54.02118],[42.47946,53.92976],[42.36904,53.82129],[42.19096,53.77779],[42.16199,53.60109],[42.35013,53.45075],[42.32417,53.39343],[42.43154,53.36951],[42.6039,53.16539],[42.97677,52.96259],[43.149,52.82565],[43.28473,52.64348],[43.1294,52.53762],[43.15841,52.51123],[43.09409,52.45869],[43.09487,52.36218],[42.97086,52.30729],[42.91286,52.18364],[42.81108,52.151],[42.84355,51.99997],[42.76857,51.97736],[42.69527,51.78277],[42.54443,51.66793],[42.59329,51.57713],[42.76736,51.52495],[42.88644,51.42231],[42.88948,51.34506],[42.98258,51.25589],[42.925801134579636,51.221928862252796],[42.8537,51.25262],[42.75246,51.2446],[42.71042,51.2554],[42.6756,51.24523],[42.64135,51.22335],[42.59084,51.16079],[42.55142,51.1527],[42.44086,51.15309],[42.42048,51.16861],[42.2942,51.14518],[42.17408,51.14405],[42.0887,51.15603],[41.99071,51.18436],[41.96896,51.20264],[41.92688,51.20197],[41.85318,51.1652],[41.78918,51.08296],[41.78057,51.042],[41.74737,51.01408],[41.70791,51.01365],[41.61001,50.99096],[41.53568,50.96651],[41.52647,50.95513],[41.50921,50.96255],[41.46795,50.95654],[41.42135,50.91853],[41.41096,50.89212],[41.412,50.84569],[41.38906,50.84952],[41.1618,50.77968],[41.16686,50.76676],[41.27228,50.74183],[41.34068,50.70573],[41.44438,50.59929],[41.51356,50.59833],[41.52088,50.58017],[41.48142,50.56868],[41.41263,50.49904],[41.48863,50.41651],[41.51086,50.36248],[41.4138,50.25064],[41.37641,50.23255],[41.3824,50.2089],[41.34603,50.22133],[41.28169,50.16617],[41.28727,50.15537],[41.36629,50.12266],[41.37518,50.11107],[41.3737,50.08712],[41.33366,50.07495],[41.31939,50.05487],[41.30107,50.04875],[41.29064,50.02935],[41.18813,50.01824],[41.08003,49.95225],[41.03349,49.86849],[41.03738,49.80996],[41.00731,49.80446],[40.9199,49.71034],[40.79343,49.70856],[40.76609,49.67503],[40.63494,49.68061],[40.60865,49.64501],[40.57156,49.62911],[40.5377,49.58663],[40.37781,49.59525],[40.28125,49.63551],[40.15677,49.64995],[40.13577,49.62492],[40.12637999541188,49.619874951537376],[39.94663,49.59914],[39.88964,49.5633],[39.75197,49.6007],[39.6912,49.61182],[39.63249,49.67163],[39.61498,49.73624],[39.46804,49.76441],[39.28917,49.75909],[39.23218,49.84197],[39.1872,49.89751],[39.02618,49.82625],[38.93349,49.80631],[38.92181,49.85923],[38.90636,49.87406],[38.74329,49.90171],[38.72337,49.98324],[38.70209,50.00752],[38.68149,50.01127],[38.64338,49.97353],[38.43376,50.00417],[38.37635,50.0029],[38.33358,50.08701],[38.3023,50.09246],[38.17303,50.08248],[38.17989,50.02208],[38.21148,49.97927],[38.05355,49.9278],[38.00789,49.97021],[37.96841,49.98346],[37.92583,50.04391],[37.77031,50.09724],[37.64259,50.17888],[37.64637,50.19207],[37.63813,50.19822],[37.64397,50.31763],[37.47745,50.37853],[37.49874,50.46078],[37.47745,50.46297],[37.32708,50.44002],[37.15473,50.36605],[36.93535,50.35291],[36.86119,50.34064],[36.68884,50.27135],[36.62258,50.22942],[36.58482,50.28912],[36.43169,50.33363],[36.30947,50.30118],[36.28681,50.33889],[36.24252,50.36518],[36.16768,50.43324],[36.08494,50.45444],[35.89096,50.44176],[35.83225,50.43673],[35.78831,50.41946],[35.73578,50.35992],[35.62179,50.36123],[35.59193,50.44548],[35.58231,50.46275],[35.48653,50.49115],[35.41202,50.59043],[35.49236,50.64968],[35.49854,50.6784],[35.49271,50.78185],[35.43606,50.79617],[35.40653,50.91169],[35.39589,50.92576],[35.3389,50.95302],[35.41202,51.02607],[35.41649,51.04355],[35.37872,51.07053],[35.30971,51.08455],[35.20741,51.0524],[35.15406,51.22413],[35.1178,51.23613],[34.97841,51.23849],[34.71027,51.18171],[34.66495,51.25332],[34.38171,51.27631],[34.26361,51.2574],[34.24507,51.26535],[34.35596,51.36192],[34.27631,51.39835],[34.3206,51.52455],[34.24782,51.58347],[34.12628,51.67639],[34.40231,51.71044],[34.44832,51.72745],[34.43046,51.82984],[34.10637,52.02504],[34.12216,52.13939],[34.05212,52.2055],[33.92647,52.30932],[33.83267,52.3752],[33.51894,52.36072],[33.37578,52.37392],[33.30677,52.35757],[33.19691,52.38126],[33.13957,52.3865],[32.97272,52.28202],[32.83195,52.28244],[32.72346,52.2648],[32.55077,52.32863],[32.4052,52.34142],[32.35199,52.33786],[32.32315,52.28664],[32.30942,52.1613],[32.07012,52.03792],[31.90601,52.10461],[31.85863,52.11389],[31.799210107256282,52.11626613002351],[31.78585,52.18783],[31.71856,52.26606],[31.62758,52.33324],[31.64303,52.39802],[31.6135,52.46856],[31.6832,52.56112],[31.57745,52.59909],[31.61316,52.7658],[31.54072,52.8625],[31.35807,52.98999],[31.30279,53.01065],[31.39206,53.09237],[31.43223,53.20254],[31.54587,53.18649],[31.69212,53.20562],[31.81778,53.11051],[31.93382,53.07876],[32.09553,53.07175],[32.23869,53.09609],[32.41688,53.18464],[32.58202,53.288],[32.7396,53.33087],[32.76947,53.42488],[32.7602,53.46128],[32.65308,53.50581],[32.52228,53.54745],[32.4361,53.60045],[32.50339,53.67963],[32.51301,53.70321],[32.46563,53.741],[32.21603,53.80085],[32.12814,53.82498],[31.9891,53.80876],[31.9194,53.79132],[31.81091,53.81241],[31.89743,53.94639],[31.91597,54.09001],[31.65985,54.14997],[31.32683,54.2576],[31.33575,54.33615],[31.24718,54.47343],[31.11122,54.50354],[31.2204,54.62616],[31.20598,54.66668],[30.77047,54.81374],[30.87055,54.92675],[30.94265,54.9514],[31.02573,55.02783],[31.04118,55.11176],[30.94471,55.23235],[30.84892,55.30433],[30.93784,55.38594],[30.96256,55.49733],[30.96394,55.54165],[30.93664,55.62266],[30.88131288090358,55.63179647474212],[30.89839,55.66412],[31.02717,55.79559]]]}}
