{"type":"Feature","properties":{"sourceId":"cornwall"},"geometry":{"type":"Polygon","coordinates":[[[-6.652752,49.65794],[-6.820424,50.0162],[-6.694169,50.14573],[-4.660350760799288,50.928264435797935],[-4.472728,50.92142],[-4.431014,50.86446],[-4.451816,50.84964],[-4.45086,50.81491],[-4.500696,50.79276],[-4.462788,50.78065],[-4.414539,50.75857],[-4.398912,50.76258],[-4.375922,50.73126],[-4.371038,50.70136],[-4.337152,50.64108],[-4.311462,50.63007],[-4.315264,50.57672],[-4.284195,50.57082],[-4.273334,50.53297],[-4.217168,50.52728],[-4.20717,50.49978],[-4.224064,50.49978],[-4.245246,50.453],[-4.21378,50.4553],[-4.20174,50.43016],[-4.206372,50.41601],[-4.204689,50.41083],[-4.20313,50.4073],[-4.209054,50.39731],[-4.207660747087784,50.39612569819422],[-4.208627,50.3939],[-4.193646,50.384],[-4.188921,50.3624],[-4.172206859429251,50.36284582930304],[-4.16850823853829,50.35846363296755],[-4.168255,50.35779],[-4.167950729771737,50.35780308598374],[-4.167543,50.35732],[-4.156642,50.34839],[-4.1655223091233555,50.334873593156864],[-4.186274,50.3328],[-4.185941,50.31562],[-6.100627,49.5839],[-6.142681,49.57808],[-6.652752,49.65794]]]}}
