{"type":"Feature","properties":{"sourceId":"chad"},"geometry":{"type":"Polygon","coordinates":[[[14.92914,23.01763],[16.00874,23.53793],[19.36615,22.00418],[24.02527,19.51707],[24.02161,15.67593],[22.72247,14.84392],[22.71973,14.67793],[22.46086,14.6002],[22.59338,14.18318],[22.57004,14.11127],[22.12166,13.79207],[22.23289,13.58326],[22.3201,13.29809],[22.05025,13.09821],[21.88888,12.93229],[21.86897,12.7301],[21.9342,12.67116],[22.16148,12.67786],[22.22054,12.75522],[22.47562,12.6256],[22.41709,12.48418],[22.45348,12.30529],[22.50584,12.18031],[22.4988,12.06652],[22.64917,12.07911],[22.59407,11.62534],[22.94209,11.42582],[22.99095,11.29895],[22.98546,11.20198],[22.95662,11.14741],[22.95181,11.09082],[22.905275557599023,10.961622233512363],[22.38436,11.03264],[21.68612,10.64494],[21.59486,10.3147],[20.42284,9.235731],[18.95107,9.014964],[18.82787,8.849124],[19.06994,8.680681],[18.7793,8.273484],[18.66832,8.229931],[18.55443,8.074549],[18.03577,8.020136],[17.65915,7.996338],[17.46036,7.909292],[17.29351,7.839235],[17.22141,7.780391],[17.09335,7.713374],[16.94881,7.653831],[16.88873,7.624908],[16.82041,7.545273],[16.78196,7.611977],[16.74557,7.63954],[16.6721,7.738549],[16.59348,7.89603],[16.50593,7.85454],[16.43452,7.815426],[16.40053,7.797058],[16.39675,7.725281],[16.19694,7.638179],[16.03455,7.579307],[15.98099,7.497622],[15.81276,7.453029],[15.7259,7.528256],[15.5472,7.520257],[15.519202361154528,7.525917974732237],[15.57861,7.60347],[15.6047,7.675608],[15.60608,7.779711],[15.21812,8.515157],[15.12405,8.665203],[14.90158,8.820618],[14.36943,9.195649],[14.39072,9.288498],[14.31381,9.380645],[14.04259,9.620384],[13.99795,9.640693],[14.1552,9.81936],[14.22386,9.986434],[14.46213,9.984405],[14.80545,9.926243],[14.94965,9.962088],[15.06294,9.938417],[15.14946,9.974938],[15.41519,9.919479],[15.69895,9.992858],[15.68041,10.01238],[15.57655,10.08211],[15.50239,10.11794],[15.45642,10.18997],[15.4261,10.21428],[15.40207,10.24765],[15.38343,10.2587],[15.36423,10.27877],[15.26396,10.46502],[15.21435,10.51313],[15.19547,10.51313],[15.15289,10.5506],[15.168,10.63294],[15.1395,10.70076],[15.0765,10.82353],[15.1038,10.86888],[15.1,10.99],[15.1206,11.09014],[15.1,11.22],[15.08286,11.35686],[15.13762,11.51283],[15.14706,11.56345],[15.08492,11.64686],[15.10878,11.72872],[15.12628,11.79023],[15.09659,11.85307],[15.06243,11.92396],[15.08509,11.98072],[15.08938,11.99499],[15.08577,12.00759],[15.05745,12.01296],[15.06243,12.06047],[15.05007,12.07592],[15.03908,12.08448],[15.04097,12.10563],[15.03239,12.11385],[15.02054,12.12224],[14.99685,12.12426],[14.98621,12.10982],[14.9699,12.10244],[14.95874,12.10546],[14.89111,12.16621],[14.91428,12.18383],[14.91188,12.33229],[14.91205,12.38276],[14.90656,12.40892],[14.8839,12.4644],[14.85661,12.57618],[14.83875,12.63632],[14.81798,12.64553],[14.76803,12.67568],[14.7488,12.69092],[14.7294,12.71252],[14.72031,12.72483],[14.69739,12.73194],[14.68022,12.72659],[14.62212,12.7764],[14.57766,12.78452],[14.5707,12.78912],[14.56384,12.78744],[14.55809,12.77774],[14.555,12.77916],[14.55071,12.79598],[14.57096,12.83122],[14.57611,12.88678],[14.56787,12.93028],[14.47984,13.09278],[14.088640225239416,13.09278],[13.6433,13.71904],[13.63724243300382,13.718989834259459],[13.59009,13.92474],[13.48022,14.44366],[13.70476,14.53042],[13.82561,14.71911],[13.88946,15.00846],[15.53108,16.8951],[16.05605,20.34721],[15.26871,21.5319],[15.25403,22.01342],[15.01028,23.02121],[14.931922287259392,22.983840372739383],[14.92914,23.01763]]]}}
