{"type":"Feature","properties":{"sourceId":"chongqing"},"geometry":{"type":"Polygon","coordinates":[[[105.3066,29.58531],[105.3062,29.60652],[105.3549,29.63562],[105.3744,29.62711],[105.3709,29.64696],[105.3874,29.65427],[105.3778,29.67195],[105.3845,29.6797],[105.4167,29.69178],[105.4718,29.68231],[105.4672,29.70848],[105.4748,29.72048],[105.4895,29.72421],[105.5034,29.71087],[105.523,29.70468],[105.5387,29.73673],[105.5457,29.74107],[105.5607,29.74426],[105.5789,29.8224],[105.6145,29.85047],[105.6394,29.84295],[105.6475,29.84457],[105.6526,29.84729],[105.6617,29.84727],[105.6673,29.85403],[105.6749,29.85814],[105.688,29.85643],[105.6969,29.84898],[105.7107,29.84943],[105.7157,29.86007],[105.7309,29.86573],[105.7269,29.87243],[105.7295,29.88672],[105.7278,29.8904],[105.7326,29.89416],[105.7126,29.8955],[105.7062,29.90335],[105.7085,29.91551],[105.6983,29.92764],[105.7127,29.94363],[105.7193,29.9872],[105.7273,30.00214],[105.7396,30.00876],[105.7441,30.02377],[105.6818,30.04086],[105.6696,30.06419],[105.6362,30.074],[105.6317,30.10199],[105.5922,30.11024],[105.5776,30.12711],[105.575,30.12646],[105.5693,30.12702],[105.5528,30.14602],[105.5433,30.14869],[105.532,30.15481],[105.5311,30.16761],[105.5433,30.18409],[105.5534,30.18479],[105.5582,30.18665],[105.6281,30.19106],[105.6418,30.21205],[105.615,30.23783],[105.6059,30.25747],[105.6179,30.27534],[105.6232,30.27938],[105.6427,30.27686],[105.6664,30.26781],[105.6893,30.26048],[105.7044,30.26196],[105.7107,30.25999],[105.7124,30.25877],[105.7159,30.25566],[105.7165,30.26752],[105.7267,30.27338],[105.7075,30.28405],[105.7035,30.30495],[105.7034,30.32547],[105.7274,30.33718],[105.746,30.35999],[105.7559,30.39464],[105.7857,30.43299],[105.8168,30.4409],[105.8262,30.43941],[105.8501,30.40419],[105.8587,30.41404],[105.9024,30.41019],[105.9147,30.39901],[105.9653,30.38287],[105.9933,30.38087],[106.0283,30.37791],[106.053,30.35007],[106.0872,30.3494],[106.0884,30.32781],[106.1191,30.32814],[106.1292,30.32747],[106.1294,30.32462],[106.1309,30.32003],[106.1333,30.31884],[106.1357,30.31721],[106.1387,30.31599],[106.1414,30.31814],[106.1529,30.31688],[106.1572,30.31554],[106.1683,30.30954],[106.1743,30.30372],[106.1851,30.24458],[106.2013,30.23916],[106.1985,30.22741],[106.204,30.20968],[106.2279,30.21799],[106.2376,30.20938],[106.268,30.22199],[106.2875,30.22221],[106.2961,30.24384],[106.3286,30.23148],[106.3265,30.23951],[106.3432,30.2475],[106.3747,30.25165],[106.378,30.25736],[106.3853,30.26003],[106.3999,30.24735],[106.4139,30.25944],[106.4029,30.27893],[106.4369,30.3131],[106.4705,30.31162],[106.4898,30.30406],[106.5009,30.29457],[106.5223,30.30724],[106.5391,30.30198],[106.5412,30.31577],[106.5548,30.32155],[106.5668,30.30951],[106.5812,30.30739],[106.6097,30.29754],[106.6257,30.27767],[106.6418,30.24973],[106.6154,30.23682],[106.6291,30.22362],[106.6334,30.19562],[106.6435,30.19544],[106.6518,30.17385],[106.6747,30.16279],[106.6717,30.13006],[106.6865,30.1282],[106.6873,30.12152],[106.6992,30.12174],[106.6995,30.09546],[106.697,30.07957],[106.725,30.05721],[106.7269,30.03239],[106.7525,30.0234],[106.7566,30.02838],[106.7639,30.02875],[106.7669,30.02132],[106.7865,30.02447],[106.7945,30.03403],[106.8102,30.03529],[106.8178,30.03388],[106.8244,30.03982],[106.8329,30.05349],[106.8805,30.03908],[106.9001,30.03462],[106.9079,30.02875],[106.9107,30.03782],[106.9419,30.04859],[106.9442,30.06635],[106.9647,30.08566],[106.9756,30.08907],[106.9829,30.0887],[107.0044,30.05632],[107.0114,30.05535],[107.0266,30.03856],[107.037,30.0604],[107.0484,30.05654],[107.05,30.05112],[107.0687,30.05535],[107.0676,30.0861],[107.0764,30.10326],[107.0817,30.09925],[107.0936,30.09865],[107.1027,30.10303],[107.1007,30.11187],[107.1018,30.119],[107.1394,30.14728],[107.1928,30.19625],[107.2155,30.22021],[107.2251,30.22889],[107.2387,30.25054],[107.2476,30.26222],[107.252,30.28279],[107.2779,30.33303],[107.2945,30.35466],[107.3282,30.38428],[107.3345,30.40249],[107.3357,30.43151],[107.4207,30.55177],[107.5058,30.64493],[107.4496,30.6797],[107.4166,30.74772],[107.4341,30.76337],[107.4387,30.77208],[107.4406,30.78056],[107.4542,30.78904],[107.4798,30.81351],[107.487,30.81543],[107.4712,30.84137],[107.4913,30.85051],[107.5107,30.86142],[107.573,30.85493],[107.6142,30.84196],[107.6323,30.8189],[107.6768,30.86971],[107.7108,30.89306],[107.7385,30.88562],[107.7573,30.86462],[107.7517,30.84977],[107.7538,30.84292],[107.7552,30.83286],[107.7593,30.82428],[107.7826,30.82428],[107.8147,30.8172],[107.8411,30.79685],[107.9498,30.88573],[107.9812,30.90708],[107.9427,30.92108],[107.9314,30.93683],[107.9311,30.96981],[107.9367,30.9938],[107.9982,31.02719],[108.0308,31.04393],[108.0213,31.0629],[108.003,31.111],[108.0073,31.11894],[108.0227,31.13731],[108.0445,31.15391],[108.0793,31.20487],[108.0525,31.21831],[108.0266,31.2186],[108.0141,31.24818],[108.0671,31.26601],[108.0767,31.26476],[108.0892,31.27012],[108.0854,31.2765],[108.1783,31.33839],[108.1537,31.36141],[108.1441,31.37782],[108.1971,31.40903],[108.2116,31.46308],[108.1835,31.46681],[108.1854,31.49587],[108.2219,31.51051],[108.3275,31.5138],[108.3342,31.54175],[108.3446,31.55111],[108.3723,31.5721],[108.3763,31.57678],[108.3824,31.59279],[108.4285,31.63526],[108.4562,31.63672],[108.5219,31.67486],[108.5082,31.69779],[108.4977,31.73649],[108.5207,31.75835],[108.4431,31.78626],[108.4466,31.80914],[108.4195,31.80914],[108.3888,31.82452],[108.376,31.84986],[108.3384,31.85904],[108.3055,31.90219],[108.2788,31.91385],[108.2522,31.96658],[108.2598,31.98828],[108.3317,32.03384],[108.3527,32.03777],[108.3341,32.07181],[108.3733,32.08228],[108.4085,32.07458],[108.4242,32.06468],[108.4436,32.07617],[108.4052,32.13361],[108.3726,32.1544],[108.3588,32.17736],[108.3976,32.20234],[108.503,32.20641],[108.5796,32.17765],[108.6683,32.11591],[108.7449,32.11035],[108.7562,32.0735],[108.7873,32.05566],[108.8477,32.04155],[108.8931,31.99624],[108.9856,31.98726],[109.0306,31.97317],[109.195,31.85819],[109.2066,31.82345],[109.2731,31.80523],[109.2774,31.77926],[109.2674,31.76906],[109.2946,31.7159],[109.3895,31.7124],[109.4334,31.73094],[109.4643,31.7216],[109.5555,31.74087],[109.6015,31.71984],[109.6679,31.73006],[109.7337,31.70076],[109.7518,31.61608],[109.7629,31.60427],[109.7417,31.59696],[109.745,31.58073],[109.727,31.55118],[109.8327,31.5642],[109.8627,31.54177],[109.9788,31.51578],[109.9846,31.4764],[110.0293,31.44653],[110.0527,31.4208],[110.1108,31.4187],[110.1391,31.40069],[110.1632,31.30425],[110.1527,31.28398],[110.1728,31.24788],[110.2004,31.15288],[110.1749,31.11813],[110.1302,31.10645],[110.1174,31.08095],[110.1282,31.06823],[110.1421,31.00528],[110.1546,30.9963],[110.17,30.99193],[110.1725,30.98175],[110.1565,30.95686],[110.1475,30.9139],[110.1109,30.84705],[110.0776,30.80161],[110.0749,30.79995],[110.0736,30.80297],[110.0514,30.79929],[110.0404,30.8029],[110.0154,30.82728],[109.9931,30.87998],[109.9719,30.88528],[109.9512,30.87586],[109.9321,30.87954],[109.8983,30.89869],[109.8178,30.8623],[109.7762,30.84889],[109.7354,30.82147],[109.716,30.77975],[109.6987,30.77075],[109.6834,30.77016],[109.6606,30.75867],[109.6604,30.72782],[109.6029,30.6924],[109.5869,30.6639],[109.5723,30.64633],[109.5308,30.63452],[109.5134,30.65371],[109.4824,30.62196],[109.4575,30.6162],[109.3528,30.48566],[109.3342,30.49202],[109.2935,30.62757],[109.2458,30.58148],[109.1387,30.52013],[109.1148,30.53018],[109.0712,30.60438],[109.1101,30.62292],[109.1159,30.63415],[109.1132,30.64087],[109.0962,30.63643],[109.0515,30.64264],[109.0111,30.62932],[108.9836,30.62299],[108.9729,30.62932],[108.9642,30.62558],[108.9432,30.60645],[108.9197,30.59005],[108.8896,30.55147],[108.845,30.51037],[108.8245,30.49581],[108.8022,30.49173],[108.78,30.50472],[108.7334,30.49188],[108.7092,30.52086],[108.6944,30.54644],[108.692,30.55945],[108.6888,30.5763],[108.6831,30.58946],[108.6532,30.58798],[108.6395,30.57881],[108.6486,30.55531],[108.6505,30.5392],[108.5669,30.46761],[108.4958,30.50198],[108.4605,30.48434],[108.421,30.48434],[108.4184,30.43447],[108.4328,30.42026],[108.4201,30.39701],[108.4048,30.38013],[108.4578,30.3664],[108.5151,30.32132],[108.5823,30.2607],[108.5501,30.16828],[108.5652,30.1619],[108.5633,30.14349],[108.5296,30.07251],[108.5432,29.99508],[108.5233,29.905],[108.5189,29.86597],[108.5174,29.86443],[108.4545,29.86443],[108.43,29.87665],[108.3932,29.85404],[108.4234,29.82367],[108.4284,29.79105],[108.4466,29.77779],[108.4384,29.75165],[108.5011,29.72029],[108.4974,29.73293],[108.5058,29.73576],[108.5097,29.73964],[108.5166,29.75737],[108.5163,29.76587],[108.5382,29.80982],[108.5708,29.84913],[108.5825,29.85851],[108.5966,29.87072],[108.6211,29.87206],[108.663,29.85881],[108.6785,29.81146],[108.6898,29.71459],[108.7102,29.70565],[108.7391,29.6709],[108.7447,29.65897],[108.758,29.66732],[108.7463,29.68455],[108.7491,29.69603],[108.7743,29.69909],[108.7923,29.69074],[108.803,29.65009],[108.8246,29.68],[108.8862,29.64062],[108.8869,29.62868],[108.8729,29.60054],[108.8985,29.60689],[108.9071,29.59898],[108.9131,29.57734],[108.8864,29.53613],[108.887,29.50717],[108.8755,29.46561],[108.8779,29.45156],[108.9281,29.44035],[108.9437,29.41388],[108.9334,29.37302],[108.9178,29.3352],[108.9676,29.3355],[108.9787,29.35615],[108.9957,29.36841],[109.0185,29.36946],[109.0326,29.40027],[109.0584,29.40955],[109.1084,29.3638],[109.1111,29.31656],[109.1036,29.29478],[109.1253,29.28558],[109.1369,29.2745],[109.1099,29.21024],[109.1374,29.18048],[109.1599,29.18611],[109.217,29.14249],[109.2305,29.12367],[109.2301,29.09585],[109.2512,29.09218],[109.3082,29.07072],[109.3187,29.04657],[109.2944,29.01812],[109.2859,28.97616],[109.2611,28.96287],[109.2541,28.92343],[109.2492,28.89751],[109.234,28.88271],[109.2413,28.857],[109.2434,28.83001],[109.2441,28.80283],[109.2588,28.77891],[109.266,28.76736],[109.2823,28.75786],[109.2878,28.75404],[109.2919,28.75233],[109.2948,28.75011],[109.2956,28.74781],[109.2966,28.7423],[109.2955,28.73809],[109.2916,28.7265],[109.2912,28.71957],[109.2578,28.69541],[109.2721,28.67628],[109.2271,28.64766],[109.2511,28.61421],[109.2815,28.63576],[109.2999,28.6332],[109.3074,28.62356],[109.3085,28.60095],[109.3179,28.59176],[109.3196,28.58151],[109.3179,28.57717],[109.2965,28.57533],[109.2912,28.57178],[109.2903,28.56964],[109.2914,28.5621],[109.2892,28.54879],[109.2794,28.54401],[109.2771,28.52172],[109.269,28.5159],[109.2713,28.50698],[109.2706,28.50551],[109.2692,28.50328],[109.2699,28.50004],[109.2701,28.49776],[109.2559,28.48891],[109.2282,28.47412],[109.2028,28.47616],[109.183,28.45737],[109.1747,28.45232],[109.1742,28.4416],[109.1593,28.41163],[109.15,28.35364],[109.1384,28.32371],[109.1023,28.27249],[109.0792,28.25321],[109.1026,28.22134],[109.0993,28.20143],[109.085,28.18249],[109.0674,28.18654],[109.0608,28.19966],[109.0242,28.19966],[109.0019,28.15132],[108.9229,28.18945],[108.914,28.21487],[108.8398,28.19762],[108.8117,28.23877],[108.7592,28.18967],[108.755,28.18967],[108.7485,28.20058],[108.7537,28.21729],[108.7279,28.22425],[108.7159,28.28715],[108.7326,28.29945],[108.7566,28.31148],[108.7506,28.32584],[108.7629,28.34669],[108.7716,28.38052],[108.7451,28.38536],[108.7698,28.43035],[108.7046,28.48395],[108.6445,28.46688],[108.6901,28.4306],[108.6965,28.40189],[108.6627,28.37509],[108.6829,28.35364],[108.6697,28.33787],[108.6071,28.31919],[108.5679,28.34367],[108.5693,28.40257],[108.5964,28.42371],[108.5691,28.49694],[108.5673,28.54019],[108.5689,28.5418],[108.6037,28.54875],[108.5959,28.59703],[108.6265,28.63923],[108.5993,28.63501],[108.5823,28.64164],[108.5638,28.65083],[108.5027,28.62672],[108.4353,28.62917],[108.3266,28.67602],[108.3266,28.72951],[108.3805,28.79745],[108.3474,28.81145],[108.3466,28.81305],[108.3379,28.85559],[108.3403,28.93485],[108.3107,28.96581],[108.2826,29.08648],[108.2515,29.03544],[108.2334,29.02768],[108.1257,29.04897],[108.0728,29.08284],[108.022,29.03306],[107.9273,29.03471],[107.9093,29.00589],[107.8911,29.00589],[107.8626,28.95588],[107.8033,28.98382],[107.8123,29.02413],[107.7773,29.04792],[107.7812,29.08318],[107.7979,29.14071],[107.735,29.18792],[107.7156,29.15711],[107.7064,29.15441],[107.6948,29.13953],[107.6653,29.14152],[107.6475,29.15966],[107.5828,29.14257],[107.5609,29.2109],[107.4645,29.1628],[107.4496,29.19626],[107.4076,29.18576],[107.4276,29.13117],[107.4102,29.09668],[107.3871,29.09023],[107.3903,29.06367],[107.3914,29.04171],[107.3754,29.02045],[107.4386,28.95874],[107.4411,28.94807],[107.4149,28.89594],[107.3792,28.84708],[107.3555,28.84452],[107.3273,28.80978],[107.2803,28.79504],[107.2424,28.76074],[107.2113,28.77052],[107.2008,28.81339],[107.2049,28.82979],[107.1358,28.8767],[107.1342,28.88752],[107.0934,28.88842],[107.0829,28.87023],[106.9885,28.85279],[106.9878,28.77458],[106.9457,28.76886],[106.8923,28.80181],[106.8649,28.77398],[106.8448,28.77548],[106.8252,28.75712],[106.8465,28.73515],[106.8614,28.71091],[106.8851,28.69917],[106.8814,28.68595],[106.8716,28.65625],[106.8688,28.62717],[106.8244,28.60005],[106.8041,28.58754],[106.7914,28.60366],[106.7816,28.6222],[106.7703,28.61301],[106.7825,28.5705],[106.7631,28.5604],[106.7408,28.50354],[106.7457,28.46718],[106.7037,28.45164],[106.5976,28.49992],[106.5928,28.48589],[106.5531,28.48484],[106.5521,28.51667],[106.5995,28.59718],[106.6058,28.61482],[106.6094,28.64811],[106.6216,28.65396],[106.6068,28.67618],[106.5735,28.69044],[106.5542,28.7216],[106.5492,28.75365],[106.4683,28.82678],[106.4555,28.8167],[106.5071,28.72062],[106.5119,28.70361],[106.5274,28.67591],[106.5226,28.66875],[106.5056,28.65881],[106.5241,28.57759],[106.5004,28.53567],[106.4717,28.53121],[106.3988,28.56688],[106.3681,28.52391],[106.3334,28.53477],[106.326,28.55301],[106.3144,28.6231],[106.3212,28.63772],[106.2989,28.64269],[106.2965,28.65248],[106.3006,28.67402],[106.2653,28.73922],[106.2674,28.77165],[106.2465,28.78737],[106.2329,28.82129],[106.2521,28.85002],[106.1954,28.90736],[106.1769,28.91464],[106.1143,28.89826],[106.0879,28.90131],[106.0682,28.91712],[106.0436,28.90833],[106.0309,28.91382],[106.0321,28.93973],[106.0363,28.95641],[106.0218,28.94973],[106.0119,28.95393],[105.9984,28.97165],[105.9711,28.95971],[105.966,28.96827],[105.9493,28.94747],[105.91,28.91833],[105.9147,28.90871],[105.9077,28.89984],[105.8442,28.93117],[105.8289,28.94184],[105.79,28.93605],[105.7868,28.95145],[105.7944,28.95941],[105.7549,28.9905],[105.7544,29.02082],[105.7361,29.04184],[105.7465,29.06982],[105.7225,29.09968],[105.7225,29.13627],[105.7034,29.17645],[105.7003,29.20402],[105.6931,29.25615],[105.6825,29.28251],[105.665,29.25405],[105.6425,29.25256],[105.6308,29.25555],[105.6372,29.27547],[105.5757,29.27143],[105.5602,29.27472],[105.5166,29.26574],[105.4684,29.28282],[105.4526,29.29029],[105.4578,29.32068],[105.4154,29.31245],[105.4122,29.35141],[105.4291,29.38352],[105.4361,29.39369],[105.4266,29.40592],[105.3668,29.42315],[105.3625,29.44752],[105.3323,29.44139],[105.3206,29.44782],[105.3163,29.47831],[105.2908,29.53545],[105.283,29.56629],[105.3066,29.58531]]]}}
