{"type":"Feature","properties":{"sourceId":"cheshire"},"geometry":{"type":"Polygon","coordinates":[[[-2.950395,53.20982],[-3.026084,53.24673],[-3.036325,53.25012],[-3.061085,53.25119],[-3.084734,53.25507],[-3.088773,53.25619],[-3.1278611933025107,53.28573351276632],[-3.073712,53.31506],[-3.059892,53.30804],[-3.036731,53.29988],[-3.030558,53.29784],[-3.02615,53.29675],[-3.012643,53.29799],[-2.992569,53.30595],[-2.968098,53.30027],[-2.949064,53.30222],[-2.939632,53.30903],[-2.931368,53.3051],[-2.909627,53.32255],[-2.889105,53.31586],[-2.882742,53.3123],[-2.87162,53.31075],[-2.860392,53.31078],[-2.85647,53.31284],[-2.827162,53.31892],[-2.817907,53.31768],[-2.817463,53.32619],[-2.829684,53.33502],[-2.829839,53.33649],[-2.82304,53.33649],[-2.821798,53.33887],[-2.818147,53.33902],[-2.817651,53.34703],[-2.80874,53.35399],[-2.786621,53.35556],[-2.780102,53.36553],[-2.779915,53.37186],[-2.77611,53.37939],[-2.76909,53.38285],[-2.75717,53.37988],[-2.756322,53.38414],[-2.747403,53.3878],[-2.742486,53.39492],[-2.745203,53.39916],[-2.743841,53.40119],[-2.729128,53.39867],[-2.718079,53.39863],[-2.713403,53.38983],[-2.705435,53.38584],[-2.690381,53.3844],[-2.675566,53.38697],[-2.675336,53.39404],[-2.670434,53.39989],[-2.6719,53.40936],[-2.670918,53.41386],[-2.665915,53.41596],[-2.666449,53.41937],[-2.662568,53.42869],[-2.664481,53.43222],[-2.671512,53.43392],[-2.667495,53.43973],[-2.668126,53.44182],[-2.678958,53.44108],[-2.676424,53.45176],[-2.67101,53.44897],[-2.662018,53.44834],[-2.658028,53.44647],[-2.65242,53.44715],[-2.645529,53.4434],[-2.634172,53.44147],[-2.630925,53.43463],[-2.627453,53.43339],[-2.610696,53.44129],[-2.596069,53.44164],[-2.594173,53.4466],[-2.585003,53.43876],[-2.577372301554461,53.444910750813136],[-2.576041,53.44451],[-2.568716,53.457],[-2.548214,53.46002],[-2.549964,53.46644],[-2.500803,53.47839],[-2.492683,53.47723],[-2.491144,53.47545],[-2.493804,53.46426],[-2.487507,53.45419],[-2.478055,53.44757],[-2.479518,53.4424],[-2.474523,53.43769],[-2.462776,53.43501],[-2.450704,53.42211],[-2.452134,53.4164],[-2.464321,53.40411],[-2.479916,53.39709],[-2.473218,53.39109],[-2.44936,53.39307],[-2.432419,53.38607],[-2.411277,53.38227],[-2.401378,53.37366],[-2.36992,53.36204],[-2.358891,53.36266],[-2.355356,53.36665],[-2.333956,53.36395],[-2.330603,53.35961],[-2.325858,53.35966],[-2.323564,53.35656],[-2.315961,53.35739],[-2.313089,53.35331],[-2.29982,53.34761],[-2.299839,53.34451],[-2.304514,53.34126],[-2.301637,53.33844],[-2.266354,53.34904],[-2.255957,53.35903],[-2.222433,53.35807],[-2.208883,53.35336],[-2.193211,53.35245],[-2.18851,53.35099],[-2.189374,53.34772],[-2.184674,53.34461],[-2.192968,53.34294],[-2.195305,53.33739],[-2.180312,53.32869],[-2.171122,53.32949],[-2.159384,53.32613],[-2.15128,53.32741],[-2.149143,53.33614],[-2.142609,53.34205],[-2.148704,53.34811],[-2.136782,53.35595],[-2.136799,53.3649],[-2.123296,53.36025],[-2.095697,53.36438],[-2.084126,53.35789],[-2.064865,53.35603],[-2.058529,53.35766],[-2.053806,53.3655],[-2.0401,53.37133],[-2.0307194879242036,53.36944403006281],[-2.031075,53.36778],[-2.02656,53.36537],[-2.021661,53.36845],[-2.007615,53.363],[-2.008986,53.35697],[-2.005294,53.35539],[-2.006013,53.34877],[-2.002965,53.34587],[-2.012405,53.33905],[-2.011818,53.33386],[-2.007705,53.33202],[-2.009847,53.32782],[-2.008219,53.32451],[-2.002649,53.32297],[-1.999856,53.3188],[-2.007555,53.30207],[-2.007507,53.28025],[-2.003498,53.2691],[-2.007263,53.26131],[-1.998844,53.25626],[-2.000105,53.2493],[-1.997582,53.24591],[-1.980865,53.23994],[-1.973135,53.23068],[-1.975194,53.22607],[-1.988513,53.22205],[-1.98558,53.2115],[-1.999186,53.19237],[-2.018071,53.18736],[-2.028825,53.19167],[-2.045979,53.19104],[-2.051799,53.18604],[-2.051158,53.18269],[-2.056578,53.17993],[-2.056763,53.17523],[-2.078079,53.16873],[-2.087649,53.16821],[-2.09247,53.1711],[-2.101319,53.16726],[-2.114129,53.16736],[-2.121,53.1728],[-2.129965,53.17387],[-2.134532,53.18149],[-2.139614,53.18223],[-2.142819,53.17292],[-2.140328,53.15534],[-2.153381,53.1577],[-2.158862,53.15131],[-2.175775,53.14399],[-2.220245,53.10659],[-2.221955,53.10251],[-2.236329,53.09989],[-2.245708,53.08872],[-2.252279,53.09181],[-2.256638,53.08839],[-2.27303,53.0847],[-2.277066,53.07963],[-2.293111,53.07665],[-2.303786,53.0812],[-2.317837,53.0796],[-2.327525,53.07514],[-2.329568,53.0694],[-2.346712,53.05471],[-2.354058,53.05683],[-2.357066,53.0531],[-2.379344,53.05095],[-2.382763,53.03883],[-2.382697,53.0333],[-2.378099,53.02781],[-2.380511,53.02568],[-2.368768,53.01454],[-2.373855,53.00913],[-2.380063,53.00714],[-2.378294,53.00089],[-2.380051,52.99672],[-2.403323,52.9934],[-2.403651,52.98989],[-2.410591,52.98624],[-2.435397,52.98483],[-2.4324,52.97984],[-2.433656,52.96812],[-2.442866,52.96863],[-2.449895,52.96439],[-2.474785,52.96065],[-2.480968,52.95713],[-2.492424,52.96603],[-2.498478,52.9668],[-2.507262,52.96325],[-2.512156,52.96553],[-2.514284,52.96988],[-2.520309,52.97173],[-2.521889,52.95336],[-2.529037,52.94553],[-2.537477,52.94806],[-2.547109,52.95529],[-2.554569,52.95601],[-2.561877,52.96251],[-2.576585,52.95438],[-2.587253,52.9539],[-2.59904,52.96197],[-2.599191,52.97345],[-2.600804,52.97709],[-2.607219,52.9786],[-2.605637,52.98207],[-2.608818,52.98639],[-2.622473,52.98512],[-2.632508,52.99484],[-2.642558,52.9918],[-2.651944,52.9932],[-2.674538,52.98397],[-2.687692,52.98524],[-2.698479,52.99351],[-2.711046,52.9846],[-2.725555,52.98123],[-2.744076,52.98545],[-2.760429,52.9848],[-2.767354,52.99273],[-2.777899,52.99182],[-2.781152,52.99199],[-2.789527,52.99397],[-2.79143,52.98946],[-2.803438,52.9879],[-2.836849,52.99565],[-2.842188,53.00655],[-2.841509,53.01194],[-2.845947,53.01667],[-2.852088,53.01536],[-2.862527,53.02205],[-2.86227,53.02624],[-2.861048,53.03034],[-2.857656,53.03427],[-2.859799,53.03729],[-2.864065,53.03816],[-2.867352,53.04018],[-2.867255,53.0423],[-2.871594,53.04447],[-2.867529,53.05359],[-2.874127,53.05907],[-2.867576,53.0617],[-2.871953,53.06352],[-2.870474,53.06848],[-2.8783,53.06742],[-2.879033,53.07217],[-2.883112,53.07353],[-2.878147,53.08074],[-2.891996,53.08613],[-2.894136,53.08995],[-2.900642,53.0891],[-2.901231,53.08935],[-2.903515,53.09128],[-2.900304,53.09939],[-2.891838,53.10065],[-2.890226,53.10342],[-2.895077,53.10394],[-2.893339,53.11002],[-2.885897,53.11276],[-2.88326,53.11917],[-2.903535,53.1101],[-2.934675,53.1198],[-2.944236,53.12002],[-2.947965,53.12587],[-2.964838,53.13136],[-2.979352,53.14802],[-2.985109,53.14617],[-2.98949,53.15107],[-2.996298,53.15332],[-2.995271,53.15469],[-2.990569,53.15913],[-2.97594,53.15907],[-2.971289,53.16244],[-2.966498,53.16174],[-2.950508,53.16749],[-2.945964,53.16829],[-2.943787,53.16722],[-2.928629,53.17299],[-2.922252,53.17853],[-2.923723,53.18819],[-2.93048,53.19194],[-2.94487,53.20362],[-2.950395,53.20982]]]}}
