{"type":"Feature","properties":{"sourceId":"cantabria"},"geometry":{"type":"Polygon","coordinates":[[[-3.149386,43.35589],[-3.148699,43.34834],[-3.151875,43.34035],[-3.147412,43.30619],[-3.150501,43.29907],[-3.188782,43.29582],[-3.208008,43.28133],[-3.250065,43.28908],[-3.245087,43.26296],[-3.243885,43.25145],[-3.26397,43.20956],[-3.253412,43.19316],[-3.389969,43.13457],[-3.439408,43.12755],[-3.483696,43.12905],[-3.604546,43.14559],[-3.644371,43.17063],[-3.695526,43.11753],[-3.750115,43.08042],[-3.824959,43.06312],[-3.846588,43.03627],[-3.906327,43.01369],[-3.938599,43.00339],[-3.957138,42.99084],[-3.973275,42.92802],[-3.872681,42.96622],[-3.839894,42.94851],[-3.824959,42.9279],[-3.818093,42.87307],[-3.809166,42.81568],[-3.817749,42.79767],[-3.864441,42.78293],[-3.892594,42.79691],[-3.908043,42.76642],[-3.943062,42.75987],[-3.979969,42.75458],[-4.004688,42.76541],[-4.003658,42.80346],[-4.027176,42.78633],[-4.042111,42.78205],[-4.037304,42.75949],[-4.082108,42.75874],[-4.151287,42.78558],[-4.188709,42.80888],[-4.186993,42.82399],[-4.136009,42.85344],[-4.152317,42.86401],[-4.198494,42.84186],[-4.21463,42.84325],[-4.23111,42.8586],[-4.226475,42.86514],[-4.242096,42.91872],[-4.243984,42.95479],[-4.350758,42.96886],[-4.373932,42.99172],[-4.403629,43.03276],[-4.434014,43.04368],[-4.460793,43.05559],[-4.473152,43.03715],[-4.557095,43.01645],[-4.638462,43.01406],[-4.740601,43.0172],[-4.772873,43.05246],[-4.774246,43.07089],[-4.835873,43.09923],[-4.858189,43.12392],[-4.846173,43.16087],[-4.861622,43.17501],[-4.83141,43.18703],[-4.779053,43.19529],[-4.746609,43.19129],[-4.735966,43.25808],[-4.707642,43.26933],[-4.645672,43.27358],[-4.607735,43.30469],[-4.526882,43.2892],[-4.530316,43.32718],[-4.532376,43.33592],[-4.541988,43.34306],[-4.542933,43.3552],[-4.535036,43.36818],[-4.523363,43.36971],[-4.518106,43.37576],[-4.512463,43.38035],[-4.514351,43.38927],[-4.513321,43.39457],[-4.447664,43.86548],[-3.144983,43.79631],[-3.149386,43.35589]]]}}
