{"type":"Feature","properties":{"sourceId":"devon"},"geometry":{"type":"Polygon","coordinates":[[[-4.167543,50.35732],[-4.173814,50.36475],[-4.186954,50.36399],[-4.192031,50.38284],[-4.209054,50.39731],[-4.20313,50.4073],[-4.204689,50.41083],[-4.206372,50.41601],[-4.20174,50.43016],[-4.21378,50.4553],[-4.245246,50.453],[-4.224064,50.49978],[-4.20717,50.49978],[-4.217168,50.52728],[-4.273334,50.53297],[-4.284195,50.57082],[-4.315264,50.57672],[-4.311462,50.63007],[-4.337152,50.64108],[-4.371038,50.70136],[-4.375922,50.73126],[-4.398912,50.76258],[-4.414539,50.75857],[-4.462788,50.78065],[-4.500696,50.79276],[-4.45086,50.81491],[-4.451816,50.84964],[-4.431014,50.86446],[-4.472728,50.92142],[-4.752335,50.93162],[-4.718478,51.25138],[-3.708306,51.30895],[-3.710616871946901,51.258975971197565],[-3.720861,51.23438],[-3.727945,51.2303],[-3.729493,51.22566],[-3.734392,51.22298],[-3.731909,51.21866],[-3.732675,51.21432],[-3.728088,51.20054],[-3.728895,51.19709],[-3.732992,51.19438],[-3.733383,51.1914],[-3.726758,51.18392],[-3.728432,51.17991],[-3.745305,51.17708],[-3.75727,51.17858],[-3.78653,51.17323],[-3.807518,51.17927],[-3.817221,51.17983],[-3.825234,51.17752],[-3.832677,51.17886],[-3.84094,51.17711],[-3.836544,51.15426],[-3.834222,51.14992],[-3.835179,51.13724],[-3.822163,51.12526],[-3.804512,51.11438],[-3.780347,51.10643],[-3.767427,51.1043],[-3.74205,51.08877],[-3.730333,51.0855],[-3.720124,51.07957],[-3.692458,51.07903],[-3.682705,51.07215],[-3.668131,51.06895],[-3.665096,51.06618],[-3.656028,51.06369],[-3.652187,51.05821],[-3.635501,51.05495],[-3.623511,51.0598],[-3.614847,51.05524],[-3.606931,51.05603],[-3.602613,51.05406],[-3.599769,51.03794],[-3.605264,51.02973],[-3.611874,51.02508],[-3.615863,51.0157],[-3.61557,51.01194],[-3.61007,51.00673],[-3.534349,51.0022],[-3.526539,51.00467],[-3.518108,51.01387],[-3.519165,51.01926],[-3.517672,51.02294],[-3.504184,51.02879],[-3.483498,51.03221],[-3.463991,51.02408],[-3.459853,51.02394],[-3.44655,51.02454],[-3.443008,51.02737],[-3.435387,51.0291],[-3.421322,51.02935],[-3.417508,51.02656],[-3.413968,51.01837],[-3.389657,51.01846],[-3.382588,51.01601],[-3.381455,51.01027],[-3.383635,51.00471],[-3.384285,50.98919],[-3.379124,50.97637],[-3.360059,50.97681],[-3.333454,50.98118],[-3.325574,50.97673],[-3.320639,50.96955],[-3.304785,50.96307],[-3.300782,50.95774],[-3.295098,50.95453],[-3.279731,50.95072],[-3.25502,50.94065],[-3.232809,50.9428],[-3.21788,50.94205],[-3.188703,50.94728],[-3.172539,50.94593],[-3.170484,50.94262],[-3.173655,50.93611],[-3.174875,50.92772],[-3.18131,50.92352],[-3.181952,50.91926],[-3.188973,50.90981],[-3.174968,50.90601],[-3.170919,50.89925],[-3.157657,50.89889],[-3.153899,50.893],[-3.148435,50.89059],[-3.143772,50.8904],[-3.143266,50.88954],[-3.142181,50.89034],[-3.1394,50.89023],[-3.127445,50.89835],[-3.121477,50.89694],[-3.103633,50.90274],[-3.054635,50.90635],[-3.052905,50.90287],[-3.056847,50.89216],[-3.054064,50.88145],[-3.056013,50.87386],[-3.05466,50.872],[-3.047329,50.87008],[-3.044252,50.86695],[-3.040593,50.86728],[-3.038203,50.86557],[-3.036336,50.86202],[-3.037661,50.85018],[-3.011321,50.85483],[-2.998596,50.84974],[-2.99522,50.85312],[-2.990627,50.85432],[-2.977685,50.85339],[-2.973544,50.84924],[-2.973652,50.8443],[-2.970562,50.84007],[-2.970845,50.83354],[-2.9563899473558837,50.82123917561468],[-2.962969,50.81714],[-2.961612,50.81389],[-2.948714,50.81358],[-2.938913,50.80823],[-2.918742,50.80394],[-2.89334,50.80302],[-2.888887,50.79581],[-2.898243,50.78768],[-2.932611,50.7834],[-2.955559,50.76887],[-2.957107,50.76233],[-2.938239,50.75422],[-2.942359,50.7496],[-2.939955,50.74487],[-2.954653,50.72911],[-2.954127,50.72386],[-2.948617,50.7168],[-2.9142192521690258,50.665118849315554],[-2.899942,50.54885],[-3.309185,50.4384],[-3.66197,50.11104],[-4.23405,50.23057],[-4.156642,50.34839],[-4.167543,50.35732]]]}}
