{"type":"Feature","properties":{"sourceId":"drenthe"},"geometry":{"type":"Polygon","coordinates":[[[6.702395,52.62598],[6.699494,52.62853],[6.702212,52.63653],[6.699908,52.64157],[6.701837,52.64527],[6.700209,52.64888],[6.613648,52.67262],[6.552803,52.66422],[6.517601,52.6468],[6.515672,52.64298],[6.519835,52.61465],[6.518358,52.61276],[6.51251,52.61237],[6.503757,52.6159],[6.49189,52.61778],[6.477953,52.61736],[6.468317,52.62311],[6.465769,52.62209],[6.461468,52.61519],[6.453043,52.61268],[6.436924,52.61631],[6.433515,52.61904],[6.432178,52.62293],[6.429298,52.62405],[6.422257,52.62174],[6.419181,52.61782],[6.410627,52.61865],[6.403474,52.61494],[6.395695,52.61577],[6.383758,52.61093],[6.3755,52.61617],[6.372043,52.62378],[6.372091,52.62764],[6.362124,52.63815],[6.360821,52.64282],[6.353114,52.64467],[6.340332,52.65253],[6.333348,52.65356],[6.326161,52.65768],[6.324688,52.65949],[6.325167,52.66622],[6.322024,52.66892],[6.29988,52.66461],[6.296232,52.66123],[6.291802,52.66113],[6.287112,52.66225],[6.28055,52.66727],[6.270955,52.6635],[6.261875,52.6685],[6.251175,52.6689],[6.246841,52.67147],[6.243644,52.67659],[6.236741,52.67629],[6.215982,52.68425],[6.202656,52.68321],[6.19483,52.67557],[6.187949,52.67729],[6.183483,52.67376],[6.162225,52.67911],[6.164755,52.68682],[6.161125,52.69025],[6.155301,52.69158],[6.149646,52.70328],[6.118934,52.75164],[6.120629,52.75506],[6.126118,52.75814],[6.155913,52.76387],[6.167638,52.76858],[6.172842,52.77466],[6.193207,52.78761],[6.19751,52.792],[6.197423,52.79509],[6.176911,52.81233],[6.170584,52.81424],[6.157386,52.82363],[6.148355,52.8275],[6.146273,52.83104],[6.129803,52.84272],[6.126788,52.84758],[6.118592,52.85438],[6.165426,52.8762],[6.205578,52.89163],[6.231236,52.91424],[6.255669,52.92866],[6.302606,52.9263],[6.333703,52.90812],[6.393182,52.93453],[6.423479,52.96907],[6.424068,52.97304],[6.361921,53.03274],[6.365659,53.06284],[6.36412,53.06658],[6.305356,53.07984],[6.304087,53.08149],[6.314974,53.09527],[6.344158,53.08979],[6.355278,53.10738],[6.362287,53.11015],[6.364721,53.12286],[6.379787,53.14749],[6.380652,53.15448],[6.401877,53.16831],[6.403722,53.17584],[6.406076,53.1786],[6.442368,53.18908],[6.447183,53.19755],[6.485337,53.20513],[6.496292,53.19983],[6.506939,53.20144],[6.513308,53.1989],[6.531073,53.19664],[6.535604,53.18495],[6.541949,53.18114],[6.549414,53.18168],[6.56045,53.17],[6.564064,53.16137],[6.567943,53.16044],[6.582354,53.16449],[6.588248,53.15676],[6.587237,53.15223],[6.589664,53.14743],[6.600856,53.14569],[6.614784,53.13686],[6.639996,53.10993],[6.694964,53.12243],[6.737024,53.12078],[6.743898,53.11761],[6.937202,52.99392],[7.017123,52.9254],[7.027052,52.92032],[7.046232,52.91694],[7.046408,52.91484],[7.021502,52.88011],[7.021217,52.87627],[7.024499,52.87426],[7.040629,52.87407],[7.044021,52.8683],[7.062007,52.85404],[7.070734,52.84974],[7.077316,52.85063],[7.077453,52.84813],[7.074101,52.84366],[7.076287,52.84005],[7.093853,52.83873],[7.094715,52.83874],[7.095411,52.83683],[7.07447,52.8093],[7.05756,52.64104],[7.039568,52.62971],[6.975989,52.64321],[6.953745,52.636],[6.918933,52.63686],[6.912264,52.64401],[6.872838,52.65024],[6.821407,52.64469],[6.784084,52.64954],[6.743337,52.64256],[6.717383,52.62777],[6.721395,52.62391],[6.70738,52.62556],[6.702395,52.62598]]]}}
