{"type":"Feature","properties":{"sourceId":"dolnoslaskie"},"geometry":{"type":"Polygon","coordinates":[[[16.54198,51.79296],[16.59559,51.76183],[16.65197,51.75571],[16.65737,51.72984],[16.69073,51.7163],[16.68526,51.68488],[16.6542,51.67072],[16.7849,51.65295],[16.79482,51.63931],[16.78644,51.6227],[16.8288,51.58776],[16.89242,51.59191],[16.92909,51.56561],[16.97071,51.55877],[17.05265,51.56558],[17.10476,51.5875],[17.12992,51.57799],[17.19857,51.58577],[17.20734,51.63811],[17.25883,51.65499],[17.32681,51.65982],[17.50285,51.6267],[17.5834,51.57072],[17.58171,51.52231],[17.534,51.48952],[17.56143,51.4217],[17.63811,51.43555],[17.70184,51.4136],[17.72028,51.43435],[17.76492,51.41286],[17.76174,51.39146],[17.72799,51.37073],[17.77567,51.32104],[17.75679,51.25016],[17.793881906650782,51.2009687965824],[17.66877,51.16882],[17.60329,51.1956],[17.58957,51.17793],[17.53816,51.15636],[17.54116,51.13841],[17.56615,51.12504],[17.56717,51.11096],[17.55563,51.09265],[17.56412,51.08145],[17.52942,51.0749],[17.51223,51.0611],[17.51276,51.04758],[17.52378,51.04024],[17.50789,51.00965],[17.52357,50.99597],[17.49762,50.99959],[17.48479,50.9912],[17.48766,50.98141],[17.46382,50.98517],[17.42626,50.97238],[17.42197,50.94534],[17.43022,50.93519],[17.42236,50.92006],[17.36554,50.92981],[17.34644,50.89844],[17.38402,50.88527],[17.38496,50.8713],[17.32396,50.85597],[17.3305,50.83252],[17.31236,50.82206],[17.34401,50.79437],[17.28509,50.80148],[17.24813,50.77506],[17.27961,50.75188],[17.25801,50.74422],[17.24891,50.72588],[17.21424,50.71558],[17.21586,50.69603],[17.2357,50.6876],[17.22814,50.68337],[17.2236,50.64021],[17.23468,50.6218],[17.11698,50.61235],[17.08993,50.57112],[17.05721,50.54425],[17.06342,50.51944],[17.05069,50.5075],[17.05266,50.48301],[17.04404,50.47152],[17.03089,50.473],[17.02283,50.48658],[16.98805,50.48286],[16.97695,50.49503],[16.95917,50.49467],[16.94117,50.48308],[16.93477,50.46683],[16.9015,50.45172],[16.902069468735725,50.45106265945786],[16.87596,50.44491],[16.85106,50.40843],[16.89624,50.38102],[16.9429,50.30916],[17.0092,50.29032],[17.01402,50.27103],[16.94433,50.23636],[16.8596,50.21493],[16.86067324238456,50.20412877856564],[16.85218,50.21306],[16.84425,50.21105],[16.79479,50.19136],[16.70224,50.10388],[16.64028,50.12039],[16.60264,50.14757],[16.599249514220553,50.1520097354202],[16.59925,50.15201],[16.57627,50.1821],[16.56495,50.19737],[16.57309,50.23148],[16.51924,50.26927],[16.43489,50.33441],[16.4001,50.32924],[16.37791,50.34705],[16.37055,50.38488],[16.31214,50.39023],[16.28524,50.38215],[16.22853,50.43287],[16.33481,50.47656],[16.41344,50.52021],[16.45814,50.58681],[16.3561,50.67419],[16.22787,50.68232],[16.19358,50.64289],[16.0991,50.67376],[16.03219,50.63068],[16.00758,50.68557],[15.96833,50.70408],[15.8754,50.68657],[15.83346,50.76591],[15.70003,50.75204],[15.61996,50.77977],[15.54692,50.78739],[15.537980008070605,50.78267205356577],[15.54091,50.78802],[15.52465,50.78972],[15.44691,50.81555],[15.42146,50.80756],[15.40529,50.79215],[15.38098,50.78275],[15.38538,50.80404],[15.37644,50.85505],[15.30591,50.877],[15.2797,50.92689],[15.30377,50.94648],[15.28547,50.98199],[15.24443,51.00673],[15.18248,50.99863],[15.17342,51.02621],[15.121,51.01122],[15.06048,51.02921],[15.02579,51.03171],[15.01258,51.02505],[14.98137,51.01602],[14.95564,50.99053],[14.98614,50.97313],[15.00567,50.97853],[15.00139,50.94161],[14.98375,50.92539],[14.98852,50.8743],[14.96231,50.87009],[14.86366,50.88482],[14.84841,50.877],[14.833641643365345,50.87796225718066],[14.83641,50.8858],[14.90178,50.93087],[14.97836,51.06176],[14.99701,51.10608],[15.01598,51.17244],[15.02117,51.20425],[15.05078,51.23583],[15.04516,51.31035],[14.9925,51.34461],[14.992026077081048,51.348977405420314],[15.01115,51.34865],[15.02977,51.3774],[15.08081,51.38541],[15.09672,51.40818],[15.18545,51.44442],[15.33582,51.39501],[15.35575,51.45281],[15.39456,51.46462],[15.38548,51.4971],[15.43963,51.51124],[15.4994,51.50417],[15.60408,51.43169],[15.66363,51.46009],[15.69052,51.49665],[15.73473,51.50655],[15.73013,51.53835],[15.83457,51.56304],[15.88294,51.70446],[15.96798,51.72],[16.02145,51.77763],[16.14701,51.74357],[16.15076,51.70086],[16.20549,51.6994],[16.26885,51.64868],[16.36083,51.70049],[16.42999,51.77633],[16.42542361849082,51.79521697004305],[16.54198,51.79296]]]}}
