{"type":"Feature","properties":{"sourceId":"djibouti"},"geometry":{"type":"Polygon","coordinates":[[[43.55261,12.57857],[43.64567,12.54943],[43.66618,12.53032],[43.84569,12.24801],[43.25911,11.45997],[43.22973,11.41089],[42.96907,10.99641],[42.96299,10.98298],[42.8827,10.9645],[42.79048,10.98482],[42.68838,11.05436],[42.63225,11.08979],[42.60462,11.06817],[42.422,10.98001],[42.26796,10.96933],[42.06937,10.92337],[41.7807,10.88824],[41.76177,11.49317],[41.82061,11.73175],[42.37515,12.46353],[42.45925,12.53623],[42.52935,12.52428],[42.693,12.39749],[42.85666,12.62065],[43.12652,12.71193],[43.30644,12.82615],[43.34527,12.73414],[43.35754,12.63498],[43.55261,12.57857]]]}}
