{"type":"Feature","properties":{"sourceId":"derbyshire"},"geometry":{"type":"Polygon","coordinates":[[[-1.610787,52.70493],[-1.61636,52.70675],[-1.623963,52.69894],[-1.635514,52.70029],[-1.63757,52.69783],[-1.648297,52.69655],[-1.657143,52.69774],[-1.656347,52.70656],[-1.660985,52.71345],[-1.657937,52.71975],[-1.678399,52.72549],[-1.703169,52.72671],[-1.707315,52.73167],[-1.700771,52.73957],[-1.706378,52.73903],[-1.70929,52.74559],[-1.703773,52.75397],[-1.686864,52.76105],[-1.683961,52.77063],[-1.672165,52.77411],[-1.6724,52.78132],[-1.666099,52.78643],[-1.651811,52.7813],[-1.63863,52.78813],[-1.627028,52.78187],[-1.619521,52.78683],[-1.612838,52.78323],[-1.615403,52.78843],[-1.610546,52.79637],[-1.591961,52.80064],[-1.593073,52.80797],[-1.612358,52.81571],[-1.600141,52.8304],[-1.608494,52.83292],[-1.617827,52.84363],[-1.631244,52.84586],[-1.63316,52.8512],[-1.639662,52.85359],[-1.643444,52.85418],[-1.647163,52.85011],[-1.654274,52.85077],[-1.657517,52.85472],[-1.667592,52.85313],[-1.670144,52.85916],[-1.687052,52.86107],[-1.692353,52.86401],[-1.71196,52.86309],[-1.726183,52.85818],[-1.730945,52.86098],[-1.731199,52.86458],[-1.737178,52.86409],[-1.742169,52.86801],[-1.752753,52.86716],[-1.753102,52.87267],[-1.774463,52.8775],[-1.77791,52.88173],[-1.783326,52.88226],[-1.788238,52.8783],[-1.801165,52.88439],[-1.810855,52.87895],[-1.823814,52.88098],[-1.834401,52.88602],[-1.836908,52.89148],[-1.834391,52.90013],[-1.849217,52.90827],[-1.849845,52.91916],[-1.857176,52.92017],[-1.855129,52.93221],[-1.836415,52.94674],[-1.830593,52.94834],[-1.83618,52.9549],[-1.829289,52.96243],[-1.831884,52.97145],[-1.828241,52.97802],[-1.806241,52.98206],[-1.805864,52.98679],[-1.797366,52.98743],[-1.790796,52.99396],[-1.771944,52.99763],[-1.766001,53.00113],[-1.767772,53.00957],[-1.763205,53.01643],[-1.759529,53.01699],[-1.765433,53.02133],[-1.764047,53.0262],[-1.7589,53.02924],[-1.76319,53.03294],[-1.760976,53.03743],[-1.769063,53.04251],[-1.779708,53.04153],[-1.786289,53.04931],[-1.785507,53.05577],[-1.780274,53.05903],[-1.787162,53.06232],[-1.785979,53.06625],[-1.79236,53.07598],[-1.790928,53.08059],[-1.795939,53.08826],[-1.793452,53.09281],[-1.786764,53.09383],[-1.788054,53.10008],[-1.785675,53.1027],[-1.789614,53.10477],[-1.788619,53.1076],[-1.802009,53.11382],[-1.811026,53.12278],[-1.812225,53.12834],[-1.823507,53.13619],[-1.818568,53.14997],[-1.814573,53.15295],[-1.831449,53.16652],[-1.834348,53.17184],[-1.875516,53.19346],[-1.890559,53.19745],[-1.908517,53.19689],[-1.923675,53.20173],[-1.938216,53.21014],[-1.955431,53.2114],[-1.962365,53.21836],[-1.96356,53.22346],[-1.9860524637783514,53.21319945204964],[-1.988513,53.22205],[-1.975194,53.22607],[-1.973135,53.23068],[-1.980865,53.23994],[-1.997582,53.24591],[-2.000105,53.2493],[-1.998844,53.25626],[-2.007263,53.26131],[-2.003498,53.2691],[-2.007507,53.28025],[-2.007555,53.30207],[-1.999856,53.3188],[-2.002649,53.32297],[-2.008219,53.32451],[-2.009847,53.32782],[-2.007705,53.33202],[-2.011818,53.33386],[-2.012405,53.33905],[-2.002965,53.34587],[-2.006013,53.34877],[-2.005294,53.35539],[-2.008986,53.35697],[-2.007615,53.363],[-2.021661,53.36845],[-2.02656,53.36537],[-2.031075,53.36778],[-2.030719487924204,53.36944403006281],[-2.028312,53.36896],[-2.027665,53.37214],[-2.016004,53.37652],[-2.011912,53.38266],[-2.003602,53.38498],[-2.003456,53.39195],[-1.994702,53.40384],[-1.990725,53.41575],[-2.012803,53.41792],[-2.019253,53.42137],[-2.018686,53.4271],[-2.024525,53.43124],[-2.013385,53.4382],[-2.008053,53.43417],[-2.003239,53.43453],[-2.004721,53.44097],[-1.994879,53.44463],[-1.992034,53.45101],[-1.984396,53.45426],[-1.985793,53.45944],[-1.978897,53.4633],[-1.98649,53.47086],[-1.987059,53.4777],[-1.97292,53.48736],[-1.969094,53.49498],[-1.969574,53.5037],[-1.963636,53.50754],[-1.955714,53.50274],[-1.935197,53.50411],[-1.921087,53.5085],[-1.915116,53.51409],[-1.923566,53.52092],[-1.920868,53.52952],[-1.9093943223318324,53.53689005799701],[-1.899817,53.53647],[-1.893918,53.53191],[-1.873841,53.53872],[-1.846759,53.52337],[-1.84221,53.51822],[-1.825289124378836,53.5203330333282],[-1.802174,53.47921],[-1.750334,53.45603],[-1.749065,53.42641],[-1.708862,53.40245],[-1.657023,53.39085],[-1.670565,53.36611],[-1.613224,53.34514],[-1.638191,53.31899],[-1.627189,53.31305],[-1.608992,53.31987],[-1.599682,53.30963],[-1.553767,53.30293],[-1.535147,53.3047],[-1.456224,53.3181],[-1.437181,53.33756],[-1.341753,53.31014],[-1.315305,53.332],[-1.293511,53.32531],[-1.30007,53.31747],[-1.293722,53.30824],[-1.241248,53.29889],[-1.201469,53.30281],[-1.1967772465330644,53.30592440650423],[-1.1894163062627199,53.30726118967224],[-1.187004,53.30589],[-1.17873,53.30794],[-1.1751882913383518,53.305125929553746],[-1.175497,53.30488],[-1.172349,53.29512],[-1.18007,53.28742],[-1.166708,53.27744],[-1.180842,53.26934],[-1.174974,53.26646],[-1.201852,53.26114],[-1.201227,53.25997],[-1.209114,53.25129],[-1.208112,53.25069],[-1.21191,53.24775],[-1.21015,53.24097],[-1.202149,53.2355],[-1.203087,53.23196],[-1.205971,53.23143],[-1.206181,53.22945],[-1.206163,53.22937],[-1.211467,53.21415],[-1.197477,53.19478],[-1.199794,53.18359],[-1.2357960999382513,53.17702409856461],[-1.239726,53.17697],[-1.2405923065988735,53.17614938791574],[-1.24514,53.17532],[-1.24558,53.17192],[-1.249272,53.17076],[-1.248776,53.16918],[-1.252191,53.16574],[-1.2605856364975703,53.164476028724806],[-1.264206585103289,53.16529908998176],[-1.264546,53.16667],[-1.296631,53.17076],[-1.297853,53.16774],[-1.30058,53.16792],[-1.301534,53.16394],[-1.309065,53.16626],[-1.323311,53.16218],[-1.325502,53.15695],[-1.315587,53.13541],[-1.321462,53.13019],[-1.313681,53.12563],[-1.310361,53.11955],[-1.311192,53.11908],[-1.310545,53.11883],[-1.311561,53.11598],[-1.309438,53.1131],[-1.312504,53.10889],[-1.303456,53.10325],[-1.300875,53.10453],[-1.300371,53.10178],[-1.309752,53.09622],[-1.306352,53.09463],[-1.31164,53.09323],[-1.309248,53.09123],[-1.310256,53.09032],[-1.309185,53.08885],[-1.312018,53.08794],[-1.311074,53.08711],[-1.329035,53.08308],[-1.336499,53.07516],[-1.335726,53.07454],[-1.341968,53.07126],[-1.344477,53.06395],[-1.335872,53.05313],[-1.336735,53.05219],[-1.332436,53.04609],[-1.3339,53.04478],[-1.333333,53.04242],[-1.334325,53.04174],[-1.3310500094940405,53.036062118812715],[-1.330992,53.03515],[-1.3290946690838865,53.032672127144245],[-1.325102,53.02575],[-1.325822,53.02033],[-1.319227,53.01348],[-1.320727,53.01274],[-1.319889,53.0119],[-1.322068,53.00999],[-1.320685,53.00868],[-1.321398,53.00807],[-1.319428,53.00656],[-1.319931,53.00575],[-1.305518,53.00283],[-1.30231,52.99876],[-1.303132,52.99777],[-1.2994017909892817,52.99247268843656],[-1.299066,52.99146],[-1.2983826216849372,52.991025354701236],[-1.294858,52.98602],[-1.299413,52.98289],[-1.296113,52.97678],[-1.296763,52.97631],[-1.296066,52.97606],[-1.296949,52.97533],[-1.294625,52.97359],[-1.295509,52.97281],[-1.288266,52.96791],[-1.28969,52.9664],[-1.289159,52.96386],[-1.293151,52.95804],[-1.291996,52.95756],[-1.292889,52.95642],[-1.281407,52.9492],[-1.282231,52.94751],[-1.28145,52.94712],[-1.28303,52.94542],[-1.278918,52.93318],[-1.28239,52.93062],[-1.281874,52.92787],[-1.288092,52.92283],[-1.284434,52.92287],[-1.282796,52.91804],[-1.2806154276478974,52.91688901748013],[-1.2803084271579417,52.91174085541779],[-1.281263,52.91023],[-1.279577,52.90776],[-1.242413,52.89477],[-1.2400964469911262,52.89567855395911],[-1.237921,52.89417],[-1.2384705312954611,52.89159686232406],[-1.24638,52.88897],[-1.238998,52.88362],[-1.23917,52.88055],[-1.2508832917058401,52.87751700467887],[-1.253294,52.87764],[-1.2569447345570344,52.875947477660446],[-1.268405,52.87298],[-1.274914,52.87548],[-1.284195,52.87344],[-1.309019,52.87971],[-1.312567,52.87813],[-1.30749,52.87592],[-1.308099,52.87373],[-1.314145,52.87319],[-1.3151039473418717,52.87162138915884],[-1.317499,52.87158],[-1.318138,52.86827],[-1.319592917830625,52.8674188676685],[-1.322261,52.8686],[-1.339889,52.86478],[-1.345391,52.86769],[-1.346849,52.86378],[-1.344231,52.86234],[-1.353756,52.85741],[-1.351334,52.85414],[-1.36037,52.85639],[-1.390247,52.83953],[-1.387865,52.83511],[-1.418293,52.80169],[-1.44365,52.80251],[-1.441398,52.80112],[-1.443602,52.79669],[-1.442308,52.79475],[-1.4637101026067623,52.784015093036814],[-1.46731,52.78267],[-1.467689209542056,52.78201924508057],[-1.470439,52.78064],[-1.468807,52.77841],[-1.467787,52.77875],[-1.462686,52.77265],[-1.4854547904282238,52.76158997219998],[-1.486256,52.76141],[-1.4870170472557667,52.7608310999183],[-1.49301,52.75792],[-1.505069,52.76792],[-1.52534,52.76549],[-1.525386,52.7639],[-1.537546,52.76015],[-1.544265036565839,52.761047353896636],[-1.548037,52.76247],[-1.5504194294366986,52.76186929739552],[-1.554468,52.76241],[-1.553886,52.75888],[-1.556975,52.75782],[-1.561302,52.7508],[-1.556767,52.73984],[-1.545745,52.73153],[-1.551118,52.72532],[-1.550532,52.72047],[-1.59176,52.70492],[-1.59074,52.70433],[-1.596388,52.70206],[-1.5943018522405994,52.700344960843516],[-1.599763,52.69588],[-1.607695,52.6955],[-1.613048,52.69808],[-1.610787,52.70493]]]}}
