{"type":"Feature","properties":{"sourceId":"dach"},"geometry":{"type":"MultiPolygon","coordinates":[[[[6.593775,53.98202],[7.491178,54.25739],[7.492870946488065,54.259999483776554],[7.490666361710389,54.23873210978754],[6.638486,53.89139],[6.391712,53.79642],[6.360200921060531,53.78416202223171],[6.593775,53.98202]]],[[[8.029358131446884,55.086933244145975],[8.03419837529028,55.08640406139667],[7.688125,54.56096],[7.5411412070120925,54.334402580753064],[8.029358131446884,55.086933244145975]]],[[[9.878565,54.83668],[9.938352518934767,54.811755098441914],[9.775247722828755,54.824922699610674],[9.878565,54.83668]]],[[[11.67572,54.4397],[11.188126912385444,54.612026506513885],[11.28491,54.5936],[11.77816,54.44065],[11.97877127777877,54.4497264538217],[11.93115,54.42373],[11.87346,54.44185],[11.73021456486384,54.38185436552725],[11.67572,54.4397]]],[[[12.6006853502929,54.74642392317661],[12.528047074454118,54.71600109355787],[12.59162,54.7455],[12.6006853502929,54.74642392317661]]],[[[14.054491446484175,54.76836815968554],[14.050175878684975,54.767978165243484],[14.048637205057698,54.76838874771829],[14.054491446484175,54.76836815968554]]]]}}
