{"type":"Feature","properties":{"sourceId":"denmark"},"geometry":{"type":"Polygon","coordinates":[[[8.008442,55.08922],[8.033032,55.23671],[7.7011,55.48043],[7.711231,56.78479],[7.732708,57.27693],[8.724302,57.49394],[10.73552,58.06239],[11.10578,57.69656],[12.00898,56.72149],[12.04222,56.28617],[12.35927,56.22882],[12.65451,56.05396],[12.67291,55.99475],[12.66399,55.91373],[12.80482,55.79932],[12.91768,55.6381],[12.73642,55.48176],[12.79505,55.23748],[12.94945,55.10333],[14.26342,55.13914],[15.04271,55.65064],[15.65449,55.41461],[15.515589907807687,54.9004064697576],[14.054491446484189,54.76836815968554],[14.048637205057698,54.76838874771829],[13.24175,54.9837],[12.92131,54.88071],[12.600685350292903,54.74642392317661],[12.59162,54.7455],[12.528047074454054,54.71600109355784],[12.26383,54.60534],[11.978771277778774,54.4497264538217],[11.77816,54.44065],[11.28491,54.5936],[11.188126912385426,54.612026506513885],[11.13464,54.63093],[10.0359,54.80388],[9.938352518934773,54.811755098441914],[9.878565,54.83668],[9.775247722828755,54.824922699610674],[9.757568,54.82635],[9.753249,54.82587],[9.746835,54.82721],[9.746014,54.82728],[9.737218,54.82923],[9.617687,54.85427],[9.618824,54.85545],[9.618575,54.85551],[9.639296,54.88159],[9.63225,54.88446],[9.588,54.88828],[9.49161,54.84524],[9.466781,54.83807],[9.431248,54.83283],[9.411678,54.84539],[9.378204,54.84104],[9.36018,54.81918],[9.262932,54.8214],[9.245681,54.85843],[8.991623,54.908],[8.830604,54.91353],[8.778759,54.90659],[8.713305,54.90027],[8.674935,54.91796],[8.670574,54.91974],[8.624728,54.9237],[8.61587,54.92437],[8.615785,54.92447],[8.614891,54.92455],[8.614893,54.92555],[8.505336,55.05835],[8.082764,55.14492],[8.073674,55.14634],[8.034198375290282,55.08640406139667],[8.008442,55.08922]]]}}
