{"type":"Feature","properties":{"sourceId":"durham"},"geometry":{"type":"Polygon","coordinates":[[[-1.985768,54.45864],[-1.997602,54.46577],[-2.015153,54.47029],[-2.045324,54.4741],[-2.046603,54.47863],[-2.049068,54.48011],[-2.059763,54.47963],[-2.081533,54.46853],[-2.116836,54.46089],[-2.149502,54.45873],[-2.158643,54.45426],[-2.171212,54.45748],[-2.162412,54.46644],[-2.16771,54.48985],[-2.164151,54.50473],[-2.169128,54.5172],[-2.175565,54.52111],[-2.174012,54.5307],[-2.183393,54.53431],[-2.197835,54.53155],[-2.211112,54.5429],[-2.2113,54.54968],[-2.246752,54.56402],[-2.262613,54.57293],[-2.272295,54.58137],[-2.305342,54.59534],[-2.310466,54.6119],[-2.326146,54.63178],[-2.312289,54.63864],[-2.30757,54.6434],[-2.301244,54.64552],[-2.293671,54.65141],[-2.294592,54.66218],[-2.306839,54.66804],[-2.322418,54.6677],[-2.327935,54.6696],[-2.330859,54.67308],[-2.336331,54.67423],[-2.34569,54.68184],[-2.349924,54.68294],[-2.355238,54.69097],[-2.356677,54.69844],[-2.346486,54.70321],[-2.346146,54.70984],[-2.343359,54.71312],[-2.3432,54.7167],[-2.331214,54.7253],[-2.333511,54.73228],[-2.3291,54.73906],[-2.328093,54.74765],[-2.324543,54.76039],[-2.323341,54.76501],[-2.31307,54.77399],[-2.315131,54.78182],[-2.314635,54.79092],[-2.308297,54.79329],[-2.281947,54.79945],[-2.234994,54.78792],[-2.231318,54.78499],[-2.21808,54.78448],[-2.199295,54.80776],[-2.169863,54.80831],[-2.166829,54.81518],[-2.161829,54.81942],[-2.145554,54.8276],[-2.139718,54.8432],[-2.130533,54.84396],[-2.10314,54.84138],[-2.09596,54.83818],[-2.083292,54.83962],[-2.07434,54.8421],[-2.067927,54.84609],[-2.040622,54.84968],[-2.036774,54.8539],[-2.014789,54.86503],[-2.012607,54.8677],[-2.001067,54.87095],[-1.991235,54.87143],[-1.979935,54.86944],[-1.970918,54.86525],[-1.967489,54.86115],[-1.949523,54.85459],[-1.937569,54.85385],[-1.932004,54.85527],[-1.921204,54.85045],[-1.918725,54.84294],[-1.915469,54.84086],[-1.908702,54.84111],[-1.897423,54.84708],[-1.888141,54.84524],[-1.870618,54.85324],[-1.870863,54.86205],[-1.862565,54.8676],[-1.861129,54.8786],[-1.854694,54.88244],[-1.854189,54.88555],[-1.856468,54.88898],[-1.855556,54.89186],[-1.846309,54.89784],[-1.835801,54.90003],[-1.827424,54.9069],[-1.8254030956769012,54.906850382903926],[-1.821993,54.90465],[-1.804733,54.90324],[-1.795707,54.90224],[-1.789845,54.90725],[-1.780401,54.90942],[-1.769466,54.90543],[-1.760826,54.90714],[-1.750321,54.91576],[-1.737018,54.91673],[-1.73101,54.91422],[-1.728554,54.90958],[-1.725357,54.90765],[-1.716431,54.90653],[-1.702151,54.90788],[-1.692554,54.90156],[-1.689677,54.90181],[-1.686758,54.90651],[-1.679496,54.90453],[-1.679281,54.89945],[-1.676012,54.89686],[-1.6629,54.89334],[-1.660462,54.88958],[-1.650599,54.89104],[-1.648644,54.88744],[-1.652202,54.87928],[-1.645337,54.87749],[-1.636406,54.87973],[-1.618326,54.88582],[-1.611328,54.89367],[-1.594866,54.8999],[-1.585036,54.89104],[-1.578669,54.87684],[-1.565828,54.8788],[-1.562259,54.87456],[-1.542214,54.87227],[-1.531556,54.87586],[-1.525682,54.87587],[-1.510858,54.87175],[-1.511574,54.86012],[-1.504511,54.83613],[-1.505453,54.83081],[-1.495574,54.81954],[-1.495195,54.81518],[-1.488824,54.81054],[-1.489195,54.80764],[-1.495454,54.80168],[-1.493709,54.79868],[-1.481886,54.79775],[-1.444469,54.8005],[-1.440992,54.79848],[-1.421424,54.80251],[-1.420681,54.81046],[-1.413311,54.81861],[-1.411714,54.8231],[-1.419202,54.83541],[-1.417534,54.83917],[-1.411494,54.84076],[-1.407235,54.84437],[-1.381005,54.84605],[-1.368287,54.8563],[-1.262592,54.87298],[-1.2663848698410445,54.88014403371858],[-1.251103,54.8833],[-1.101584,54.68259],[-1.150082,54.64449],[-1.151379,54.63753],[-1.156472,54.63027],[-1.152249,54.61772],[-1.153549,54.61165],[-1.157285,54.60694],[-1.20048,54.58081],[-1.214173,54.58025],[-1.251561,54.59013],[-1.256497,54.58771],[-1.260013,54.57161],[-1.263218,54.56826],[-1.286941,54.56309],[-1.304308,54.56327],[-1.308795,54.55261],[-1.306693,54.53818],[-1.313619,54.53258],[-1.320677,54.53336],[-1.333348,54.53028],[-1.33508,54.52782],[-1.334147,54.51696],[-1.335646,54.50852],[-1.344147,54.5024],[-1.348654,54.5022],[-1.35469,54.50564],[-1.360138,54.5021],[-1.373414,54.50203],[-1.375761,54.5002],[-1.376032,54.49538],[-1.380911,54.49139],[-1.381133,54.48723],[-1.384017,54.4856],[-1.396165,54.48455],[-1.3994,54.4868],[-1.401413,54.49232],[-1.405837,54.49253],[-1.407943,54.48921],[-1.406693,54.48345],[-1.407841,54.47903],[-1.41334,54.47583],[-1.432896,54.47838],[-1.434938,54.48574],[-1.450053,54.49489],[-1.45466,54.49585],[-1.459124,54.48775],[-1.456341,54.4811],[-1.460918,54.47577],[-1.457739,54.46987],[-1.453174,54.46796],[-1.452203,54.46567],[-1.456923,54.46006],[-1.45362,54.45322],[-1.458462,54.45026],[-1.463688,54.4502],[-1.472865,54.45447],[-1.473595,54.45688],[-1.471161,54.46265],[-1.478101,54.47344],[-1.48639,54.47166],[-1.495467,54.47282],[-1.504058,54.478],[-1.510087,54.47393],[-1.516327,54.4738],[-1.521823,54.46896],[-1.532914,54.46785],[-1.546601,54.47019],[-1.552477,54.47425],[-1.557406,54.48413],[-1.574398,54.4893],[-1.577536,54.49317],[-1.584144,54.49645],[-1.586256,54.50171],[-1.592426,54.50298],[-1.593347,54.50822],[-1.595374,54.51016],[-1.604123,54.50991],[-1.604392,54.51573],[-1.606287,54.51802],[-1.612806,54.51857],[-1.623179,54.5134],[-1.633805,54.51288],[-1.64097,54.51593],[-1.641378,54.52108],[-1.643677,54.52299],[-1.653049,54.52289],[-1.657294,54.52464],[-1.658213,54.53213],[-1.660719,54.53388],[-1.672863,54.53408],[-1.683246,54.53209],[-1.705389,54.5356],[-1.719145,54.53974],[-1.722436,54.53814],[-1.726396,54.5296],[-1.733401,54.5264],[-1.742793,54.52832],[-1.761595,54.52769],[-1.769696,54.53153],[-1.775232,54.53043],[-1.776245,54.51617],[-1.774901,54.5065],[-1.79242,54.48337],[-1.822649,54.49384],[-1.827357,54.49983],[-1.839279,54.50658],[-1.856932,54.50038],[-1.856466,54.49361],[-1.857311,54.4825],[-1.858834,54.48065],[-1.867716,54.4805],[-1.877348,54.47664],[-1.893416,54.46555],[-1.927475,54.4554],[-1.94268,54.45209],[-1.9664,54.45035],[-1.970662,54.45047],[-1.985768,54.45864]]]}}
