{"type":"Feature","properties":{"sourceId":"detmold-regbez"},"geometry":{"type":"Polygon","coordinates":[[[8.968078,51.50747],[8.948504,51.50476],[8.942516,51.51047],[8.909783,51.52118],[8.902817,51.52852],[8.894112,51.52838],[8.890065,51.53203],[8.889459,51.54619],[8.885003,51.5472],[8.878578,51.5447],[8.861028,51.54551],[8.858323,51.54337],[8.849779,51.54645],[8.846192,51.54469],[8.848212,51.53932],[8.84663,51.53662],[8.816898,51.53782],[8.818241,51.53002],[8.809422,51.52778],[8.812833,51.52648],[8.811765,51.52234],[8.822389,51.5201],[8.822224,51.51609],[8.835914,51.50626],[8.835148,51.50279],[8.83954,51.50056],[8.837938,51.49498],[8.814746,51.48307],[8.789624,51.45567],[8.768255,51.44566],[8.756004,51.45301],[8.750534,51.45918],[8.750151,51.46401],[8.720356,51.4575],[8.709841,51.46166],[8.698724,51.46187],[8.687053,51.46809],[8.686356,51.4711],[8.665218,51.47075],[8.653863,51.47962],[8.625649,51.47689],[8.609318,51.47891],[8.603283,51.48205],[8.587178,51.4779],[8.573964,51.46621],[8.562369,51.46419],[8.548083,51.46592],[8.518817,51.48925],[8.515843,51.50367],[8.511189,51.51171],[8.512209,51.51743],[8.50948,51.51824],[8.507632,51.52374],[8.509934,51.52895],[8.503398,51.53132],[8.492262,51.52818],[8.485436,51.53162],[8.483468,51.53551],[8.485761,51.53751],[8.47607,51.54692],[8.470626,51.56334],[8.472803,51.56652],[8.478926,51.5665],[8.47489,51.56808],[8.472813,51.57412],[8.489188,51.58339],[8.486309,51.58512],[8.487202,51.58863],[8.505704,51.5876],[8.504654,51.59144],[8.509962,51.59622],[8.533477,51.6006],[8.542605,51.6073],[8.547401,51.60665],[8.578773,51.62128],[8.583553,51.61941],[8.573501,51.64605],[8.572181,51.65796],[8.567842,51.65699],[8.552369,51.66748],[8.520916,51.67018],[8.51014,51.67882],[8.477302,51.68235],[8.477669,51.68899],[8.483129,51.68854],[8.481652,51.69371],[8.471013,51.69645],[8.468005,51.70414],[8.4732,51.70704],[8.474373,51.71285],[8.467858,51.71308],[8.466598,51.71917],[8.461068,51.72215],[8.433142,51.71515],[8.42883,51.71805],[8.386094,51.71575],[8.339907,51.72069],[8.332973,51.72532],[8.329418,51.72218],[8.323985,51.72577],[8.319277,51.72405],[8.309129,51.7331],[8.309502,51.73911],[8.299914,51.7406],[8.299376,51.74565],[8.304018,51.74715],[8.300506,51.75235],[8.292198,51.75169],[8.28747,51.76166],[8.279022,51.7644],[8.274212,51.7696],[8.253266,51.77224],[8.251051,51.77617],[8.252733,51.7808],[8.250246,51.78343],[8.252162,51.78876],[8.257999,51.7923],[8.256036,51.80101],[8.239675,51.80773],[8.232061,51.82127],[8.21425,51.82045],[8.198707,51.82675],[8.198218,51.82945],[8.202575,51.83152],[8.205271,51.83779],[8.215409,51.83691],[8.217031,51.84532],[8.212785,51.84742],[8.212028,51.85109],[8.206121,51.85247],[8.203919,51.85687],[8.198937,51.85821],[8.198544,51.86095],[8.183612,51.86109],[8.179014,51.86771],[8.179393,51.87318],[8.173665,51.87395],[8.174007,51.88117],[8.169629,51.88728],[8.158076,51.88949],[8.156148,51.89699],[8.148803,51.89803],[8.167567,51.91066],[8.170223,51.91917],[8.164155,51.92348],[8.167028,51.92673],[8.128193,51.95029],[8.111785,51.95463],[8.111379,51.96243],[8.103747,51.96685],[8.107015,51.973],[8.112358,51.97343],[8.105646,51.99271],[8.11009,51.99907],[8.090756,51.99559],[8.074053,52.01001],[8.095268,52.05847],[8.094893,52.06655],[8.103275,52.06568],[8.145847,52.07877],[8.191337,52.07507],[8.197861,52.0871],[8.217773,52.10629],[8.242321,52.12253],[8.266353,52.13307],[8.288841,52.13633],[8.361797,52.12095],[8.39201,52.11136],[8.407116,52.13791],[8.433037,52.14797],[8.450375,52.15693],[8.469772,52.15782],[8.497839,52.1753],[8.508654,52.18551],[8.465309,52.19477],[8.453035,52.19861],[8.447285,52.20834],[8.439388,52.21392],[8.456039,52.24063],[8.456039,52.2586],[8.460674,52.27152],[8.455181,52.30407],[8.461361,52.30627],[8.466511,52.31478],[8.459129,52.31551],[8.436985,52.35862],[8.384971,52.38199],[8.30841,52.40336],[8.300686,52.43351],[8.292446,52.46333],[8.345661,52.45538],[8.361797,52.44712],[8.399391,52.45182],[8.448143,52.46197],[8.454666,52.4924],[8.508568,52.51747],[8.554916,52.5041],[8.652935,52.53345],[8.694305,52.51925],[8.70615,52.50086],[8.71233,52.47766],[8.720913,52.42943],[8.713531,52.40305],[8.787174,52.39959],[8.86322,52.39645],[8.892746,52.40698],[8.928366,52.40551],[8.937979,52.41603],[8.948879,52.41797],[8.963556,52.42666],[8.975916,52.42954],[8.976946,52.45141],[8.999777,52.45873],[9.009819,52.45941],[9.022608,52.47933],[9.051704,52.50217],[9.09625,52.49961],[9.137106,52.48435],[9.14011,52.47384],[9.105349,52.45522],[9.099512,52.44518],[9.125862,52.42383],[9.127493,52.40483],[9.119768,52.39713],[9.11273,52.39362],[9.10037,52.37078],[9.086037,52.35196],[9.060287,52.33738],[9.035826,52.33943],[8.998661,52.31756],[8.99291,52.30753],[8.989391,52.28759],[8.988104,52.26227],[9.035997,52.25177],[9.080028,52.234],[9.073248,52.2257],[9.049644,52.21907],[9.03883,52.21891],[9.04355,52.21592],[9.04767,52.21045],[9.051361,52.18193],[9.024496,52.18141],[9.018488,52.13765],[9.053163,52.14977],[9.071274,52.15076],[9.089298,52.13702],[9.112387,52.1397],[9.131355,52.14123],[9.14423,52.13612],[9.155559,52.13001],[9.162168,52.1191],[9.157963,52.11431],[9.147921,52.10803],[9.137192,52.10018],[9.150925,52.10092],[9.155989,52.09802],[9.158993,52.09338],[9.17633,52.08784],[9.185343,52.07861],[9.198646,52.06959],[9.184828,52.06616],[9.179592,52.04098],[9.198303,52.01553],[9.198561,51.99598],[9.18354,51.98002],[9.190149,51.97256],[9.189634,51.96727],[9.21607,51.97452],[9.231691,51.97727],[9.249544,51.97938],[9.264049,51.97806],[9.273834,51.97499],[9.289615,51.96544],[9.285089,51.92865],[9.326035,51.92603],[9.345136,51.9099],[9.358973,51.87124],[9.468311,51.86355],[9.46249,51.85131],[9.43511,51.84045],[9.442663,51.83291],[9.443865,51.82761],[9.432878,51.80851],[9.441461,51.80421],[9.454336,51.79365],[9.403868,51.75849],[9.387903,51.75626],[9.386187,51.75047],[9.380693,51.74638],[9.378204,51.74175],[9.384041,51.73824],[9.398031,51.73133],[9.390907,51.72081],[9.394684,51.71592],[9.403524,51.70645],[9.404812,51.69916],[9.390564,51.68746],[9.396229,51.68352],[9.399061,51.6749],[9.397688,51.67181],[9.381208,51.66601],[9.378118,51.65083],[9.390821,51.64769],[9.440174,51.6535],[9.44807,51.64295],[9.431321,51.62757],[9.348507,51.61002],[9.381981,51.59126],[9.327736,51.55071],[9.312801,51.51056],[9.291633,51.50633],[9.225082,51.47989],[9.221134,51.45582],[9.156649,51.4369],[9.074497,51.44149],[9.065998,51.46814],[9.08123,51.49303],[9.023358,51.50092],[9.018917,51.51366],[9.004154,51.51077],[8.986645,51.5081],[8.97323,51.50327],[8.971899,51.50451],[8.968078,51.50747]]]}}
