{"type":"Feature","properties":{"sourceId":"duesseldorf-regbez"},"geometry":{"type":"MultiPolygon","coordinates":[[[[6.411168,51.82668],[6.414572,51.82082],[6.419315,51.81942],[6.427864,51.81981],[6.428116,51.81676],[6.42216,51.81534],[6.421834,51.81342],[6.425633,51.81026],[6.422158,51.80832],[6.423448,51.80641],[6.428888,51.80673],[6.433163,51.80375],[6.465759,51.80577],[6.485113,51.81273],[6.491792,51.81136],[6.505659,51.81274],[6.512196,51.81403],[6.517928,51.81746],[6.52281,51.8143],[6.523558,51.81136],[6.527993,51.81052],[6.541415,51.8022],[6.552198,51.79909],[6.554631,51.79646],[6.557935,51.7961],[6.559891,51.79424],[6.565182,51.79407],[6.568772,51.79099],[6.571116,51.79259],[6.569776,51.7948],[6.570526,51.79592],[6.581661,51.79651],[6.583933,51.7944],[6.587486,51.80033],[6.589612,51.80021],[6.591096,51.8027],[6.592927,51.80314],[6.601744,51.80063],[6.609225,51.80081],[6.610072,51.79538],[6.632066,51.80021],[6.639021,51.7991],[6.658371,51.79004],[6.665963,51.78386],[6.668828,51.77812],[6.697286,51.77823],[6.705975,51.78157],[6.714081,51.78136],[6.714834,51.77779],[6.713,51.77506],[6.709121,51.77421],[6.709467,51.7724],[6.72252,51.76943],[6.746208,51.7711],[6.748809,51.77558],[6.758272,51.77726],[6.763543,51.77403],[6.77018,51.76638],[6.77024,51.75905],[6.772791,51.75389],[6.773584,51.74703],[6.787797,51.74971],[6.799591,51.74306],[6.811296,51.74468],[6.818972,51.74377],[6.820522,51.73836],[6.827704,51.73081],[6.840841,51.73722],[6.848593,51.73777],[6.850182,51.73644],[6.855997,51.73617],[6.859125,51.73214],[6.859106,51.73015],[6.911045,51.74678],[6.917189,51.74276],[6.92628,51.73298],[6.925861,51.7307],[6.922629,51.72865],[6.923823,51.72705],[6.931037,51.72099],[6.93831,51.71952],[6.941444,51.71581],[6.937841,51.71364],[6.937979,51.70246],[6.916267,51.69899],[6.915365,51.69253],[6.916653,51.68784],[6.915096,51.68608],[6.914022,51.67741],[6.912381,51.67587],[6.905741,51.67686],[6.902104,51.67469],[6.907576,51.67175],[6.902626,51.66998],[6.902315,51.66512],[6.901021,51.66295],[6.899589,51.66297],[6.899707,51.66014],[6.897993,51.6596],[6.89493,51.65424],[6.900652,51.65373],[6.9001,51.64966],[6.902014,51.64786],[6.901147,51.64629],[6.90292,51.64382],[6.901673,51.63765],[6.902895,51.63527],[6.868201,51.63019],[6.867598,51.62825],[6.872161,51.62158],[6.864394,51.61501],[6.864433,51.61299],[6.857388,51.61168],[6.85753,51.60974],[6.854039,51.6094],[6.854114,51.60761],[6.851908,51.60739],[6.863028,51.60146],[6.866653,51.59783],[6.866577,51.59595],[6.863505,51.59448],[6.860148,51.58903],[6.834779,51.5793],[6.843668,51.57648],[6.849108,51.57205],[6.857035,51.569],[6.869126,51.56793],[6.868212,51.56332],[6.861424,51.55758],[6.869807,51.5528],[6.878425,51.5444],[6.8802,51.53892],[6.885912,51.53715],[6.886333,51.52805],[6.894931,51.52404],[6.895012,51.51626],[6.901686,51.51336],[6.901495,51.51126],[6.908687,51.50618],[6.908895,51.50328],[6.913445,51.50277],[6.926753,51.50474],[6.929303,51.50278],[6.92899,51.50093],[6.930939,51.50053],[6.930931,51.4983],[6.978438,51.50638],[6.98617,51.50905],[6.985362,51.51346],[6.994201,51.52275],[6.994404,51.53154],[6.99871,51.5346],[7.004673,51.53506],[7.014714,51.53302],[7.014038,51.52935],[7.020267,51.51926],[7.022496,51.52],[7.025495,51.51755],[7.040274,51.51474],[7.04225,51.51223],[7.050994,51.51267],[7.052456,51.50636],[7.055224,51.50607],[7.058311,51.49983],[7.061221,51.49769],[7.067398,51.49842],[7.074439,51.49386],[7.075072,51.49218],[7.072133,51.48872],[7.071938,51.48588],[7.074769,51.48375],[7.085018,51.48503],[7.098305,51.48356],[7.104353,51.48108],[7.114894,51.47223],[7.114628,51.46502],[7.109426,51.46147],[7.11343,51.46076],[7.116694,51.45599],[7.121822,51.4557],[7.129573,51.44717],[7.129679,51.44518],[7.134667,51.44256],[7.133193,51.43882],[7.12366,51.43358],[7.123798,51.43182],[7.130923,51.42998],[7.13847,51.4254],[7.137632,51.41998],[7.127771,51.40981],[7.125873,51.41049],[7.121768,51.40765],[7.110939,51.40667],[7.113496,51.40437],[7.113806,51.39977],[7.1194,51.39403],[7.11856,51.3901],[7.120362,51.3871],[7.117287,51.38459],[7.118606,51.38167],[7.121621,51.38157],[7.124213,51.37966],[7.125247,51.38152],[7.130235,51.38231],[7.133725,51.37855],[7.138313,51.38015],[7.140053,51.37662],[7.143778,51.3764],[7.145797,51.37819],[7.150059,51.37779],[7.150808,51.3757],[7.153686,51.37512],[7.153643,51.37277],[7.16032,51.36561],[7.157805,51.35937],[7.148767,51.35228],[7.150063,51.35078],[7.153335,51.35102],[7.154076,51.34915],[7.150004,51.3459],[7.150828,51.34369],[7.146909,51.34166],[7.146441,51.33969],[7.150359,51.33798],[7.148845,51.33492],[7.154301,51.33567],[7.158937,51.32978],[7.166746,51.32671],[7.167745,51.32487],[7.166765,51.32075],[7.170666,51.3175],[7.167786,51.31362],[7.176268,51.31076],[7.178494,51.3074],[7.181497,51.30623],[7.179522,51.30263],[7.17391,51.29919],[7.182426,51.30004],[7.185963,51.29852],[7.186455,51.29696],[7.197833,51.29554],[7.205946,51.30202],[7.221804,51.30604],[7.220359,51.3084],[7.224577,51.30986],[7.225794,51.30905],[7.228672,51.3114],[7.234287,51.30952],[7.248436,51.31578],[7.251348,51.31526],[7.256059,51.3176],[7.25917,51.31716],[7.264308,51.31888],[7.265521,51.31503],[7.264162,51.31371],[7.266854,51.3106],[7.263712,51.30562],[7.261515,51.29507],[7.256928,51.29033],[7.25733,51.28391],[7.263434,51.28681],[7.267079,51.2854],[7.275395,51.27847],[7.278601,51.27244],[7.273729,51.26984],[7.271004,51.26611],[7.267776,51.2604],[7.268559,51.25651],[7.271139,51.25599],[7.271938,51.2603],[7.275542,51.26027],[7.283821,51.25061],[7.298728,51.25099],[7.302063,51.25395],[7.305363,51.25348],[7.30744,51.25187],[7.306733,51.25035],[7.297629,51.24693],[7.306729,51.24154],[7.308795,51.23612],[7.310024,51.23673],[7.314306,51.23451],[7.310921,51.23007],[7.301254,51.22538],[7.300202,51.22371],[7.300899,51.22081],[7.297472,51.21964],[7.29999,51.21761],[7.299312,51.21535],[7.302322,51.2102],[7.296864,51.20497],[7.299837,51.20463],[7.297949,51.20086],[7.299741,51.19886],[7.299475,51.19686],[7.305238,51.19666],[7.306695,51.19453],[7.299747,51.18667],[7.302961,51.18648],[7.306416,51.19011],[7.308793,51.19021],[7.309875,51.18855],[7.308134,51.18718],[7.309963,51.1826],[7.306144,51.18011],[7.306265,51.1778],[7.303075,51.17272],[7.303583,51.17089],[7.300169,51.16722],[7.301837,51.16621],[7.301928,51.16438],[7.294533,51.16114],[7.29579,51.15884],[7.294952,51.15767],[7.296741,51.15589],[7.296262,51.1533],[7.297831,51.15151],[7.296044,51.14765],[7.287429,51.14296],[7.279869,51.1427],[7.270511,51.14543],[7.268317,51.14442],[7.260154,51.1462],[7.259633,51.14836],[7.256117,51.15099],[7.256764,51.15283],[7.254312,51.15434],[7.25436,51.15623],[7.250114,51.1577],[7.233596,51.15646],[7.226891,51.15835],[7.223418,51.15775],[7.21966,51.16011],[7.213604,51.15685],[7.211831,51.15434],[7.205247,51.15519],[7.198268,51.15019],[7.191662,51.15354],[7.189938,51.15245],[7.185056,51.15476],[7.182647,51.15254],[7.179293,51.15193],[7.177245,51.15308],[7.170335,51.15135],[7.16596,51.15276],[7.164027,51.14649],[7.168091,51.14537],[7.168282,51.1413],[7.170521,51.13876],[7.161137,51.1336],[7.166509,51.13249],[7.165456,51.12933],[7.168658,51.12987],[7.169853,51.12776],[7.175811,51.12908],[7.177949,51.12484],[7.155032,51.1183],[7.148231,51.11333],[7.143579,51.11477],[7.144224,51.11807],[7.140536,51.11735],[7.13942,51.11927],[7.135693,51.11599],[7.130608,51.11717],[7.127756,51.12057],[7.119781,51.12159],[7.115675,51.12456],[7.117193,51.12749],[7.117037,51.13144],[7.111059,51.13308],[7.108771,51.13695],[7.102791,51.13602],[7.097139,51.13772],[7.097557,51.13393],[7.095683,51.13258],[7.086284,51.13476],[7.082757,51.13732],[7.076502,51.13535],[7.075522,51.13355],[7.078226,51.12753],[7.074025,51.12514],[7.062413,51.12651],[7.059354,51.12394],[7.055893,51.12424],[7.04331,51.13132],[7.02555,51.12929],[7.012543,51.12297],[7.004065,51.12218],[6.9991,51.1191],[7.001474,51.11472],[6.99617,51.11234],[6.995877,51.10892],[6.990524,51.10847],[6.989154,51.1067],[6.989119,51.07358],[6.974644,51.06664],[6.969028,51.06955],[6.964509,51.06793],[6.962294,51.06985],[6.959657,51.06945],[6.958873,51.07131],[6.957591,51.06991],[6.952422,51.07107],[6.951265,51.0691],[6.947369,51.07093],[6.942033,51.07067],[6.933021,51.07927],[6.930226,51.07958],[6.923936,51.07232],[6.916909,51.07798],[6.905164,51.06727],[6.902573,51.0677],[6.897652,51.06386],[6.886012,51.06795],[6.85944,51.07315],[6.853527,51.07772],[6.852161,51.08333],[6.847868,51.0839],[6.844472,51.08316],[6.844588,51.08093],[6.838712,51.07961],[6.838901,51.07718],[6.826475,51.07403],[6.832308,51.06665],[6.83454,51.05941],[6.817704,51.053],[6.813879,51.04879],[6.813924,51.04506],[6.805576,51.0464],[6.800333,51.05495],[6.799974,51.05878],[6.79809,51.05878],[6.791518,51.06379],[6.789958,51.06691],[6.786849,51.06777],[6.773871,51.0632],[6.77293,51.06452],[6.765351,51.06354],[6.754035,51.06477],[6.753241,51.06083],[6.758521,51.05774],[6.762689,51.042],[6.75104,51.03905],[6.743739,51.0452],[6.744435,51.04315],[6.741057,51.03857],[6.743778,51.03786],[6.743899,51.03649],[6.734934,51.03195],[6.730039,51.03102],[6.718617,51.01546],[6.715787,51.01422],[6.704088,51.01687],[6.677581,51.01907],[6.673539,51.01499],[6.659398,51.02031],[6.657524,51.01882],[6.650381,51.021],[6.645849,51.01997],[6.63914,51.02211],[6.638894,51.02348],[6.640687,51.02415],[6.637303,51.02568],[6.634107,51.02388],[6.621949,51.02387],[6.60809,51.02047],[6.592283,51.02172],[6.585236,51.01893],[6.581345,51.01756],[6.581152,51.0207],[6.579826,51.02137],[6.577754,51.02035],[6.576879,51.02217],[6.572069,51.02098],[6.568606,51.02871],[6.563604,51.03075],[6.562229,51.02984],[6.556017,51.03118],[6.555607,51.03274],[6.550143,51.03382],[6.550019,51.03759],[6.552006,51.03872],[6.552343,51.04117],[6.550124,51.04837],[6.555683,51.05125],[6.548642,51.05302],[6.545518,51.05284],[6.543706,51.05111],[6.537298,51.0513],[6.534142,51.05842],[6.526701,51.05754],[6.52237,51.05514],[6.518551,51.05732],[6.492458,51.04662],[6.485255,51.04175],[6.480581,51.03337],[6.458803,51.04221],[6.458608,51.04375],[6.475735,51.05609],[6.473191,51.05801],[6.47129,51.05696],[6.45987,51.06045],[6.451894,51.05895],[6.449796,51.06221],[6.446517,51.06192],[6.443403,51.06817],[6.446998,51.06918],[6.450681,51.07384],[6.449437,51.07473],[6.449873,51.07756],[6.453553,51.07959],[6.450659,51.08047],[6.449716,51.08917],[6.42338,51.08496],[6.417987,51.0853],[6.416015,51.0884],[6.408247,51.08747],[6.405413,51.08539],[6.397357,51.08905],[6.396847,51.09069],[6.384806,51.08943],[6.385867,51.09331],[6.390185,51.09423],[6.391324,51.09783],[6.38682,51.09676],[6.372802,51.09775],[6.363672,51.09155],[6.357386,51.09762],[6.351313,51.10067],[6.352751,51.10267],[6.349933,51.10476],[6.351308,51.10631],[6.350575,51.10782],[6.353409,51.1098],[6.348613,51.11211],[6.348438,51.11472],[6.350654,51.11678],[6.349315,51.12023],[6.354133,51.12569],[6.343653,51.12667],[6.343263,51.12799],[6.345672,51.13047],[6.333028,51.13369],[6.331159,51.13587],[6.331158,51.1418],[6.322569,51.14386],[6.318642,51.14729],[6.31819,51.14958],[6.308403,51.15167],[6.301488,51.15129],[6.300954,51.15534],[6.304914,51.16188],[6.304941,51.16445],[6.293662,51.16682],[6.292336,51.17395],[6.281551,51.17465],[6.277884,51.178],[6.269813,51.17994],[6.267063,51.17934],[6.262104,51.18547],[6.259887,51.18631],[6.250954,51.18899],[6.248738,51.1865],[6.240748,51.1855],[6.229976,51.17671],[6.23011,51.17508],[6.225008,51.17199],[6.222924,51.17257],[6.218312,51.1685],[6.211346,51.16597],[6.20854,51.1675],[6.207316,51.16613],[6.176796009852886,51.182422827484],[6.183035,51.18445],[6.182602,51.1887],[6.165647,51.19733],[6.105466,51.17517],[6.083935,51.17443],[6.076,51.18415],[6.071111,51.21887],[6.088301,51.22072],[6.077269,51.24114],[6.126709,51.2727],[6.131365,51.28373],[6.15602,51.3054],[6.172269,51.33015],[6.195852,51.33235],[6.194644,51.33874],[6.22939,51.36029],[6.218449,51.38669],[6.229287,51.40173],[6.209491,51.40357],[6.226676,51.46874],[6.2158,51.49233],[6.214704,51.51474],[6.201415,51.52999],[6.178861,51.54098],[6.158656,51.5691],[6.132643,51.5833],[6.123231,51.59519],[6.095011,51.6075],[6.110479,51.64002],[6.120054,51.64966],[6.119859,51.65839],[6.037929,51.67553],[6.033234,51.67912],[6.034777,51.69268],[6.029834,51.70829],[6.043521,51.71075],[6.046624,51.7194],[5.994732,51.74126],[5.956064,51.74222],[5.956302,51.74809],[5.959971,51.74969],[5.95584117155777,51.749414427583474],[5.955961,51.74966],[5.960018,51.74971],[5.991943,51.76365],[5.995037,51.77067],[5.987021,51.77533],[5.992548,51.78532],[5.978057,51.78878],[5.981246,51.79971],[5.957302,51.81295],[5.96076,51.81841],[5.95053,51.82414],[5.963244,51.8334],[5.994722,51.82793],[6.028512,51.84175],[6.036744,51.83984],[6.057291,51.85011],[6.064946,51.86168],[6.100394,51.84609],[6.167472,51.83786],[6.169398,51.86342],[6.147601,51.87194],[6.138796,51.8883],[6.116557,51.89529],[6.156526,51.90204],[6.185248,51.88976],[6.179351,51.88717],[6.181319,51.88052],[6.209305,51.86615],[6.262056,51.86515],[6.279113,51.87118],[6.295315,51.86526],[6.305316,51.84621],[6.34647,51.84775],[6.358099,51.84371],[6.360515,51.83368],[6.366882,51.8306],[6.380975,51.83187],[6.407495,51.82503],[6.408652363169415,51.82850685231964],[6.411168,51.82668]]],[[[5.953377,51.74925],[5.955841171557769,51.749414427583474],[5.95584117155777,51.749414427583474],[5.953377,51.74925]]]]}}
