{"type":"Feature","properties":{"sourceId":"extremadura"},"geometry":{"type":"Polygon","coordinates":[[[-6.952973,38.21296],[-6.969109,38.20123],[-7.004829,38.1998],[-7.021836,38.1827],[-7.04876,38.17816],[-7.065411,38.17667],[-7.084465,38.1656],[-7.110729,38.18625],[-7.144944,38.23924],[-7.149525,38.26393],[-7.172138,38.27751],[-7.233811,38.35431],[-7.263894,38.38191],[-7.274838,38.39643],[-7.284279,38.41742],[-7.300587,38.42495],[-7.338867,38.43436],[-7.332001,38.44525],[-7.308567,38.4683],[-7.324963,38.47523],[-7.315178,38.51835],[-7.305393,38.54333],[-7.287712,38.57447],[-7.269173,38.58843],[-7.261105,38.61312],[-7.276039,38.6386],[-7.269173,38.69891],[-7.26162,38.72489],[-7.239304,38.73895],[-7.220078,38.74418],[-7.193985,38.77041],[-7.161649,38.7852],[-7.155533,38.79851],[-7.130998,38.81736],[-7.094854,38.821],[-7.070046,38.85535],[-7.04979,38.8631],[-7.038117,38.87647],[-7.055283,38.90733],[-7.030049,38.92363],[-7.022495,38.94072],[-6.986618,38.9821],[-6.957264,39.02358],[-6.970482,39.03839],[-6.974794,39.07525],[-7.033652,39.11515],[-7.111249,39.09436],[-7.144718,39.10702],[-7.152532,39.11232],[-7.152443,39.12194],[-7.137337,39.16747],[-7.207901,39.18443],[-7.24308,39.2026],[-7.250007,39.25687],[-7.23709,39.27669],[-7.309119,39.33414],[-7.325055,39.3816],[-7.305234,39.41759],[-7.311043,39.43591],[-7.300163,39.46043],[-7.363802,39.48042],[-7.389969,39.49233],[-7.394287,39.52668],[-7.438688,39.53429],[-7.463494,39.57037],[-7.497387,39.58432],[-7.524867,39.62766],[-7.54369,39.66918],[-7.485981,39.66703],[-7.425393,39.66114],[-7.41869,39.65276],[-7.370796,39.65368],[-7.333546,39.64377],[-7.299557,39.65963],[-7.268826,39.66884],[-7.146607,39.65884],[-7.125664,39.6661],[-7.114347,39.66608],[-7.064255,39.66157],[-7.020435,39.67235],[-6.995676,39.72512],[-6.989638,39.80901],[-6.981901,39.82359],[-6.951758,39.83019],[-6.935609,39.84957],[-6.930313,39.85731],[-6.906468,39.87141],[-6.912117,39.91843],[-6.875038,40.01052],[-6.883622,40.01894],[-6.887055,40.04049],[-6.920357,40.06388],[-6.947823,40.10381],[-6.994858,40.10985],[-7.018514,40.12549],[-7.033997,40.18753],[-7.017838,40.22379],[-6.990052,40.24337],[-6.967736,40.24258],[-6.953659,40.25883],[-6.921044,40.2625],[-6.875725,40.26512],[-6.869899,40.27638],[-6.802769,40.25189],[-6.722088,40.27324],[-6.675568,40.26643],[-6.584587,40.27743],[-6.562786,40.32966],[-6.541844,40.34851],[-6.422711,40.40082],[-6.370182,40.4216],[-6.347351,40.4446],[-6.274567,40.47007],[-6.239891,40.48913],[-6.201954,40.48626],[-6.108227,40.44512],[-6.120587,40.42487],[-6.059303,40.39846],[-6.077671,40.36381],[-6.086254,40.35623],[-6.01244,40.34406],[-6.0145,40.31828],[-5.965061,40.29354],[-5.919399,40.28267],[-5.897083,40.31658],[-5.894509,40.32404],[-5.853138,40.3404],[-5.845757,40.33307],[-5.819664,40.35282],[-5.793572,40.35832],[-5.776062,40.31252],[-5.789452,40.28843],[-5.765076,40.28424],[-5.737954,40.2976],[-5.690232,40.29576],[-5.652123,40.27376],[-5.653153,40.25831],[-5.619507,40.25018],[-5.611267,40.23708],[-5.611611,40.22633],[-5.52681,40.19854],[-5.469132,40.22319],[-5.431366,40.25595],[-5.347596,40.26957],[-5.336266,40.26695],[-5.359612,40.21637],[-5.356608,40.15756],[-5.32631,40.11563],[-5.355149,40.10171],[-5.365792,40.06178],[-5.356522,39.98712],[-5.393257,39.89446],[-5.309143,39.89525],[-5.276528,39.86232],[-5.30674,39.79192],[-5.306397,39.76685],[-5.259705,39.75867],[-5.208807,39.80056],[-5.17971,39.80082],[-5.172329,39.79944],[-5.165463,39.80181],[-5.13216,39.71551],[-5.139885,39.66835],[-5.154305,39.6439],[-5.195847,39.59696],[-5.125637,39.54046],[-5.118427,39.52112],[-5.108986,39.51622],[-5.052166,39.49464],[-5.020752,39.45793],[-4.871407,39.37969],[-4.683781,39.46403],[-4.659405,39.42187],[-4.697857,39.32062],[-4.742832,39.31637],[-4.723263,39.2627],[-4.643269,39.17239],[-4.64241,39.15802],[-4.804459,39.19248],[-4.860764,39.09556],[-4.81699,39.06385],[-4.829521,39.04505],[-4.859734,39.02839],[-4.882221,39.02972],[-4.954319,39.05225],[-4.923248,38.97302],[-4.834156,38.94753],[-4.828577,38.93565],[-4.840508,38.87687],[-4.907456,38.88328],[-4.966164,38.75971],[-4.989338,38.73306],[-5.035515,38.72878],[-5.092335,38.7048],[-5.173359,38.71056],[-5.162029,38.67868],[-5.179196,38.6587],[-5.23962,38.63283],[-5.304508,38.56991],[-5.361672,38.58078],[-5.377979,38.54011],[-5.404759,38.5205],[-5.479431,38.46044],[-5.548439,38.44297],[-5.575047,38.40639],[-5.552044,38.37248],[-5.562344,38.32361],[-5.552559,38.32025],[-5.519772,38.26487],[-5.515824,38.21081],[-5.532131,38.16426],[-5.580197,38.12862],[-5.631867,38.13172],[-5.660534,38.09971],[-5.701904,38.07688],[-5.73967,38.0835],[-5.745163,38.12645],[-5.742417,38.13496],[-5.703449,38.15143],[-5.725422,38.18639],[-5.791168,38.1733],[-5.865498,38.15251],[-5.902405,38.06269],[-5.947724,37.98872],[-6.053124,37.98886],[-6.16024,37.95354],[-6.178951,37.93851],[-6.227703,37.94785],[-6.319542,37.97749],[-6.362801,38.01077],[-6.370526,38.04187],[-6.436615,38.05147],[-6.460819,37.99576],[-6.526566,38.01767],[-6.593685,38.01672],[-6.587334,38.0512],[-6.647072,38.08499],[-6.759339,38.08607],[-6.810494,38.10633],[-6.820107,38.11727],[-6.800881,38.17087],[-6.845341,38.1733],[-6.93203,38.19974],[-6.950563,38.19215],[-6.941072,38.20297],[-6.952973,38.21296]]]}}
