{"type":"Feature","properties":{"sourceId":"ethiopia"},"geometry":{"type":"Polygon","coordinates":[[[34.58252,10.92644],[34.80057,10.74495],[34.92416,10.8913],[34.91455,11.23969],[35.07694,11.53385],[35.02029,11.69796],[35.0869,11.84652],[35.21052,11.94696],[35.68214,12.67885],[36.11481,12.75823],[36.12991,12.93346],[36.14,12.95191],[36.15116,12.95864],[36.15313,12.96947],[36.15223,13.0253],[36.24184,13.36891],[36.47461,13.83375],[36.44096,13.95972],[36.52542,14.2148],[36.54685189891855,14.25884663588515],[36.56638,14.24592],[36.58705,14.28358],[36.60732,14.29427],[36.80111,14.30738],[37.0198,14.24126],[37.14576,14.28195],[37.25948,14.42262],[37.46591,14.1802],[37.52909,14.17062],[37.91822,14.86459],[38.01875,14.71047],[38.20419,14.63601],[38.4533,14.401],[38.54359,14.40059],[38.80951,14.46328],[38.95471,14.51071],[39.05268,14.61908],[39.13316,14.62585],[39.22938,14.40568],[39.26962,14.3989],[39.53728,14.48192],[39.93267,14.3989],[40.19683,14.37518],[42.05223,12.7964],[42.26867,12.62709],[42.386113482455265,12.473007350469654],[42.37515,12.46353],[41.82061,11.73175],[41.76177,11.49317],[41.7807,10.88824],[42.06937,10.92337],[42.26796,10.96933],[42.422,10.98001],[42.60462,11.06817],[42.63225,11.08979],[42.68838,11.05436],[42.79048,10.98482],[42.8827,10.9645],[42.96299,10.98298],[42.93745298235781,10.97710225574757],[42.75317,10.72843],[42.70463,10.64959],[42.69448,10.5812],[42.849,10.21936],[43.01125,10.04459],[43.08152,9.89361],[43.15683,9.878642],[43.24065,9.83122],[43.29772,9.605474],[43.31609,9.602273],[43.32604,9.602824],[43.32999,9.6013],[43.33111,9.600581],[43.34192,9.593006],[43.3781,9.564146],[43.39769,9.549711],[43.43651,9.442627],[43.4614,9.413712],[43.51393,9.379629],[43.64631,9.33316],[43.99698,8.994787],[45.21003,8.59494],[46.32458,8.22882],[46.99239,7.996082],[47.93962,7.980458],[47.32648,7.391784],[45.83647,5.967921],[45.40239,5.548017],[44.97332,4.942254],[44.06719,4.966114],[43.51684,4.863839],[42.07043,4.17531],[41.97267,4.095573],[41.94048,4.050919],[41.903962066388424,3.9851591192887246],[41.89197,3.991308],[41.71928,4.002374],[41.54413,3.992087],[41.23587,3.968869],[41.1752,3.951409],[41.11009,3.997382],[40.97195,4.139333],[40.91231,4.161597],[40.8903,4.218941],[40.84972,4.254533],[40.77223,4.291551],[40.38423,4.115362],[40.18868,4.053372],[39.86359,3.88274],[39.76499,3.6708],[39.58162,3.491503],[39.49843,3.473596],[39.32809,3.510046],[39.19904,3.486865],[39.08943,3.549083],[39.05256,3.530968],[38.96855,3.541054],[38.90843,3.522163],[38.7235,3.579578],[38.69054,3.633228],[38.54018,3.664185],[38.50862,3.655135],[38.44727,3.612015],[38.19129,3.62986],[38.13043,3.61947],[38.01457,3.734548],[37.92514,3.779325],[37.13302,4.301996],[37.05432,4.381288],[37.00668,4.386769],[36.84761,4.45683],[36.04455,4.457186],[35.96528,4.538585],[35.95347,4.622969],[35.958520625416845,4.586881618528805],[35.96298,4.586887],[35.88684,5.350788],[35.17547,5.618721],[35.04089,6.503629],[34.50259,6.952363],[33.75022,7.695857],[33.02765,7.866783],[33.21098,8.096621],[33.24737,8.42415],[33.77266,8.354862],[34.02603,8.479844],[34.16817,8.606821],[34.1201,9.508662],[34.066808814292706,9.509131367124777],[34.06448,9.54523],[34.22636,10.03461],[34.3055,10.1203],[34.32713,10.21695],[34.34515,10.23722],[34.27507,10.536],[34.29039,10.55524],[34.2955,10.5711],[34.43561,10.78879],[34.58252,10.92644]]]}}
