{"type":"Feature","properties":{"sourceId":"eastern-zone"},"geometry":{"type":"Polygon","coordinates":[[[84.76398,19.06796],[84.69772,19.11598],[84.69326,19.12473],[84.69807,19.15295],[84.67815,19.15328],[84.67609,19.13674],[84.66957,19.12603],[84.61395,19.12246],[84.61361,19.11241],[84.65103,19.10008],[84.66545,19.09521],[84.67609,19.07672],[84.66579,19.06309],[84.59679,19.01409],[84.5779,19.02772],[84.56966,19.05693],[84.54563,19.04946],[84.4931,19.01668],[84.48177,18.98747],[84.45843,18.98],[84.44366,18.91376],[84.41482,18.89394],[84.36848,18.83124],[84.32316,18.78184],[84.25484,18.77762],[84.19407,18.77502],[84.1333,18.75389],[84.0945,18.74836],[84.06704,18.75876],[84.0176,18.80297],[83.94894,18.79842],[83.8765,18.81174],[83.83358,18.87965],[83.79822,18.91083],[83.78346,18.89849],[83.74741,18.91928],[83.71239,18.98617],[83.63617,19.09976],[83.54107,19.00565],[83.4724,18.95565],[83.44872,18.94396],[83.42091,18.87608],[83.41713,18.83124],[83.28117,18.75909],[83.21148,18.72267],[83.1435,18.76559],[83.03364,18.63876],[83.10985,18.55579],[83.08994,18.51412],[83.05492,18.46365],[83.092,18.39949],[83.0666,18.3757],[82.96429,18.35257],[82.92549,18.35941],[82.8915,18.37473],[82.88532,18.4148],[82.84996,18.4161],[82.80842,18.4389],[82.79503,18.42587],[82.81185,18.40535],[82.7964,18.36202],[82.78336,18.33888],[82.75005,18.31803],[82.66045,18.28934],[82.66079,18.24696],[82.63367,18.22772],[82.58182,18.27141],[82.5753,18.31509],[82.59144,18.3731],[82.53548,18.39981],[82.50973,18.46561],[82.51522,18.50045],[82.47608,18.52682],[82.39712,18.42685],[82.4033,18.29651],[82.33669,18.19804],[82.38441,18.16901],[82.34871,18.04926],[82.25876,17.98069],[82.17808,18.00812],[82.0895,18.05546],[82.04658,18.04273],[81.96968,17.99506],[81.90376,17.96828],[81.72317,17.86636],[81.62292,17.81472],[81.48972,17.801],[81.38054,17.78056],[81.36749,17.82486],[81.39221,17.89512],[81.46706,18.05024],[81.49796,18.09299],[81.51272,18.16053],[81.50036,18.19283],[81.51976,18.26799],[81.60129,18.31542],[81.65451,18.35192],[81.93466,18.59614],[81.88522,18.62347],[81.88728,18.66706],[81.95526,18.70479],[82.12623,18.78737],[82.1743,18.91603],[82.22786,18.93941],[82.16194,19.12052],[82.11937,19.42321],[82.07954,19.49961],[82.02049,19.5022],[82.04247,19.77575],[81.97895,19.7932],[81.94908,19.85747],[81.86634,19.89589],[81.8454,19.91719],[81.8351,19.95399],[81.86188,20.05496],[81.90136,20.06561],[81.92848,20.10204],[81.95389,20.11236],[82.07405,20.0627],[82.23747,20.00626],[82.47505,19.91655],[82.60929,19.87587],[82.60654,19.86231],[82.58062,19.82081],[82.5959,19.79449],[82.64946,19.83615],[82.70233,19.83874],[82.70027,19.90816],[82.70782,19.98432],[82.60448,19.98464],[82.38785,20.04755],[82.36313,20.14556],[82.37789,20.50839],[82.3542,20.5219],[82.32124,20.56433],[82.33669,20.60547],[82.36656,20.63664],[82.33738,20.73139],[82.33223,20.84277],[82.34596,20.89666],[82.37892,20.88512],[82.41051,20.87132],[82.42252,20.84181],[82.45651,20.83539],[82.48467,20.9143],[82.5214,20.93547],[82.57118,20.98164],[82.61719,21.04253],[82.60448,21.07393],[82.63607,21.16072],[82.72121,21.17193],[82.84962,21.17257],[82.9351,21.17801],[82.96806,21.20362],[83.00857,21.17865],[83.05492,21.14119],[83.13766,21.12998],[83.21457,21.26858],[83.26641,21.38979],[83.37662,21.36357],[83.32375,21.50163],[83.3567,21.60381],[83.37662,21.62616],[83.41919,21.69954],[83.46176,21.79138],[83.48905,21.82517],[83.57008,21.87536],[83.52562,21.9717],[83.52219,22.0481],[83.54896,22.10934],[83.63342,22.24144],[83.86139,22.35643],[83.98018,22.38881],[83.9637,22.5208],[83.99666,22.58802],[84.07287,22.65964],[84.2411,22.78505],[84.35852,22.93753],[84.14429,22.95017],[84.01657,23.14731],[84.03854,23.31956],[83.95409,23.36873],[83.96439,23.55203],[83.8044,23.57657],[83.75496,23.59986],[83.71033,23.68037],[83.72681,23.71621],[83.71857,23.73947],[83.70157,23.80074],[83.69917,23.81519],[83.67977,23.81629],[83.55514,23.85695],[83.46794,24.01699],[83.29697,24.09286],[83.38074,24.53463],[83.51429,24.56024],[83.38795,24.77738],[83.35156,24.8665],[83.33508,24.99104],[83.31104,25.01904],[83.34194,25.15554],[83.34641,25.20199],[83.4034,25.25044],[83.53454,25.32479],[83.73367,25.41971],[83.80989,25.47117],[83.8662,25.50898],[83.86688,25.52633],[83.93486,25.56908],[84.00009,25.62419],[84.02069,25.68733],[84.07562,25.75537],[84.14497,25.74548],[84.2363,25.75414],[84.38805,25.79618],[84.51507,25.73898],[84.57104,25.76589],[84.43748,25.84841],[84.16454,25.98305],[84.03374,26.08886],[83.98636,26.16407],[84.00146,26.26633],[84.13879,26.27618],[84.14703,26.34881],[84.06051,26.36726],[83.89435,26.43246],[83.88336,26.51236],[83.90774,26.53632],[84.06738,26.6671],[84.29466,26.65298],[84.19372,26.73825],[84.04472,26.88288],[83.97125,27.0683],[83.93349,27.07013],[83.92044,27.11842],[83.95615,27.17952],[83.80508,27.3126],[83.825,27.35347],[83.82590625025662,27.357436867752718],[83.86413,27.33884],[83.89644,27.41041],[84.04862,27.41662],[84.11996,27.48018],[84.29493,27.35496],[84.6167,27.32664],[84.67506,27.22044],[84.6318,27.04384],[84.73652,27.00668],[84.79368,26.99307],[84.85291,26.98542],[84.89119,26.96813],[84.96448,26.95406],[84.96603,26.91794],[84.97169,26.91151],[85.00294,26.89207],[85.02697,26.88747],[85.01993,26.85409],[85.06027,26.84674],[85.18713,26.86742],[85.17288,26.81442],[85.17752,26.79527],[85.20533,26.75481],[85.34248,26.73733],[85.41475,26.78255],[85.45183,26.77948],[85.49681,26.79557],[85.56788,26.83985],[85.578,26.85486],[85.59174,26.84552],[85.63208,26.86987],[85.63911,26.85133],[85.71825,26.81994],[85.73095,26.78699],[85.71671,26.67768],[85.72958,26.65191],[85.74623,26.63764],[85.76975,26.6269],[85.81884,26.60019],[85.84906,26.56581],[85.85541,26.56611],[85.89008,26.58208],[85.95188,26.61309],[85.97231,26.65237],[86.00939,26.65298],[86.02827,26.66341],[86.06604,26.6559],[86.07033,26.64838],[86.12045,26.62782],[86.13144,26.62628],[86.13316,26.60495],[86.21727,26.58607],[86.23615,26.58914],[86.25349,26.61217],[86.29271,26.61261],[86.33778,26.616],[86.33743,26.60434],[86.39408,26.58239],[86.49588,26.54078],[86.56523,26.49685],[86.62617,26.46566],[86.73088,26.41924],[86.83628,26.43538],[86.90254,26.45828],[86.99455,26.51881],[87.01515,26.52803],[87.04519,26.56918],[87.04639,26.58438],[87.06991,26.58392],[87.07129,26.54323],[87.08862,26.44967],[87.13789,26.40955],[87.16141,26.40202],[87.21977,26.40156],[87.23247,26.41124],[87.2608,26.40709],[87.2632,26.37357],[87.34388,26.3445],[87.36105,26.35973],[87.3674,26.40417],[87.43315,26.42154],[87.46594,26.43845],[87.55228,26.40386],[87.5861,26.37895],[87.60756,26.37834],[87.65476,26.39295],[87.68034,26.41432],[87.6915,26.43015],[87.73149,26.40617],[87.76153,26.40771],[87.84874,26.43553],[87.86316,26.44829],[87.86642,26.46765],[87.89766,26.47564],[87.89526,26.44783],[87.92307,26.41647],[87.98658,26.36849],[88.00718,26.35834],[88.03362,26.36419],[88.07293,26.40678],[88.10083,26.43674],[88.10431,26.46782],[88.10599,26.47099],[88.10822,26.47533],[88.10659,26.48863],[88.10548,26.49135],[88.1027,26.50811],[88.1089,26.53569],[88.13353,26.57318],[88.16631,26.64178],[88.20064,26.74684],[88.17661,26.87048],[88.14056,26.89896],[88.14932,26.91901],[88.14039,26.93401],[88.12426,26.95207],[88.13885,26.98526],[88.07739,27.0391],[88.03262,27.12037],[88.04879958981063,27.200224104549264],[88.05164,27.19968],[88.0707,27.1282],[88.14674,27.10162],[88.20408,27.12133],[88.22536,27.11063],[88.27721,27.12224],[88.32064,27.09688],[88.43041,27.07197],[88.45462,27.07846],[88.5498,27.15326],[88.54208,27.17662],[88.60474,27.17586],[88.65108,27.14898],[88.71082,27.12362],[88.76301,27.13156],[88.76363644891535,27.13241615914152],[88.79874,27.12816],[88.86271,27.09962],[88.87101,27.05809],[88.86305,26.99794],[88.87075,26.94738],[88.88703,26.94742],[88.92486,26.98135],[88.94352,26.96551],[88.94369,26.92493],[88.97922,26.91132],[89.01462,26.92493],[89.03914,26.91508],[89.04256,26.89237],[89.08313,26.8859],[89.09497,26.83373],[89.12851,26.80534],[89.22548,26.81359],[89.26376,26.8084],[89.31368,26.84008],[89.37063,26.85033],[89.46085240775459,26.816664715532788],[89.46502,26.80867],[89.47788799073109,26.810308115645448],[89.50077,26.80177],[89.55388,26.80306],[89.56836,26.79061],[89.63532,26.77235],[89.63477,26.75787],[89.61122,26.73254],[89.62289,26.71602],[89.65811,26.71104],[89.67649,26.72918],[89.69775,26.72763],[89.72568,26.71602],[89.74778,26.72115],[89.76244,26.70136],[89.77294,26.6948],[89.81497,26.70258],[89.86428,26.69537],[89.83945162155517,26.699000351015762],[89.83057,26.61063],[89.82765,26.44107],[89.76654,26.36849],[89.70474,26.32111],[89.68929,26.25185],[89.69685,26.20874],[89.69685,26.204685224514584],[89.7056,26.175],[89.68912,26.23091],[89.67968,26.24262],[89.63316,26.2323],[89.58733,26.15744],[89.58784,26.09209],[89.63762,26.06881],[89.6038,26.06758],[89.57153,26.02532],[89.57634,25.98613],[89.54493,25.97255],[89.55265,26.00449],[89.5154,26.01421],[89.46905,26.00202],[89.4306,26.04861],[89.4227,26.04969],[89.40468,26.04321],[89.37086,26.01359],[89.30323,26.05185],[89.26821,26.09363],[89.2313,26.12662],[89.16452,26.13756],[89.16261,26.14927],[89.1386,26.32419],[89.09981,26.39249],[89.08625,26.4014],[89.03767,26.4034],[88.96514,26.45966],[88.9563,26.45997],[88.92489,26.43246],[88.91969,26.41739],[88.92806,26.41397],[88.92639,26.40844],[88.90137,26.41094],[88.90566,26.36096],[88.9333,26.3505],[88.85862,26.27556],[88.85708,26.23692],[88.81756,26.26035],[88.824,26.29479],[88.73863,26.35665],[88.71252,26.39456],[88.69655,26.41987],[88.63406,26.48104],[88.5905,26.48288],[88.49004,26.54984],[88.44012,26.55487],[88.43146,26.57231],[88.4269,26.6389],[88.40327,26.64677],[88.36897,26.59867],[88.34043,26.51472],[88.32322,26.49952],[88.32194,26.47935],[88.35048,26.43795],[88.36595,26.45121],[88.37351,26.47933],[88.41848,26.4635],[88.47324,26.45889],[88.51084,26.36896],[88.45288,26.38537],[88.42788,26.34601],[88.4068,26.34555],[88.39379,26.32582],[88.36484,26.31351],[88.34156,26.2885],[88.22338,26.18232],[88.19146,26.17199],[88.16943,26.15397],[88.16333,26.1186],[88.14854,26.09637],[88.15056,26.07416],[88.15965,26.04748],[88.13131,26.01882],[88.08615,25.93673],[88.07582,25.91841],[88.09155,25.82603],[88.10677,25.792],[88.13317,25.77496],[88.14949,25.76596],[88.30513,25.74789],[88.36446,25.68936],[88.40023,25.66279],[88.44456,25.65513],[88.43624,25.59154],[88.45539,25.58646],[88.48546,25.55377],[88.5276,25.52427],[88.53486,25.50003],[88.64328,25.4686],[88.69977,25.46132],[88.7173,25.47267],[88.81616,25.4462],[88.81931,25.4282],[88.80383,25.41028],[88.81791,25.39299],[88.83288,25.35792],[88.8564,25.34436],[88.87977,25.32196],[88.90883,25.30455],[88.9256,25.29514],[88.95308,25.28233],[88.94622,25.25889],[88.94197,25.24705],[88.88461,25.19321],[88.8801,25.20461],[88.84362,25.22354],[88.8234,25.21264],[88.79978,25.18142],[88.7839,25.18658],[88.77517,25.19885],[88.75035,25.1929],[88.72032,25.21556],[88.68829,25.21957],[88.50025,25.22077],[88.47163,25.22178],[88.46039,25.20623],[88.44536,25.21923],[88.4326,25.21574],[88.42729,25.1977],[88.45095,25.14544],[88.40542,24.98609],[88.38815,24.94394],[88.35157,24.9079],[88.22639,24.97117],[88.18009,24.96493],[88.14862,24.94754],[88.1318,24.94616],[88.12578,24.91521],[88.06652,24.78241],[87.99765,24.66732],[88.01848,24.64388],[88.10184,24.52014],[88.12005,24.50026],[88.2578,24.45323],[88.49406,24.31155],[88.72814,24.24728],[88.71184,24.19249],[88.69962,24.17629],[88.68977,24.14822],[88.69789,24.10555],[88.68862,24.0901],[88.69321,24.07341],[88.71636,23.93639],[88.61936,23.88915],[88.58101,23.88148],[88.56623,23.86867],[88.56511,23.85111],[88.57811,23.82252],[88.5696,23.79581],[88.55599,23.79733],[88.54459,23.78659],[88.55437,23.76985],[88.54928,23.7125],[88.54602,23.64741],[88.57067,23.59554],[88.60245,23.589],[88.65035,23.5412],[88.69529,23.50446],[88.72246,23.49246],[88.74353,23.45888],[88.74351,23.42047],[88.73668,23.39512],[88.69228,23.30852],[88.68988,23.2896],[88.71404,23.2446],[88.73298,23.23337],[88.76699,23.21776],[88.78716,23.20887],[88.81307,23.21077],[88.88523,23.22321],[88.94651,23.20254],[88.93536,23.17997],[88.8923,23.1205],[88.8786,23.12022],[88.86052,23.10722],[88.85107,23.0757],[88.86401,23.05945],[88.84218,23.0205],[88.83506,23.0075],[88.84502,22.96053],[88.85143,22.9368],[88.86105,22.93229],[88.88947,22.89411],[88.90314,22.87329],[88.90174,22.75789],[88.91013,22.72473],[88.92261,22.6588],[88.93114,22.56126],[88.96232,22.4112],[88.97558,22.32214],[88.98632,22.28315],[89.03205,22.22144],[89.03607,22.11695],[89.02926,22.09127],[89.03103,21.93348],[89.01704,21.92011],[89.0135,21.88654],[89.03424,21.85857],[89.01998,21.78118],[89.241280607297,20.641949439934336],[85.33081,18.85691],[84.76398,19.06796]]]}}
