{"type":"Feature","properties":{"sourceId":"eritrea"},"geometry":{"type":"Polygon","coordinates":[[[43.14331,13.1455],[43.33233,12.80127],[43.31966335806171,12.794816464711365],[43.30644,12.82615],[43.12652,12.71193],[42.85666,12.62065],[42.693,12.39749],[42.52935,12.52428],[42.45925,12.53623],[42.386113482455265,12.473007350469654],[42.26867,12.62709],[42.05223,12.7964],[40.19683,14.37518],[39.93267,14.3989],[39.53728,14.48192],[39.26962,14.3989],[39.22938,14.40568],[39.13316,14.62585],[39.05268,14.61908],[38.95471,14.51071],[38.80951,14.46328],[38.54359,14.40059],[38.4533,14.401],[38.20419,14.63601],[38.01875,14.71047],[37.91822,14.86459],[37.52909,14.17062],[37.46591,14.1802],[37.25948,14.42262],[37.14576,14.28195],[37.0198,14.24126],[36.80111,14.30738],[36.60732,14.29427],[36.58705,14.28358],[36.56638,14.24592],[36.54659,14.25902],[36.51064,14.3635],[36.4207,15.16751],[36.53609,15.25713],[36.59782,15.44014],[36.62593,15.45811],[36.61385,15.4939],[36.87583,16.45851],[36.94134,17.07852],[37.53271,17.42299],[38.3322,17.65312],[38.43963,17.9033],[38.57304,18.02942],[39.27489,18.32962],[41.1101,15.84126],[42.5073,14.07373],[42.67812,13.57693],[43.03132,13.27856],[43.10032,13.21703],[43.14331,13.1455]]]}}
