{"type":"Feature","properties":{"sourceId":"equatorial-guinea"},"geometry":{"type":"MultiPolygon","coordinates":[[[[11.20846,2.204275],[11.26493,2.175114],[11.3619,2.174016],[11.36458,2.142092],[11.42338,1.869061],[11.39179,1.677922],[11.34304,1.653213],[11.34768,0.988034],[10.01129,0.988721],[10.01266,0.928305],[9.94194,0.907022],[9.789162,0.993355],[9.746061,1.060699],[9.686269,1.063659],[9.625293,1.027552],[9.58085,1.015122],[9.415283,0.853812],[9.156383,0.732178],[7.616248256803588,-0.37873698135199496],[8.366995,2.003675],[7.999844700342339,2.1125905180621216],[8.178305,2.839256],[7.963033,3.610023],[8.797636,4.147134],[9.161202,3.794605],[9.821623,2.356931],[9.843578,2.328804],[9.854221,2.262081],[9.980049,2.191238],[10.40019,2.176981],[11.14769,2.171168],[11.20846,2.204275]]],[[[5.656021,-1.792669],[5.165631,-1.392767],[6.3705855606356545,-0.5200818596386426],[7.427619427083152,-0.5147968902508898],[5.656021,-1.792669]]]]}}
