{"type":"Feature","properties":{"sourceId":"east-yorkshire-with-hull"},"geometry":{"type":"Polygon","coordinates":[[[-0.695787,53.70158],[-0.698705,53.69406],[-0.695432,53.68679],[-0.705236,53.68182],[-0.701599,53.67577],[-0.722701,53.67753],[-0.722257,53.67307],[-0.745029,53.66865],[-0.743656,53.66661],[-0.775928,53.65502],[-0.771293,53.65909],[-0.772838,53.66295],[-0.796356,53.65471],[-0.806312,53.64617],[-0.829091,53.64291],[-0.844078,53.63436],[-0.8620041173964904,53.638722113814936],[-0.862411,53.64021],[-0.948369,53.66169],[-0.992274,53.66326],[-1.0377779919060799,53.65940682021355],[-1.071872,53.65807],[-1.071014,53.6601],[-1.081828,53.66245],[-1.080455,53.66428],[-1.105174,53.66946],[-1.103458,53.67506],[-1.095218,53.67628],[-1.088523,53.6838],[-1.07994,53.68553],[-1.085777,53.68685],[-1.074275,53.70347],[-1.069126,53.70266],[-1.063274,53.70685],[-1.053956,53.7014],[-1.053841,53.69714],[-1.004862,53.69617],[-1.000011,53.69918],[-0.979857,53.69776],[-0.983059,53.70202],[-0.982635,53.70425],[-0.966483,53.70607],[-0.969968,53.70258],[-0.96314,53.70066],[-0.962575,53.70356],[-0.957866,53.7057],[-0.961162,53.70768],[-0.958666,53.71457],[-0.906173,53.71687],[-0.903554,53.72115],[-0.90728,53.72735],[-0.911595,53.72853],[-0.910372,53.73164],[-0.961602,53.73653],[-0.962479,53.74521],[-0.968295,53.75072],[-0.928031,53.76643],[-0.929138,53.77315],[-0.936622,53.78004],[-0.928137,53.79732],[-0.934355,53.80248],[-0.919963,53.81544],[-0.940627,53.82461],[-0.940943,53.83384],[-0.946582,53.84243],[-0.944896,53.84793],[-0.946424,53.85036],[-0.941944,53.85536],[-0.948163,53.86161],[-0.938466,53.86885],[-0.940646,53.87425],[-0.922706,53.87846],[-0.924218,53.88721],[-0.918758,53.88858],[-0.919444,53.8903],[-0.950222,53.89541],[-0.940176,53.89898],[-0.941045,53.90438],[-0.93718,53.90849],[-0.932204,53.90881],[-0.930538,53.91473],[-0.931884,53.91676],[-0.927698,53.91853],[-0.928317,53.92035],[-0.921761,53.92118],[-0.928144,53.93077],[-0.923711,53.93567],[-0.925245,53.93596],[-0.924866,53.94106],[-0.928428,53.94365],[-0.924932,53.9488],[-0.92762,53.95293],[-0.921972,53.95759],[-0.921223,53.96104],[-0.934018,53.96948],[-0.920553,53.99021],[-0.924007,53.99138],[-0.912275,53.9927],[-0.90954,53.99662],[-0.89393,53.99972],[-0.889449,54.00881],[-0.877729,54.01364],[-0.879048,54.0165],[-0.799453,54.02337],[-0.79911,54.01954],[-0.73199,54.03053],[-0.730102,54.0145],[-0.725467,54.0143],[-0.725467,54.01278],[-0.709846,54.01319],[-0.707466,54.0074],[-0.678089,54.01762],[-0.687187,54.02478],[-0.683067,54.03356],[-0.680664,54.03275],[-0.679634,54.03628],[-0.659206,54.03709],[-0.656974,54.04222],[-0.652511,54.04384],[-0.653369,54.04475],[-0.644615,54.05482],[-0.659034,54.06359],[-0.62659,54.06903],[-0.626419,54.07034],[-0.610111,54.07356],[-0.591743,54.08655],[-0.547626,54.09209],[-0.534236,54.08796],[-0.528057,54.08978],[-0.523593,54.08585],[-0.466087,54.10739],[-0.468318,54.11071],[-0.458019,54.11403],[-0.458534,54.11584],[-0.454414,54.11735],[-0.454242,54.11967],[-0.452697,54.11967],[-0.457504,54.1248],[-0.426605,54.13667],[-0.432613,54.15788],[-0.429008,54.15868],[-0.432956,54.16069],[-0.433471,54.16371],[-0.42197,54.16542],[-0.421798,54.16652],[-0.409954,54.16934],[-0.409954,54.17044],[-0.403602,54.17105],[-0.403602,54.17044],[-0.387123,54.17436],[-0.373046,54.1618],[-0.371501,54.15697],[-0.373905,54.15627],[-0.373905,54.15466],[-0.345752,54.14763],[-0.324466,54.15135],[-0.321891,54.14531],[-0.313823,54.14561],[-0.303009,54.13465],[-0.237434,54.13787],[-0.230567,54.13284],[-0.220439,54.13747],[-0.212807,54.15649],[-0.068675,54.21045],[0.48944,53.63869],[0.106448,53.57201],[0.078259,53.55447],[0.058529,53.56982],[-0.012208,53.59988],[-0.124535,53.62061],[-0.17157,53.64569],[-0.200687,53.65334],[-0.25946,53.71964],[-0.271373,53.72592],[-0.330362,53.72598],[-0.433169,53.7079],[-0.478955,53.70827],[-0.536281,53.69348],[-0.556574,53.69671],[-0.597966,53.71966],[-0.638162,53.72164],[-0.66301,53.71457],[-0.688718,53.70178],[-0.695787,53.70158]]]}}
