{"type":"Feature","properties":{"sourceId":"essex"},"geometry":{"type":"Polygon","coordinates":[[[1.306135,51.9482],[1.307251,51.94508],[1.306307,51.93386],[1.293085,51.93619],[1.286476,51.93418],[1.267937,51.91022],[1.269782,51.90829],[1.269911,51.9071],[1.265631,51.90038],[1.267422,51.89926],[1.286991,51.90784],[1.287378,51.90697],[1.282013,51.90072],[1.280726,51.89664],[1.276005,51.89365],[1.277164,51.891],[1.296991,51.87238],[1.294974,51.86146],[1.275361,51.84897],[1.275318,51.84725],[1.274331,51.8459],[1.271756,51.84537],[1.271713,51.84423],[1.243776,51.82325],[1.243432,51.82232],[1.242402,51.8224],[1.220258,51.81036],[1.219614,51.80877],[1.14404,51.78148],[1.142367,51.77978],[1.135457,51.77718],[1.135028,51.77625],[1.118677,51.77274],[1.118162,51.77219],[1.100567,51.77062],[1.09855,51.77139],[1.093186,51.77086],[1.093143,51.77107],[1.041773,51.76823],[1.039971,51.76765],[1.038254,51.7685],[1.037825,51.76799],[1.034091,51.77054],[1.034735,51.76956],[1.033104,51.77035],[1.029027,51.78334],[1.027439,51.7844],[1.025809,51.7883],[1.026409,51.78936],[1.024221,51.79],[1.024607,51.79088],[1.023405,51.79279],[1.022161,51.79282],[1.020745,51.79417],[1.01714,51.79459],[1.017311,51.79552],[1.016625,51.79648],[1.017397,51.79666],[1.016754,51.79781],[1.014779,51.79873],[1.013063,51.79834],[1.012548,51.79953],[1.012891,51.80062],[1.004694,51.80001],[1.006315,51.79888],[1.009558,51.79339],[1.009512,51.7914],[1.006508,51.78471],[0.995862,51.7754],[0.977497,51.77372],[0.920666,51.76956],[0.919979,51.76863],[0.914486,51.76682],[0.914443,51.76616],[0.911182,51.76634],[0.91101,51.76201],[0.881227,51.75261],[0.881098,51.75224],[0.87715,51.75041],[0.877107,51.74998],[0.876377,51.74964],[0.875347,51.74993],[0.863503,51.74257],[0.862301,51.74299],[0.802563,51.72524],[0.803507,51.72008],[0.815438,51.72077],[0.81827,51.72221],[0.884875,51.74235],[0.950535,51.74926],[0.952681,51.74746],[0.968731,51.74485],[0.997055,51.72742],[0.996626,51.72593],[0.988901,51.72194],[0.985297,51.71301],[0.988043,51.70093],[0.982293,51.6863],[0.984009,51.68242],[0.983408,51.6805],[0.985726,51.67108],[0.968731,51.64632],[0.959032,51.63791],[0.940922,51.63279],[0.949419,51.62475],[1.034435,51.65466],[1.031517,51.60943],[1.010574,51.59429],[0.995468,51.5913],[0.99564,51.58986],[0.997614,51.58864],[1.013578,51.58709],[1.014522,51.58592],[1.014265,51.58442],[0.997013,51.58101],[0.996927,51.58069],[1.017956,51.57573],[1.021858,51.57184],[1.021904,51.57091],[1.019586,51.5696],[1.010918,51.57232],[1.008686,51.57173],[1.006454,51.56581],[0.992464,51.55828],[0.987915,51.5585],[0.981821,51.56197],[0.981649,51.56165],[0.993923,51.55449],[0.993837,51.55391],[0.972208,51.54985],[0.972809,51.5466],[0.953068,51.54606],[0.95281,51.54676],[0.953926,51.54942],[0.953497,51.55039],[0.952124,51.55039],[0.95178,51.5482],[0.950235,51.54702],[0.94603,51.5482],[0.945085,51.54782],[0.945429,51.54622],[0.951694,51.54334],[0.948347,51.54291],[0.94809,51.54249],[0.96723,51.54035],[0.946287,51.53309],[0.940365,51.53261],[0.935644,51.52903],[0.933155,51.52978],[0.932726,51.53325],[0.933584,51.53608],[0.933327,51.53822],[0.932383,51.53875],[0.931868,51.53854],[0.930494,51.53437],[0.928434,51.53378],[0.91762,51.53523],[0.916761,51.5348],[0.916761,51.53435],[0.924486,51.53341],[0.925087,51.53293],[0.923113,51.52978],[0.923113,51.52754],[0.926117,51.52326],[0.908521,51.52273],[0.906805,51.52401],[0.906204,51.52631],[0.901913,51.52887],[0.901226,51.52999],[0.899681,51.53069],[0.89908,51.5301],[0.899595,51.52855],[0.904917,51.52503],[0.905432,51.52342],[0.903372,51.52017],[0.902342,51.51974],[0.898308,51.5207],[0.896076,51.52278],[0.89436,51.52652],[0.891184,51.5285],[0.89024,51.52759],[0.893759,51.52476],[0.894274,51.52321],[0.89276,51.51932],[0.881313,51.51408],[0.859512,51.51632],[0.858396,51.51589],[0.858053,51.51525],[0.858654,51.51477],[0.861401,51.51488],[0.861572,51.51461],[0.858396,51.51237],[0.852045,51.51178],[0.850843,51.5129],[0.851015,51.51456],[0.852474,51.51686],[0.851873,51.51728],[0.849571,51.51653],[0.848869,51.51552],[0.849213,51.51162],[0.844578,51.5082],[0.831531,51.50836],[0.828356,51.50655],[0.831446,51.51189],[0.828442,51.51226],[0.826467,51.50628],[0.761494,51.50703],[0.759176,51.50788],[0.755314,51.51306],[0.755228,51.51413],[0.756172,51.5152],[0.758747,51.51605],[0.758833,51.51648],[0.753855,51.51552],[0.752395,51.51381],[0.752395,51.50879],[0.718493,51.51865],[0.718536,51.51959],[0.726861,51.52114],[0.726733,51.52135],[0.701155,51.52164],[0.698194,51.52084],[0.685491,51.52285],[0.676829,51.52149],[0.677484,51.50137],[0.473232,51.49557],[0.437599,51.45471],[0.338923,51.45008],[0.331675,51.4543],[0.319437,51.46897],[0.305832,51.4701],[0.288068,51.45899],[0.27803,51.45767],[0.22283958709179755,51.48055962081748],[0.225376,51.48225],[0.212057,51.48752],[0.215304,51.49469],[0.230944,51.498],[0.228286,51.50505],[0.242968,51.50664],[0.24137455317247444,51.51339178796212],[0.241749,51.51344],[0.24119628897716885,51.51414713293326],[0.240405,51.5175],[0.246059,51.51754],[0.245056,51.52197],[0.248694,51.52572],[0.252963,51.51641],[0.263873,51.51618],[0.268281,51.52264],[0.267091,51.53065],[0.297882,51.53362],[0.302227,51.53717],[0.334299,51.53883],[0.335437,51.54316],[0.329071,51.55211],[0.316682,51.55936],[0.313883,51.56727],[0.291341,51.56611],[0.28802,51.57456],[0.27301,51.58956],[0.271069,51.60076],[0.258163,51.60295],[0.265522,51.60665],[0.265188,51.61016],[0.253588,51.61892],[0.23876247884018165,51.62629346942794],[0.240345,51.63073],[0.238972,51.63222],[0.2329,51.63281],[0.229616,51.63574],[0.22579617831393706,51.63274225591532],[0.224534,51.63337],[0.21028557610065562,51.62900156822034],[0.18752550974463342,51.627316290364305],[0.181104,51.62752],[0.17864076364689377,51.62665841592665],[0.14904438880945683,51.62446694098311],[0.135723,51.62526],[0.119134,51.61711],[0.091527,51.61511],[0.092452,51.61119],[0.087639,51.60632],[0.079165,51.60875],[0.072721,51.60646],[0.050823,51.61462],[0.055719,51.61595],[0.054345,51.61984],[0.041055,51.61787],[0.024738,51.62935],[0.027409,51.63467],[0.023345,51.64268],[0.001981,51.64336],[-0.010251,51.64821],[-0.007249,51.66042],[-0.009804,51.66409],[-0.010162,51.68229],[-0.01041310363006816,51.68231371218409],[-0.00933,51.68599],[-0.014784,51.69095],[-0.017997,51.7031],[-0.013127,51.71823],[-0.011913,51.74121],[-0.005966,51.74003],[0.002104,51.74364],[0.004922,51.75376],[0.014116,51.75621],[0.01407,51.76105],[0.019979,51.76875],[0.027346,51.77257],[0.052097,51.77439],[0.063863,51.78225],[0.099531,51.78155],[0.10714474093107071,51.78587264001248],[0.10965598672352299,51.7866630145706],[0.121242,51.78864],[0.126549,51.79325],[0.151425,51.79544],[0.152141,51.80115],[0.155384,51.80246],[0.160353,51.81219],[0.167567,51.81168],[0.174836,51.81685],[0.173776,51.82038],[0.167086,51.82043],[0.167522,51.82329],[0.163112,51.82664],[0.167749,51.83022],[0.162949,51.83443],[0.166443,51.84847],[0.175034,51.84941],[0.173038,51.86017],[0.194865,51.8642],[0.197098,51.86882],[0.194367,51.87463],[0.178771,51.88239],[0.179308,51.88703],[0.185566,51.8932],[0.179567,51.89723],[0.167281,51.89577],[0.16617,51.89309],[0.16182850044726887,51.89207834440934],[0.161824,51.89208],[0.1617610068376027,51.89206261705829],[0.14703,51.88863],[0.141248,51.88987],[0.13765,51.88687],[0.126074,51.88652],[0.123445,51.91134],[0.126492,51.92391],[0.122318,51.92654],[0.12009,51.94747],[0.116227,51.95669],[0.106151,51.96605],[0.108564,51.97244],[0.09919,51.97839],[0.099658,51.98293],[0.096998,51.98592],[0.071883,51.98351],[0.075779,52.00188],[0.07063054683434422,52.00561797045463],[0.081311,52.00666],[0.093742,52.02071],[0.095876,52.03227],[0.102625,52.03792],[0.103077,52.04487],[0.107632,52.04922],[0.106918,52.05847],[0.118351,52.05838],[0.126112,52.05096],[0.127802,52.04563],[0.1504,52.05096],[0.166888,52.04651],[0.16740645073693997,52.0481221436343],[0.167447,52.04812],[0.16744218894109747,52.04823327303239],[0.169152,52.05355],[0.18695,52.05508],[0.18755158250939857,52.05564963757351],[0.189111,52.0555],[0.193613,52.059],[0.19129649440465818,52.060444528379975],[0.191463,52.0629],[0.185418,52.07215],[0.194805,52.07394],[0.204295,52.09075],[0.234526,52.08739],[0.251615,52.07507],[0.276982,52.09062],[0.285577,52.08879],[0.307918,52.07876],[0.310383,52.07539],[0.321818,52.07243],[0.345328,52.04814],[0.362181,52.04324],[0.371276,52.03574],[0.38563994360534837,52.035529480788114],[0.391139,52.03055],[0.393537,52.03157],[0.3909738040492828,52.03545130726364],[0.391063,52.03545],[0.38963,52.04463],[0.382466,52.04901],[0.391396,52.05889],[0.404735,52.06255],[0.406342025048999,52.065784637755684],[0.409601,52.06465],[0.428569,52.06781],[0.428826,52.06855],[0.436723,52.06987],[0.437667,52.07172],[0.447194,52.07203],[0.444877,52.06882],[0.452173,52.06792],[0.452344,52.06934],[0.453117,52.06929],[0.453288,52.06792],[0.454318,52.06834],[0.454404,52.07098],[0.479322,52.0749],[0.47752,52.07285],[0.479227,52.07245],[0.479629,52.07275],[0.482642,52.07248],[0.484098,52.07044],[0.486672,52.06991],[0.489582,52.06678],[0.487762,52.06455],[0.487762,52.06288],[0.494603,52.05742],[0.499616,52.0568],[0.500722,52.05413],[0.505836,52.05543],[0.506014,52.05598],[0.512681,52.05914],[0.522763,52.05683],[0.534776,52.06015],[0.540573,52.05879],[0.545615,52.06033],[0.546825,52.06265],[0.5505,52.06265],[0.550846,52.06339],[0.549278,52.06532],[0.54976,52.06786],[0.566408,52.07116],[0.56835,52.06917],[0.570492,52.06884],[0.575818,52.07118],[0.57638,52.07367],[0.581251,52.07467],[0.581391,52.07578],[0.582782,52.07595],[0.584657,52.07433],[0.589,52.07474],[0.5894,52.07527],[0.593209,52.07519],[0.594879,52.07367],[0.595881,52.07396],[0.595414,52.07593],[0.598754,52.07486],[0.603498,52.07683],[0.603631,52.07848],[0.604633,52.07987],[0.606772,52.08065],[0.619332,52.07692],[0.619867,52.07761],[0.619399,52.07852],[0.620067,52.07905],[0.625345,52.07958],[0.625345,52.08061],[0.631343,52.08238],[0.634606,52.08608],[0.643189,52.08526],[0.644111,52.08573],[0.651062,52.08342],[0.657091,52.08573],[0.659503,52.08412],[0.662057,52.0843],[0.665107,52.08665],[0.679506,52.08369],[0.681634,52.08613],[0.684684,52.08643],[0.68738,52.08552],[0.690075,52.08024],[0.693196,52.07819],[0.701637,52.07937],[0.706886,52.07675],[0.706931,52.072],[0.707639,52.07176],[0.710345,52.07251],[0.711497,52.07192],[0.711923,52.071],[0.710717,52.07008],[0.710646,52.06725],[0.708518,52.0662],[0.705021,52.06643],[0.703605,52.06535],[0.703777,52.06384],[0.711296,52.05299],[0.715187,52.0514],[0.716442,52.0494],[0.716002,52.04832],[0.699874,52.0477],[0.69956,52.04658],[0.698611,52.04652],[0.698783,52.0447],[0.695826,52.04036],[0.698719,52.03666],[0.702516,52.03757],[0.703804,52.03609],[0.712687,52.03477],[0.70758,52.02894],[0.711492,52.02715],[0.699605,52.01956],[0.700298,52.01856],[0.7016,52.01912],[0.703452,52.01884],[0.712859,52.02519],[0.712215,52.02556],[0.715134,52.02759],[0.738086,52.03251],[0.739157,52.03133],[0.740305,52.031],[0.740765,52.02912],[0.741607,52.02831],[0.741071,52.02323],[0.742372,52.02276],[0.742219,52.02045],[0.741607,52.01984],[0.742525,52.01616],[0.74176,52.01433],[0.740459,52.01433],[0.73802,52.01279],[0.73844,52.01079],[0.74365,52.00762],[0.744028,52.00804],[0.745332,52.0076],[0.745264,52.00707],[0.748817,52.00577],[0.750405,52.00276],[0.749572,52.00223],[0.749718,51.99989],[0.752491,51.99852],[0.758967,51.99841],[0.76126,51.99727],[0.761134,51.99687],[0.760267,51.99663],[0.760524,51.99577],[0.759726,51.99529],[0.760387,51.99473],[0.759692,51.99381],[0.761571,51.99348],[0.762979,51.99101],[0.761297,51.98785],[0.759726,51.98681],[0.760155,51.98636],[0.759663,51.98525],[0.774635,51.98238],[0.773914,51.97993],[0.772609,51.97895],[0.773845,51.97184],[0.77224,51.97037],[0.776792,51.96742],[0.781149,51.96652],[0.783116,51.96755],[0.785241,51.96735],[0.786442,51.96597],[0.78569,51.96395],[0.7869,51.96316],[0.790308,51.96321],[0.790874,51.96362],[0.791835,51.96343],[0.791647,51.96295],[0.798976,51.96325],[0.800058,51.96226],[0.810592,51.96058],[0.814194,51.96235],[0.813885,51.96294],[0.814596,51.96343],[0.813911,51.96417],[0.814065,51.96543],[0.815542,51.967],[0.816383,51.96687],[0.818306,51.96814],[0.829961,51.96692],[0.830408,51.96633],[0.840579,51.96308],[0.840991,51.96221],[0.857079,51.96265],[0.85877,51.96338],[0.859379,51.96458],[0.858861,51.96535],[0.864491,51.96875],[0.865626,51.97091],[0.865374,51.97164],[0.869138,51.97199],[0.873322,51.96845],[0.872301,51.96747],[0.879819,51.96644],[0.886737,51.96835],[0.888248,51.97068],[0.887802,51.97177],[0.889782,51.97334],[0.891141,51.97295],[0.891355,51.97339],[0.897174,51.97221],[0.920934,51.9748],[0.921423,51.97539],[0.923183,51.97574],[0.926633,51.97257],[0.930478,51.97123],[0.930907,51.97174],[0.939521,51.97237],[0.94155,51.97095],[0.951237,51.97259],[0.953185,51.97409],[0.952653,51.97465],[0.956215,51.97639],[0.96372,51.97683],[0.963425,51.97615],[0.965522,51.97463],[0.964235,51.97352],[0.965093,51.97281],[0.964879,51.97207],[0.971662,51.96931],[0.971448,51.96879],[0.97226,51.9681],[0.968083,51.9641],[0.971483,51.96231],[0.973808,51.96243],[0.976185,51.96128],[0.998999,51.96395],[1.003716,51.96257],[1.005179,51.96072],[1.005137,51.95937],[1.006338,51.95877],[1.006596,51.95784],[1.010158,51.95596],[1.016638,51.95538],[1.017153,51.95427],[1.018483,51.95363],[1.025553,51.95484],[1.025527,51.95561],[1.028302,51.95612],[1.028345,51.95667],[1.033065,51.95783],[1.034207,51.95728],[1.03532,51.95779],[1.040052,51.95594],[1.042232,51.95683],[1.041766,51.95763],[1.042352,51.95923],[1.045991,51.95931],[1.047027,51.95851],[1.048529,51.95851],[1.048839,51.95894],[1.051705,51.95694],[1.053465,51.95716],[1.060229,51.95504],[1.06216,51.95266],[1.060478,51.94912],[1.063381,51.94753],[1.070314,51.94899],[1.072632,51.95206],[1.074872,51.95181],[1.081976,51.94552],[1.097567,51.94846],[1.098381,51.95037],[1.105336,51.94814],[1.154389,51.94757],[1.289756,51.95415],[1.303131,51.95074],[1.306135,51.9482]]]}}
