{"type":"Feature","properties":{"sourceId":"el-salvador"},"geometry":{"type":"Polygon","coordinates":[[[-90.09956,13.86075],[-90.08987,13.86241],[-90.08403,13.8765],[-90.0242,13.93965],[-90.00086,13.95806],[-89.92095,14.01536],[-89.90588,14.03774],[-89.85648,14.06286],[-89.81873,14.06698],[-89.76534,14.03634],[-89.74835,14.06349],[-89.73352,14.10933],[-89.71361,14.14805],[-89.66832,14.18501],[-89.64441,14.20372],[-89.52656,14.23077],[-89.55711,14.27436],[-89.55917,14.30314],[-89.59797,14.30996],[-89.57994,14.41922],[-89.47128,14.43302],[-89.43506,14.41672],[-89.39524,14.45762],[-89.35524,14.42554],[-89.33653,14.441],[-89.16661,14.37357],[-89.10891,14.41423],[-89.01909,14.33487],[-89.0036,14.27905],[-88.85296,14.17553],[-88.79837,14.1682],[-88.73417,14.13624],[-88.70533,14.05166],[-88.49058,13.97951],[-88.47777,13.86183],[-88.41307,13.89061],[-88.31532,13.90541],[-88.23429,14.0037],[-88.10726,14.0067],[-88.06847,13.99371],[-88.01491,13.90174],[-87.79621,13.9254],[-87.7109,13.81641],[-87.7054,13.80391],[-87.70729,13.78757],[-87.72566,13.74539],[-87.72394,13.72521],[-87.74421,13.66677],[-87.7533,13.61929],[-87.75261,13.60295],[-87.7763,13.5644],[-87.77918,13.5348],[-87.71704,13.50568],[-87.71467,13.44422],[-87.72989,13.43828],[-87.80802,13.3988],[-87.73373,13.3492],[-87.72531,13.32064],[-87.66438,13.24095],[-87.58438,13.17577],[-87.61528,13.10356],[-89.22492,12.03598],[-90.50091,12.96021],[-90.11879,13.83341],[-90.09956,13.86075]]]}}
