{"type":"Feature","properties":{"sourceId":"east-timor"},"geometry":{"type":"MultiPolygon","coordinates":[[[[124.4641,-9.307471],[124.4385,-9.335082],[124.3903,-9.360701],[124.3787,-9.37514],[124.3862,-9.389452],[124.3664,-9.461592],[124.3584,-9.490715],[124.2755,-9.512555],[124.2724,-9.495963],[124.2686,-9.437039],[124.2212,-9.381322],[124.1424,-9.445336],[124.0839,-9.407403],[124.0343,-9.333897],[123.7912,-8.771079],[124.6866,-8.502251],[124.4859,-9.175482],[124.4869,-9.197851],[124.4641,-9.307471]]],[[[125.0709,-9.390637],[125.0464,-9.364893],[125.045,-9.338131],[124.9916,-9.293919],[124.9793,-9.2497],[124.9763,-9.190226],[125.0129,-9.166501],[125.0531,-9.165484],[125.1578,-9.165823],[125.1793,-9.029543],[125.1163,-8.984953],[125.0824,-9.02717],[125.0047,-9.068704],[124.9788,-9.07006],[124.953,-9.060313],[124.9394,-9.048022],[124.9303,-9.027763],[124.9323,-8.996822],[124.9395,-8.978595],[124.9481,-8.958502],[124.9355,-8.932557],[124.9434,-8.507685],[125.3142,-8.367767],[125.3938,-8.24139],[125.6685,-8.057869],[125.8772,-8.259059],[126.4114,-8.193819],[127.2025,-8.17207],[127.5293,-8.33244],[127.5911,-8.423469],[127.5581,-8.606819],[126.8921,-9.09667],[125.2386,-9.690103],[125.0843,-9.46972],[125.0751,-9.44449],[125.0709,-9.390637]]]]}}
