{"type":"Feature","properties":{"sourceId":"egypt"},"geometry":{"type":"Polygon","coordinates":[[[34.8299,29.03104],[34.70581,28.57608],[34.47578,28.00653],[34.48458,27.97422],[34.61655,27.21678],[36.68291,23.89498],[37.16263,21.9873],[32.44881,21.99272],[24.97742,21.9838],[24.89501,29.16176],[24.62628,30.12385],[24.79244,31.36077],[25.03277,31.54558],[25.18177,31.78286],[33.45548,32.52518],[34.052015101902846,31.606420062658724],[33.99994,31.4521],[34.21211,31.3208],[34.23615,31.29219],[34.39776,30.86672],[34.52423,30.40912],[34.69667,30.10714],[34.87472,29.53553],[34.91332110822005,29.44640835591937],[34.86886,29.37572],[34.916699543833325,29.36423503576681],[34.8299,29.03104]]]}}
