{"type":"Feature","properties":{"sourceId":"flevoland"},"geometry":{"type":"Polygon","coordinates":[[[5.306784,52.30557],[5.281051,52.31545],[5.2208,52.32473],[5.148198,52.31759],[5.078854,52.36911],[5.078938,52.38998],[5.136422,52.41656],[5.176071,52.41693],[5.179335,52.4189],[5.179662,52.42149],[5.149649,52.46581],[5.099425,52.50769],[5.059593,52.57981],[5.253885,52.64475],[5.256375,52.64768],[5.261297,52.67753],[5.287847,52.693],[5.30214,52.69364],[5.359132,52.67929],[5.360931,52.68184],[5.376608,52.76584],[5.629573,52.80411],[5.659787,52.83238],[5.699145,52.83536],[5.702637,52.83749],[5.707277,52.83629],[5.711943,52.83944],[5.720762,52.83805],[5.723013,52.83944],[5.724382,52.84516],[5.749789,52.8406],[5.784823,52.81873],[5.790092,52.80747],[5.795832,52.80758],[5.806381,52.79617],[5.821747,52.7866],[5.849287,52.78602],[5.860915,52.78295],[5.880547,52.77424],[5.897883,52.76349],[5.906943,52.76227],[5.922963,52.75199],[5.936634,52.73099],[5.943441,52.71638],[5.952439,52.71244],[5.966146,52.69787],[5.966303,52.69316],[5.963261,52.68968],[5.952687,52.68389],[5.948002,52.68328],[5.94031,52.67747],[5.940094,52.67335],[5.953687,52.66908],[5.967049,52.66779],[5.984964,52.65831],[6.000293,52.65572],[6.007856,52.65221],[6.018276,52.64398],[6.010685,52.63656],[5.989307,52.62819],[5.959438,52.62409],[5.932507,52.6136],[5.915298,52.61236],[5.90928,52.6167],[5.904566,52.61778],[5.842272,52.60934],[5.83686,52.60603],[5.780323,52.60515],[5.780143,52.58324],[5.812891,52.58021],[5.856086,52.55154],[5.865676,52.51929],[5.85773,52.49909],[5.851734,52.4936],[5.846392,52.47713],[5.840783,52.46993],[5.831396,52.47105],[5.819979,52.45827],[5.819508,52.45411],[5.823534,52.44924],[5.813852,52.43988],[5.811997,52.43567],[5.787983,52.42149],[5.740257,52.39738],[5.736228,52.39732],[5.716471,52.38702],[5.707728,52.38555],[5.69855,52.38067],[5.677389,52.37711],[5.653463,52.36444],[5.642927,52.36897],[5.615829,52.36141],[5.611689,52.35828],[5.605449,52.36205],[5.588767,52.36049],[5.576346,52.34938],[5.534484,52.27207],[5.477472,52.26119],[5.470552,52.26188],[5.465773,52.25985],[5.4048130615972125,52.24850091903993],[5.405473,52.25053],[5.33554,52.29141],[5.332663206230123,52.29023803836204],[5.306784,52.30557]]]}}
