{"type":"Feature","properties":{"sourceId":"friesland"},"geometry":{"type":"Polygon","coordinates":[[[5.238165,52.87281],[5.168565,52.99598],[5.163063,53.00041],[5.050091,53.142],[4.818318,53.21293],[4.817305,53.2149],[4.597294,53.30429],[6.312912,53.68089],[6.319729954195715,53.6567977720063],[6.316752,53.65679],[6.315514,53.6551],[6.351318,53.52084],[6.367783,53.52247],[6.381086,53.52037],[6.389235,53.51546],[6.395666,53.50524],[6.391422,53.49971],[6.382431,53.49625],[6.366506,53.49822],[6.350711,53.49792],[6.349216,53.45026],[6.347769,53.44741],[6.194209,53.41466],[6.166555,53.39071],[6.166463,53.38445],[6.169303,53.37433],[6.179481,53.36295],[6.218528,53.35615],[6.22373,53.35365],[6.229316,53.34413],[6.23343,53.34181],[6.239401,53.34174],[6.248273,53.34633],[6.254196,53.34726],[6.273569,53.34394],[6.28309,53.34024],[6.284576,53.33786],[6.279254,53.31291],[6.281784,53.30907],[6.281419,53.30634],[6.273786,53.30035],[6.268608,53.29323],[6.258405,53.2921],[6.252607,53.28907],[6.250117,53.27075],[6.243993,53.2684],[6.238151,53.26392],[6.234958,53.25883],[6.231188,53.25759],[6.22732,53.24726],[6.217421,53.24313],[6.213644,53.23642],[6.213522,53.23295],[6.223065,53.22909],[6.227454,53.22093],[6.226937,53.21816],[6.216343,53.20597],[6.208283,53.20123],[6.198647,53.1992],[6.197614,53.19481],[6.191898,53.18995],[6.176047,53.16726],[6.174343,53.13464],[6.203892,53.11469],[6.236264,53.11209],[6.26184,53.11295],[6.281758,53.10597],[6.290605,53.09849],[6.3133469311649035,53.093210570538474],[6.304087,53.08149],[6.305356,53.07984],[6.36412,53.06658],[6.365659,53.06284],[6.361921,53.03274],[6.424068,52.97304],[6.423479,52.96907],[6.393182,52.93453],[6.333703,52.90812],[6.302606,52.9263],[6.255669,52.92866],[6.231236,52.91424],[6.205578,52.89163],[6.165426,52.8762],[6.120296141129881,52.855173960786054],[6.119982,52.85539],[6.087026,52.84433],[6.0802,52.84004],[6.061814,52.8406],[6.052129,52.83848],[6.054462,52.82892],[6.053424,52.82604],[6.046084,52.82158],[6.032623,52.81746],[6.024782,52.82377],[5.996767,52.81865],[5.987339,52.82381],[5.97737,52.83532],[5.974003,52.84332],[5.970107,52.84368],[5.958692,52.84117],[5.952808,52.83687],[5.945533,52.83875],[5.926686,52.83507],[5.921687,52.83137],[5.920547,52.82418],[5.909125,52.81542],[5.900799,52.81334],[5.895534,52.80859],[5.882609,52.80531],[5.87745,52.80217],[5.865729,52.80595],[5.861125,52.80577],[5.857273,52.8085],[5.845286,52.807],[5.819298,52.81853],[5.794660769300651,52.807557554812384],[5.790092,52.80747],[5.784823,52.81873],[5.749789,52.8406],[5.724382,52.84516],[5.723013,52.83944],[5.720762,52.83805],[5.711943,52.83944],[5.707277,52.83629],[5.702637,52.83749],[5.699145,52.83536],[5.659787,52.83238],[5.629573,52.80411],[5.376608,52.76584],[5.376290131428337,52.76413680678575],[5.238165,52.87281]]]}}
