{"type":"Feature","properties":{"sourceId":"freiburg-regbez"},"geometry":{"type":"Polygon","coordinates":[[[9.246373,47.657],[9.202392,47.65489],[9.186843,47.65697],[9.175913,47.65379],[9.170285,47.65474],[9.155548,47.666],[9.149401,47.66713],[9.139468,47.66367],[9.131947,47.66578],[9.083404,47.67636],[9.031386,47.6834],[8.980785,47.6705],[8.941273,47.65569],[8.896961,47.64593],[8.882626,47.65327],[8.874739,47.6545],[8.872349,47.66971],[8.849493,47.68089],[8.849927,47.70233],[8.818155,47.71242],[8.801323,47.72681],[8.785749,47.72516],[8.77549,47.71473],[8.802318,47.70121],[8.812951,47.6959],[8.796867,47.67232],[8.776356,47.67892],[8.753301,47.68997],[8.725752,47.6917],[8.711398,47.68777],[8.689367,47.69318],[8.671149,47.6829],[8.661989,47.68547],[8.656862,47.6911],[8.669993,47.7003],[8.662608,47.70457],[8.661606,47.71454],[8.722521,47.71653],[8.707874,47.72523],[8.713053,47.74125],[8.730326,47.75527],[8.720028,47.76273],[8.688705,47.75314],[8.682725,47.77008],[8.679226,47.78419],[8.657985,47.78994],[8.650537,47.79565],[8.654287,47.77361],[8.646752,47.76462],[8.631322,47.75749],[8.61918,47.76216],[8.613514,47.78451],[8.616484,47.79603],[8.609139,47.80029],[8.593503,47.79744],[8.567997,47.79977],[8.563882,47.79288],[8.576105,47.79015],[8.578471,47.78102],[8.56315,47.77654],[8.529788,47.77687],[8.519373,47.76965],[8.489374,47.7688],[8.457423,47.74126],[8.462303,47.72909],[8.449293,47.71663],[8.422688,47.70807],[8.414711,47.69991],[8.427303,47.68562],[8.415918,47.6743],[8.440344,47.6649],[8.469661,47.66016],[8.474184,47.65258],[8.496737,47.65153],[8.517506,47.6536],[8.537995,47.67185],[8.556695,47.67164],[8.570331,47.67023],[8.580894,47.67542],[8.609074,47.67324],[8.631713,47.65233],[8.624695,47.63388],[8.602636,47.63262],[8.612806,47.61327],[8.584337,47.59208],[8.555859,47.59672],[8.56234,47.61117],[8.528154,47.62756],[8.507736,47.61413],[8.484145,47.6108],[8.46111,47.59874],[8.468036,47.58595],[8.489851,47.59139],[8.497283,47.58065],[8.486938,47.57595],[8.464451,47.57091],[8.431063,47.56494],[8.39776,47.5749],[8.385658,47.56344],[8.357334,47.56882],[8.326692,47.56992],[8.319139,47.57328],[8.309784,47.58203],[8.298712,47.58654],[8.293991,47.59088],[8.293133,47.59551],[8.294935,47.60576],[8.262062,47.60802],[8.257255,47.61351],[8.238287,47.61068],[8.232279,47.60529],[8.225756,47.60333],[8.221292,47.60634],[8.217945,47.61606],[8.210392,47.61947],[8.200092,47.61803],[8.19005,47.60564],[8.167906,47.59331],[8.137178,47.58261],[8.107052,47.57774],[8.103018,47.56286],[8.094091,47.55759],[8.085852,47.55573],[8.078213,47.55718],[8.068085,47.56309],[8.060017,47.56251],[8.04976,47.55507],[8.021607,47.54901],[8.012381,47.55035],[7.995686,47.55507],[7.97174,47.55385],[7.960839,47.55692],[7.954016,47.55359],[7.951999,47.54615],[7.947578,47.5427],[7.940712,47.5429],[7.931356,47.54568],[7.916465,47.54638],[7.90904,47.55084],[7.905092,47.55883],[7.905564,47.56245],[7.909298,47.56839],[7.890587,47.58521],[7.865181,47.58579],[7.846298,47.57959],[7.819004,47.58272],[7.815227,47.5679],[7.802095,47.56222],[7.797804,47.55608],[7.789478,47.55284],[7.760467,47.54658],[7.750683,47.54247],[7.720127,47.5398],[7.71266,47.5365],[7.696524,47.53076],[7.682018,47.53088],[7.668114,47.53325],[7.647343,47.5471],[7.630434,47.56141],[7.613525,47.55712],[7.591272471402777,47.584289550562005],[7.599707,47.60269],[7.568069,47.63648],[7.522266,47.67038],[7.522382,47.70202],[7.554834,47.72587],[7.55191,47.74231],[7.533792,47.77697],[7.567523,47.84391],[7.584643,47.89773],[7.628959,47.97058],[7.616648,47.99853],[7.575647,48.03242],[7.595516,48.09649],[7.581696,48.11462],[7.602402,48.13405],[7.609234,48.15406],[7.699444,48.23911],[7.730419,48.30298],[7.752914,48.32179],[7.746219,48.38795],[7.780554,48.47652],[7.783813,48.48601],[7.808018,48.50762],[7.813511,48.52479],[7.805786,48.57558],[7.860343,48.64026],[7.907307,48.6582],[7.966976,48.71237],[7.967809100461289,48.7143024172354],[7.974503,48.71204],[7.978255,48.70579],[7.983905,48.70435],[7.984912,48.70236],[7.979204,48.70164],[7.970586,48.6924],[7.9726,48.68681],[7.978792,48.68437],[8.001172,48.68418],[8.018972,48.678],[8.03053,48.68107],[8.032122,48.67438],[8.059171,48.67409],[8.063003,48.66773],[8.072214,48.67102],[8.083404,48.66286],[8.10694,48.6484],[8.121679,48.64608],[8.129948,48.65168],[8.14535,48.65047],[8.158491,48.64437],[8.16069,48.63761],[8.180656,48.63659],[8.199337,48.6251],[8.238465,48.62639],[8.237826,48.61901],[8.231162,48.6174],[8.23071,48.60902],[8.209425,48.60763],[8.203471,48.60193],[8.214857,48.59438],[8.217903,48.58511],[8.226221,48.57775],[8.233734,48.57727],[8.225681,48.56619],[8.209762,48.55918],[8.215457,48.53865],[8.208677,48.52165],[8.218299,48.51694],[8.216433,48.5058],[8.226779,48.49542],[8.240554,48.48887],[8.257163,48.49062],[8.270368,48.48269],[8.261009,48.4635],[8.265329,48.44878],[8.261101,48.43723],[8.250964,48.43427],[8.251405,48.42678],[8.25537,48.42267],[8.251726,48.41615],[8.239078,48.41358],[8.238253,48.40792],[8.230022,48.40205],[8.244345,48.39285],[8.245057,48.3835],[8.256177,48.37714],[8.2487,48.37071],[8.249792,48.36263],[8.253489,48.35928],[8.263533,48.36238],[8.268277,48.35694],[8.274253,48.35945],[8.283386,48.35755],[8.289793,48.35478],[8.303762,48.33974],[8.307488,48.34854],[8.319727,48.35377],[8.322834,48.35819],[8.318249,48.36764],[8.324358,48.37857],[8.330768,48.38395],[8.344485,48.38153],[8.356141,48.37648],[8.352934,48.36651],[8.357714,48.33633],[8.395188,48.3199],[8.428417,48.3208],[8.431077,48.30964],[8.441875,48.29938],[8.446183,48.29792],[8.461699,48.31047],[8.496397,48.31223],[8.502215,48.32007],[8.505172,48.33224],[8.489803,48.33549],[8.487067,48.33754],[8.487505,48.3445],[8.48143,48.34553],[8.495708,48.35361],[8.500587,48.35297],[8.503525,48.3571],[8.499079,48.36608],[8.489484,48.36965],[8.490646,48.37916],[8.503053,48.38456],[8.522172,48.3849],[8.524416,48.3888],[8.521998,48.39211],[8.526936,48.39447],[8.525137,48.39824],[8.546948,48.4015],[8.561996,48.39645],[8.594693,48.40566],[8.598042,48.3971],[8.605237,48.3933],[8.638658,48.39884],[8.654505,48.39153],[8.674785,48.39718],[8.684822,48.39209],[8.688284,48.38421],[8.705682,48.38144],[8.715672,48.37617],[8.73349341792921,48.37615938316578],[8.729371,48.36733],[8.740557,48.3501],[8.716919,48.34421],[8.709017,48.33533],[8.690352,48.33001],[8.694115,48.32469],[8.7167,48.31753],[8.685477,48.30735],[8.666373,48.3077],[8.658972,48.29802],[8.645593,48.29368],[8.646342,48.2867],[8.657011,48.2807],[8.677766,48.28061],[8.663526,48.27077],[8.664017,48.26624],[8.683308,48.26451],[8.695913,48.25533],[8.703739,48.25565],[8.694905,48.24536],[8.702388,48.2307],[8.699558,48.22263],[8.706744,48.21894],[8.711274,48.20695],[8.738402,48.19765],[8.716729,48.18321],[8.721789,48.17057],[8.755168,48.15675],[8.766717,48.16123],[8.766374,48.17172],[8.771646,48.17841],[8.81095,48.18057],[8.814613,48.17152],[8.828372,48.16394],[8.829644,48.14736],[8.84805,48.14678],[8.857512,48.14126],[8.864546,48.12618],[8.879309,48.11307],[8.881038,48.10399],[8.912283,48.10743],[8.931195,48.10071],[8.951232,48.10378],[8.960903,48.08861],[8.977405,48.08251],[8.993646,48.06889],[8.985972,48.06068],[8.974857,48.05819],[8.949506,48.05852],[8.939566,48.06327],[8.933,48.06005],[8.931154,48.04904],[8.934561,48.04373],[8.949607,48.04059],[8.95051,48.02688],[8.961487,48.02544],[8.962697,48.03397],[8.970201,48.03708],[8.976869,48.02981],[9.004878,48.0232],[9.01106,48.00563],[9.003504,48.0009],[9.004171,47.99409],[9.015971,47.98804],[9.018482,47.98177],[9.008768,47.97468],[9.016011,47.96173],[9.01097,47.95497],[9.015376,47.9463],[9.009001,47.94412],[9.009896,47.93492],[9.048357,47.93248],[9.075642,47.93879],[9.066476,47.93201],[9.063335,47.91337],[9.095858,47.9109],[9.103782,47.9027],[9.144135,47.89521],[9.14112,47.87395],[9.114901,47.86041],[9.123744,47.85227],[9.116904,47.84457],[9.104239,47.84458],[9.084681,47.86086],[9.063597,47.85804],[9.067294,47.8365],[9.077653,47.827],[9.073503,47.81978],[9.078148,47.81525],[9.069111,47.80956],[9.067607,47.79434],[9.095549,47.77613],[9.172076,47.74479],[9.207614,47.72258],[9.241888,47.65679],[9.246374740844331,47.65700438151698],[9.246373,47.657]]]}}
