{"type":"Feature","properties":{"sourceId":"fujian"},"geometry":{"type":"Polygon","coordinates":[[[119.787,26.2048],[119.8935,25.78169],[120.0474,25.38843],[118.6024,24.46068],[118.4416,24.55302],[118.2283,24.49486],[118.1036,24.36172],[118.1978,24.34453],[117.935,23.34136],[117.7127,23.18252],[117.655,23.24],[117.1879,23.55911],[117.1889,23.60898],[117.1846,23.62939],[117.1717,23.63674],[117.1689,23.64138],[117.1624,23.63863],[117.1525,23.64067],[117.1421,23.65388],[117.1364,23.65262],[117.127,23.65211],[117.118,23.64472],[117.1163,23.65058],[117.1102,23.65459],[117.1001,23.66445],[117.0832,23.66434],[117.0689,23.69031],[117.0616,23.68867],[117.0475,23.69766],[117.0427,23.73554],[117.0466,23.74018],[117.0385,23.75487],[117.0385,23.76312],[117.0321,23.7663],[117.0341,23.77325],[117.0214,23.79995],[117.0153,23.81291],[117.0229,23.81982],[117.0253,23.82386],[117.0199,23.82956],[117.0153,23.84165],[117.012,23.84734],[117.0072,23.85032],[117.0063,23.85648],[117.0006,23.8586],[116.9975,23.85688],[116.993,23.86163],[116.9853,23.86363],[116.9815,23.85797],[116.9615,23.85605],[116.951,23.87301],[116.9689,23.87952],[116.9689,23.88839],[116.9654,23.89769],[116.9546,23.90118],[116.9507,23.90687],[116.948,23.9197],[116.9492,23.92315],[116.9511,23.92555],[116.9536,23.92701],[116.9659,23.92958],[116.9704,23.93876],[116.9757,23.9488],[116.9662,23.97535],[116.969,23.99155],[116.9722,23.99615],[116.9749,24.00319],[116.9476,24.0046],[116.92,24.02],[116.9338,24.02561],[116.9339,24.03878],[116.9441,24.04247],[116.9465,24.05587],[116.9287,24.05328],[116.9199,24.07648],[116.9192,24.10038],[116.9261,24.11519],[116.9294,24.13775],[116.9713,24.165],[116.9823,24.17158],[116.9887,24.18489],[116.978,24.19742],[116.9665,24.19992],[116.9486,24.21644],[116.927,24.22043],[116.9287,24.26121],[116.928,24.28562],[116.9066,24.28311],[116.905,24.29907],[116.9077,24.32113],[116.8884,24.35437],[116.8937,24.37548],[116.8647,24.39174],[116.8303,24.44231],[116.842,24.47567],[116.8054,24.48465],[116.7931,24.49676],[116.7732,24.51831],[116.7741,24.5302],[116.7749,24.5368],[116.7674,24.53621],[116.7555,24.54509],[116.7488,24.55353],[116.75,24.55961],[116.7558,24.57694],[116.751,24.58241],[116.7764,24.6144],[116.7859,24.6375],[116.8065,24.65653],[116.7948,24.67354],[116.7754,24.679],[116.7476,24.65388],[116.72,24.645],[116.6978,24.65591],[116.6606,24.65575],[116.636,24.64998],[116.624,24.63687],[116.5953,24.65575],[116.5873,24.64124],[116.5684,24.62392],[116.5509,24.6144],[116.5256,24.60395],[116.5117,24.60957],[116.4975,24.61893],[116.5045,24.64733],[116.481,24.71842],[116.4371,24.71639],[116.4322,24.73605],[116.4252,24.73719],[116.4102,24.74169],[116.3976,24.77925],[116.3901,24.80068],[116.3708,24.80154],[116.3672,24.80871],[116.3718,24.82694],[116.4091,24.84298],[116.389,24.85739],[116.3859,24.86635],[116.3805,24.87818],[116.3569,24.87071],[116.35,24.8629],[116.348,24.86126],[116.3445,24.83072],[116.3068,24.80294],[116.2491,24.79125],[116.2211,24.80255],[116.2266,24.82219],[116.2148,24.82717],[116.2135,24.84477],[116.2043,24.85435],[116.1949,24.85981],[116.1872,24.86833],[116.1665,24.86386],[116.1555,24.85276],[116.1432,24.84298],[116.0603,24.8475],[116.0155,24.89313],[115.9794,24.89562],[115.9707,24.91182],[115.9126,24.91182],[115.8567,24.96334],[115.8646,25.03055],[115.8934,25.04564],[115.8637,25.11622],[115.8409,25.15445],[115.8505,25.21954],[115.91,25.255],[115.9768,25.34682],[115.9875,25.3856],[115.9991,25.3994],[115.9938,25.41552],[116.005,25.42777],[115.993,25.49457],[116.0295,25.55189],[116.051,25.56227],[116.0288,25.60794],[116.045,25.68841],[116.0582,25.71192],[116.0936,25.70852],[116.1167,25.76171],[116.1684,25.77485],[116.1198,25.82245],[116.1231,25.86494],[116.1457,25.88011],[116.1591,25.88359],[116.1718,25.90108],[116.2166,25.91451],[116.2487,25.91976],[116.2853,25.92594],[116.3162,25.96237],[116.3478,25.97502],[116.3535,26.01036],[116.3972,26.06156],[116.4388,26.0904],[116.4786,26.12215],[116.4695,26.15097],[116.391,26.16445],[116.375,26.19],[116.3783,26.21028],[116.3785,26.24169],[116.3875,26.27525],[116.4123,26.28657],[116.4072,26.30234],[116.451,26.35127],[116.474,26.36511],[116.5066,26.41401],[116.5474,26.41463],[116.566,26.37987],[116.5903,26.37957],[116.5941,26.42631],[116.6154,26.45428],[116.5294,26.56657],[116.5447,26.58423],[116.556,26.60626],[116.5516,26.63304],[116.531,26.65605],[116.4998,26.69908],[116.5013,26.72614],[116.5273,26.7358],[116.5297,26.74331],[116.5452,26.75649],[116.5346,26.81285],[116.5439,26.84173],[116.5601,26.87304],[116.5831,26.88545],[116.5862,26.89019],[116.5895,26.89329],[116.6152,26.92896],[116.6448,26.96553],[116.6897,26.99689],[116.7271,27.00316],[116.7478,26.99544],[116.7698,27.01058],[116.8193,27.02901],[116.8524,27.01456],[116.8798,27.04109],[116.9132,27.042],[116.926,27.02893],[116.9606,27.06188],[117.0076,27.09191],[117.0411,27.10077],[117.0465,27.10442],[117.0459,27.11046],[117.0417,27.12072],[117.0348,27.15219],[117.0859,27.20746],[117.1141,27.22395],[117.1434,27.25906],[117.1573,27.28164],[117.1137,27.3123],[117.0873,27.3457],[117.0907,27.39341],[117.1172,27.41322],[117.0966,27.46167],[117.0923,27.52959],[117.0065,27.54907],[117.0008,27.60019],[116.9936,27.62909],[117.0107,27.65084],[117.0173,27.6627],[117.0312,27.67654],[117.0521,27.68201],[117.0892,27.63928],[117.0858,27.67669],[117.1124,27.70253],[117.1398,27.69432],[117.1706,27.68474],[117.1876,27.69052],[117.1961,27.72122],[117.2355,27.72927],[117.2651,27.76725],[117.2686,27.84909],[117.2698,27.87383],[117.2737,27.87751],[117.2864,27.87778],[117.3139,27.90205],[117.3266,27.90008],[117.334,27.89158],[117.3331,27.8664],[117.3409,27.86382],[117.3486,27.87975],[117.3649,27.89234],[117.4021,27.90236],[117.4385,27.93967],[117.4574,27.94907],[117.4933,27.9565],[117.5008,27.97227],[117.5117,27.98803],[117.5271,27.98849],[117.5537,27.97485],[117.5647,27.95271],[117.5855,27.9468],[117.5961,27.90903],[117.6042,27.87383],[117.6416,27.8623],[117.666,27.84287],[117.6881,27.83528],[117.7012,27.84166],[117.7309,27.8116],[117.757,27.83877],[117.7871,27.91699],[117.833,27.93444],[117.8473,27.9562],[117.8833,27.95468],[117.9287,27.98425],[117.9654,27.97083],[117.9925,27.9991],[118.0705,27.9866],[118.1245,28.06017],[118.1475,28.06759],[118.1909,28.0635],[118.238,28.08107],[118.2915,28.09621],[118.3403,28.09742],[118.34,28.135],[118.3633,28.18159],[118.3334,28.18885],[118.3175,28.20814],[118.307,28.22659],[118.3261,28.23982],[118.352,28.2616],[118.3672,28.26976],[118.3877,28.28269],[118.4118,28.30506],[118.4274,28.29917],[118.4312,28.29184],[118.4287,28.28299],[118.4462,28.26697],[118.4476,28.25449],[118.4581,28.24837],[118.4671,28.25041],[118.4901,28.25102],[118.4839,28.274],[118.4948,28.28579],[118.519,28.28337],[118.5342,28.27747],[118.5413,28.28609],[118.5734,28.29758],[118.5964,28.27763],[118.6676,28.28503],[118.6949,28.321],[118.7229,28.32237],[118.737,28.28488],[118.7548,28.25933],[118.8065,28.24542],[118.8159,28.21472],[118.7701,28.18764],[118.7929,28.17629],[118.8108,28.15616],[118.8005,28.11832],[118.76,28.095],[118.7176,28.0635],[118.7325,28.03744],[118.7306,27.98243],[118.7528,27.95013],[118.7878,27.94194],[118.8116,27.92693],[118.8391,27.8843],[118.83,27.85137],[118.8499,27.80674],[118.8609,27.75685],[118.8938,27.72437],[118.8979,27.70975],[118.8911,27.70724],[118.8723,27.68623],[118.8876,27.66422],[118.8978,27.65097],[118.9007,27.64438],[118.8979,27.63776],[118.9006,27.63413],[118.8996,27.6294],[118.9036,27.62761],[118.9081,27.62476],[118.9102,27.62155],[118.913,27.61659],[118.9087,27.57053],[118.8951,27.55044],[118.8708,27.53803],[118.9005,27.47073],[118.9318,27.46731],[118.9512,27.45832],[118.9545,27.47172],[118.9603,27.47648],[118.975,27.5],[118.9869,27.50995],[118.9931,27.50111],[119.0142,27.50446],[119.0691,27.47797],[119.1114,27.48924],[119.1266,27.48497],[119.1285,27.46746],[119.1194,27.44035],[119.1242,27.43574],[119.1275,27.43673],[119.1348,27.43833],[119.2051,27.42755],[119.2353,27.42511],[119.2374,27.43562],[119.2445,27.43425],[119.2597,27.42526],[119.2684,27.4349],[119.2712,27.43979],[119.2708,27.44594],[119.274,27.45859],[119.2844,27.4667],[119.3144,27.48665],[119.3333,27.48893],[119.3309,27.52106],[119.3682,27.53933],[119.4078,27.54526],[119.4291,27.52913],[119.4312,27.51223],[119.4473,27.52441],[119.4614,27.52867],[119.4792,27.58559],[119.4816,27.60309],[119.4901,27.61282],[119.4945,27.65419],[119.5337,27.68079],[119.6052,27.68094],[119.6399,27.67821],[119.6461,27.63457],[119.6262,27.62286],[119.6296,27.58787],[119.676,27.57905],[119.6597,27.54268],[119.6835,27.54633],[119.706,27.51467],[119.7079,27.46472],[119.6948,27.43928],[119.7086,27.41734],[119.7487,27.37893],[119.7457,27.36033],[119.7652,27.35012],[119.7839,27.32923],[119.7699,27.31596],[119.7795,27.31093],[119.7906,27.31687],[119.8136,27.30421],[119.8399,27.32923],[119.8639,27.32099],[119.8771,27.31718],[119.9058,27.32404],[119.9323,27.32221],[119.9309,27.34051],[119.9486,27.35576],[119.951,27.36872],[119.9565,27.37238],[119.9831,27.38366],[120.0009,27.38488],[120.0291,27.34936],[120.0462,27.35027],[120.0783,27.38076],[120.0897,27.38183],[120.0885,27.39417],[120.101,27.40286],[120.119,27.40195],[120.1273,27.39905],[120.1223,27.41734],[120.1291,27.42663],[120.1891,27.43303],[120.2012,27.43364],[120.2124,27.42465],[120.2473,27.44389],[120.2567,27.4373],[120.2642,27.42393],[120.2555,27.41639],[120.2713,27.39494],[120.2857,27.40225],[120.3032,27.39936],[120.313,27.41414],[120.3207,27.41231],[120.3281,27.40271],[120.3386,27.40499],[120.3499,27.38884],[120.3513,27.3611],[120.3576,27.34371],[120.3944,27.31367],[120.4038,27.30162],[120.4062,27.28026],[120.422,27.27172],[120.4292,27.25967],[120.4041,27.21708],[120.4096,27.19907],[120.4222,27.18823],[120.4373,27.16944],[120.5039,27.11751],[120.6059,27.06004],[120.7452,27.04262],[121.0226,26.87951],[121.6277,26.64182],[121.3322,26.34832],[120.7052,26.63054],[119.787,26.2048]]]}}
