{"type":"Feature","properties":{"sourceId":"far-eastern-fed-district"},"geometry":{"type":"Polygon","coordinates":[[[146.0168612609175,43.166419351708086],[146.0089,43.22415],[146.0089,43.22661],[145.8431,43.3885],[145.8122,43.47208],[145.7803,43.52864],[145.7324,43.55065],[145.4757,43.64394],[145.4552,43.67082],[145.4013,43.69171],[145.3217,43.8048],[145.3387,43.82358],[145.3309,43.83378],[145.7237,44.25699],[145.7538,44.49305],[145.56425139947666,44.562480348730475],[145.5963,44.66475],[142.5861,45.57945],[140.7898,45.83646],[140.75252362628189,45.807383209459424],[140.6634,45.8154],[140.5618828139229,45.65867714133796],[133.2675,39.96882],[131.49879877526274,41.57798867505921],[131.6447,41.73083],[130.6662,42.33303],[130.6624,42.34419],[130.68,42.3601],[130.6826,42.38017],[130.6392,42.43237],[130.63916945192696,42.43237818788515],[130.5929,42.51463],[130.6371,42.58292],[130.6597,42.79087],[131.0621,42.84526],[131.2173,42.93883],[131.3457,43.40704],[131.3514,43.47293],[131.35139926995603,43.47293003762935],[131.4019,44.05462],[131.1012,44.85198],[131.5022,44.95022],[131.8723,45.26184],[131.9925,45.24685],[132.9538,44.98229],[133.1673,45.11424],[133.1481,45.29518],[133.214,45.49383],[133.4221,45.55974],[133.4811,45.61308],[133.6899,45.95067],[133.9309,46.25347],[134.073,46.78126],[134.2337,47.10098],[134.2447,47.20418],[134.2275,47.33324],[134.5365,47.44899],[134.5825,47.47406],[134.7047,47.59042],[134.8036,47.719],[134.68,47.89057],[134.6086,48.02805],[134.6835,48.11385],[134.8016,48.39319],[134.669,48.43057],[134.509,48.44287],[134.174,48.39775],[133.0568,48.12944],[132.6324,47.95407],[132.4974,47.82187],[131.0516,47.78382],[130.8028,48.09553],[130.8842,48.28959],[130.7826,48.50478],[130.5821,48.66013],[130.7016,48.85207],[130.6961,48.8882],[130.4269,48.91979],[130.2498,48.88639],[129.5226,49.52089],[129.1179,49.46911],[128.7872,49.61338],[128.6461,49.62206],[128.608,49.61205],[127.9839,49.61115],[127.6941,49.7653],[127.5458,50.02848],[127.6206,50.17954],[127.6275,50.2415],[127.5767,50.25116],[127.4682,50.27311],[127.3645,50.32311],[127.381,50.40633],[127.3659,50.54049],[127.3817,50.58324],[127.3123,50.75123],[126.9299,51.14231],[127.0074,51.32074],[126.5891,51.97081],[126.6367,52.18632],[126.1634,52.66873],[126.1776,52.83853],[125.666,53.16349],[124.535,53.30145],[123.5214,53.65559],[122.14973373317639,53.51908148594929],[122.0605,53.63235],[122.0181,53.88055],[121.902,54.0259],[121.7846,54.06357],[121.8682,54.16728],[121.8281,54.3176],[121.9127,54.28796],[122.1245,54.31855],[122.2022,54.36174],[122.2335,54.45402],[122.1876,54.55363],[122.0278,54.65228],[122.0201,54.77923],[121.9515,54.88733],[122.032,54.94706],[122.0443,55.08861],[122.1215,55.17276],[122.0695,55.29025],[122.0606,55.56115],[121.887,55.7125],[121.7484,55.72003],[121.5681,55.62047],[121.4513,55.60962],[121.4191,55.85962],[121.2877,56.09028],[121.2142,56.12808],[120.8676,56.11818],[120.4117,55.98664],[120.2183,56.03074],[120.1853,56.09558],[120.2175,56.1128],[120.5314,56.15956],[120.6109,56.21329],[120.6189,56.31907],[120.3739,56.45841],[120.2926,56.55672],[120.0083,56.58678],[119.9654,56.62756],[119.9649,56.71735],[119.8811,56.7873],[119.9373,56.93085],[119.8429,57.05452],[119.7026,57.08116],[119.7559,57.11452],[119.7738,57.21349],[119.5234,57.46553],[119.5851,57.63155],[119.4266,57.71086],[119.2677,57.69428],[119.1908,57.79745],[119.2802,58.13934],[119.1885,58.38183],[119.2185,58.50738],[119.1589,58.59453],[118.9386,58.66958],[118.9557,59.00213],[118.9051,59.09731],[118.792,59.16128],[118.9234,59.31781],[118.807,59.50501],[118.4583,59.59554],[118.3872,59.70063],[118.2531,59.74105],[117.9996,59.71594],[117.8672,59.59486],[117.7792,59.65447],[117.5371,59.58693],[117.2924,59.61485],[117.3105,59.90084],[117.4421,59.99783],[117.3885,60.10469],[117.2671,60.14685],[117.0995,60.12973],[116.9876,60.27147],[116.7091,60.38039],[116.61,60.47013],[116.228,60.49502],[115.6972,60.64027],[115.1768,60.5713],[115.0244,60.46712],[114.9579,60.31088],[114.6947,60.28395],[114.5404,60.21953],[114.4265,60.1226],[114.3961,60.03175],[114.1325,59.85553],[113.5621,59.68073],[113.5031,59.56695],[113.3461,59.43155],[113.3494,59.33066],[113.2483,59.26418],[112.9042,59.24385],[112.6879,59.1629],[112.6569,59.1854],[112.713,59.22687],[112.7307,59.35224],[112.665,59.4083],[112.4293,59.43171],[112.3757,59.57438],[112.279,59.62038],[112.1569,59.5838],[111.8909,59.39586],[111.6327,59.32158],[111.4577,59.38287],[111.2819,59.36577],[111.1821,59.30868],[110.6819,59.364],[110.4919,59.25282],[110.4372,59.14659],[110.1841,59.08068],[109.8456,59.09995],[109.6193,59.27023],[109.5635,59.37759],[109.4387,59.41048],[109.4318,59.47874],[109.6201,59.62066],[109.6111,59.74605],[109.733,59.81989],[109.8393,59.99318],[109.8124,60.16313],[110.0173,60.35867],[110.0472,60.44944],[110.3517,60.63993],[110.3882,60.82821],[110.5462,60.94059],[110.6349,61.08266],[110.6263,61.1902],[110.5423,61.26818],[110.4095,61.29732],[110.2462,61.26706],[110.1305,61.36827],[109.9468,61.41171],[109.9494,61.5948],[109.7047,61.8097],[109.7077,61.8617],[110.0645,62.11505],[110.0855,62.32361],[109.931,62.52251],[109.4641,62.55784],[109.5787,62.70752],[109.7245,62.755],[109.7721,62.84309],[109.6215,63.00925],[109.4869,63.41917],[109.1068,63.66414],[108.402,63.71843],[108.7025,63.73546],[108.8893,63.85198],[108.8348,64.07052],[108.6863,64.14999],[108.6613,64.29773],[108.5145,64.39596],[108.1641,64.37025],[107.9807,64.28591],[107.6405,64.40263],[107.3595,64.36433],[107.2971,64.42623],[106.9497,64.52156],[106.7823,64.52262],[106.6485,64.62432],[106.5256,64.61838],[106.4544,64.54909],[106.2125,64.5264],[106.0477,64.62555],[105.9105,64.60072],[105.9482,64.73651],[106.2813,64.82282],[106.266,64.93793],[106.1824,65.0034],[106.4306,65.12479],[106.5647,65.14059],[106.5959,65.29066],[106.8754,65.30948],[107.058,65.50999],[106.9874,65.5967],[106.8001,65.62298],[106.5572,65.74444],[106.5915,66.0512],[106.3861,66.22834],[106.2226,66.25129],[106.2249,66.32576],[106.4205,66.46039],[106.3327,66.73222],[106.2838,66.85109],[106.062,66.99661],[106.1415,67.07361],[106.4746,67.17613],[106.7588,67.17972],[106.9028,67.30436],[106.9641,67.64609],[107.0118,68.24696],[106.99,68.89247],[106.3714,69.39233],[106.5002,69.48456],[106.8557,69.43234],[107.6244,69.56986],[107.9799,69.58445],[108.1233,69.70015],[108.2911,69.76122],[108.8416,69.74397],[108.9407,69.6809],[109.321,69.68672],[109.4617,69.77653],[109.5026,69.89109],[109.6337,70.00489],[109.5875,70.10813],[109.4847,70.13703],[109.6341,70.18472],[109.7168,70.2818],[110.3699,70.33887],[110.4087,70.43027],[110.3835,70.48504],[110.2392,70.56515],[110.5176,70.62176],[110.6292,70.69147],[110.8632,70.6927],[111.3892,70.77231],[111.5497,70.84563],[111.9454,70.88413],[112.0755,70.96194],[112.2489,70.91178],[112.6323,71.02178],[112.7885,71.18474],[112.8128,71.24257],[112.7668,71.33055],[112.0984,71.49683],[112.0622,72.19016],[111.7991,72.24778],[111.601,72.40956],[111.345,72.41709],[111.3926,72.53363],[111.3338,72.59431],[110.813,72.74393],[110.8366,72.82345],[110.9948,72.92978],[110.9261,73.20556],[110.7191,73.25493],[110.6807,73.34994],[110.9181,73.46834],[111.3311,73.53369],[111.38,73.59686],[111.3472,73.68709],[111.2383,73.73032],[111.9011,73.90004],[111.9877,73.99607],[111.9467,74.15644],[111.8575,74.20645],[110.9636,74.33059],[112.3812,74.56058],[112.9444,74.78005],[113.5924,74.80546],[115.39354343333224,75.17669249080194],[180.0,82.00023],[180.0,56.3099],[170.9912,54.39337],[170.9033,50.02187],[180.0,50.02187],[180.0,37.34659],[172.1702,37.34659],[146.0519,43.12595],[146.0168612609175,43.166419351708086]]]}}
