{"type":"Feature","properties":{"sourceId":"franche-comte"},"geometry":{"type":"Polygon","coordinates":[[[6.032892,46.38693],[6.021689,46.38175],[6.015278,46.37535],[5.985209,46.3621],[5.981132,46.35404],[5.967637,46.34137],[5.966129,46.33721],[5.955516,46.32678],[5.942347,46.30788],[5.92343,46.31041],[5.917611,46.29355],[5.909595,46.28278],[5.893954,46.28405],[5.879579,46.26834],[5.869637,46.26363],[5.863746,46.26857],[5.852381,46.26037],[5.827036,46.26008],[5.766923,46.26681],[5.725991,46.25975],[5.718881,46.26364],[5.718478,46.27101],[5.713309,46.28066],[5.717758,46.29438],[5.713287,46.30707],[5.685062,46.30948],[5.681331,46.3162],[5.674564,46.31781],[5.668045,46.32295],[5.645728,46.32306],[5.644103,46.32648],[5.648536,46.33183],[5.648887,46.33559],[5.647859,46.33951],[5.644289,46.34126],[5.634079,46.32998],[5.612306,46.31942],[5.608531,46.31066],[5.603579,46.30691],[5.599408,46.29789],[5.595979,46.29448],[5.587683,46.29124],[5.578136,46.29276],[5.566082,46.29207],[5.559116,46.28159],[5.541825,46.26855],[5.520937,46.26313],[5.511108,46.2633],[5.500048,46.26704],[5.492332,46.26719],[5.4733,46.26325],[5.45531,46.27427],[5.45768,46.29108],[5.464561,46.29315],[5.472283,46.31074],[5.471593,46.31451],[5.468241,46.31637],[5.465508,46.321],[5.460697,46.3213],[5.45621,46.31632],[5.436606,46.31456],[5.42949,46.3331],[5.423394,46.34011],[5.420613,46.3405],[5.417869,46.33748],[5.414991,46.31624],[5.411869,46.30978],[5.409561,46.30854],[5.40382,46.30971],[5.403458,46.32634],[5.400196,46.33657],[5.378874,46.34505],[5.372027,46.35197],[5.374479,46.36077],[5.367467,46.36751],[5.36132,46.36912],[5.363315,46.37343],[5.370599,46.37841],[5.369745,46.3844],[5.361566,46.38941],[5.352054,46.39183],[5.347392,46.3981],[5.339252,46.40024],[5.33363,46.39602],[5.314644,46.4078],[5.297636,46.41269],[5.298169,46.41661],[5.304453,46.41954],[5.308563,46.42562],[5.31698,46.42981],[5.315835,46.43646],[5.309412,46.44727],[5.311324,46.45383],[5.320423,46.45608],[5.323287,46.46371],[5.345994,46.46265],[5.358847,46.46569],[5.368034,46.46188],[5.372898,46.46206],[5.383289,46.47252],[5.397312,46.46826],[5.408745,46.47131],[5.419027,46.48436],[5.416403,46.48923],[5.419399,46.49649],[5.417306,46.49999],[5.40743,46.49881],[5.4008,46.50362],[5.392893,46.50545],[5.387199,46.51208],[5.376637,46.51521],[5.368444,46.51488],[5.356996,46.51926],[5.357647,46.52767],[5.359903,46.53166],[5.358204,46.53682],[5.360949,46.55188],[5.35507,46.5629],[5.363193,46.56558],[5.365358,46.57113],[5.361054,46.57757],[5.36669,46.58081],[5.38343,46.58296],[5.390509,46.58096],[5.402584,46.58274],[5.405148,46.59122],[5.409614,46.59595],[5.410051,46.59873],[5.404255,46.6065],[5.395329,46.60901],[5.395269,46.61195],[5.400847,46.61543],[5.417503,46.61719],[5.424646,46.6217],[5.429493,46.62785],[5.435939,46.63036],[5.43854,46.63548],[5.437352,46.63792],[5.424686,46.64667],[5.4123,46.65331],[5.412249,46.65523],[5.421281,46.66099],[5.417295,46.66726],[5.416709,46.67354],[5.409891,46.67727],[5.402348,46.67834],[5.394091,46.68482],[5.403535,46.6956],[5.404798,46.70055],[5.400079,46.70594],[5.393404,46.7078],[5.394445,46.71751],[5.392449,46.72106],[5.389063,46.72235],[5.387782,46.72741],[5.382806,46.7299],[5.359865,46.73079],[5.365274,46.75229],[5.375565,46.75612],[5.383907,46.7626],[5.387643,46.76684],[5.387238,46.77106],[5.382693,46.77469],[5.37462,46.77348],[5.370446,46.77542],[5.365878,46.78106],[5.356516,46.78614],[5.34842,46.78841],[5.339932,46.78952],[5.336834,46.7931],[5.33208,46.79469],[5.329307,46.81007],[5.326012,46.8158],[5.334115,46.82055],[5.339094,46.82696],[5.342269,46.82655],[5.349255,46.81873],[5.360409,46.82019],[5.364523,46.82532],[5.369053,46.8273],[5.386367,46.82859],[5.390372,46.83165],[5.407198,46.83448],[5.410612,46.83427],[5.413447,46.82994],[5.429153,46.82775],[5.443654,46.8302],[5.456617,46.8327],[5.460106,46.83994],[5.455519,46.84547],[5.457142,46.85125],[5.454583,46.8546],[5.450674,46.85483],[5.443633,46.85074],[5.433686,46.85377],[5.427602,46.85891],[5.414591,46.85948],[5.403086,46.86636],[5.40025,46.87019],[5.40146,46.87351],[5.39884,46.88195],[5.399252,46.8873],[5.396323,46.89017],[5.387348,46.89169],[5.379334,46.88732],[5.371323,46.88598],[5.368945,46.8826],[5.362611,46.88153],[5.349047,46.89069],[5.340361,46.8887],[5.334922,46.88373],[5.328605,46.8863],[5.315334,46.9031],[5.311178,46.9097],[5.309348,46.91883],[5.302665,46.92344],[5.302395,46.92537],[5.30605,46.92909],[5.302047,46.93563],[5.293114,46.93546],[5.289952,46.93936],[5.287031,46.93948],[5.278782,46.93555],[5.270557,46.92695],[5.261285,46.92623],[5.260119,46.93747],[5.25076,46.94403],[5.252581,46.94844],[5.260861,46.95025],[5.262353,46.95694],[5.260705,46.96387],[5.255547,46.9665],[5.253541,46.97003],[5.252108,46.97901],[5.256829,46.98469],[5.269825,46.99129],[5.273522,46.99925],[5.298891,47.00318],[5.301131,47.00511],[5.302941,47.01541],[5.301647,47.01781],[5.274261,47.02674],[5.275335,47.03419],[5.2806,47.04092],[5.283861,47.04962],[5.293091,47.05402],[5.295354,47.05899],[5.305177,47.0644],[5.310375,47.06366],[5.322697,47.07487],[5.335187,47.07944],[5.345292,47.07826],[5.359051,47.0818],[5.368679,47.07885],[5.385462,47.0834],[5.390936,47.09231],[5.396489,47.09581],[5.397707,47.10652],[5.409122,47.1149],[5.407511,47.12757],[5.411955,47.13036],[5.413572,47.13401],[5.427459,47.13827],[5.435133,47.14301],[5.437692,47.14942],[5.436658,47.15354],[5.439674,47.15769],[5.449223,47.16264],[5.456655,47.18198],[5.455532,47.19041],[5.444176,47.19791],[5.444003,47.20061],[5.449754,47.20464],[5.464907,47.20855],[5.477207,47.22014],[5.472746,47.23115],[5.482754,47.24143],[5.482436,47.25102],[5.476854,47.25652],[5.486855,47.2677],[5.487212,47.28952],[5.503817,47.28735],[5.515559,47.30268],[5.513868,47.30618],[5.505505,47.30683],[5.502288,47.31101],[5.497817,47.31327],[5.485672,47.31491],[5.481229,47.31228],[5.475587,47.31224],[5.468492,47.31649],[5.472096,47.32091],[5.476233,47.3323],[5.481139,47.33302],[5.484862,47.32871],[5.491276,47.33176],[5.493993,47.33846],[5.49379,47.3445],[5.486805,47.35967],[5.487759,47.37045],[5.493134,47.37712],[5.49114,47.38845],[5.476377,47.39334],[5.45266,47.38209],[5.43864,47.39086],[5.431388,47.39174],[5.434856,47.40347],[5.438854,47.40609],[5.439618,47.409],[5.434352,47.41303],[5.429233,47.42104],[5.430986,47.43052],[5.42986,47.43629],[5.432912,47.44221],[5.432214,47.44589],[5.429242,47.44745],[5.417671,47.448],[5.410513,47.45871],[5.406129,47.46018],[5.389681,47.45184],[5.37905,47.44938],[5.377794,47.45764],[5.365799,47.46453],[5.3681,47.46821],[5.375533,47.46634],[5.394277,47.47293],[5.395333,47.47579],[5.393895,47.47847],[5.386933,47.47918],[5.385808,47.48083],[5.387474,47.48617],[5.398893,47.50045],[5.426565,47.49769],[5.431522,47.49949],[5.438523,47.49456],[5.445991,47.49764],[5.452211,47.50774],[5.465137,47.51811],[5.470432,47.52855],[5.485584,47.52924],[5.495502,47.54505],[5.494276,47.55572],[5.488582,47.56151],[5.478567,47.56416],[5.47887,47.56631],[5.483273,47.56887],[5.485949,47.5774],[5.483175,47.58212],[5.482492,47.58911],[5.476876,47.6059],[5.469959,47.6072],[5.461916,47.61381],[5.446676,47.62204],[5.440884,47.62867],[5.42739,47.63016],[5.423052,47.62827],[5.418861,47.62412],[5.414177,47.61305],[5.407991,47.60816],[5.405009,47.60102],[5.396293,47.59382],[5.389616,47.59313],[5.383651,47.59949],[5.373151,47.60348],[5.370908,47.60737],[5.371702,47.61981],[5.384435,47.63551],[5.396345,47.6444],[5.397796,47.65318],[5.405172,47.67394],[5.419877,47.67913],[5.43643,47.67247],[5.461349,47.67468],[5.474541,47.68265],[5.482905,47.68594],[5.511255,47.67555],[5.527577,47.67431],[5.548214,47.6932],[5.567406,47.70849],[5.58352,47.70345],[5.593529,47.68381],[5.594229,47.67887],[5.605364,47.67639],[5.616223,47.67464],[5.632729,47.67853],[5.64822,47.6767],[5.656255,47.68084],[5.659935,47.68598],[5.668263,47.68673],[5.673467,47.68366],[5.680545,47.68781],[5.68986,47.68778],[5.693465,47.6951],[5.691021,47.70516],[5.682754,47.71133],[5.683226,47.72357],[5.68847,47.73356],[5.692026,47.73759],[5.705226,47.74498],[5.70488,47.75281],[5.70566,47.76723],[5.697505,47.76919],[5.689186,47.76769],[5.679958,47.7688],[5.678716,47.77026],[5.675359,47.77881],[5.680582,47.80968],[5.691221,47.82231],[5.700318,47.82512],[5.706409,47.82318],[5.721878,47.82281],[5.730842,47.8192],[5.740525,47.8208],[5.743681,47.82588],[5.744538,47.83209],[5.742109,47.84248],[5.743188,47.84958],[5.76118,47.86111],[5.775469,47.85959],[5.786122,47.85657],[5.799175,47.85675],[5.799785,47.85156],[5.802568,47.84878],[5.814315,47.85023],[5.820935,47.85638],[5.8222,47.8602],[5.819924,47.87003],[5.829851,47.88157],[5.836531,47.89171],[5.842687,47.89592],[5.847948,47.90555],[5.851822,47.9073],[5.875172,47.90187],[5.883519,47.90291],[5.886241,47.90492],[5.888067,47.91032],[5.882904,47.92067],[5.883076,47.92606],[5.893234,47.93095],[5.89167,47.93815],[5.898781,47.94542],[5.915526,47.94963],[5.917985,47.95814],[5.916249,47.96704],[5.92182,47.97278],[5.93199,47.97856],[5.940069,47.98139],[5.946889,47.98115],[5.952859,47.97361],[5.958973,47.97139],[5.961501,47.96827],[5.960294,47.96469],[5.940102,47.95008],[5.934503,47.94376],[5.937533,47.93827],[5.952369,47.93806],[5.960303,47.94529],[5.967404,47.94892],[5.970472,47.95869],[5.996086,47.95987],[6.005425,47.96536],[6.008878,47.97038],[6.012006,47.97343],[6.017036,47.98393],[6.018211,47.98863],[6.03313,48.00006],[6.04232,48.00526],[6.075783,48.01544],[6.082212,48.01433],[6.097677,48.01642],[6.107777,48.01458],[6.116911,48.02148],[6.131281,48.02537],[6.139723,48.01834],[6.14928,48.01557],[6.158346,48.00596],[6.155198,47.99567],[6.161067,47.99285],[6.160626,47.98301],[6.166745,47.97765],[6.165842,47.97281],[6.160827,47.96826],[6.162123,47.96035],[6.174151,47.95375],[6.182207,47.95841],[6.197316,47.95346],[6.208568,47.94815],[6.209889,47.93941],[6.234978,47.9349],[6.23919,47.93909],[6.250924,47.94089],[6.279603,47.956],[6.296515,47.95698],[6.308047,47.9517],[6.330412,47.95555],[6.335336,47.957],[6.365408,47.9644],[6.380564,47.95994],[6.391147,47.9618],[6.405726,47.95411],[6.410901,47.9449],[6.435665,47.94431],[6.438691,47.93647],[6.446441,47.92971],[6.450406,47.92243],[6.458281,47.92173],[6.463644,47.91778],[6.464469,47.91347],[6.459482,47.90863],[6.463439,47.90052],[6.478507,47.89442],[6.481065,47.89035],[6.502934,47.89757],[6.540983,47.90454],[6.543289,47.90985],[6.54948,47.91257],[6.560021,47.92963],[6.566467,47.93492],[6.591519,47.94407],[6.607289,47.94539],[6.618572,47.93295],[6.628761,47.93114],[6.632102,47.92885],[6.641263,47.92],[6.642645,47.91688],[6.641151,47.91054],[6.648994,47.90353],[6.655307,47.90212],[6.675638,47.89205],[6.68335,47.89166],[6.704176,47.88288],[6.711772,47.87669],[6.730116,47.86984],[6.74133,47.8631],[6.762783,47.85939],[6.785099,47.85204],[6.793025,47.84535],[6.792426,47.83243],[6.81273,47.82084],[6.825106,47.81641],[6.832639,47.81935],[6.839125,47.82592],[6.845068,47.82521],[6.845575924307861,47.82459707979639],[6.838921,47.81992],[6.840645,47.81101],[6.847137,47.79958],[6.865699,47.78104],[6.925294,47.76702],[6.938246,47.76837],[6.97132,47.74915],[7.014143,47.73848],[7.031314,47.7237],[7.032829,47.71859],[7.023873,47.70045],[7.037109,47.68557],[7.032163,47.65329],[7.015715,47.65151],[7.010822,47.6396],[7.01005,47.63133],[7.005329,47.62925],[7.003612,47.61947],[7.005672,47.61166],[7.004042,47.60142],[7.01196,47.59579],[7.013701,47.59053],[7.018976,47.5863],[7.026239,47.58717],[7.042979,47.59773],[7.056499,47.59596],[7.064111,47.59761],[7.081196,47.5918],[7.082885,47.58515],[7.091807,47.57248],[7.098482,47.57011],[7.104887,47.56319],[7.104375,47.54963],[7.11855,47.54424],[7.133516,47.53426],[7.137919,47.52137],[7.135225,47.51131],[7.127553,47.50216],[7.1276969163511685,47.494364530978416],[7.123379,47.49519],[7.073582,47.48623],[7.017036,47.50156],[6.99012,47.49177],[7.008271,47.45709],[6.996815,47.44629],[6.923513,47.39414],[6.886725,47.35942],[7.045077,47.37892],[7.071103,47.33632],[6.955017,47.26808],[6.959622,47.24318],[6.859946,47.16892],[6.863693,47.15944],[6.762511,47.10584],[6.724583,47.05046],[6.636254,46.99539],[6.477084,46.94731],[6.450383,46.92278],[6.477536,46.87973],[6.447514,46.80017],[6.480897,46.7811],[6.122464,46.5755],[6.166862,46.54304],[6.07533,46.41927],[6.0828,46.41596],[6.056782,46.41495],[6.032892,46.38693]]]}}
