{"type":"Feature","properties":{"sourceId":"gcc-states"},"geometry":{"type":"Polygon","coordinates":[[[40.30883,17.45548],[39.218434690423834,19.362848510758155],[39.12384,19.633],[37.90282,22.23827],[37.83106,22.34706],[37.57804881420373,22.23228525385163],[36.726403457167265,23.722021611004653],[36.68291,23.89498],[35.99915049563215,24.994165196001244],[34.56745718953152,27.498547510504235],[34.48458,27.97422],[34.47578,28.00653],[34.70581,28.57608],[34.8299,29.03104],[34.916699543833325,29.36423503576681],[34.957,29.35456],[35.17965,29.324],[36.07086,29.18213],[36.50674,29.49791],[36.7553,29.86576],[37.50132,29.99701],[37.66777,30.33044],[38.01611,30.49865],[37.02476,31.49546],[38.99552,31.99214],[39.18939593462457,32.142287577968546],[40.39673,31.93002],[41.43164,31.35633],[42.03918,31.10469],[44.73306,29.16005],[46.42616,29.04837],[46.58821,29.09638],[46.8869,29.41388],[47.01736,29.67075],[47.19315,30.00787],[47.38335,30.09524],[47.68135,30.09583],[47.95807,29.97992],[48.20251,29.94661],[48.65295,29.34867],[49.45865679926522,29.051803740090133],[50.41625,28.17372],[52.62451,25.92841],[53.37008328450121,25.805724386796044],[53.51855,25.67696],[54.35244504002044,25.644074745011174],[54.97009,25.54244],[55.07504152608354,25.615578629123934],[55.15463,25.61244],[55.322482808517925,25.788015532723737],[55.46722,25.88888],[55.94787,26.38941],[56.00746729427857,26.43761310677254],[56.613359235780365,26.7160161251259],[56.687853023176686,26.689622971575066],[56.75068,26.60555],[56.93152,25.59879],[56.93760004886803,25.597387006568365],[56.98608,25.22482],[57.6331,24.40484],[60.94748,22.87821],[59.16578,19.41199],[56.89818,16.95173],[53.81596047147553,15.346263468619108],[52.80359,17.32035],[52.00886,19.03189],[50.77742,18.81689],[49.0992,18.646],[48.15458,18.18528],[47.57523,17.47342],[47.43812,17.14151],[47.16492,16.98425],[47.01754,16.98862],[46.7573,17.31598],[46.36879,17.26784],[46.10206,17.28399],[45.4164,17.36559],[45.21274,17.46731],[44.38414,17.46884],[44.10863,17.41538],[44.00735,17.43545],[43.94664,17.37114],[43.84977,17.37359],[43.69442,17.40523],[43.49251,17.57838],[43.34644,17.58861],[43.21281,17.49787],[43.20029,17.36933],[43.25973,17.32558],[43.1771,17.28086],[43.12541,17.11789],[43.16476,17.05839],[43.10904,16.89027],[43.21343,16.77812],[43.17949,16.70109],[43.11795,16.69759],[43.08744,16.56633],[42.93286,16.52594],[42.90788,16.43205],[41.29424871500797,16.412289172274235],[40.30883,17.45548]]]}}
