{"type":"Feature","properties":{"sourceId":"gabon"},"geometry":{"type":"Polygon","coordinates":[[[10.07446,-5.995799],[7.7548280694029845,-0.27877794165777214],[9.156383,0.732178],[9.415283,0.853812],[9.58085,1.015122],[9.625293,1.027552],[9.686269,1.063659],[9.746061,1.060699],[9.789162,0.993355],[9.94194,0.907022],[10.01266,0.928305],[10.01129,0.988721],[11.34768,0.988034],[11.34304,1.653213],[11.39179,1.677922],[11.42338,1.869061],[11.36458,2.142092],[11.3619,2.174016],[11.350928429333164,2.1741402320778818],[11.35025,2.191581],[11.34879,2.224602],[11.35978,2.290468],[11.39007,2.308221],[11.66542,2.325716],[11.88206,2.306506],[12.12376,2.299645],[12.30743,2.29793],[12.90276,2.275632],[13.22204,2.308565],[13.33534,2.227604],[13.33347633001228,2.199127939882078],[13.23629,2.193938],[13.0944,1.90385],[13.06504,1.570032],[13.18177,1.369581],[13.1063,1.19519],[13.52828,1.204949],[13.85635,1.360932],[14.16475,1.329778],[14.41561,0.94643],[14.29794,0.695195],[14.03802,0.609358],[13.81896,0.251648],[13.85334,-0.252969],[14.13705,-0.288638],[14.15768,-0.478194],[14.33578,-0.439534],[14.49148,-0.603913],[14.38292,-0.976088],[14.41964,-1.406918],[14.37142,-1.629156],[14.4044,-1.881244],[14.19806,-1.958477],[14.07141,-2.415488],[13.97218,-2.406594],[13.77473,-2.028414],[13.45312,-2.359588],[13.10341,-2.287189],[12.86878,-1.873584],[12.65195,-1.76169],[12.38544,-1.864367],[12.3994,-2.276417],[12.07275,-2.344989],[11.54553,-2.279001],[11.58076,-2.619552],[11.48268,-2.864523],[11.63485,-2.911065],[11.65686,-3.22024],[11.86639,-3.341831],[11.80429,-3.631098],[11.46213,-3.455916],[11.17914,-3.654545],[10.94417,-4.106426],[11.030808493897222,-4.2135597134781335],[10.07446,-5.995799]]]}}
