{"type":"Feature","properties":{"sourceId":"great-britain"},"geometry":{"type":"MultiPolygon","coordinates":[[[[-2.0067108951871044,49.997873158167074],[-2.007754,50.06948],[-2.499412847451949,49.95165224149981],[-5.99687022061052,49.623551885800005],[-4.185941,50.31562],[-4.186274,50.3328],[-4.1655223091233555,50.334873593156864],[-4.23405,50.23057],[-3.66197,50.11104],[-3.309185,50.4384],[-2.899942,50.54885],[-2.9142192521690253,50.665118849315554],[-2.905075,50.65138],[-2.478591,50.49829],[-2.027959,50.54576],[-1.697205,50.65883],[-1.6916358712409896,50.73240592714234],[-1.680953,50.71748],[-1.57113,50.69041],[-1.5387363992582606,50.70660212878329],[-1.659074,50.62415],[-1.307651,50.50555],[-1.114103,50.61067],[-1.03137,50.69296],[-1.1725177599892194,50.76177870372706],[-0.953469,50.73682],[-0.9344238436442358,50.77131470189816],[-0.933013,50.70685],[-0.125208,50.71599],[-0.0403866684723388,50.79696720818085],[-0.043334,50.69996],[0.828524,50.77381],[0.8526594548767854,50.91803621979702],[0.945746,50.81013],[1.521262,51.17739],[1.488337,51.44339],[0.48516741057565177,51.49590892143694],[0.677484,51.50137],[0.676829,51.52149],[0.685491,51.52285],[0.698194,51.52084],[0.701155,51.52164],[0.726733,51.52135],[0.726861,51.52114],[0.718536,51.51959],[0.718493,51.51865],[0.752395,51.50879],[0.752395,51.51381],[0.753855,51.51552],[0.758833,51.51648],[0.758747,51.51605],[0.756172,51.5152],[0.755228,51.51413],[0.755314,51.51306],[0.759176,51.50788],[0.761494,51.50703],[0.826467,51.50628],[0.828442,51.51226],[0.831446,51.51189],[0.828356,51.50655],[0.831531,51.50836],[0.844578,51.5082],[0.849213,51.51162],[0.848869,51.51552],[0.849571,51.51653],[0.851873,51.51728],[0.852474,51.51686],[0.851015,51.51456],[0.850843,51.5129],[0.852045,51.51178],[0.858396,51.51237],[0.861572,51.51461],[0.861401,51.51488],[0.858654,51.51477],[0.858053,51.51525],[0.858396,51.51589],[0.859512,51.51632],[0.881313,51.51408],[0.89276,51.51932],[0.894274,51.52321],[0.893759,51.52476],[0.89024,51.52759],[0.891184,51.5285],[0.89436,51.52652],[0.896076,51.52278],[0.898308,51.5207],[0.902342,51.51974],[0.903372,51.52017],[0.905432,51.52342],[0.904917,51.52503],[0.899595,51.52855],[0.89908,51.5301],[0.899681,51.53069],[0.901226,51.52999],[0.901913,51.52887],[0.906204,51.52631],[0.906805,51.52401],[0.908521,51.52273],[0.926117,51.52326],[0.923113,51.52754],[0.923113,51.52978],[0.925087,51.53293],[0.924486,51.53341],[0.916761,51.53435],[0.916761,51.5348],[0.91762,51.53523],[0.928434,51.53378],[0.930494,51.53437],[0.931868,51.53854],[0.932383,51.53875],[0.933327,51.53822],[0.933584,51.53608],[0.932726,51.53325],[0.933155,51.52978],[0.935644,51.52903],[0.940365,51.53261],[0.946287,51.53309],[0.96723,51.54035],[0.94809,51.54249],[0.948347,51.54291],[0.951694,51.54334],[0.945429,51.54622],[0.945085,51.54782],[0.94603,51.5482],[0.950235,51.54702],[0.95178,51.5482],[0.952124,51.55039],[0.953497,51.55039],[0.953926,51.54942],[0.95281,51.54676],[0.953068,51.54606],[0.972809,51.5466],[0.972208,51.54985],[0.993837,51.55391],[0.993923,51.55449],[0.981649,51.56165],[0.981821,51.56197],[0.987915,51.5585],[0.992464,51.55828],[1.006454,51.56581],[1.008686,51.57173],[1.010918,51.57232],[1.019586,51.5696],[1.021904,51.57091],[1.021858,51.57184],[1.017956,51.57573],[0.996927,51.58069],[0.997013,51.58101],[1.014265,51.58442],[1.014522,51.58592],[1.013578,51.58709],[0.997614,51.58864],[0.99564,51.58986],[0.995468,51.5913],[1.010574,51.59429],[1.031517,51.60943],[1.034435,51.65466],[0.949419,51.62475],[0.940922,51.63279],[0.959032,51.63791],[0.968731,51.64632],[0.985726,51.67108],[0.983408,51.6805],[0.984009,51.68242],[0.982293,51.6863],[0.988043,51.70093],[0.985297,51.71301],[0.988901,51.72194],[0.996626,51.72593],[0.997055,51.72742],[0.968731,51.74485],[0.952681,51.74746],[0.950535,51.74926],[0.884875,51.74235],[0.81827,51.72221],[0.815438,51.72077],[0.803507,51.72008],[0.802563,51.72524],[0.862301,51.74299],[0.863503,51.74257],[0.875347,51.74993],[0.876377,51.74964],[0.877107,51.74998],[0.87715,51.75041],[0.881098,51.75224],[0.881227,51.75261],[0.91101,51.76201],[0.911182,51.76634],[0.914443,51.76616],[0.914486,51.76682],[0.919979,51.76863],[0.920666,51.76956],[0.977497,51.77372],[0.995862,51.7754],[1.006508,51.78471],[1.009512,51.7914],[1.009558,51.79339],[1.006315,51.79888],[1.004694,51.80001],[1.012891,51.80062],[1.012548,51.79953],[1.013063,51.79834],[1.014779,51.79873],[1.016754,51.79781],[1.017397,51.79666],[1.016625,51.79648],[1.017311,51.79552],[1.01714,51.79459],[1.020745,51.79417],[1.022161,51.79282],[1.023405,51.79279],[1.024607,51.79088],[1.024221,51.79],[1.026409,51.78936],[1.025809,51.7883],[1.027439,51.7844],[1.029027,51.78334],[1.033104,51.77035],[1.034735,51.76956],[1.034091,51.77054],[1.037825,51.76799],[1.038254,51.7685],[1.039971,51.76765],[1.041773,51.76823],[1.093143,51.77107],[1.093186,51.77086],[1.09855,51.77139],[1.100567,51.77062],[1.118162,51.77219],[1.118677,51.77274],[1.135028,51.77625],[1.135457,51.77718],[1.142367,51.77978],[1.14404,51.78148],[1.219614,51.80877],[1.220258,51.81036],[1.242402,51.8224],[1.243432,51.82232],[1.243776,51.82325],[1.271713,51.84423],[1.271756,51.84537],[1.274331,51.8459],[1.275318,51.84725],[1.275361,51.84897],[1.294974,51.86146],[1.296991,51.87238],[1.277164,51.891],[1.276005,51.89365],[1.280726,51.89664],[1.282013,51.90072],[1.287378,51.90697],[1.286991,51.90784],[1.267422,51.89926],[1.265631,51.90038],[1.269911,51.9071],[1.269782,51.90829],[1.267937,51.91022],[1.286476,51.93418],[1.293085,51.93619],[1.306307,51.93386],[1.320218,51.93285],[1.369575,51.96419],[1.389365,51.9792],[1.391005,51.98578],[1.433927,52.00862],[1.435313,52.00878],[1.449409,52.031],[1.454746,52.03287],[1.459664,52.04088],[1.463914,52.04092],[1.579374,52.08581],[1.58279,52.08957],[1.623433,52.1882],[1.677175,52.31591],[1.732463,52.41492],[1.729604,52.42693],[1.750957,52.47073],[1.757836,52.47179],[1.758074,52.47284],[1.761749,52.47647],[1.763681,52.48238],[1.741254,52.53288],[1.726574,52.53055],[1.992789,52.57773],[1.337999,53.35573],[0.305138,52.99896],[0.26805713544791626,52.85072061367884],[0.240325,52.97614],[0.494382,53.21097],[0.395505,53.51908],[0.11380228636716312,53.57329040224068],[0.48944,53.63869],[-0.068675,54.21045],[-0.1972731337539576,54.16230555395496],[-0.040615,54.34265],[-1.112277265303456,54.696944331416454],[-1.251103,54.8833],[-1.2663848698410445,54.88014403371858],[-1.387808,55.10949],[-1.4535307682018792,55.07915099699695],[-1.223287,55.25475],[-1.554371,55.69721],[-1.9006234839541798,55.82511447323457],[-1.203008,55.90612],[0.160649,59.09779],[0.097816,59.42198],[0.799897,55.79959],[2.133265,53.84908],[2.513672,52.68668],[1.951517,51.1862],[1.4165216535789282,50.86282182397662],[1.278311,50.79856],[1.2843544433837726,50.782933294760575],[0.932608,50.57032],[0.257806,50.21031],[-2.0067108951871044,49.997873158167074]]],[[[-7.068725,49.523],[-6.816989683305244,50.00886199306346],[-6.652752,49.65794],[-6.269662093537218,49.59796097760877],[-7.068725,49.523]]],[[[-5.9476200197958535,51.68678975849399],[-5.943475445894782,51.69069420715308],[-6.183241,51.03997],[-4.700452,51.2901],[-4.1673454099577505,51.282789208737455],[-4.718478,51.25138],[-4.752335,50.93162],[-4.6603507607992904,50.928264435797935],[-6.694169,50.14573],[-6.804976331591336,50.03204837423448],[-5.9476200197958535,51.68678975849399]]],[[[-4.779833592792254,53.73236],[-4.622680237918456,53.73236],[-4.8910591924713716,53.62190452556874],[-4.779833592792254,53.73236]]],[[[-5.067186424562784,54.383723403361664],[-5.059265,54.46769],[-5.219455839637967,54.69444765820499],[-4.722574099108415,54.58312661269597],[-4.887604,54.56007],[-5.026562296698862,54.34978172545824],[-5.067186424562784,54.383723403361664]]],[[[-14.86751,57.46894],[-14.9907,57.68017],[-12.08287,58.53333],[-6.171816747269595,60.0059839203419],[-14.86155,57.4994],[-12.338491225773275,56.87779361596414],[-14.86751,57.46894]]],[[[-0.240451,61.10237],[-0.2303334006318962,61.0714539017859],[-0.278429,61.10327],[-1.637515,61.13564],[-0.240451,61.10237]]],[[[0.142394,59.93252],[0.097816,59.42198],[0.14239347712593206,59.932521597733356],[0.142394,59.93252]]],[[[-2.0881435070039127,55.771149732352804],[-2.086765,55.76761],[-2.087221,55.76388],[-2.087560643382502,55.76386321821045],[-2.0881435070039127,55.771149732352804]]],[[[-2.107029,55.7497],[-2.10826792555102,55.749509031354414],[-2.1072735762536583,55.750217455311656],[-2.107029,55.7497]]],[[[-2.151186,55.72396],[-2.151989961153146,55.72393444346153],[-2.151021688791723,55.72417921819558],[-2.151186,55.72396]]],[[[-2.169293,55.70637],[-2.1696805173804377,55.70627113962548],[-2.1692776113789223,55.70652950249585],[-2.169293,55.70637]]],[[[-2.327117,55.63757],[-2.330473827874915,55.636693322121964],[-2.3263773010926925,55.64054874897162],[-2.327117,55.63757]]],[[[-2.228285,55.52745],[-2.2284210665329853,55.52575935295842],[-2.2325335404623217,55.52866007404623],[-2.228285,55.52745]]],[[[-2.219978,55.50485],[-2.2082400026957,55.49283215541917],[-2.223706658416776,55.50560415744237],[-2.219978,55.50485]]],[[[-2.1894956065757283,55.45941831921173],[-2.190269,55.46142],[-2.1884275443670465,55.461994744295914],[-2.1894956065757283,55.45941831921173]]],[[[-2.195195,55.44567],[-2.1989955211546026,55.44316621516855],[-2.1935668039878844,55.44959760366717],[-2.195195,55.44567]]],[[[-2.230156,55.43153],[-2.2346856913613853,55.43212480424783],[-2.2106822327575326,55.437075444781335],[-2.230156,55.43153]]],[[[-2.3009626010910686,55.41440143492356],[-2.313006,55.41071],[-2.315129,55.41045],[-2.315527,55.41029],[-2.315987,55.41035],[-2.327287,55.40897],[-2.327684276686296,55.409127068613294],[-2.3009626010910686,55.41440143492356]]],[[[-2.334424,55.40341],[-2.334739574098845,55.40330221482378],[-2.3344398245335523,55.403458832494124],[-2.334424,55.40341]]],[[[-2.397726,55.34907],[-2.400002708943196,55.35262539282618],[-2.389442232082313,55.34965158467282],[-2.397726,55.34907]]],[[[-2.550705,55.317],[-2.558011048099154,55.31858789611416],[-2.536832477873541,55.321705543299586],[-2.543048,55.3196],[-2.543099,55.31959],[-2.543108,55.31958],[-2.550705,55.317]]],[[[-2.648231,55.22086],[-2.6608054601887052,55.22192630574654],[-2.6397268397122726,55.22328625505885],[-2.648231,55.22086]]],[[[-2.6897613263436,55.1883498381849],[-2.6920375349684487,55.1863713876097],[-2.6899845960169233,55.188560928962936],[-2.6897613263436,55.1883498381849]]],[[[-2.789192,55.1414],[-2.789988,55.13992],[-2.81287,55.13651],[-2.816451,55.13816],[-2.817844,55.13765],[-2.82839,55.12804],[-2.827494,55.12696],[-2.827992,55.12508],[-2.8305056499340866,55.12389521797456],[-2.828482,55.12769],[-2.832561,55.13309],[-2.70679757927589,55.17354215138272],[-2.707824,55.17265],[-2.740585,55.16249],[-2.740984,55.16103],[-2.74282,55.16089],[-2.74282,55.16016],[-2.744656,55.1603],[-2.745853,55.1588],[-2.747768,55.15843],[-2.748886,55.15747],[-2.750482,55.15734],[-2.7512,55.15661],[-2.754153,55.15688],[-2.754073,55.1562],[-2.759341,55.15528],[-2.760618,55.15392],[-2.766763,55.15218],[-2.766124,55.15159],[-2.775303,55.14954],[-2.775382,55.14854],[-2.782118,55.1459],[-2.784018,55.14174],[-2.789192,55.1414]]],[[[-2.833863978607956,55.122312305654766],[-2.835354,55.12161],[-2.838438,55.12229],[-2.839668,55.11941],[-2.838394,55.11875],[-2.8393098429901187,55.11798702580691],[-2.841415,55.12241],[-2.833863978607956,55.122312305654766]]],[[[-2.845271,55.11227],[-2.845585692935878,55.11217097956745],[-2.847528,55.11436],[-2.8406348694280665,55.116883167407366],[-2.84508,55.11318],[-2.845271,55.11227]]],[[[-2.8536707495297655,55.10962695741178],[-2.87149,55.10402],[-2.872457,55.10256],[-2.87149,55.10081],[-2.876816,55.09557],[-2.880928,55.09547],[-2.883171,55.09359],[-2.882573,55.09321],[-2.883993,55.08863],[-2.884321909562101,55.088332402835235],[-2.886029,55.08871],[-2.883917,55.09522],[-2.875787,55.09667],[-2.871956,55.10458],[-2.8536707495297655,55.10962695741178]]],[[[-2.8931763326448783,55.08563822621796],[-2.894776,55.08734],[-2.8844115597243625,55.08825128742485],[-2.885264,55.08748],[-2.894086,55.08662],[-2.893039,55.08594],[-2.8931763326448783,55.08563822621796]]],[[[-2.896261,55.07886],[-2.8967214688607714,55.07865416327549],[-2.8936875059560077,55.08451497760132],[-2.896261,55.07886]]],[[[-2.917178,55.07697],[-2.9173174289356285,55.07676439050967],[-2.917766,55.07813],[-2.898960936351817,55.07765308656374],[-2.900064,55.07716],[-2.917178,55.07697]]],[[[-2.937251,55.06059],[-2.9379182362759555,55.060544038185704],[-2.941823,55.06254],[-2.942625,55.06721],[-2.917464224788075,55.07654791736321],[-2.918914,55.07441],[-2.928422,55.07105],[-2.941731,55.06289],[-2.937251,55.06059]]],[[[-3.036444,55.0406],[-3.035414,55.03913],[-3.033655,55.03876],[-3.031724,55.03957],[-3.031123,55.03797],[-3.026316,55.03664],[-3.027432,55.03401],[-3.031252,55.03232],[-3.03138,55.03096],[-3.03314,55.02956],[-3.03138,55.02668],[-3.031465600656963,55.02655520977294],[-3.035723,55.03059],[-3.02789,55.03539],[-3.041701,55.0418],[-3.039807,55.0445],[-3.05429,55.04824],[-3.051173,55.0529],[-3.049638994913605,55.0528482065483],[-3.050485,55.05279],[-3.053747,55.04817],[-3.050743,55.04871],[-3.050521,55.04788],[-3.04271,55.04719],[-3.043139,55.04552],[-3.039105,55.045],[-3.037989,55.04296],[-3.039406,55.04159],[-3.038891,55.04097],[-3.036444,55.0406]]],[[[-3.040951,55.01537],[-3.047474,55.01007],[-3.046873,55.00796],[-3.046057,55.00786],[-3.045285,55.00695],[-3.046185,55.00002],[-3.043568,54.9996],[-3.044367,54.99856],[-3.050803,54.99543],[-3.057558,54.98588],[-3.0707637151243845,54.982361335378265],[-3.070349,54.98378],[-3.057342,54.98731],[-3.057581,54.99074],[-3.044932,54.99956],[-3.046256,54.99978],[-3.045944,55.00763],[-3.051036,55.0069],[-3.040069,55.01712],[-3.042307,55.01968],[-3.0335718987042104,55.02348460937226],[-3.034213,55.02255],[-3.04138,55.01992],[-3.039277,55.01576],[-3.040951,55.01537]]],[[[-3.07451,54.97142],[-3.077074376306311,54.97167090273509],[-3.074485901245134,54.97216144328621],[-3.07451,54.97142]]],[[[-3.181902,54.96126],[-3.195738,54.96255],[-3.233932,54.95654],[-3.26715590835111,54.95854980110782],[-3.237695,54.96007],[-3.235219,54.95673],[-3.180075,54.96517],[-3.163976,54.96047],[-3.134828589089603,54.96510804122497],[-3.150894,54.95253],[-3.181902,54.96126]]],[[[-3.271309330040452,54.9588010524484],[-3.277739,54.95919],[-3.6311520805195516,54.77683542336546],[-3.307034,54.97026],[-3.271309330040452,54.9588010524484]]],[[[-2.986043,53.97761],[-3.075769,53.94871],[-3.062558,53.87514],[-3.092156,53.69764],[-3.085345,53.68828],[-3.068973360814424,53.68836266577698],[-3.073315,53.68655],[-3.342781,53.6702],[-3.274402,53.45041],[-3.218354965115073,53.34041668216299],[-3.245448,53.35399],[-3.296497,53.4066],[-3.356101,53.42834],[-3.4095,53.45504],[-3.535582,53.53158],[-4.394832130016188,53.73236],[-3.688718,53.73236],[-4.084095318652636,54.64211462212212],[-3.73925808786499,54.721054734172675],[-3.907471,54.63426],[-3.376278,53.90063],[-2.8938259143043386,54.145015287542954],[-2.888202,54.13717],[-2.88393,54.11317],[-2.904203,54.07693],[-2.923446,54.06627],[-2.924142,54.04997],[-2.945328,54.01865],[-2.989404,53.99269],[-2.986043,53.97761]]],[[[-3.710616871946901,51.258975971197565],[-3.7098058550569935,51.276514710836445],[-3.703348933537252,51.27642616343089],[-3.710616871946901,51.258975971197565]]],[[[-2.7523171095405923,52.92155394224867],[-2.760222745728546,52.91760366649817],[-2.754509,52.92149],[-2.7523171095405923,52.92155394224867]]],[[[-3.149001153738115,52.48468622091448],[-3.140685,52.48847],[-3.1375398887481634,52.48862463535245],[-3.149001153738115,52.48468622091448]]],[[[-3.0061095723799776,52.352574187908495],[-3.039681,52.34734],[-3.056295890849111,52.35041543877696],[-3.0061095723799776,52.352574187908495]]],[[[-2.933167,52.34996],[-2.9524232449826284,52.348734386165766],[-2.9519479078036683,52.350692081842034],[-2.933167,52.34996]]],[[[-3.035069,52.25389],[-3.0258941041670813,52.256112108746855],[-3.0402189722861084,52.25180496834612],[-3.035069,52.25389]]],[[[-3.1119166980903743,52.066995389039796],[-3.115,52.06898],[-3.1156641315168057,52.0701106631466],[-3.1119166980903743,52.066995389039796]]],[[[-3.067088,51.99137],[-3.081401,52.00566],[-3.0817161369733284,52.00666808076876],[-3.0475579549364036,51.97501383507732],[-3.06555,51.98558],[-3.067088,51.99137]]],[[[-2.7567034700040414,51.851530757796844],[-2.7515130544205757,51.84834790942991],[-2.754587,51.84885],[-2.7567034700040414,51.851530757796844]]],[[[-2.907033,51.408],[-2.915707,51.40194],[-2.928082,51.399],[-2.940973,51.40028],[-2.984668,51.38942],[-2.982056,51.38336],[-2.98471,51.37709],[-3.003511,51.35947],[-3.004037,51.35244],[-3.020201,51.33684],[-3.022937,51.33006],[-3.033968,51.33049],[-3.122106705298115,51.34806731013218],[-3.1046,51.35638],[-2.99207,51.45366],[-2.786304,51.52392],[-2.715875,51.53992],[-2.707738329705545,51.56858964089005],[-2.703681,51.56749],[-2.702786,51.55783],[-2.694422,51.55909],[-2.690429,51.55609],[-2.691806,51.55236],[-2.702357,51.54586],[-2.697669,51.53884],[-2.698992,51.53267],[-2.700489080309238,51.530418531566184],[-2.729436,51.52607],[-2.734665,51.50217],[-2.731941425989523,51.50125964059264],[-2.73222,51.49768],[-2.735034,51.49571],[-2.748971,51.4941],[-2.758535,51.49644],[-2.773583,51.49598],[-2.803828,51.48607],[-2.824391,51.4697],[-2.851159,51.45631],[-2.861581,51.447],[-2.866607,51.44597],[-2.868926,51.4404],[-2.873463,51.43688],[-2.887725,51.43014],[-2.890846,51.42469],[-2.899897,51.4176],[-2.907033,51.408]]],[[[-4.172206859429255,50.36284582930304],[-4.188921,50.3624],[-4.193646,50.384],[-4.208627,50.3939],[-4.207660747087784,50.39612569819422],[-4.192031,50.38284],[-4.186954,50.36399],[-4.173814,50.36475],[-4.172206859429255,50.36284582930304]]],[[[-4.168255,50.35779],[-4.16850823853829,50.35846363296755],[-4.167950729771739,50.35780308598374],[-4.168255,50.35779]]],[[[-1.258768,53.645],[-1.2576460414099926,53.64536676046805],[-1.2576948424386603,53.644301686922674],[-1.258768,53.645]]],[[[-1.037777991906132,53.65940682021355],[-1.0485578478871558,53.65849400528398],[-1.0488739126368078,53.658971751063575],[-1.037777991906132,53.65940682021355]]],[[[-1.080455,53.66428],[-1.080594017255499,53.66409471115982],[-1.08098115080212,53.66439025774323],[-1.080455,53.66428]]],[[[-0.5606488076337406,54.09045465865107],[-0.5618720543390742,54.09030104923185],[-0.561358,54.09059],[-0.5606488076337406,54.09045465865107]]],[[[-0.403602,54.17044],[-0.403602,54.17105],[-0.409954,54.17044],[-0.409954,54.16934],[-0.4195597884195159,54.167052907519164],[-0.412533,54.17193],[-0.39413221626879996,54.17269265806337],[-0.403602,54.17044]]],[[[-0.25761171993277254,54.13687919164036],[-0.2840544885382437,54.135580743833884],[-0.262709,54.1375],[-0.25761171993277254,54.13687919164036]]],[[[0.273552,52.77251],[0.27251181053781437,52.772191872774485],[0.27251141447227956,52.77294835794603],[0.273552,52.77251]]],[[[0.19463475492369395,52.738691608354856],[0.19593241635778427,52.73937869446614],[0.195589,52.73851],[0.19463475492369395,52.738691608354856]]],[[[0.4378067785367516,52.440289682221206],[0.437902,52.44034],[0.43793000831024265,52.44034],[0.4378067785367516,52.440289682221206]]],[[[0.507609,52.45053],[0.513838,52.44915],[0.500539,52.4502],[0.507609,52.45053]]],[[[0.527061,52.45016],[0.524119,52.44813],[0.5236104931256464,52.448282781234155],[0.527061,52.45016]]],[[[0.56482,52.45325],[0.534628,52.4513],[0.552684,52.45578],[0.559683,52.45539],[0.56482,52.45325]]],[[[0.595311,52.45428],[0.598315,52.45407],[0.5946893534763275,52.454011764936794],[0.595311,52.45428]]],[[[0.6897987331449418,52.4524676246487],[0.696703,52.45111],[0.706316,52.45237],[0.718589,52.44965],[0.693699,52.45111],[0.6897987331449418,52.4524676246487]]],[[[0.683881,52.42242],[0.669203,52.40996],[0.685511,52.42519],[0.683881,52.42242]]],[[[0.840297,52.40087],[0.85343,52.39904],[0.835748,52.40014],[0.840297,52.40087]]],[[[0.919262,52.38919],[0.933681,52.38778],[0.936342,52.38668],[0.919262,52.38919]]],[[[0.940118,52.38275],[0.941921,52.37918],[0.936342,52.38668],[0.940118,52.38275]]],[[[0.956169,52.37222],[0.980631,52.36933],[0.957029,52.37164],[0.941921,52.37918],[0.956169,52.37222]]],[[[1.067491,52.37829],[1.082512,52.37389],[1.03848,52.37714],[1.067491,52.37829]]],[[[1.120400373071006,52.36941248988821],[1.121135,52.36933],[1.123882,52.36697],[1.120400373071006,52.36941248988821]]],[[[1.140712,52.36679],[1.150754,52.36401],[1.1534191883277272,52.36237983626557],[1.123882,52.36697],[1.140712,52.36679]]],[[[1.2679493732087352,52.37749259327885],[1.267312,52.37637],[1.25933,52.37051],[1.2679493732087352,52.37749259327885]]],[[[1.27066,52.37936],[1.279951,52.38599],[1.280981,52.38609],[1.282182,52.38756],[1.2843921573317243,52.38821804037061],[1.27066,52.37936]]],[[[1.308618,52.38819],[1.308962,52.38745],[1.305357,52.39007],[1.308618,52.38819]]],[[[1.337598,52.40113],[1.335692,52.40137],[1.3388770975785285,52.4014747557171],[1.337598,52.40113]]],[[[1.3481,52.40825],[1.346259,52.40848],[1.3497835796733453,52.40888033086683],[1.3481,52.40825]]],[[[1.351371,52.40967],[1.3518022390829183,52.40963611531564],[1.3509134807035226,52.40930336489786],[1.351371,52.40967]]],[[[1.421156,52.4578],[1.411051,52.46122],[1.431362,52.45716],[1.421156,52.4578]]],[[[1.438594,52.45796],[1.434123,52.46212],[1.4394797086847428,52.457960950382194],[1.438594,52.45796]]],[[[1.457233,52.45798],[1.455161022543878,52.457977776728946],[1.4608365150372884,52.459773034042215],[1.459624,52.45897],[1.458316,52.45886],[1.457233,52.45798]]],[[[1.4723624917267222,52.467816652880686],[1.47212,52.46749],[1.464,52.46395],[1.4723624917267222,52.467816652880686]]],[[[1.4749961034743695,52.469034383526456],[1.479896,52.4713],[1.483453,52.47165],[1.4749961034743695,52.469034383526456]]],[[[1.485250025460072,52.47036411416095],[1.483813,52.47104],[1.483453,52.47165],[1.485250025460072,52.47036411416095]]],[[[1.4892273961467561,52.46848174585994],[1.48847,52.46829],[1.487499,52.46873],[1.4892273961467561,52.46848174585994]]],[[[1.497787,52.46623],[1.498373,52.46579],[1.4975141156659846,52.466106708885235],[1.497787,52.46623]]],[[[1.541408,52.4618],[1.53827,52.46306],[1.541758139992261,52.46195054071493],[1.541408,52.4618]]],[[[1.5493997252950724,52.45896033515139],[1.548553,52.45906],[1.547772,52.4598],[1.5493997252950724,52.45896033515139]]],[[[1.555261,52.45893],[1.5562249699683899,52.45815696128139],[1.5503276810422204,52.45885110897189],[1.555261,52.45893]]],[[[1.5732943812952147,52.47521658016236],[1.576305,52.47664],[1.574116,52.47533],[1.5732943812952147,52.47521658016236]]],[[[1.5873017156726827,52.477936030373314],[1.588945,52.47789],[1.593996318230404,52.475921415704],[1.5873017156726827,52.477936030373314]]],[[[1.5970583571881276,52.47375876035894],[1.604277,52.4713],[1.597614,52.4732],[1.5970583571881276,52.47375876035894]]],[[[1.595484503146846,52.475341444828594],[1.596258,52.47504],[1.5969369048904882,52.47388089408941],[1.595484503146846,52.475341444828594]]],[[[1.605788,52.46731],[1.6056012176914014,52.46780322396513],[1.606252870642758,52.46724262744308],[1.605788,52.46731]]],[[[1.6423254698860639,52.46854286237224],[1.644735,52.47108],[1.643559,52.46893],[1.6423254698860639,52.46854286237224]]],[[[1.6494131025072938,52.471106284816585],[1.650246,52.47094],[1.65385,52.46783],[1.6494131025072938,52.471106284816585]]],[[[1.657901412514333,52.46793984017244],[1.657207,52.46755],[1.65385,52.46783],[1.657901412514333,52.46793984017244]]],[[[1.671586,52.47716],[1.670688,52.47613],[1.6700647781276239,52.47599980386584],[1.671586,52.47716]]],[[[1.682558,52.49478],[1.676809,52.49676],[1.6764666887849544,52.49712591141899],[1.682558,52.49478]]],[[[1.675228,52.49845],[1.674414,52.50173],[1.675529690307112,52.498127510044895],[1.675228,52.49845]]],[[[1.636197,52.51763],[1.629806,52.52096],[1.64558,52.51519],[1.636197,52.51763]]],[[[1.6610139256722412,52.5458797968427],[1.662115,52.54741],[1.665119,52.5494],[1.6610139256722412,52.5458797968427]]],[[[1.689323,52.54684],[1.690525,52.54486],[1.687574471291448,52.54788214348303],[1.689323,52.54684]]],[[[1.707863,52.53958],[1.725715,52.5329],[1.705631,52.53964],[1.707863,52.53958]]],[[[-0.096133,53.61369],[-0.0999892555764984,53.616080071470805],[-0.012208,53.59988],[-0.0021425125527420514,53.59560262673474],[-0.096133,53.61369]]],[[[-0.330362,53.72598],[-0.271373,53.72592],[-0.25946,53.71964],[-0.2501709173523854,53.709161273721996],[-0.274661,53.72434],[-0.38825420155830215,53.715798874160576],[-0.330362,53.72598]]],[[[-0.7045782383290158,53.68215344303395],[-0.704955355634334,53.68135315963369],[-0.705236,53.68182],[-0.7045782383290158,53.68215344303395]]],[[[-0.811737497272769,53.64539353390802],[-0.814178,53.6446],[-0.8153079929558866,53.64488254501794],[-0.811737497272769,53.64539353390802]]],[[[-0.848008,53.63416],[-0.8616756270120474,53.63752089188821],[-0.8620041173964902,53.638722113814936],[-0.8460866006419121,53.63484876978852],[-0.848008,53.63416]]],[[[-0.8339942207754276,53.46049068391271],[-0.818478,53.45853],[-0.8139058050171735,53.45749196776248],[-0.8339942207754276,53.46049068391271]]],[[[-0.8096379721453898,53.44494110161687],[-0.810039,53.44446],[-0.8169233743094113,53.442478318310584],[-0.8096379721453898,53.44494110161687]]],[[[-0.7848268748848978,53.38280115183651],[-0.782954,53.38224],[-0.7813173418423296,53.38094644849225],[-0.7848268748848978,53.38280115183651]]],[[[-0.7594571433017144,53.33740275605977],[-0.761741,53.33398],[-0.7639048245810793,53.333159321217316],[-0.7594571433017144,53.33740275605977]]],[[[-0.7657436072369883,53.27263776676584],[-0.765394,53.27244],[-0.7670675974447573,53.270292384704],[-0.7657436072369883,53.27263776676584]]],[[[-0.7245773074049949,53.254804508462584],[-0.712973,53.25711],[-0.7021604189560054,53.25711875335441],[-0.7245773074049949,53.254804508462584]]],[[[-0.6679627271835135,53.23764749536583],[-0.667631,53.23383],[-0.672556170731954,53.226117709019896],[-0.6679627271835135,53.23764749536583]]],[[[-0.6994825047389286,53.21988453072432],[-0.7124437982073524,53.21061579429796],[-0.699706,53.21991],[-0.6994825047389286,53.21988453072432]]],[[[-0.7318568582041566,53.21079251054423],[-0.7471832766639841,53.1958742952745],[-0.733223,53.21104],[-0.7318568582041566,53.21079251054423]]],[[[-0.718216,53.11837],[-0.717753,53.1164],[-0.7190784887141992,53.11442584576548],[-0.7185607274793597,53.11849311695691],[-0.718216,53.11837]]],[[[-0.7008930954097379,53.06488436364666],[-0.701057,53.06475],[-0.7017034489485506,53.064872338048254],[-0.7008930954097379,53.06488436364666]]],[[[-0.7303319016758577,53.05610332570556],[-0.730821,53.05579],[-0.732861674479604,53.05579844475266],[-0.7303319016758577,53.05610332570556]]],[[[-0.7610857311139363,53.03066548455988],[-0.761161,53.03043],[-0.7612007044512983,53.03041797753256],[-0.7610857311139363,53.03066548455988]]],[[[-0.7786692098564799,52.97730764364326],[-0.8001648323858289,52.97222816431671],[-0.796145,52.9768],[-0.7786005579739343,52.979174618215346],[-0.7786692098564799,52.97730764364326]]],[[[-0.7665669829747362,52.92623933061963],[-0.767866,52.9274],[-0.7605652625060031,52.94150923763825],[-0.763016,52.93419],[-0.766908,52.92882],[-0.7665669829747362,52.92623933061963]]],[[[-0.7754877982124836,52.90900915041725],[-0.7775150702900191,52.904681204021855],[-0.777977,52.90504],[-0.7754877982124836,52.90900915041725]]],[[[-0.776995,52.89041],[-0.775786,52.89584],[-0.777599,52.89784],[-0.776768,52.89825],[-0.780244,52.90112],[-0.775510434461973,52.902676972705194],[-0.773969,52.90155],[-0.765467,52.90166],[-0.761542,52.8992],[-0.767664,52.88785],[-0.7673624781348707,52.88698727649462],[-0.776995,52.89041]]],[[[-0.71756788475725,52.85107431047601],[-0.710883,52.84508],[-0.7061083064350319,52.83702669443276],[-0.71756788475725,52.85107431047601]]],[[[-0.683507,52.81197],[-0.681738,52.80724],[-0.6817507861668574,52.80716825785927],[-0.6906495555126458,52.81807673036255],[-0.683507,52.81197]]],[[[0.4138397064980074,51.45359518455436],[0.403257,51.45153],[0.372161,51.4502],[0.346627,51.4503],[0.3460509287754021,51.450414451236675],[0.4138397064980074,51.45359518455436]]],[[[0.24491448856552975,51.47140429659192],[0.27278796621164414,51.45984407624631],[0.271518,51.45973],[0.246378,51.47062],[0.24491448856552975,51.47140429659192]]],[[[-2.288413,51.42824],[-2.278972,51.42037],[-2.2795327377547983,51.41921478595568],[-2.281533,51.42236],[-2.293564040079005,51.429379687723504],[-2.2899248710670674,51.439292906001164],[-2.288413,51.42824]]],[[[-2.286151,51.40429],[-2.2856194097264315,51.404970727718265],[-2.285360437974684,51.40220000843882],[-2.286151,51.40429]]],[[[-2.2936582025132495,51.391613934015325],[-2.292771,51.39373],[-2.284764294955303,51.39582191914545],[-2.284637,51.39446],[-2.2936582025132495,51.391613934015325]]],[[[-2.2921345713883277,51.38088246774927],[-2.289014,51.37737],[-2.289800289293423,51.375241242848965],[-2.290321,51.37824],[-2.2921345713883277,51.38088246774927]]],[[[-2.2958002526266754,51.363238342539695],[-2.2927181762688145,51.367341513300666],[-2.294078,51.36366],[-2.2958002526266754,51.363238342539695]]],[[[-2.3038416320757413,51.36126957931451],[-2.305923,51.36076],[-2.307965351409718,51.35978745170966],[-2.307116,51.36165],[-2.3038416320757413,51.36126957931451]]],[[[-2.317387789481071,51.355300576437585],[-2.3206597366480164,51.35374250635809],[-2.320191,51.35485],[-2.317387789481071,51.355300576437585]]],[[[-2.2788656428016267,51.326922083852196],[-2.284206,51.32689],[-2.287535,51.33071],[-2.291864,51.33246],[-2.2939887084298336,51.33854972393426],[-2.2788656428016267,51.326922083852196]]],[[[-2.242404,51.27628],[-2.242747,51.26253],[-2.2446020388914536,51.260818006419356],[-2.243303,51.26271],[-2.243866,51.27259],[-2.2470402128834253,51.27929255150391],[-2.242404,51.27628]]],[[[-2.304545,51.16317],[-2.30072,51.17261],[-2.297391,51.17462],[-2.295429,51.17994],[-2.28719,51.18733],[-2.275989,51.2038],[-2.265439,51.21521],[-2.266315,51.22408],[-2.259546,51.23825],[-2.254197,51.24199],[-2.2487021807120366,51.24851417737358],[-2.248584,51.24685],[-2.257167,51.23696],[-2.26266,51.20664],[-2.275363,51.18835],[-2.295276,51.17759],[-2.304545,51.16317]]],[[[-2.324458,51.1425],[-2.3307483930564548,51.139598409907975],[-2.330748,51.1396],[-2.324458,51.1425]]],[[[-2.3414216892688304,51.133710099915554],[-2.342311,51.1272],[-2.341422,51.13371],[-2.3414216892688304,51.133710099915554]]],[[[-2.344991,51.12328],[-2.3449887671272545,51.123280840830745],[-2.346431,51.12117],[-2.344991,51.12328]]],[[[-1.949071,50.98649],[-1.94932578479141,50.98661777342979],[-1.9484917289294177,50.98689152589491],[-1.949071,50.98649]]],[[[-1.6597571344810644,50.95034475571159],[-1.66829,50.95041],[-1.691416,50.95943],[-1.7129953166665592,50.975729724382134],[-1.6597571344810644,50.95034475571159]]],[[[-1.67213,51.18708],[-1.673881063614962,51.18030948935987],[-1.6816593654189778,51.192972580595224],[-1.67213,51.18708]]],[[[-1.694117,51.22449],[-1.699267,51.23266],[-1.692744,51.23739],[-1.667682,51.23438],[-1.647426,51.23524],[-1.6285945833869073,51.23294777870205],[-1.635643,51.22019],[-1.652877,51.22301],[-1.69247,51.21617],[-1.6928674130825543,51.214897395404314],[-1.694117,51.22449]]],[[[-1.4996941088989104,50.726117643546004],[-1.491387,50.73027],[-1.4396052447568795,50.744362238158175],[-1.4996941088989104,50.726117643546004]]],[[[0.24137455317247444,51.51339178796212],[0.24119628897716885,51.51414713293326],[0.241749,51.51344],[0.24137455317247444,51.51339178796212]]],[[[0.23876247884018165,51.62629346942794],[0.22579617831393706,51.63274225591532],[0.229616,51.63574],[0.2329,51.63281],[0.238972,51.63222],[0.240345,51.63073],[0.23876247884018165,51.62629346942794]]],[[[0.21028557610065562,51.62900156822034],[0.20317,51.62682],[0.18752550974463342,51.627316290364305],[0.21028557610065562,51.62900156822034]]],[[[0.17864076364689377,51.62665841592665],[0.168982,51.62328],[0.14904438880945683,51.62446694098311],[0.17864076364689377,51.62665841592665]]],[[[0.10714474093107071,51.78587264001248],[0.108056,51.78639],[0.10965598672352299,51.7866630145706],[0.10714474093107071,51.78587264001248]]],[[[0.16182850044726887,51.89207834440934],[0.1617610068376027,51.89206261705829],[0.161824,51.89208],[0.16182850044726887,51.89207834440934]]],[[[0.16740645073693997,52.0481221436343],[0.16744218894109747,52.04823327303239],[0.167447,52.04812],[0.16740645073693997,52.0481221436343]]],[[[0.191206,52.05911],[0.19129649440465818,52.060444528379975],[0.193613,52.059],[0.189111,52.0555],[0.18755158250939857,52.05564963757351],[0.191206,52.05911]]],[[[0.38563994360534837,52.035529480788114],[0.3909738040492828,52.03545130726364],[0.393537,52.03157],[0.391139,52.03055],[0.38563994360534837,52.035529480788114]]],[[[0.651062,52.08342],[0.653687,52.08508],[0.657091,52.08573],[0.651062,52.08342]]],[[[0.4727663973982963,52.162979187768855],[0.4740545121025931,52.16371591911239],[0.473676,52.16302],[0.4727663973982963,52.162979187768855]]],[[[0.480172,52.16513],[0.4801542163473665,52.16537084946874],[0.4810285786213785,52.1652573722857],[0.480172,52.16513]]],[[[0.486041339777284,52.1646068021135],[0.48816604037152783,52.164331052523906],[0.487942,52.16412],[0.486041339777284,52.1646068021135]]],[[[0.4915907159478227,52.17167526574817],[0.4917937958153631,52.171962739014134],[0.491891,52.17169],[0.4915907159478227,52.17167526574817]]],[[[0.3711,52.286],[0.37022,52.28704],[0.37260079387258405,52.28849539109029],[0.379312,52.28363],[0.38440424063731915,52.28186862523619],[0.383904,52.28154],[0.379205,52.28262],[0.378442,52.2819],[0.377561,52.28219],[0.3785,52.28334],[0.3711,52.286]]],[[[0.3623508498813329,52.295926244088115],[0.3620136111523056,52.29599149069828],[0.362056,52.29614],[0.3623508498813329,52.295926244088115]]],[[[0.42684127123946874,52.255472048652656],[0.4316883683643513,52.25653826118661],[0.427204,52.25521],[0.42684127123946874,52.255472048652656]]],[[[0.4426066827496801,52.34550338539775],[0.44291611808206116,52.34632500620229],[0.442913,52.34614],[0.4426066827496801,52.34550338539775]]],[[[-2.6257668179683797,52.31517775314706],[-2.626282,52.31748],[-2.625643,52.31527],[-2.6257668179683797,52.31517775314706]]],[[[-2.622933,52.30806],[-2.628153,52.3134],[-2.6206323175650414,52.307659360744914],[-2.622933,52.30806]]],[[[-2.5513850922283687,52.338171824523464],[-2.554352,52.33643],[-2.5563068924710737,52.33589939278043],[-2.5513850922283687,52.338171824523464]]],[[[-2.50404,52.33017],[-2.5041865952139966,52.33037668684344],[-2.4916600780304528,52.331601094555666],[-2.50404,52.33017]]],[[[-2.424494,52.3676],[-2.4384217749042567,52.36832148074977],[-2.4163746889530033,52.3704013591009],[-2.424494,52.3676]]],[[[-2.40035,52.38406],[-2.4065631548292727,52.38653387976191],[-2.3988785624220976,52.38441665671559],[-2.40035,52.38406]]],[[[-2.321205,52.43764],[-2.322510721764776,52.43807040546244],[-2.316762744693729,52.43812779277581],[-2.321205,52.43764]]],[[[-2.2796459880599227,52.55107444799032],[-2.266687,52.548],[-2.2630900920328463,52.54434568711784],[-2.2796459880599227,52.55107444799032]]],[[[-2.28117,52.60789],[-2.2908158262713596,52.60932509239614],[-2.2705886530295336,52.61122539806096],[-2.28117,52.60789]]],[[[-2.2389,52.63671],[-2.241011276977487,52.6347662608012],[-2.236652075247376,52.642417621442206],[-2.2389,52.63671]]],[[[-2.325156,52.74927],[-2.3217694012268626,52.746998067909004],[-2.3257830887221025,52.749380370855334],[-2.325156,52.74927]]],[[[-2.347,52.76473],[-2.345831014535317,52.76364881387279],[-2.3488933208321567,52.764890826901386],[-2.347,52.76473]]],[[[-2.379914,52.77818],[-2.37736568172108,52.78275573425652],[-2.371935,52.78224],[-2.369971,52.77632],[-2.355469,52.7704],[-2.351154210408541,52.765807800593066],[-2.378799,52.77702],[-2.378665,52.77783],[-2.379914,52.77818]]],[[[-2.4167573060672467,52.828263241182],[-2.4169916281665365,52.82749995028064],[-2.417546,52.82772],[-2.4167573060672467,52.828263241182]]],[[[-2.440563,52.87937],[-2.4402433945419513,52.87939964153185],[-2.4410538904129404,52.8786169836384],[-2.440563,52.87937]]],[[[-2.490345,52.89753],[-2.480598,52.8976],[-2.480147,52.90134],[-2.47107,52.90156],[-2.470898388372808,52.90363861142026],[-2.466672,52.89203],[-2.458518,52.88447],[-2.458595315684288,52.87932128520017],[-2.495497,52.89334],[-2.490458,52.89553],[-2.490345,52.89753]]],[[[-2.4702594608214232,52.96133001271707],[-2.469123964962733,52.96150063362955],[-2.469881,52.96123],[-2.4702594608214232,52.96133001271707]]],[[[-2.273833958776687,51.072777884009014],[-2.26216537106739,51.07150214403278],[-2.268374,51.07047],[-2.273833958776687,51.072777884009014]]],[[[-2.2440899721176586,51.07288356173119],[-2.242404,51.07352],[-2.236568,51.07201],[-2.224551,51.05971],[-2.2215976770675705,51.05795989735498],[-2.224893,51.05902],[-2.239429,51.07144],[-2.2440899721176586,51.07288356173119]]],[[[-2.194682,51.04201],[-2.193546323445863,51.03993911877981],[-2.200903,51.04487],[-2.204442,51.04447],[-2.2133782749217437,51.05308918129548],[-2.194682,51.04201]]],[[[-2.1874143314163312,51.027510904794056],[-2.1857750025351743,51.019433628996126],[-2.187048,51.02009],[-2.1874143314163312,51.027510904794056]]],[[[-2.153286985265226,50.99139671439714],[-2.171266,51.00265],[-2.175991,51.00865],[-2.17565447143918,51.01064648404621],[-2.153286985265226,50.99139671439714]]],[[[-2.101044,50.94707],[-2.1024476198174398,50.94869663420958],[-2.100887069215554,50.947123901749336],[-2.101044,50.94707]]],[[[-2.287212,51.45023],[-2.2872670588233337,51.45008424557448],[-2.287233739041013,51.4502654808763],[-2.287212,51.45023]]],[[[-2.2919873618446935,51.48805637573601],[-2.2938223640055297,51.488595733606275],[-2.292104,51.48862],[-2.2919873618446935,51.48805637573601]]],[[[-2.2985148218515237,51.48852946765258],[-2.302973,51.48765],[-2.304296588555671,51.487984293705985],[-2.303434,51.48846],[-2.2985148218515237,51.48852946765258]]],[[[-2.251365,51.52623],[-2.251414,51.52914],[-2.257681,51.53084],[-2.261879,51.5375],[-2.261747209200559,51.53824648669236],[-2.260089,51.53595],[-2.242408,51.52783],[-2.249704,51.51993],[-2.263608,51.51282],[-2.312543989788201,51.501208801911936],[-2.312461,51.50127],[-2.296865,51.50506],[-2.293859,51.50879],[-2.280996,51.51433],[-2.263262,51.51743],[-2.255005,51.52114],[-2.251365,51.52623]]],[[[-2.264809714722813,51.54837516517139],[-2.265219,51.54869],[-2.26626441823417,51.55777778109209],[-2.265063,51.55741],[-2.264809714722813,51.54837516517139]]],[[[-2.241381294059872,51.583987255555684],[-2.238159,51.59006],[-2.227941,51.5936],[-2.224829,51.59414],[-2.218829,51.59675],[-2.210657,51.59958],[-2.208812,51.59882],[-2.208388,51.5979],[-2.207804299134949,51.595718401218114],[-2.213221,51.59268],[-2.226611,51.59054],[-2.237254,51.58457],[-2.241381294059872,51.583987255555684]]],[[[-2.1669282042415206,51.59164223023855],[-2.1613843196740468,51.59023331388754],[-2.164126,51.5899],[-2.1669282042415206,51.59164223023855]]],[[[-2.0052664559803013,51.647916828117154],[-1.996479,51.64837],[-1.993501958259909,51.64623154336812],[-1.998644,51.64576],[-2.0052664559803013,51.647916828117154]]],[[[-1.9504818383146272,51.643135086295594],[-1.957672,51.65666],[-1.9523335272262383,51.66063288829367],[-1.953669,51.65939],[-1.948519,51.65044],[-1.9504818383146272,51.643135086295594]]],[[[-1.9409292951322392,51.665388949223406],[-1.9455310127907723,51.665695315529604],[-1.943751,51.66702],[-1.9409292951322392,51.665388949223406]]],[[[-1.893931,51.64676],[-1.895694638350376,51.64773601964915],[-1.893774328008204,51.647245987392026],[-1.893931,51.64676]]],[[[-1.889811,51.67359],[-1.8871365483702869,51.66740756580765],[-1.893096,51.67329],[-1.892096,51.67449],[-1.878032,51.67894],[-1.8780300812769946,51.67893811527707],[-1.889811,51.67359]]],[[[-1.826297,51.65719],[-1.8367417554687202,51.65601456743699],[-1.835332,51.65643],[-1.823134020200453,51.65870595218779],[-1.826297,51.65719]]],[[[-1.810847,51.68019],[-1.8160294009177245,51.66747188808592],[-1.818594,51.67489],[-1.816966,51.67694],[-1.814636,51.6792],[-1.813654,51.68112],[-1.8115771158919107,51.68373779615438],[-1.810847,51.68019]]],[[[-1.706477,51.67636],[-1.705104,51.67913],[-1.697551,51.68147],[-1.7010598540785762,51.683978009077],[-1.693796,51.6896],[-1.6852462329662978,51.68760112937338],[-1.696488,51.68028],[-1.695029,51.67954],[-1.699241204193614,51.67143832763709],[-1.700297,51.67253],[-1.706477,51.67636]]],[[[-1.693774,51.65506],[-1.698237,51.65549],[-1.698581,51.65741],[-1.693431,51.66188],[-1.694117,51.66614],[-1.697155853167194,51.66928211516802],[-1.693741,51.66868],[-1.688505,51.65686],[-1.6904222202174912,51.655214402502054],[-1.690684,51.65528],[-1.693774,51.65506]]],[[[-1.675921,51.62225],[-1.676951,51.62481],[-1.676608,51.62737],[-1.666652,51.6344],[-1.664935,51.63717],[-1.664935,51.64037],[-1.6667271212200727,51.6419585219304],[-1.664352,51.64208],[-1.662499,51.63689],[-1.659409,51.63508],[-1.671206,51.62453],[-1.672488,51.62012],[-1.675921,51.62225]]],[[[-1.667515,51.61782],[-1.667258,51.61563],[-1.676099,51.61174],[-1.681248,51.61323],[-1.690604,51.60428],[-1.690346,51.60177],[-1.688677,51.6014],[-1.687514,51.59516],[-1.68533,51.59377],[-1.686102,51.5926],[-1.684901,51.59041],[-1.686102,51.5894],[-1.685282,51.58844],[-1.690518,51.58332],[-1.6805610781982045,51.57350879615012],[-1.702701,51.58259],[-1.692744,51.5892],[-1.692058,51.60328],[-1.694804,51.60797],[-1.685534,51.61586],[-1.679355,51.615],[-1.672488,51.61841],[-1.672488,51.62012],[-1.667515,51.61782]]],[[[-1.673230210176294,51.57050187013207],[-1.654946,51.57649],[-1.6510607662798884,51.57357884829195],[-1.669398,51.56893],[-1.673230210176294,51.57050187013207]]],[[[-1.5859830009282685,51.52424601164308],[-1.5868861338846234,51.52121335116233],[-1.587687,51.52132],[-1.595241,51.5179],[-1.5979033562487512,51.519867807458574],[-1.5859830009282685,51.52424601164308]]],[[[-1.55547,51.40794],[-1.5554355044964343,51.40764801050132],[-1.5560123610811962,51.407893857704394],[-1.55547,51.40794]]],[[[-1.5398293462367705,51.387183190905525],[-1.5402637925234626,51.38787651573886],[-1.540056,51.38782],[-1.5398293462367705,51.387183190905525]]],[[[-1.536876,51.38247],[-1.538073686426468,51.38438136572564],[-1.529669,51.38066],[-1.5294470158593325,51.380272025157474],[-1.536876,51.38247]]],[[[-1.5210466136164094,51.37778664190084],[-1.517272,51.37771],[-1.5156447274655451,51.376188413982064],[-1.5210466136164094,51.37778664190084]]],[[[-1.501418991710357,51.36858308839177],[-1.497984,51.36786],[-1.4985896204684541,51.36671973225026],[-1.501418991710357,51.36858308839177]]],[[[-1.4890420180567665,51.34875161654367],[-1.487013,51.34762],[-1.4930937167610676,51.34018612757323],[-1.4890420180567665,51.34875161654367]]],[[[-2.649260583269365,51.830393864813935],[-2.64998,51.82942],[-2.6503844321843353,51.82927096240674],[-2.649260583269365,51.830393864813935]]],[[[-2.644462,51.84396],[-2.645525,51.8531],[-2.642057,51.86132],[-2.633732,51.86228],[-2.628812,51.8596],[-2.626766,51.85171],[-2.6322459846556523,51.84393000167057],[-2.637828,51.84587],[-2.6416596738595564,51.84068311430302],[-2.644462,51.84396]]],[[[-2.529124,51.86963],[-2.529124,51.8713],[-2.54014,51.87752],[-2.537514,51.88747],[-2.524624,51.88147],[-2.522386,51.87759],[-2.517142,51.87801],[-2.516170365250308,51.87887805434216],[-2.5233624669569306,51.86893193150011],[-2.529124,51.86963]]],[[[-1.8612176887871785,52.59223706511338],[-1.8565075851972295,52.59735017221905],[-1.856788,52.59612],[-1.8612176887871785,52.59223706511338]]],[[[-1.61636,52.70675],[-1.610787,52.70493],[-1.6120697493868983,52.70104374024756],[-1.61435,52.7018],[-1.6226451296930258,52.7002937507691],[-1.61636,52.70675]]],[[[-1.731199,52.86458],[-1.7311697869232505,52.864165956392526],[-1.731579,52.86417],[-1.7321954946689806,52.86449833377023],[-1.731199,52.86458]]],[[[-1.5504194294366986,52.76186929739552],[-1.548037,52.76247],[-1.544265036565839,52.761047353896636],[-1.5504194294366986,52.76186929739552]]],[[[-1.4854547904282343,52.76158997219998],[-1.487017047255765,52.7608310999183],[-1.486256,52.76141],[-1.4854547904282343,52.76158997219998]]],[[[-1.4637101026067623,52.784015093036814],[-1.4676892095420544,52.78201924508057],[-1.46731,52.78267],[-1.4637101026067623,52.784015093036814]]],[[[-1.3151039473418717,52.87162138915884],[-1.318082,52.86675],[-1.3195929178306216,52.8674188676685],[-1.318138,52.86827],[-1.317499,52.87158],[-1.3151039473418717,52.87162138915884]]],[[[-1.2508832917058401,52.87751700467887],[-1.2569447345570235,52.87594747766045],[-1.253294,52.87764],[-1.2508832917058401,52.87751700467887]]],[[[-1.2400964469911255,52.89567855395911],[-1.237951,52.89652],[-1.234878,52.89279],[-1.238470531295461,52.89159686232406],[-1.237921,52.89417],[-1.2400964469911255,52.89567855395911]]],[[[-1.2806154276478972,52.91688901748012],[-1.277946,52.91548],[-1.2803084271579417,52.91174085541779],[-1.2806154276478972,52.91688901748012]]],[[[-1.2983826216849372,52.991025354701236],[-1.299066,52.99146],[-1.2994017909892817,52.99247268843656],[-1.2983826216849372,52.991025354701236]]],[[[-1.3310500094940405,53.036062118812715],[-1.3290946690838934,53.03267212714425],[-1.330992,53.03515],[-1.3310500094940405,53.036062118812715]]],[[[-1.260585636497578,53.164476028724806],[-1.26388,53.16398],[-1.264206585103289,53.16529908998176],[-1.260585636497578,53.164476028724806]]],[[[-1.2357960999382513,53.17702409856461],[-1.2405923065988729,53.17614938791574],[-1.239726,53.17697],[-1.2357960999382513,53.17702409856461]]],[[[-1.17873,53.30794],[-1.187004,53.30589],[-1.1894163062627199,53.30726118967224],[-1.173344,53.31018],[-1.172045,53.30763],[-1.1751882913383518,53.305125929553746],[-1.17873,53.30794]]],[[[-0.016341,51.13825],[-0.019607957549657024,51.138725115018445],[-0.017808,51.13939],[-0.014944354838413425,51.138479465122096],[-0.016341,51.13825]]],[[[-1.0745271872289046,51.94379417979517],[-1.065804,51.94753],[-1.054989,51.94891],[-1.05456,51.94822],[-1.054682919173508,51.94723378802651],[-1.0745271872289046,51.94379417979517]]],[[[-1.0547275705780654,51.94687553838529],[-1.054818,51.94615],[-1.0552748517627393,51.94602417218399],[-1.0547275705780654,51.94687553838529]]],[[[-1.0557796647040703,51.94523887079183],[-1.055848,51.94272],[-1.062371,51.93488],[-1.077836,51.93148],[-1.060568,51.93779],[-1.0557796647040703,51.94523887079183]]],[[[-1.081339,51.92737],[-1.082026,51.9262],[-1.0821564168553712,51.926240517857984],[-1.08194,51.92774],[-1.081339,51.92737]]],[[[-1.086344102071989,51.922076145392836],[-1.0863523334429692,51.921868446846005],[-1.086575,51.92202],[-1.086344102071989,51.922076145392836]]],[[[-1.079317,51.91708],[-1.080004,51.91618],[-1.0819241596931803,51.91581770571827],[-1.079317,51.91708]]],[[[-1.082473079617736,51.913781786744856],[-1.082235,51.91186],[-1.083239279554962,51.91009535308462],[-1.082473079617736,51.913781786744856]]],[[[-1.085668,51.89841],[-1.0852829103537494,51.900262789807435],[-1.084381,51.89926],[-1.086913,51.89754],[-1.091419,51.89722],[-1.085668,51.89841]]],[[[-1.0927836897709449,51.89380373266395],[-1.092964,51.89386],[-1.091419,51.89722],[-1.0927836897709449,51.89380373266395]]],[[[-1.077157,51.88769],[-1.070591,51.88854],[-1.0704944762748554,51.88826243177484],[-1.077157,51.88769]]],[[[-1.0694639737471197,51.88719708138734],[-1.069346,51.88716],[-1.068917,51.88648],[-1.0694639737471197,51.88719708138734]]],[[[-1.071749,51.88483],[-1.070248,51.88452],[-1.0701688488701036,51.884251254303145],[-1.071749,51.88483]]],[[[-1.069818,51.88306],[-1.070634,51.8824],[-1.070462,51.88203],[-1.071449,51.8811],[-1.072479,51.88112],[-1.076599,51.87871],[-1.0701063869443062,51.88403917427602],[-1.069818,51.88306]]],[[[-1.0764259382444052,51.87726697778134],[-1.076041,51.87636],[-1.076256,51.87585],[-1.0764259382444052,51.87726697778134]]],[[[-1.066213,51.86451],[-1.063767,51.85831],[-1.064025,51.85812],[-1.063681,51.85778],[-1.0641617460118056,51.857569262022224],[-1.066213,51.86451]]],[[[-1.063920695042874,51.8567536284516],[-1.062995,51.85542],[-1.0634877848778328,51.85528880935033],[-1.063920695042874,51.8567536284516]]],[[[-1.063411721723029,51.85503143779601],[-1.063209,51.85478],[-1.0633258152222484,51.854740759744466],[-1.063411721723029,51.85503143779601]]],[[[-1.06617,51.85322],[-1.065784,51.8528],[-1.065784049003548,51.852799960113394],[-1.06617,51.85322]]],[[[-1.063767,51.84771],[-1.062909,51.84686],[-1.0626001777522167,51.84556045296352],[-1.063767,51.84771]]],[[[-1.06170911916596,51.84391892414706],[-1.0600819861618913,51.84324253610896],[-1.061536,51.8436],[-1.06170911916596,51.84391892414706]]],[[[-1.0479689415323155,51.84026458916504],[-1.046866,51.84037],[-1.04673,51.83996],[-1.0479689415323155,51.84026458916504]]],[[[-1.0470537508933413,51.83979831526926],[-1.046987,51.8397],[-1.0478280156049609,51.83941163901912],[-1.0470537508933413,51.83979831526926]]],[[[-1.062008,51.83233],[-1.066986,51.83397],[-1.067673,51.83503],[-1.062008,51.83233]]],[[[-1.076771,51.8292],[-1.086856,51.83153],[-1.0885419821036544,51.832988350303516],[-1.076771,51.8292]]],[[[-1.1229287013386122,51.84396164562669],[-1.123806,51.84304],[-1.140791,51.83446],[-1.1229287013386122,51.84396164562669]]],[[[-1.130668,51.83088],[-1.129814,51.8292],[-1.127411,51.82888],[-1.122899809681373,51.824304258015424],[-1.140791,51.83446],[-1.130668,51.83088]]],[[[-1.118012,51.81129],[-1.118871,51.8105],[-1.1209411989354865,51.810212698236235],[-1.1178120316871056,51.81237584944098],[-1.118012,51.81129]]],[[[-1.1241226794284134,51.808013383589596],[-1.124278,51.80768],[-1.124793,51.80755],[-1.1241226794284134,51.808013383589596]]],[[[-1.121403,51.80471],[-1.120947045502758,51.80307734074805],[-1.124793,51.80755],[-1.121403,51.80471]]],[[[-1.1181778724326912,51.78706719678649],[-1.114965,51.78703],[-1.1108984876669794,51.78473176021668],[-1.1181778724326912,51.78706719678649]]],[[[-1.082213735692724,51.77387218382683],[-1.082307,51.77392],[-1.080078,51.77763],[-1.0846351757492434,51.78091868353038],[-1.083365,51.78076],[-1.079651,51.77731],[-1.082213735692724,51.77387218382683]]],[[[-1.079174,51.7697],[-1.0814278033101858,51.76700291310037],[-1.081439,51.76722],[-1.0796350045764438,51.77006138070611],[-1.079174,51.7697]]],[[[-1.080883,51.75644],[-1.077192,51.75873],[-1.0750950269043795,51.75814364990704],[-1.080883,51.75644]]],[[[-1.048439,51.74811],[-1.045641,51.74547],[-1.0457251688926703,51.74474575603981],[-1.051044450315203,51.748916962532455],[-1.048439,51.74811]]],[[[-1.045297,51.74441],[-1.044182,51.74505],[-1.0428289736619267,51.74482896463143],[-1.045297,51.74441]]],[[[-1.0295080322918133,51.74709028705144],[-1.029619039723976,51.74777639712778],[-1.029333,51.74712],[-1.0295080322918133,51.74709028705144]]],[[[-1.0302393244888306,51.7491998117934],[-1.031221,51.75031],[-1.031147176438356,51.75128312876713],[-1.0302393244888306,51.7491998117934]]],[[[-1.031315957026289,51.751670442429734],[-1.03242,51.75288],[-1.0323904241459958,51.75413610391712],[-1.031315957026289,51.751670442429734]]],[[[-1.0323751100056264,51.75478650446692],[-1.032335,51.75649],[-1.030449,51.75796],[-1.0323751100056264,51.75478650446692]]],[[[-0.9808675854739478,51.75435050134983],[-0.980924,51.75472],[-0.981354,51.75483],[-0.98144,51.75557],[-0.981869,51.75589],[-0.980839,51.75738],[-0.981182,51.75839],[-0.978989,51.76038],[-0.980839,51.75435],[-0.9808675854739478,51.75435050134983]]],[[[-0.9652067617354496,51.75789747380536],[-0.95513,51.75803],[-0.947444307162157,51.754698010995845],[-0.9652067617354496,51.75789747380536]]],[[[-0.9406371769854527,51.75347187641236],[-0.936376,51.7536],[-0.933243,51.75214],[-0.9406371769854527,51.75347187641236]]],[[[-0.9292914150527607,51.74668259263355],[-0.9290644501415437,51.74646648973637],[-0.929123,51.74645],[-0.9292914150527607,51.74668259263355]]],[[[-0.923939,51.74791],[-0.920291,51.74387],[-0.920119,51.74116],[-0.919004,51.73933],[-0.9194175904820815,51.73913725880446],[-0.923939,51.74791]]],[[[-0.9192973057108418,51.738903874245146],[-0.9189745306773068,51.73863288509611],[-0.919218,51.73875],[-0.9192973057108418,51.738903874245146]]],[[[-0.909133,51.73683],[-0.908919,51.73614],[-0.9013871891842236,51.730172928885224],[-0.9158270261097664,51.737118855768514],[-0.909133,51.73683]]],[[[-0.9011864167598932,51.73001386709209],[-0.900765,51.72968],[-0.9010951755981335,51.72921815928605],[-0.9011864167598932,51.73001386709209]]],[[[-0.9009330690060869,51.727804439006576],[-0.8994526711208168,51.7261212255736],[-0.90085,51.72708],[-0.9009330690060869,51.727804439006576]]],[[[-0.891752,51.72158],[-0.888105,51.71868],[-0.8880221840489587,51.71827821964346],[-0.8930500476772465,51.72172807825444],[-0.891752,51.72158]]],[[[-0.887297,51.71476],[-0.8892833937078143,51.70789277920361],[-0.889607,51.70823],[-0.8878206461297868,51.717300461421736],[-0.887297,51.71476]]],[[[-0.8888694617281248,51.70054891238836],[-0.888763,51.70037],[-0.8899169301823213,51.69856254700408],[-0.8888694617281248,51.70054891238836]]],[[[-0.8904533316142664,51.68860508413652],[-0.888834,51.68825],[-0.8855963924442815,51.686094567972546],[-0.8904533316142664,51.68860508413652]]],[[[-0.8803557268022737,51.682605603243026],[-0.880122,51.68245],[-0.879607,51.68093],[-0.8803557268022737,51.682605603243026]]],[[[-0.8970760510121559,51.67635571124738],[-0.8971115873830946,51.67623827345501],[-0.897327,51.67629],[-0.8970760510121559,51.67635571124738]]],[[[-0.8876716900075285,51.673971492226826],[-0.884456,51.67377],[-0.8823749043202576,51.67269958704736],[-0.8876716900075285,51.673971492226826]]],[[[-0.892439,51.66792],[-0.896387,51.66949],[-0.896558,51.66999],[-0.91175,51.6742],[-0.913552,51.67287],[-0.915241679290302,51.67265026386905],[-0.911857,51.67461],[-0.877547,51.66853],[-0.892439,51.66792]]],[[[-0.9237906350154723,51.66770040127364],[-0.924626,51.66558],[-0.9282297251576515,51.66513015913427],[-0.9237906350154723,51.66770040127364]]],[[[-0.9282300604247246,51.665130117284015],[-0.928231,51.66513],[-0.928874,51.66638],[-0.9282300604247246,51.665130117284015]]],[[[-0.9313183851069413,51.66478340010204],[-0.931492,51.66494],[-0.928874,51.66638],[-0.9313183851069413,51.66478340010204]]],[[[-0.930861467302418,51.664371262178236],[-0.928917,51.66345],[-0.9282633019078022,51.66202772800024],[-0.930861467302418,51.664371262178236]]],[[[-0.9269345937066151,51.66082923883226],[-0.924013,51.65929],[-0.922523,51.65685],[-0.9269345937066151,51.66082923883226]]],[[[-0.922609,51.65639],[-0.925472,51.65455],[-0.927188,51.65455],[-0.922523,51.65685],[-0.922609,51.65639]]],[[[-0.9266,51.65221],[-0.927029,51.65163],[-0.927188,51.65455],[-0.9266,51.65221]]],[[[-0.930891,51.65344],[-0.933166,51.65221],[-0.9350487139889714,51.65296979173863],[-0.930891,51.65344]]],[[[-0.944066,51.65195],[-0.943637,51.6515],[-0.944925,51.64838],[-0.944495,51.64705],[-0.937371,51.6414],[-0.934398,51.63714],[-0.9347774789950166,51.63594448690594],[-0.949762,51.65051],[-0.944555,51.64947],[-0.944066,51.65195]]],[[[-0.9348011445047664,51.635869930930106],[-0.93489,51.63559],[-0.9352670118167156,51.63555431631877],[-0.9348011445047664,51.635869930930106]]],[[[-0.949946,51.62124],[-0.947757,51.62073],[-0.9473987095241805,51.62038433222387],[-0.949946,51.62124]]],[[[-0.9421754883301443,51.61862978475245],[-0.938444,51.61831],[-0.938187,51.61729],[-0.9421754883301443,51.61862978475245]]],[[[-0.940504,51.6134],[-0.941648061132258,51.612444764491514],[-0.938187,51.61729],[-0.940504,51.6134]]],[[[-0.943723,51.60954],[-0.942135,51.60765],[-0.9427464230055659,51.60632432094032],[-0.943723,51.60954]]],[[[-0.9383613945723803,51.60381093510298],[-0.935655,51.60322],[-0.935554,51.60222],[-0.9383613945723803,51.60381093510298]]],[[[-0.930642646770905,51.60302541211027],[-0.929884,51.60428],[-0.9253741706481059,51.60388938875255],[-0.930642646770905,51.60302541211027]]],[[[-0.9227230772152328,51.60365976877536],[-0.920763,51.60349],[-0.9181991218783696,51.60139883141553],[-0.9227230772152328,51.60365976877536]]],[[[-0.917309729855763,51.60067341914212],[-0.916386,51.59992],[-0.919033829614257,51.597080588087465],[-0.917309729855763,51.60067341914212]]],[[[-0.9220465175537756,51.59384991872032],[-0.924872,51.59082],[-0.928193,51.59054],[-0.928536,51.58994],[-0.9408663249428827,51.58577550342366],[-0.9220465175537756,51.59384991872032]]],[[[-0.940454111097398,51.583199772744806],[-0.939935,51.58207],[-0.9399636309211853,51.58102019955654],[-0.940454111097398,51.583199772744806]]],[[[-0.927758,51.56786],[-0.927844,51.5664],[-0.924454,51.56378],[-0.9372950089025012,51.571120743082794],[-0.929904,51.56893],[-0.929947,51.56829],[-0.927758,51.56786]]],[[[-0.924196,51.56448],[-0.922351,51.56493],[-0.9160155230694524,51.56147364925048],[-0.924196,51.56448]]],[[[-0.9124924109692768,51.56017889458116],[-0.912275,51.56023],[-0.9121119812320786,51.56003908546792],[-0.9124924109692768,51.56017889458116]]],[[[-0.90172,51.55622],[-0.9023331087115045,51.55351847093753],[-0.902666,51.55365],[-0.90172,51.55622]]],[[[-0.8799563760101604,51.51129196170209],[-0.872468,51.50697],[-0.8722184821111146,51.50567828359773],[-0.8799563760101604,51.51129196170209]]],[[[-0.9209512673627411,51.47156902958675],[-0.922438,51.46874],[-0.9265219717269814,51.46868653851125],[-0.9209512673627411,51.47156902958675]]],[[[-0.9464787926204535,51.460609378641095],[-0.947054,51.46041],[-0.9481798757513147,51.460625063397536],[-0.9464787926204535,51.460609378641095]]],[[[-0.9467484994036002,51.46654773393667],[-0.9467657420804952,51.466667963486444],[-0.946695,51.46656],[-0.9467484994036002,51.46654773393667]]],[[[-0.9733452866979051,51.488298260138066],[-0.973663,51.48796],[-0.9748726241244673,51.488328122761054],[-0.9733452866979051,51.488298260138066]]],[[[-0.999513,51.47813],[-1.000627,51.47594],[-1.007378,51.47434],[-1.009042,51.46878],[-1.013933,51.46726],[-1.0176288631234989,51.46783030878281],[-1.001402889060251,51.48085597744412],[-0.999513,51.47813]]],[[[-1.0374626451735163,51.47668432810448],[-1.0376,51.47675],[-1.0374020848785521,51.479050404744946],[-1.0374626451735163,51.47668432810448]]],[[[-1.100992,51.49017],[-1.103493,51.49278],[-1.105070812257608,51.497073957995035],[-1.100770827071093,51.49011218364161],[-1.100992,51.49017]]],[[[-1.1421751065112458,51.52260237157398],[-1.142236,51.52296],[-1.1417523571915753,51.52333187618512],[-1.1421751065112458,51.52260237157398]]],[[[-1.2127260302922744,51.53766795297144],[-1.22953,51.53568],[-1.2362606200314394,51.53757112273182],[-1.2127260302922744,51.53766795297144]]],[[[-1.290872875467061,51.55392699021055],[-1.296739,51.55418],[-1.301434897413446,51.556640447021884],[-1.290872875467061,51.55392699021055]]],[[[-1.3070213012653442,51.55807563297962],[-1.325451,51.56052],[-1.3279003891305017,51.563439615697106],[-1.3070213012653442,51.55807563297962]]],[[[-1.3570118431030143,51.54766955979819],[-1.358605,51.54762],[-1.3604022557290718,51.548787153352286],[-1.3570118431030143,51.54766955979819]]],[[[-1.380888682900292,51.54390783102562],[-1.383852,51.5415],[-1.38558785694068,51.54149395698193],[-1.380888682900292,51.54390783102562]]],[[[-1.3921308886109272,51.54147117880379],[-1.395342,51.54146],[-1.4003719157779,51.545058127543534],[-1.3921308886109272,51.54147117880379]]],[[[-1.4361954636200787,51.542521579860065],[-1.448055,51.53741],[-1.453427693436868,51.53680808779328],[-1.4361954636200787,51.542521579860065]]],[[[-1.4825844527159864,51.53458497069009],[-1.485194,51.53504],[-1.4856803456089946,51.53563302984378],[-1.4825844527159864,51.53458497069009]]],[[[-1.6329103974925774,51.97056036776674],[-1.627474,51.96713],[-1.6266694522536547,51.966257649069476],[-1.6329103974925774,51.97056036776674]]],[[[-1.5427355235798625,51.99499155883017],[-1.54155,51.99541],[-1.53547075024433,51.99332299288565],[-1.5427355235798625,51.99499155883017]]],[[[-1.4499482001663027,52.11414857152978],[-1.44835,52.11509],[-1.4456557645993724,52.114660558304266],[-1.4499482001663027,52.11414857152978]]],[[[-1.4279601880009498,52.11677122509097],[-1.425029,52.11726],[-1.4245759488405105,52.11717488535909],[-1.4279601880009498,52.11677122509097]]],[[[-1.3752273832826913,52.097408741546424],[-1.374196,52.09851],[-1.3683881839791878,52.099211213281144],[-1.3752273832826913,52.097408741546424]]],[[[-1.3910427710419209,52.11981944110478],[-1.391074,52.11993],[-1.3908447682064717,52.12005014061099],[-1.3910427710419209,52.11981944110478]]],[[[-1.3867151026392133,52.124248000107265],[-1.385175,52.12685],[-1.382261660778333,52.126714855039424],[-1.3867151026392133,52.124248000107265]]],[[[-1.2505007763946587,52.098707897648694],[-1.249676,52.09817],[-1.249783346909858,52.097894468917204],[-1.2505007763946587,52.098707897648694]]],[[[-1.302529936926808,52.04481108225099],[-1.301576,52.04454],[-1.3005785610180542,52.043606164757044],[-1.302529936926808,52.04481108225099]]],[[[-1.293041,52.03223],[-1.2933800255956422,52.03150139920311],[-1.295571,52.03592],[-1.2952161398460238,52.03728830205428],[-1.293041,52.03223]]],[[[-1.285507,52.01107],[-1.284488,52.00863],[-1.279785,52.00769],[-1.2795743267236792,52.007320543416895],[-1.28726,52.00902],[-1.288343,52.01097],[-1.284686,52.01296],[-1.2810457239839557,52.012349741486084],[-1.285507,52.01107]]],[[[-1.1954809327868805,51.97680381756236],[-1.190617,51.98039],[-1.1807395927706035,51.9809559846071],[-1.1954809327868805,51.97680381756236]]],[[[-1.1449868028237586,51.99555529869981],[-1.143745,51.99602],[-1.1405912010245112,51.996215464176544],[-1.1449868028237586,51.99555529869981]]],[[[-1.114893,52.01637],[-1.114637,52.01683],[-1.113102,52.01665],[-1.112675,52.01569],[-1.111139,52.0159],[-1.107642,52.01448],[-1.1074748472364335,52.01383646186027],[-1.1172099848375558,52.015475258271124],[-1.1173403346266724,52.01561632247909],[-1.116429,52.01583],[-1.116173,52.01663],[-1.114893,52.01637]]],[[[-1.094219,52.01165],[-1.094361,52.01105],[-1.092626,52.0107],[-1.091887,52.00904],[-1.091091,52.00883],[-1.090152,52.00695],[-1.090266,52.00627],[-1.098541,52.0152],[-1.096693,52.0153],[-1.095442,52.01446],[-1.095698,52.01352],[-1.095186,52.01312],[-1.095044,52.0121],[-1.094219,52.01165]]],[[[-1.086256,52.00639],[-1.086256,52.00695],[-1.082076,52.00741],[-1.081934,52.00802],[-1.075846,52.00812],[-1.0746784703713579,52.00663223885706],[-1.0865511856652887,52.00635632863134],[-1.086256,52.00639]]],[[[-1.0727683687136818,52.00667662774085],[-1.059624,52.00812],[-1.058423,52.00701],[-1.0727683687136818,52.00667662774085]]],[[[-1.0579488066721903,52.00388553148398],[-1.057822,52.00379],[-1.057822,52.00305],[-1.0579488066721903,52.00388553148398]]],[[[-1.052914,52.00189],[-1.054989,52.0012],[-1.079419,51.97978],[-1.054475914683318,52.00225915668962],[-1.052914,52.00189]]],[[[-1.078164,51.97926],[-1.082455,51.97255],[-1.0835934472728954,51.97218005698674],[-1.078164,51.97926]]],[[[-1.087519,51.96684],[-1.088377,51.96509],[-1.0897186626594897,51.964192839559],[-1.0840153673164017,51.97162987761966],[-1.083914,51.97107],[-1.086747,51.96668],[-1.087519,51.96684]]],[[[-1.089407,51.95388],[-1.081597,51.9507],[-1.079022,51.94642],[-1.089407,51.95388]]],[[[-0.9104935169425471,52.02334098032922],[-0.911159,52.02368],[-0.9118965613046613,52.02514293151338],[-0.911793,52.02501],[-0.911795,52.02496],[-0.911684,52.02487],[-0.9104935169425471,52.02334098032922]]],[[[-0.829733,52.14259],[-0.8239451787560406,52.14221454253407],[-0.8291976515676823,52.14087871526763],[-0.829733,52.14259]]],[[[-0.7674392999001959,51.56687673828487],[-0.76817,51.56679],[-0.7691491997700128,51.567243981644296],[-0.7674392999001959,51.56687673828487]]],[[[-0.6977476354470188,51.53464933298396],[-0.6976723339471355,51.53489833794374],[-0.697634,51.53483],[-0.6977476354470188,51.53464933298396]]],[[[-0.698924,51.53003],[-0.698666,51.52974],[-0.6997406718239227,51.52805881428743],[-0.698273632431038,51.532909980407325],[-0.697894,51.53278],[-0.698924,51.53003]]],[[[-0.656374063703617,51.50346748590888],[-0.656124,51.50341],[-0.6561049231903164,51.503018498308734],[-0.656479,51.50321],[-0.656374063703617,51.50346748590888]]],[[[-0.660202,51.51913],[-0.6602005709563054,51.519580659136544],[-0.6591302489921549,51.51906573533446],[-0.660202,51.51913]]],[[[-0.648449,51.53342],[-0.6530914238824,51.531537684415404],[-0.6475706654045024,51.53432643405108],[-0.648449,51.53342]]],[[[-0.6084229949029253,51.532885305327504],[-0.609911,51.53274],[-0.6111197386867508,51.53324526576825],[-0.6084229949029253,51.532885305327504]]],[[[-0.604602,51.53054],[-0.6057804939730299,51.5325325852044],[-0.5797659139260818,51.529060167930005],[-0.582411,51.52432],[-0.587342,51.52408],[-0.593235,51.52532],[-0.595792,51.5288],[-0.604602,51.53054]]],[[[-0.567216,51.51747],[-0.5642956637835645,51.5206930198166],[-0.563179,51.52045],[-0.563351,51.52005],[-0.556999,51.51888],[-0.559317,51.51519],[-0.557729,51.51233],[-0.5320812048192541,51.51028127367258],[-0.552986,51.5101],[-0.566071,51.51158],[-0.567216,51.51747]]],[[[-0.525858164901664,51.50908325264751],[-0.526211307147848,51.509812390721294],[-0.525931,51.50979],[-0.525858164901664,51.50908325264751]]],[[[-0.489996,51.49875],[-0.4899244174193302,51.49883106574306],[-0.48997125255203516,51.49874222140751],[-0.489996,51.49875]]],[[[-0.4864608466760602,51.55199146935996],[-0.487289,51.55278],[-0.487075,51.55524],[-0.487632,51.55566],[-0.484195,51.55922],[-0.484762,51.5594],[-0.484622,51.56136],[-0.4840304600210347,51.56170696908637],[-0.478557,51.55801],[-0.4864608466760602,51.55199146935996]]],[[[-0.669172,51.82008],[-0.666526,51.818],[-0.6665610940029046,51.817649059970954],[-0.666842,51.81768],[-0.6691534391835279,51.81965789110926],[-0.669172,51.82008]]],[[[-0.693819,51.9227],[-0.7038210854085853,51.90971179603324],[-0.717891,51.91621],[-0.717205,51.92579],[-0.715145,51.92886],[-0.713771,51.9296],[-0.701154,51.92711],[-0.6930119160441887,51.92794465578633],[-0.693819,51.9227]]],[[[-1.1857921920470422,52.39385619083219],[-1.1775948403236653,52.39496335951339],[-1.183691,52.39338],[-1.1857921920470422,52.39385619083219]]],[[[-1.1434893295626092,52.40041580994514],[-1.1426637334696197,52.40071923876076],[-1.142859,52.40056],[-1.1434893295626092,52.40041580994514]]],[[[-1.001840551014125,52.470800774387165],[-1.006052,52.46608],[-1.0131935030264887,52.463940248171106],[-1.001840551014125,52.470800774387165]]],[[[-0.9974288694821974,52.47143339028511],[-0.9861794275325036,52.472186667501504],[-0.991445,52.4706],[-0.9974288694821974,52.47143339028511]]],[[[-0.936443,52.47275],[-0.9373,52.47414],[-0.933549,52.47333],[-0.932612,52.47043],[-0.9341909259230953,52.467304863085694],[-0.940548,52.46862],[-0.9441753814857977,52.4736944716214],[-0.936443,52.47275]]],[[[-0.9137781918118645,52.46368819217951],[-0.914929,52.46332],[-0.9245439239416142,52.46530911342717],[-0.9137781918118645,52.46368819217951]]],[[[-0.8826657982065091,52.503807980112974],[-0.8826163964082062,52.503512512105566],[-0.882837,52.50373],[-0.8826657982065091,52.503807980112974]]],[[[-0.765201,52.51458],[-0.7679773566297194,52.515896837848956],[-0.763141452915353,52.51491963188427],[-0.765201,52.51458]]],[[[-1.266734,52.84316],[-1.2669970265669364,52.84293440699725],[-1.2682940046523252,52.844816738565264],[-1.266734,52.84316]]],[[[-1.2707599492797919,52.83970701805409],[-1.270978,52.83981],[-1.270085778936008,52.84028524144037],[-1.2707599492797919,52.83970701805409]]],[[[-1.267043,52.83762],[-1.2689356576074786,52.837388471011124],[-1.2674006037348353,52.83779266762292],[-1.267043,52.83762]]],[[[-1.2734497591364988,52.834605523959766],[-1.273829,52.8361],[-1.272474040536404,52.836456775767985],[-1.2734497591364988,52.834605523959766]]],[[[-1.272382,52.83248],[-1.2720335301250876,52.82902458443364],[-1.2730230212561007,52.83292387622849],[-1.272382,52.83248]]],[[[-1.265494446537081,52.82165831264712],[-1.270591,52.82334],[-1.2707259411119673,52.823871762998365],[-1.265494446537081,52.82165831264712]]],[[[-1.260346,52.81948],[-1.2606881877717657,52.81899179292349],[-1.2610580377367842,52.8197812638465],[-1.260346,52.81948]]],[[[-1.256362551128604,52.80493163700932],[-1.257224,52.80493],[-1.263437,52.81507],[-1.256362551128604,52.80493163700932]]],[[[-1.246715,52.8058],[-1.2442529383935237,52.80495464887871],[-1.2516574870928767,52.80494057803175],[-1.246715,52.8058]]],[[[-1.233638,52.80131],[-1.2333433464207175,52.800785789243946],[-1.2357973548557755,52.8020514164795],[-1.233638,52.80131]]],[[[-1.2290452856473135,52.79313921765616],[-1.229379,52.79314],[-1.229887205068331,52.794637055277214],[-1.2290452856473135,52.79313921765616]]],[[[-1.199105,52.78959],[-1.200225,52.79089],[-1.2001305545710632,52.79118204402139],[-1.199105,52.78959]]],[[[-1.190605,52.79496],[-1.190273,52.7939],[-1.1906778688470676,52.79370242473609],[-1.190605,52.79496]]],[[[-1.074569,52.82412],[-1.0735698324345873,52.82351651528985],[-1.092296,52.82016],[-1.074569,52.82412]]],[[[-1.070301474981152,52.82154246827439],[-1.069453,52.82103],[-1.072697,52.81387],[-1.070301474981152,52.82154246827439]]],[[[-1.05108,52.80434],[-1.0497970363429845,52.80177407268597],[-1.072697,52.81387],[-1.05108,52.80434]]],[[[-1.048485,52.79915],[-1.051926,52.79373],[-1.0491135801128957,52.80040716022579],[-1.048485,52.79915]]],[[[-1.047423,52.78332],[-1.048358,52.78427],[-1.0482697685214502,52.784540682997545],[-1.047423,52.78332]]],[[[-1.037663,52.8196],[-1.0374677013729676,52.81959270104455],[-1.046674,52.78153],[-1.037663,52.8196]]],[[[-0.973966,52.83376],[-0.977025,52.82649],[-0.979000587708711,52.82497777898316],[-0.973966,52.83376]]],[[[-0.971283,52.84484],[-0.9688355681228511,52.84455421411698],[-0.977212,52.84082],[-0.971283,52.84484]]],[[[-0.954112,52.85025],[-0.947993598071804,52.85207915417173],[-0.957633,52.84663],[-0.957448,52.8457],[-0.961091,52.84365],[-0.9610918810313683,52.84365011249183],[-0.954112,52.85025]]],[[[-0.938998,52.85871],[-0.939218,52.85704],[-0.9400308896678333,52.8565804734487],[-0.938998,52.85871]]],[[[-0.941102,52.87731],[-0.928478,52.86662],[-0.941103,52.87731],[-0.91765,52.87988],[-0.941102,52.87731]]],[[[-0.8133805809949487,52.95778745366155],[-0.813651,52.95727],[-0.819822,52.96094],[-0.8133805809949487,52.95778745366155]]],[[[-0.8044849421269932,52.967314817198066],[-0.80452,52.9672],[-0.8046075532299052,52.96717536914112],[-0.8044849421269932,52.967314817198066]]],[[[-1.575052873155914,52.67971536227681],[-1.577227,52.67949],[-1.580261734405935,52.6823662133351],[-1.575052873155914,52.67971536227681]]],[[[-1.5653929883475681,52.62864854324185],[-1.565517,52.62886],[-1.5652689202631407,52.62919450415726],[-1.5653929883475681,52.62864854324185]]],[[[-1.497825750157704,52.56415622843025],[-1.519758,52.5705],[-1.522283172608627,52.57308473629924],[-1.497825750157704,52.56415622843025]]],[[[-2.635369858994244,52.25043423111555],[-2.6353785149386217,52.25012376170564],[-2.63552,52.25033],[-2.635369858994244,52.25043423111555]]],[[[-2.5853482955874383,52.24677169411742],[-2.585028,52.24695],[-2.5845090723185256,52.24691830603778],[-2.5853482955874383,52.24677169411742]]],[[[-2.5532581765850204,52.25012911929169],[-2.5573394394448297,52.2503421651871],[-2.554917,52.2507],[-2.5532581765850204,52.25012911929169]]],[[[-2.482217,52.28288],[-2.476176,52.28428],[-2.4696811812529473,52.282643223836935],[-2.4882139757550963,52.27983865683236],[-2.482217,52.28288]]],[[[-2.463237736469456,52.283618310062245],[-2.462679,52.28381],[-2.4621342646946456,52.283785298399046],[-2.463237736469456,52.283618310062245]]],[[[-2.4540126379172764,52.23428470457926],[-2.437451,52.23601],[-2.423189,52.2354],[-2.4157287550970143,52.23112635285013],[-2.4540126379172764,52.23428470457926]]],[[[-2.4109901563623946,52.19756032439225],[-2.412005,52.1948],[-2.4161805150398448,52.1916106161601],[-2.4109901563623946,52.19756032439225]]],[[[-2.3887853601852913,52.14921337398112],[-2.38508,52.15188],[-2.3819334353035755,52.152537491130595],[-2.3887853601852913,52.14921337398112]]],[[[-1.739535,52.52788],[-1.731849,52.52566],[-1.732326,52.52438],[-1.7372862019945094,52.52299041844246],[-1.737093,52.52317],[-1.746742,52.52934],[-1.7474125340467992,52.53104474757661],[-1.74395,52.53127],[-1.739535,52.52788]]],[[[-0.7808831343764824,52.74265023135403],[-0.781845,52.74206],[-0.7830724401468657,52.741983753588556],[-0.7808831343764824,52.74265023135403]]],[[[-0.759124,52.74033],[-0.7590834213507006,52.74030714154084],[-0.7591308677363727,52.74031654061716],[-0.759124,52.74033]]],[[[-1.137498,53.37144],[-1.13583473459798,53.37212459772737],[-1.137313,53.36979],[-1.136635,53.36585],[-1.137498,53.3653054662593],[-1.137498,53.37144]]],[[[-1.096307,53.41897],[-1.0943053796818494,53.419319354421575],[-1.0985092425735672,53.416126558859624],[-1.096307,53.41897]]],[[[-2.579331555455718,55.09519662382103],[-2.579825,55.09503],[-2.58041073889566,55.0953991930009],[-2.579331555455718,55.09519662382103]]],[[[-2.594948,54.88889],[-2.598397629929562,54.888033613981804],[-2.5935141480821327,54.88999666782345],[-2.594948,54.88889]]]]}}
