{"type":"Feature","properties":{"sourceId":"guinea"},"geometry":{"type":"MultiPolygon","coordinates":[[[[-9.507294,7.352253],[-9.376832,7.746374],[-9.443436,7.847738],[-9.527894,8.193821],[-9.529954,8.358259],[-9.65561,8.392904],[-9.720154,8.434338],[-9.767533,8.511082],[-9.841004,8.479843],[-9.983139,8.434338],[-10.07172,8.417697],[-10.0573,8.4975],[-10.15034,8.518892],[-10.20699,8.471354],[-10.258169442601194,8.477089563878826],[-10.2558,8.493556],[-10.3226,8.509724],[-10.33762,8.500132],[-10.39082,8.500172],[-10.41126,8.454375],[-10.53623,8.321571],[-10.58601,8.344671],[-10.66189,8.362674],[-10.63236,8.388149],[-10.63133,8.44996],[-10.59769,8.537566],[-10.54104,8.596977],[-10.48782,8.620739],[-10.4528,8.669615],[-10.51095,8.785619],[-10.54516,8.8196],[-10.58191,8.995572],[-10.56644,9.060059],[-10.66567,9.09091],[-10.71648,9.087181],[-10.69588,9.177008],[-10.65124,9.198021],[-10.64266,9.304422],[-10.74708,9.398853],[-10.78564,9.420734],[-10.83342,9.452835],[-10.81226,9.518143],[-10.85248,9.537993],[-10.86519,9.582844],[-10.89844,9.61666],[-10.91217,9.655924],[-10.97086,9.731561],[-11.04023,9.82511],[-11.09379,9.864687],[-11.14906,9.878217],[-11.15779,9.967376],[-11.20206,10.00412],[-11.49221,10.0014],[-11.89648,10.00571],[-11.92051,9.944166],[-12.12376,9.880246],[-12.20615,9.911362],[-12.21989,9.937064],[-12.34211,9.906965],[-12.4391,9.882783],[-12.46639,9.861136],[-12.49832,9.846929],[-12.50193,9.814116],[-12.56819,9.705842],[-12.59308,9.662016],[-12.61917,9.613614],[-12.65831,9.543537],[-12.65923,9.52238],[-12.69333,9.421798],[-12.76028,9.400291],[-12.75616,9.351682],[-12.77453,9.348633],[-12.87889,9.295952],[-12.94344,9.294597],[-12.95683,9.282738],[-12.97314,9.225294],[-12.9558,9.180397],[-12.98464,9.172093],[-13.00936,9.115148],[-13.07613,9.08379],[-13.09553,9.049379],[-13.16591,9.088876],[-13.18119,9.096842],[-13.20128,9.098876],[-13.25192,9.074976],[-13.33294,9.052939],[-14.76451,8.558559],[-14.629618208166661,8.385177689383225],[-14.98203,8.218501],[-16.85708,10.05681],[-16.57838060368603,10.212942328253876],[-16.56555,10.14494],[-15.27924,10.64981],[-15.07256,10.88658],[-15.03067,10.92333],[-15.00217,10.93883],[-14.95274,10.97456],[-14.90021,11.06757],[-14.66091,11.48574],[-14.50848,11.48574],[-14.31622,11.59036],[-14.26609,11.65863],[-14.0855,11.61928],[-13.99006,11.63744],[-13.87573,11.65459],[-13.7693,11.67712],[-13.7003,11.69628],[-13.69515,11.76486],[-13.70339,11.87508],[-13.68519,12.01112],[-13.87402,12.1491],[-13.93787,12.15514],[-13.90835,12.2293],[-13.80295,12.24708],[-13.71609,12.24004],[-13.6512,12.31686],[-13.62923,12.4235],[-13.63472,12.48954],[-13.6512,12.52139],[-13.70407,12.61153],[-13.700318592322795,12.682866449967873],[-13.48658,12.67886],[-13.34839,12.66295],[-13.28024,12.66194],[-13.05931,12.65039],[-12.88902,12.56596],[-12.39326,12.40037],[-12.34245,12.34872],[-12.11723,12.43591],[-12.0587,12.4406],[-11.99381,12.41109],[-11.89751,12.45736],[-11.47659,12.45786],[-11.41685,12.44211],[-11.35883,12.40707],[-11.36699,12.3885],[-11.42235,12.37119],[-11.41651,12.29237],[-11.47625,12.17628],[-11.36501,12.1162],[-11.30527,12.03261],[-11.23283,12.0091],[-11.14323,12.10345],[-11.04607,12.22997],[-10.92041,12.24071],[-10.78823,12.12292],[-10.75012,11.95201],[-10.66258,11.908],[-10.62481,11.96779],[-10.58052,12.02992],[-10.53555,12.05443],[-10.51941,12.12862],[-10.34569,12.24037],[-10.08751,12.1934],[-10.06519,12.16252],[-9.919625,12.11687],[-9.720154,12.03932],[-9.666252,12.17225],[-9.377581,12.31488],[-9.413567,12.46641],[-9.366875,12.51334],[-9.266968,12.51736],[-9.147492,12.49591],[-8.99334,12.42183],[-8.919869,12.32491],[-8.97686,12.23735],[-8.900643,12.19944],[-8.875924,12.1548],[-8.892746,12.06517],[-8.829232,12.05544],[-8.768463,11.98324],[-8.76297,11.95704],[-8.791809,11.82535],[-8.834725,11.66132],[-8.700486,11.65593],[-8.527451,11.50391],[-8.342743,11.38782],[-8.347893,11.27707],[-8.380852,11.26697],[-8.467713,11.28044],[-8.469086,11.22218],[-8.510628,11.21107],[-8.575516,11.07869],[-8.34961,11.07633],[-8.277512,11.01938],[-8.24833,10.90175],[-8.285408,10.63834],[-8.220177,10.46047],[-8.096581,10.4608],[-7.978478,10.35579],[-7.930756,10.24939],[-7.991867,10.09529],[-8.098297,10.0385],[-8.086281,9.83695],[-8.100014,9.656262],[-8.135376,9.58484],[-8.054352,9.435177],[-7.844239,9.426032],[-7.862778,9.295274],[-7.899857,9.20141],[-7.820893,9.188532],[-7.705193,9.062093],[-7.878571,9.016998],[-7.941056,8.810779],[-7.781754,8.777529],[-7.664338,8.621417],[-7.648545,8.502594],[-7.627259,8.359957],[-7.745018,8.367769],[-7.894707,8.414301],[-7.947235,8.479843],[-8.185845,8.467958],[-8.220864,8.243771],[-7.975388,8.200277],[-7.936936,8.050732],[-7.937622,8.005857],[-8.043022,8.014356],[-8.12336,7.883107],[-8.084565,7.798759],[-8.109627,7.72324],[-8.140612,7.663614],[-8.161469,7.584412],[-8.174858,7.563992],[-8.207131,7.531319],[-8.313218,7.576585],[-8.414498,7.593941],[-8.466339,7.542551],[-8.576546,7.632394],[-8.5635,7.69296],[-8.67199,7.687857],[-8.700142,7.515662],[-8.77327,7.411836],[-8.824768,7.360424],[-8.830948,7.275293],[-8.841248,7.26167],[-8.867684,7.252134],[-8.966561,7.250431],[-9.006043,7.241236],[-9.110413,7.183332],[-9.251492,7.348599],[-9.340612,7.364621],[-9.507294,7.352253]]],[[[-13.71918,12.68322],[-13.718129840454594,12.683200315152115],[-13.71917752872512,12.683199158462896],[-13.71918,12.68322]]]]}}
