{"type":"Feature","properties":{"sourceId":"greece"},"geometry":{"type":"Polygon","coordinates":[[[26.3697,41.71136],[26.39918,41.69535],[26.45164,41.68592],[26.46989,41.67094],[26.49447,41.67605],[26.49753,41.6655],[26.49476,41.65084],[26.5323,41.62324],[26.56981,41.61202],[26.59633,41.6107],[26.60114,41.58217],[26.60036,41.54603],[26.60631,41.48979],[26.61459,41.46314],[26.61386,41.45233],[26.63048,41.42033],[26.63826,41.3856],[26.62828,41.34176],[26.59018,41.31946],[26.57018,41.32127],[26.5494,41.3367],[26.52105,41.33598],[26.51507,41.32623],[26.4878,41.30309],[26.46195,41.2816],[26.41061,41.25493],[26.39423,41.24922],[26.35699,41.24865],[26.33237,41.2188],[26.32461,41.19067],[26.32492,41.18536],[26.33243,41.15435],[26.33859,41.14365],[26.33781,41.10734],[26.33557,41.09894],[26.36223,41.02863],[26.36938,41.01889],[26.36424,41.00834],[26.3579,40.99731],[26.36352,40.94817],[26.35881,40.94159],[26.30448,40.90329],[26.29526,40.89287],[26.27795,40.89213],[26.25174,40.88124],[26.22333,40.83433],[26.20771,40.81979],[26.1263,40.74209],[26.078,40.72749],[25.94833,40.6671],[26.00326,40.40827],[25.52398,40.203],[25.56656,40.08543],[25.9424,39.89286],[25.9948,39.42512],[26.46232,39.44665],[26.49353,39.42028],[26.51413,39.3003],[26.74072,39.0853],[26.68177,38.81066],[26.2532,38.71981],[26.36993,38.49122],[26.29165,38.4353],[26.18866,38.28024],[26.23947,38.17235],[27.15683,37.8716],[27.21014,37.72487],[27.09015,37.7],[27.01178,37.68687],[26.98828,37.65293],[27.12274,37.51162],[27.23785,37.26422],[27.20445,37.17252],[27.18862,37.06066],[27.15202,37.01242],[27.23099,36.94825],[27.38548,36.95044],[27.50908,36.88621],[27.40539,36.79334],[27.2781,36.71496],[27.39647,36.59183],[27.64232,36.61056],[27.77962,36.71742],[27.92518,36.71632],[27.97551,36.49798],[28.19911,36.58572],[28.32296,36.56011],[29.25396,35.99189],[29.48133,36.19131],[29.54616,36.18081],[29.62055,36.18021],[29.61855,36.1503],[29.64281,36.13467],[29.65683,36.11312],[25.95973,34.59111],[23.30803,34.63072],[20.69824,36.83128],[19.96215,37.98751],[19.10797,39.62156],[18.97064,39.87602],[19.19645548019447,40.05320024583806],[19.21509,40.02761],[19.73694,39.90974],[19.8365,39.88103],[19.95358,39.82093],[19.97143,39.78664],[19.94911,39.73756],[19.91718,39.68447],[19.99306,39.62738],[20.01537,39.69187],[20.05657,39.68843],[20.07442,39.67839],[20.08678,39.67839],[20.0909,39.67046],[20.11803,39.65566],[20.1915,39.64364],[20.22789,39.64562],[20.23012,39.65249],[20.21999,39.66452],[20.23055,39.67278],[20.23347,39.68374],[20.25742,39.67284],[20.26583,39.67007],[20.26514,39.67614],[20.26531,39.69002],[20.27922,39.70052],[20.28565,39.71115],[20.30179,39.71346],[20.32205,39.72745],[20.32496,39.73491],[20.30625,39.75141],[20.29664,39.75775],[20.29707,39.76672],[20.30934,39.77879],[20.30531,39.78842],[20.29853,39.79522],[20.29278,39.80359],[20.30145,39.80953],[20.30514,39.81447],[20.31612,39.8084],[20.34608,39.8028],[20.36333,39.78869],[20.3823,39.78308],[20.39131,39.78704],[20.40255,39.79911],[20.41414,39.81157],[20.41989,39.83965],[20.4065,39.85289],[20.38985,39.86989],[20.38582,39.8888],[20.36505,39.91072],[20.34067,39.92435],[20.34891,39.94791],[20.32728,39.97304],[20.3187,39.98238],[20.31458,39.98988],[20.32934,39.99133],[20.37741,39.98751],[20.39732,39.9954],[20.40075,40.01434],[20.41723,40.03287],[20.41912,40.05613],[20.43354,40.06599],[20.4598,40.07308],[20.47628,40.06323],[20.49156,40.06112],[20.51302,40.07768],[20.54701,40.0627],[20.56074,40.06362],[20.57413,40.06507],[20.60314,40.0719],[20.62117,40.08188],[20.62288,40.08832],[20.65962,40.09016],[20.67953,40.09291],[20.68314,40.11208],[20.68726,40.13978],[20.69721,40.15277],[20.69326,40.15749],[20.68005,40.16851],[20.68365,40.18832],[20.70751,40.19671],[20.7181,40.20599],[20.72777,40.22293],[20.72365,40.23839],[20.72519,40.25372],[20.71661,40.25857],[20.71043,40.26957],[20.71472,40.27979],[20.76622,40.32077],[20.76347,40.3366],[20.78115,40.34694],[20.79498,40.36596],[20.7942,40.3833],[20.79128,40.3969],[20.79523,40.41206],[20.79094,40.42696],[20.82493,40.43623],[20.839,40.46837],[20.843,40.47604],[20.85355,40.47712],[20.87265,40.46732],[20.9063,40.46941],[20.92827,40.45896],[20.95058,40.46288],[20.96981,40.47881],[20.97427,40.49605],[20.97153,40.51015],[21.0014,40.53233],[21.01788,40.5519],[21.04465,40.55111],[21.05359,40.59756],[21.06148,40.61057],[21.06045,40.63558],[21.06285,40.66892],[21.02543,40.71474],[21.00826,40.72853],[20.98938,40.73659],[20.98972,40.76104],[20.98045,40.76624],[20.96741,40.77352],[20.97736,40.77924],[20.98526,40.78496],[20.98869,40.7938],[20.986357977574492,40.849679649464974],[21.12423,40.84759],[21.15636,40.85109],[21.20779,40.87605],[21.25718,40.85419],[21.31731,40.85812],[21.36684,40.8744],[21.42542,40.91074],[21.4652,40.90019],[21.52446,40.90187],[21.56334,40.86104],[21.5963,40.86066],[21.64245,40.89187],[21.67454,40.89399],[21.67613,40.91957],[21.69127,40.93373],[21.75457,40.91889],[21.78954,40.9247],[21.81018,40.94274],[21.81023,40.97346],[21.84973,40.99168],[21.8602,41.01033],[21.91926,41.04717],[21.91348,41.07035],[21.9197,41.08685],[21.9747,41.12038],[22.03044,41.12693],[22.06765,41.1482],[22.08342,41.13323],[22.12998,41.11718],[22.15265,41.12344],[22.17856,41.1521],[22.21666,41.16052],[22.26378,41.15787],[22.31476,41.13907],[22.33169,41.1147],[22.3726,41.12912],[22.41672,41.11326],[22.46611,41.11117],[22.55248,41.12421],[22.58603,41.11068],[22.62226,41.12926],[22.66296,41.1763],[22.70782,41.13442],[22.73434,41.14046],[22.75513,41.16838],[22.77026,41.31635],[22.8078,41.33228],[22.921650283073575,41.332542695337956],[22.92163,41.33226],[23.09596,41.30816],[23.185,41.31083],[23.22891,41.3286],[23.24059,41.37336],[23.31831,41.39561],[23.34045,41.35864],[23.40757,41.39561],[23.44448,41.39612],[23.52338,41.39473],[23.54782,41.38402],[23.6352,41.36702],[23.67777,41.40231],[23.77064,41.39239],[23.80589,41.42723],[23.89518,41.44266],[23.92294,41.46209],[23.96753,41.43011],[24.01478,41.44942],[24.05028,41.44285],[24.08114,41.46362],[24.07143,41.51691],[24.09649,41.53765],[24.18528,41.50675],[24.25833,41.55918],[24.28742,41.53921],[24.30578,41.50206],[24.34107,41.51515],[24.37118,41.50916],[24.39908,41.52808],[24.45227,41.51345],[24.48128,41.54353],[24.52165,41.55497],[24.60903,41.41645],[24.64531,41.42246],[24.65823,41.40736],[24.72205,41.40748],[24.7412,41.37487],[24.8035,41.33777],[24.82246,41.34738],[24.83346,41.38891],[24.88147,41.3833],[24.91141,41.39675],[24.93887,41.378],[25.05075,41.35531],[25.08173,41.32939],[25.11429,41.32949],[25.21192,41.27481],[25.22763,41.24011],[25.28508,41.22681],[25.48053,41.27793],[25.52802,41.26882],[25.568,41.30809],[25.61021,41.29498],[25.65631,41.30282],[25.71274,41.28246],[25.72857,41.30763],[25.78044,41.31178],[25.82689,41.33352],[25.88708,41.29575],[25.98223,41.31156],[26.035,41.33976],[26.13442,41.34646],[26.17382,41.41844],[26.20988,41.43892],[26.16963,41.47895],[26.19286,41.5274],[26.18336,41.56009],[26.15897,41.56529],[26.16155,41.60967],[26.14204,41.64],[26.10382,41.63636],[26.0804,41.65557],[26.08097,41.70327],[26.11628,41.70585],[26.16865,41.73689],[26.22869,41.72871],[26.27312,41.71201],[26.30779,41.7065],[26.33835,41.71041],[26.36178,41.70656],[26.361953866334773,41.71234439921456],[26.3697,41.71136]]]}}
