{"type":"Feature","properties":{"sourceId":"guizhou"},"geometry":{"type":"Polygon","coordinates":[[[103.7,27.14195],[103.7017,27.16746],[103.7235,27.18319],[103.746,27.2209],[103.772,27.23448],[103.793,27.27004],[103.8335,27.28179],[103.8699,27.33594],[103.9291,27.4507],[104.0163,27.43425],[104.0198,27.41002],[104.0215,27.39113],[104.0201,27.38396],[104.0289,27.3736],[104.0467,27.36628],[104.0692,27.35134],[104.096,27.34646],[104.1224,27.34585],[104.1708,27.27416],[104.1864,27.29674],[104.2407,27.31581],[104.2415,27.34432],[104.2594,27.35942],[104.268,27.37588],[104.2934,27.39189],[104.3021,27.41216],[104.3296,27.44004],[104.3313,27.46792],[104.3881,27.4766],[104.5219,27.40698],[104.5466,27.34082],[104.5785,27.33594],[104.6158,27.32252],[104.6532,27.33075],[104.7188,27.35271],[104.7536,27.3521],[104.7764,27.33182],[104.8027,27.36353],[104.8216,27.36338],[104.8592,27.33258],[104.8557,27.3062],[104.8928,27.31245],[104.9107,27.33563],[104.9575,27.36353],[104.9972,27.3768],[105.025,27.40515],[105.0676,27.42618],[105.1253,27.42572],[105.1718,27.41109],[105.1994,27.39631],[105.2241,27.4373],[105.2178,27.44431],[105.215,27.53],[105.2384,27.58559],[105.2991,27.61921],[105.2885,27.63776],[105.2961,27.70177],[105.3201,27.73307],[105.3465,27.75282],[105.3664,27.76072],[105.3915,27.76649],[105.4174,27.77379],[105.4416,27.78199],[105.4882,27.78252],[105.4933,27.7753],[105.4985,27.7731],[105.5072,27.77318],[105.5483,27.76034],[105.5573,27.73763],[105.5735,27.72684],[105.5832,27.72585],[105.6048,27.72441],[105.6347,27.67387],[105.6583,27.68968],[105.696,27.69356],[105.7149,27.71058],[105.7736,27.72791],[105.8035,27.72152],[105.8406,27.71484],[105.8649,27.7434],[105.9199,27.75708],[105.9319,27.73763],[105.9844,27.75525],[106.0586,27.7832],[106.1266,27.78897],[106.2028,27.76984],[106.267,27.79231],[106.3085,27.83968],[106.3174,27.87307],[106.2934,27.90099],[106.2872,27.92162],[106.3106,27.95802],[106.2903,27.98985],[106.235,28.01],[106.235,28.04168],[106.2515,28.07948],[106.2482,28.09197],[106.2251,28.10246],[106.2216,28.11775],[106.2084,28.12082],[106.2036,28.12555],[106.2032,28.13649],[106.1864,28.14027],[106.1776,28.1461],[106.1681,28.15264],[106.1408,28.16547],[106.1339,28.16475],[106.1208,28.1691],[106.1074,28.16505],[106.087,28.16373],[106.0675,28.15355],[106.0639,28.15003],[106.0587,28.14625],[106.0485,28.14417],[106.0423,28.14171],[106.0343,28.14122],[106.0321,28.13739],[106.0269,28.13183],[106.0397,28.10863],[106.0333,28.10681],[106.021,28.10893],[106.0016,28.11711],[105.9756,28.10742],[105.9559,28.1355],[105.9371,28.13376],[105.8903,28.12044],[105.8732,28.12279],[105.8486,28.16449],[105.8713,28.24255],[105.8407,28.25586],[105.815,28.3065],[105.7439,28.30604],[105.7407,28.27611],[105.718,28.27037],[105.6349,28.30997],[105.6315,28.32524],[105.6452,28.35107],[105.6339,28.41088],[105.6057,28.44107],[105.6047,28.45496],[105.6049,28.48122],[105.6195,28.50234],[105.6193,28.52285],[105.6747,28.54638],[105.6771,28.55859],[105.6833,28.56862],[105.687,28.57193],[105.6868,28.5861],[105.6881,28.59447],[105.6939,28.59666],[105.6958,28.59666],[105.7104,28.59123],[105.722,28.60736],[105.7314,28.6124],[105.7329,28.62122],[105.7403,28.6222],[105.765,28.62],[105.7816,28.61549],[105.8684,28.60992],[105.8762,28.60351],[105.8932,28.61331],[105.8863,28.62469],[105.8887,28.62755],[105.8888,28.63809],[105.8931,28.65346],[105.8849,28.65941],[105.8837,28.67621],[105.9137,28.68005],[105.9265,28.69435],[105.9278,28.70685],[105.9506,28.71852],[105.9486,28.72883],[105.96,28.75216],[105.9606,28.76638],[105.9677,28.76841],[105.9748,28.7499],[106.0085,28.74817],[106.0444,28.69684],[106.0818,28.69608],[106.1034,28.63922],[106.1143,28.65143],[106.1321,28.6445],[106.1407,28.64977],[106.165,28.63809],[106.172,28.61806],[106.1983,28.57894],[106.2277,28.57955],[106.2887,28.54216],[106.3316,28.49366],[106.3656,28.48589],[106.3664,28.51923],[106.36704655604085,28.52423969456474],[106.3681,28.52391],[106.3988,28.56688],[106.4717,28.53121],[106.5004,28.53567],[106.5241,28.57759],[106.5056,28.65881],[106.5226,28.66875],[106.5274,28.67591],[106.5119,28.70361],[106.5071,28.72062],[106.4555,28.8167],[106.4683,28.82678],[106.5492,28.75365],[106.5542,28.7216],[106.5735,28.69044],[106.6068,28.67618],[106.6216,28.65396],[106.6094,28.64811],[106.6058,28.61482],[106.5995,28.59718],[106.5521,28.51667],[106.5531,28.48484],[106.5928,28.48589],[106.5976,28.49992],[106.7037,28.45164],[106.7457,28.46718],[106.7408,28.50354],[106.7631,28.5604],[106.7825,28.5705],[106.7703,28.61301],[106.7816,28.6222],[106.7914,28.60366],[106.8041,28.58754],[106.8244,28.60005],[106.8688,28.62717],[106.8716,28.65625],[106.8814,28.68595],[106.8851,28.69917],[106.8614,28.71091],[106.8465,28.73515],[106.8252,28.75712],[106.8448,28.77548],[106.8649,28.77398],[106.8923,28.80181],[106.9457,28.76886],[106.9878,28.77458],[106.9885,28.85279],[107.0829,28.87023],[107.0934,28.88842],[107.1342,28.88752],[107.1358,28.8767],[107.2049,28.82979],[107.2008,28.81339],[107.2113,28.77052],[107.2424,28.76074],[107.2803,28.79504],[107.3273,28.80978],[107.3555,28.84452],[107.3792,28.84708],[107.4149,28.89594],[107.4411,28.94807],[107.4386,28.95874],[107.3754,29.02045],[107.3914,29.04171],[107.3903,29.06367],[107.3871,29.09023],[107.4102,29.09668],[107.4276,29.13117],[107.4076,29.18576],[107.4496,29.19626],[107.4645,29.1628],[107.5609,29.2109],[107.5828,29.14257],[107.6475,29.15966],[107.6653,29.14152],[107.6948,29.13953],[107.7064,29.15441],[107.7156,29.15711],[107.735,29.18792],[107.7979,29.14071],[107.7812,29.08318],[107.7773,29.04792],[107.8123,29.02413],[107.8033,28.98382],[107.8626,28.95588],[107.8911,29.00589],[107.9093,29.00589],[107.9273,29.03471],[108.022,29.03306],[108.0728,29.08284],[108.1257,29.04897],[108.2334,29.02768],[108.2515,29.03544],[108.2826,29.08648],[108.3107,28.96581],[108.3403,28.93485],[108.3379,28.85559],[108.3466,28.81305],[108.3474,28.81145],[108.3805,28.79745],[108.3266,28.72951],[108.3266,28.67602],[108.4353,28.62917],[108.5027,28.62672],[108.5638,28.65083],[108.5823,28.64164],[108.5993,28.63501],[108.6265,28.63923],[108.5959,28.59703],[108.6037,28.54875],[108.5689,28.5418],[108.5673,28.54019],[108.5691,28.49694],[108.5964,28.42371],[108.5693,28.40257],[108.5679,28.34367],[108.6071,28.31919],[108.6697,28.33787],[108.6829,28.35364],[108.6627,28.37509],[108.6965,28.40189],[108.6901,28.4306],[108.6445,28.46688],[108.7046,28.48395],[108.7698,28.43035],[108.7451,28.38536],[108.7716,28.38052],[108.7629,28.34669],[108.7506,28.32584],[108.7566,28.31148],[108.7326,28.29945],[108.7159,28.28715],[108.7279,28.22425],[108.7537,28.21729],[108.7485,28.20058],[108.755,28.18967],[108.7592,28.18967],[108.8117,28.23877],[108.8398,28.19762],[108.914,28.21487],[108.9229,28.18945],[109.0019,28.15132],[109.0242,28.19966],[109.0608,28.19966],[109.0674,28.18654],[109.085,28.18249],[109.0993,28.20143],[109.1026,28.22134],[109.0792,28.25321],[109.1023,28.27249],[109.1384,28.32371],[109.15,28.35364],[109.1593,28.41163],[109.1742,28.4416],[109.1747,28.45232],[109.183,28.45737],[109.2028,28.47616],[109.2282,28.47412],[109.2559,28.48891],[109.2701,28.49776],[109.27004967451177,28.49833371056585],[109.2706,28.49834],[109.2723,28.48899],[109.2693,28.48076],[109.2616,28.46311],[109.2565,28.43949],[109.2674,28.39684],[109.276,28.38113],[109.2832,28.38075],[109.2873,28.37048],[109.2661,28.33899],[109.273,28.32667],[109.2756,28.31141],[109.2846,28.30876],[109.3077,28.28095],[109.3281,28.29788],[109.3495,28.29743],[109.3632,28.28246],[109.3958,28.27642],[109.3965,28.26614],[109.3718,28.2579],[109.3689,28.24164],[109.3407,28.14194],[109.3054,28.06229],[109.3421,28.07319],[109.3682,28.05926],[109.3816,28.03805],[109.3624,28.00774],[109.3236,27.99198],[109.3201,27.96833],[109.3054,27.96226],[109.3122,27.92829],[109.3075,27.91115],[109.3153,27.90372],[109.3161,27.89037],[109.3441,27.84211],[109.3373,27.78138],[109.3599,27.76657],[109.3784,27.74652],[109.4125,27.73277],[109.4349,27.70359],[109.4401,27.70093],[109.4505,27.6977],[109.4669,27.69056],[109.4753,27.63457],[109.464,27.57098],[109.4561,27.55759],[109.3936,27.53841],[109.3109,27.48178],[109.3044,27.43456],[109.291,27.4245],[109.2439,27.4178],[109.202,27.44583],[109.1612,27.41597],[109.1413,27.42054],[109.1193,27.38762],[109.1145,27.35591],[109.1015,27.33861],[109.0653,27.32389],[109.0433,27.33639],[109.053,27.29613],[109.0396,27.27782],[108.9927,27.26371],[108.9765,27.24517],[108.9445,27.22868],[108.9098,27.21724],[108.9118,27.20968],[108.9221,27.20395],[108.935,27.16],[108.8828,27.1059],[108.8045,27.08419],[108.8446,27.06738],[108.8841,27.01387],[108.9305,27.04628],[108.9394,27.05882],[109.0125,27.10559],[109.075,27.135],[109.1269,27.13248],[109.1358,27.1117],[109.1042,27.0793],[109.1322,27.07777],[109.1585,27.07502],[109.172,27.09398],[109.196,27.10291],[109.2329,27.15814],[109.2529,27.16059],[109.2724,27.13492],[109.3874,27.1725],[109.4176,27.16089],[109.4328,27.13095],[109.4606,27.14531],[109.4715,27.1392],[109.4733,27.1279],[109.4613,27.1062],[109.4659,27.08618],[109.5161,27.0832],[109.5358,27.03466],[109.5594,26.95727],[109.5557,26.94503],[109.5382,26.92115],[109.4698,26.90983],[109.5206,26.87982],[109.5141,26.83969],[109.5007,26.82039],[109.5323,26.78178],[109.5203,26.74009],[109.4983,26.74347],[109.4853,26.75818],[109.4479,26.7591],[109.4259,26.7404],[109.4104,26.71771],[109.3782,26.70329],[109.2975,26.69839],[109.3147,26.6671],[109.3562,26.66832],[109.3782,26.63334],[109.4125,26.53847],[109.3902,26.50069],[109.3686,26.47887],[109.3912,26.46228],[109.3335,26.42785],[109.2978,26.35342],[109.2748,26.33311],[109.2913,26.29526],[109.3431,26.27956],[109.43,26.33],[109.475,26.33],[109.495,26.285],[109.455,26.24],[109.4746,26.20381],[109.4729,26.15636],[109.4976,26.16314],[109.5121,26.13602],[109.5141,26.11105],[109.5045,26.09502],[109.4674,26.07344],[109.4918,26.02748],[109.355,25.815],[109.3456,25.72661],[109.2721,25.71548],[109.2432,25.71981],[109.2175,25.7362],[109.1911,25.73775],[109.1804,25.75816],[109.1608,25.75661],[109.1516,25.74579],[109.1423,25.74084],[109.1258,25.7563],[109.1045,25.78907],[109.0688,25.77702],[109.0223,25.79278],[108.9638,25.72862],[108.9154,25.72831],[108.8931,25.70357],[108.9114,25.68454],[108.9466,25.68872],[108.9773,25.72491],[108.9936,25.74177],[109.0115,25.73991],[109.0424,25.74857],[109.0802,25.72275],[109.0462,25.63224],[109.051,25.57806],[109.087,25.55607],[109.0881,25.54151],[109.0383,25.51828],[109.0204,25.51301],[109.0029,25.52122],[108.966,25.53408],[108.9332,25.54988],[108.8017,25.52308],[108.7722,25.5539],[108.765,25.575],[108.7664,25.62264],[108.6946,25.62048],[108.68,25.565],[108.6919,25.52138],[108.628,25.46187],[108.6071,25.46807],[108.5999,25.42033],[108.6198,25.40514],[108.64,25.33],[108.6297,25.3043],[108.605,25.305],[108.5003,25.4194],[108.4921,25.44854],[108.4605,25.45227],[108.4224,25.4287],[108.3273,25.53253],[108.2514,25.42684],[108.193,25.42002],[108.1944,25.39273],[108.165,25.375],[108.15,25.23],[108.1027,25.20308],[108.0718,25.18661],[107.91,25.145],[107.8322,25.11296],[107.755,25.115],[107.7515,25.18723],[107.7464,25.21768],[107.7542,25.23196],[107.7481,25.24097],[107.7268,25.22358],[107.6959,25.18599],[107.675,25.185],[107.6375,25.31175],[107.62,25.255],[107.5105,25.20525],[107.4655,25.2124],[107.4604,25.22047],[107.4703,25.29623],[107.4384,25.28599],[107.4212,25.29003],[107.3986,25.3524],[107.3996,25.38684],[107.3783,25.40296],[107.3574,25.39521],[107.3265,25.39552],[107.29,25.415],[107.2942,25.4318],[107.3199,25.45754],[107.3069,25.49907],[107.2921,25.50681],[107.2633,25.53872],[107.2218,25.55204],[107.205,25.59],[107.1383,25.56289],[107.0841,25.56505],[107.0686,25.54926],[107.0769,25.50278],[107.0175,25.48915],[106.985,25.425],[106.995,25.38],[107.0171,25.35737],[107.0144,25.27171],[106.9989,25.23849],[106.8884,25.17791],[106.76,25.165],[106.7154,25.15554],[106.6886,25.17667],[106.66,25.15],[106.6367,25.15865],[106.6391,25.1226],[106.5718,25.07036],[106.3051,24.96085],[106.2144,24.97392],[106.1914,24.95089],[106.1623,24.94217],[106.1942,24.90388],[106.2096,24.86806],[106.2041,24.81478],[106.1757,24.76149],[106.155,24.74],[106.065,24.68],[106.025,24.62],[105.945,24.67],[105.9202,24.71845],[105.8625,24.72064],[105.8241,24.696],[105.7925,24.69787],[105.695,24.755],[105.5927,24.78393],[105.4952,24.80481],[105.49,24.80949],[105.479,24.8422],[105.4512,24.8609],[105.4245,24.92287],[105.3812,24.93595],[105.3431,24.92972],[105.3146,24.91944],[105.26,24.9319],[105.2003,24.99041],[105.14,24.945],[105.1162,24.94217],[105.0787,24.91851],[105.0674,24.89017],[105.0406,24.87585],[105.0351,24.78736],[104.9998,24.77957],[104.9713,24.76897],[104.9098,24.75806],[104.8703,24.73685],[104.8604,24.69537],[104.8381,24.67354],[104.766,24.65856],[104.7426,24.61924],[104.7117,24.61706],[104.6887,24.63391],[104.63,24.65388],[104.5445,24.725],[104.5205,24.72999],[104.5318,24.76117],[104.5375,24.77388],[104.54,24.78011],[104.5368,24.78751],[104.5294,24.82039],[104.5844,24.89204],[104.6324,24.92381],[104.6922,25.01593],[104.6709,25.05512],[104.6194,25.05201],[104.6091,25.06508],[104.6589,25.07565],[104.677,25.10114],[104.7182,25.19966],[104.7279,25.21147],[104.7515,25.22265],[104.8075,25.17108],[104.8034,25.23786],[104.8182,25.2419],[104.8099,25.25494],[104.7845,25.25246],[104.7704,25.26954],[104.7536,25.26736],[104.7316,25.26891],[104.7025,25.28537],[104.6774,25.29313],[104.6692,25.28382],[104.6503,25.29034],[104.6345,25.29841],[104.6341,25.35985],[104.6187,25.36078],[104.5322,25.40514],[104.539,25.51301],[104.5191,25.52107],[104.46,25.475],[104.4285,25.469],[104.4103,25.49039],[104.425,25.53408],[104.4106,25.58147],[104.3595,25.57682],[104.3245,25.59943],[104.3124,25.62357],[104.3035,25.66257],[104.3145,25.75506],[104.3293,25.773],[104.3643,25.74424],[104.4206,25.87189],[104.395,25.9],[104.4326,25.95527],[104.4525,26.09379],[104.5401,26.22753],[104.5342,26.26048],[104.5514,26.27864],[104.5692,26.2928],[104.5874,26.32388],[104.6218,26.33681],[104.6573,26.34581],[104.6569,26.35211],[104.6558,26.36373],[104.6726,26.37419],[104.6592,26.39387],[104.6551,26.40801],[104.6589,26.43246],[104.6381,26.43937],[104.6283,26.45398],[104.6285,26.48317],[104.6135,26.50345],[104.5922,26.52204],[104.5667,26.52619],[104.561,26.5397],[104.5723,26.56535],[104.5298,26.58653],[104.4741,26.57625],[104.4553,26.60449],[104.4571,26.63518],[104.4144,26.70759],[104.4014,26.70866],[104.3923,26.6628],[104.3777,26.64669],[104.3433,26.61738],[104.3097,26.61431],[104.3033,26.61723],[104.3016,26.62552],[104.2872,26.63534],[104.274,26.63426],[104.2726,26.62429],[104.2687,26.6203],[104.2603,26.62015],[104.2204,26.62229],[104.1456,26.64117],[104.1126,26.62015],[104.0689,26.50791],[103.805,26.515],[103.7384,26.62598],[103.7528,26.71311],[103.7135,26.74806],[103.7101,26.7804],[103.7013,26.8014],[103.6965,26.82943],[103.7193,26.85731],[103.7705,26.87599],[103.7734,26.8815],[103.76,26.8985],[103.755,26.945],[103.7429,26.98802],[103.7022,27.04827],[103.6716,27.04858],[103.6502,27.02258],[103.6212,27.00859],[103.6134,27.00928],[103.6099,27.0128],[103.6236,27.02113],[103.6088,27.04017],[103.5982,27.06448],[103.6091,27.08389],[103.6153,27.10483],[103.6237,27.12591],[103.6572,27.13202],[103.7,27.14195]]]}}
