{"type":"Feature","properties":{"sourceId":"gloucestershire"},"geometry":{"type":"Polygon","coordinates":[[[-2.671398,51.63315],[-2.670434,51.64329],[-2.675034,51.64403],[-2.675035,51.64403],[-2.682792,51.64528],[-2.68124,51.64735],[-2.67314,51.65818],[-2.683784,51.65754],[-2.685057,51.65874],[-2.689126,51.66329],[-2.685518,51.66977],[-2.684461,51.67147],[-2.667398,51.67333],[-2.66739,51.67334],[-2.660776,51.67405],[-2.669713,51.67718],[-2.669714,51.67718],[-2.674276,51.67878],[-2.67214,51.69228],[-2.68627,51.70017],[-2.684482,51.70479],[-2.683806,51.70598],[-2.671535,51.7054],[-2.681848,51.71246],[-2.689767,51.73072],[-2.674763,51.73822],[-2.666144,51.75354],[-2.671102,51.75777],[-2.671104,51.75777],[-2.677957,51.76363],[-2.677959,51.76363],[-2.683372,51.76825],[-2.675516,51.79411],[-2.678113,51.7987],[-2.678687,51.7993],[-2.678737,51.7998],[-2.680902,51.80362],[-2.673949,51.81158],[-2.662396,51.81308],[-2.661969,51.81314],[-2.661133,51.82531],[-2.6569764022103484,51.82684175082179],[-2.653478,51.82618],[-2.6503844321843353,51.82927096240674],[-2.64998,51.82942],[-2.649260583269365,51.830393864813935],[-2.640417,51.83923],[-2.6416596738595564,51.84068311430302],[-2.637828,51.84587],[-2.6322459846556523,51.84393000167057],[-2.632732,51.84324],[-2.63003,51.83946],[-2.624361,51.83942],[-2.601213,51.8561],[-2.582299,51.84953],[-2.578907,51.85177],[-2.585129,51.85977],[-2.567936,51.86241],[-2.53406,51.86022],[-2.53406,51.85839],[-2.516794,51.86211],[-2.512782,51.86765],[-2.5233624669569306,51.86893193150011],[-2.516170365250308,51.87887805434216],[-2.507527,51.8866],[-2.503426,51.88647],[-2.50161,51.88203],[-2.494827,51.8841],[-2.493984,51.88032],[-2.488484,51.88075],[-2.487531,51.88441],[-2.474553,51.88543],[-2.4685,51.89148],[-2.437302,51.89894],[-2.448983,51.91914],[-2.466283,51.92844],[-2.468088,51.93773],[-2.463438,51.93945],[-2.465324,51.9419],[-2.463757,51.94393],[-2.468824,51.95632],[-2.500531,51.96204],[-2.492547,51.96417],[-2.49494,51.98061],[-2.471119,51.99488],[-2.485951,52.00071],[-2.492006,52.00812],[-2.490105,52.01095],[-2.484163,52.0127],[-2.477967,52.02019],[-2.47936,52.02249],[-2.463703,52.02322],[-2.462551,52.02052],[-2.463774,52.01866],[-2.462731,52.01633],[-2.46435,52.01518],[-2.435023,52.01418],[-2.43377,52.0123],[-2.435507,52.01055],[-2.434067,52.00677],[-2.436397,52.00129],[-2.434999,51.99889],[-2.436948,51.99746],[-2.399071,51.99647],[-2.399241,51.99965],[-2.394783,52.00416],[-2.392466,52.01305],[-2.352539,52.0206],[-2.352483552043934,52.0207014149722],[-2.352066,52.0184],[-2.353648,52.01302],[-2.340826,52.00548],[-2.333977,52.00626],[-2.327635,52.00398],[-2.322872,51.9915],[-2.324177,51.98178],[-2.328067,51.97674],[-2.327258,51.97473],[-2.31345,51.97499],[-2.310015,51.96953],[-2.299652,51.9656],[-2.292289,51.96854],[-2.282689,51.96937],[-2.251,51.9654],[-2.242768,51.97232],[-2.233547,51.98443],[-2.221199,51.99303],[-2.210566,51.99497],[-2.198807,51.99371],[-2.18491,51.98926],[-2.177626,51.99448],[-2.170143,51.99336],[-2.164126,51.99491],[-2.162301,52.0001],[-2.163448,52.00469],[-2.17956,52.0133],[-2.181601,52.01671],[-2.175603,52.02255],[-2.178751,52.04142],[-2.174959,52.04518],[-2.162563,52.04913],[-2.142068,52.04435],[-2.132704,52.0446],[-2.11836,52.03863],[-2.11843,52.03551],[-2.120857,52.03355],[-2.140498,52.02867],[-2.143762,52.01982],[-2.150858,52.01176],[-2.151872,52.00604],[-2.145268,52.00303],[-2.140936,51.9982],[-2.134558,51.99863],[-2.129871,52.00457],[-2.117732,52.01256],[-2.113406,52.01349],[-2.084971,52.00918],[-2.06332,52.0122],[-2.060051,52.00851],[-2.052496,52.00682],[-2.049902,52.00261],[-2.038678,52.00322],[-2.03344,52.00819],[-2.026304,52.00957],[-2.024696,52.01281],[-2.016814,52.01888],[-1.999442,52.0269],[-1.99426,52.0256],[-1.98261,52.03464],[-1.95434,52.03586],[-1.947729,52.03058],[-1.939501,52.03084],[-1.931506,52.02874],[-1.927285,52.03363],[-1.921061,52.03487],[-1.912208,52.04212],[-1.873851,52.02266],[-1.861859,52.01142],[-1.848174,52.00642],[-1.83883,52.00556],[-1.834338,52.0084],[-1.832944,52.02248],[-1.825163,52.02841],[-1.823991,52.03159],[-1.827239,52.03386],[-1.828633,52.03955],[-1.83376,52.0446],[-1.847581,52.04782],[-1.858642,52.05396],[-1.864301,52.06816],[-1.863679,52.07112],[-1.858078,52.0728],[-1.852942,52.07119],[-1.845294,52.07687],[-1.831602,52.07154],[-1.821077,52.08017],[-1.812167,52.07767],[-1.807239,52.08895],[-1.801307,52.096],[-1.796315,52.09866],[-1.790763,52.09865],[-1.785587,52.10551],[-1.7678165731354094,52.11098635031286],[-1.76709,52.10906],[-1.760138,52.10543],[-1.754362,52.09706],[-1.747586,52.09243],[-1.73871,52.0904],[-1.731804,52.09352],[-1.729456,52.08757],[-1.72956,52.0799],[-1.731663,52.07345],[-1.729441,52.07081],[-1.712569,52.06557],[-1.710917,52.06624],[-1.711623,52.06869],[-1.709961,52.07188],[-1.703136,52.07159],[-1.706105,52.05937],[-1.700983,52.05407],[-1.691427,52.05275],[-1.692139,52.04858],[-1.695901,52.04273],[-1.694317,52.03859],[-1.687689,52.03652],[-1.668273,52.0352],[-1.664141,52.03032],[-1.656197,52.0312],[-1.654223,52.03414],[-1.645141,52.03325],[-1.639725,52.03599],[-1.632182,52.03491],[-1.626185,52.03671],[-1.619397,52.03328],[-1.620418,52.02886],[-1.628608,52.02818],[-1.639247,52.02129],[-1.643499,52.01578],[-1.643778,52.00998],[-1.665908,51.99842],[-1.670876,51.99284],[-1.669891,51.98843],[-1.6655415883975182,51.98645331402025],[-1.668722,51.97598],[-1.661383,51.96356],[-1.652543,51.96173],[-1.65516,51.9602],[-1.655418,51.95774],[-1.634219,51.95631],[-1.615126,51.9378],[-1.645504,51.92247],[-1.641385,51.9212],[-1.641385,51.91967],[-1.644904,51.91816],[-1.643831,51.9149],[-1.645547,51.91488],[-1.634389,51.91271],[-1.635548,51.91175],[-1.633874,51.91149],[-1.63602,51.91088],[-1.634775,51.90738],[-1.63602,51.90685],[-1.634261,51.90598],[-1.635419,51.90214],[-1.633188,51.89894],[-1.644775,51.89444],[-1.656448,51.89674],[-1.662713,51.89189],[-1.662327,51.88861],[-1.668936,51.88032],[-1.668636,51.87801],[-1.666833,51.87804],[-1.686188,51.86564],[-1.684686,51.86423],[-1.687089,51.86278],[-1.680566,51.85925],[-1.680309,51.85464],[-1.676232,51.85048],[-1.686231,51.83444],[-1.684514,51.82558],[-1.683656,51.82568],[-1.680859,51.81608],[-1.676613,51.81713],[-1.681167,51.80369],[-1.719533,51.7832],[-1.70005,51.76902],[-1.698848,51.76458],[-1.699449,51.76448],[-1.69355,51.75378],[-1.695587,51.75186],[-1.693698,51.74894],[-1.694471,51.74854],[-1.691681,51.74663],[-1.692454,51.74609],[-1.686703,51.73964],[-1.688549,51.73876],[-1.686231,51.73398],[-1.687132,51.73384],[-1.68533,51.73012],[-1.695544,51.72374],[-1.688763,51.71755],[-1.68945,51.71659],[-1.68666,51.71127],[-1.650783,51.68813],[-1.652671,51.68686],[-1.647932,51.68408],[-1.675964,51.68353],[-1.674064,51.6852],[-1.675636,51.6871],[-1.674962,51.68743],[-1.681532,51.69002],[-1.6852462329662978,51.68760112937338],[-1.693796,51.6896],[-1.705812,51.6803],[-1.709655,51.6691],[-1.725735,51.66638],[-1.727455,51.66591],[-1.728701,51.66589],[-1.745265,51.66309],[-1.748492,51.66181],[-1.754032,51.66161],[-1.766101,51.65957],[-1.771744,51.66487],[-1.789562,51.66614],[-1.789672,51.66613],[-1.789697,51.66615],[-1.792606,51.66636],[-1.796473,51.67219],[-1.796525,51.67224],[-1.796641,51.67245],[-1.807129,51.68827],[-1.807856,51.68855],[-1.810209,51.68735],[-1.809465,51.6864],[-1.813654,51.68112],[-1.814636,51.6792],[-1.816966,51.67694],[-1.818594,51.67489],[-1.814352,51.66262],[-1.814413,51.6626],[-1.813626,51.66048],[-1.835332,51.65643],[-1.840524,51.6549],[-1.843021,51.655],[-1.85196,51.65333],[-1.878032,51.67894],[-1.892096,51.67449],[-1.893096,51.67329],[-1.873442,51.65389],[-1.87512,51.64898],[-1.888343,51.64586],[-1.922005,51.65445],[-1.943751,51.66702],[-1.957672,51.65666],[-1.947619,51.63775],[-1.952332,51.6338],[-1.978047,51.63513],[-1.996479,51.64837],[-2.01587,51.64737],[-2.03551,51.65782],[-2.036565,51.65826],[-2.037602,51.65894],[-2.056593,51.66904],[-2.15118,51.58764],[-2.178724,51.59464],[-2.190027,51.5895],[-2.207085,51.59303],[-2.208388,51.5979],[-2.208812,51.59882],[-2.210657,51.59958],[-2.218829,51.59675],[-2.224829,51.59414],[-2.227941,51.5936],[-2.238159,51.59006],[-2.244277,51.57853],[-2.265662,51.57987],[-2.269765,51.5761],[-2.268901,51.5742],[-2.259055,51.57],[-2.264567,51.56479],[-2.266512,51.55993],[-2.265219,51.54869],[-2.260539,51.54509],[-2.261879,51.5375],[-2.257681,51.53084],[-2.251414,51.52914],[-2.251365,51.52623],[-2.255005,51.52114],[-2.263262,51.51743],[-2.280996,51.51433],[-2.293859,51.50879],[-2.296865,51.50506],[-2.312461,51.50127],[-2.317587,51.49749],[-2.316281,51.4935],[-2.310377,51.48952],[-2.302973,51.48765],[-2.295572,51.48911],[-2.28938,51.48729],[-2.287653,51.47791],[-2.289709,51.47549],[-2.293312,51.46171],[-2.291374,51.45935],[-2.285148,51.45922],[-2.283929,51.45761],[-2.286492,51.4543],[-2.288575,51.44297],[-2.294188,51.42768],[-2.312715,51.42122],[-2.314967,51.42268],[-2.316473,51.4283],[-2.326072,51.43502],[-2.343336,51.4379],[-2.358147,51.43449],[-2.366025,51.4359],[-2.377188,51.43161],[-2.400449,51.4305],[-2.410418,51.42493],[-2.437645,51.42181],[-2.443457,51.41704],[-2.458032,51.4156],[-2.469782,51.41465],[-2.481685,51.41997],[-2.492775,51.41677],[-2.494096,51.41824],[-2.493603,51.4249],[-2.495538,51.42701],[-2.508377,51.42341],[-2.51134,51.42759],[-2.5133265403176734,51.428324358321326],[-2.509528,51.42802],[-2.510041,51.43034],[-2.522433,51.43346],[-2.525599,51.43814],[-2.524948,51.44655],[-2.517918,51.45194],[-2.516237,51.45778],[-2.510332,51.4638],[-2.509871,51.47407],[-2.514211,51.48376],[-2.509759,51.49005],[-2.515324,51.49495],[-2.523876,51.49407],[-2.529599,51.49758],[-2.537987,51.49828],[-2.544498,51.49457],[-2.550885,51.49387],[-2.554877,51.49767],[-2.562455,51.49751],[-2.568959,51.50076],[-2.581923,51.50288],[-2.585344,51.5044],[-2.586761,51.50802],[-2.580238,51.51501],[-2.57976,51.5176],[-2.581311,51.51871],[-2.606547,51.51481],[-2.625885,51.51602],[-2.638259,51.5134],[-2.649128,51.51391],[-2.650921,51.51586],[-2.650823,51.52193],[-2.662103,51.53069],[-2.662599,51.53756],[-2.673623,51.54562],[-2.689762,51.53203],[-2.700489080309238,51.530418531566184],[-2.698992,51.53267],[-2.697669,51.53884],[-2.702357,51.54586],[-2.691806,51.55236],[-2.690429,51.55609],[-2.694422,51.55909],[-2.702786,51.55783],[-2.703681,51.56749],[-2.711909,51.56972],[-2.705148,51.58054],[-2.700892,51.58381],[-2.668565,51.59474],[-2.665146,51.61616],[-2.659697,51.6221],[-2.671398,51.63315]]]}}
