{"type":"Feature","properties":{"sourceId":"guatemala"},"geometry":{"type":"Polygon","coordinates":[[[-92.22645,14.54039],[-92.21649,14.55933],[-92.18748,14.57677],[-92.18044,14.60883],[-92.18525,14.61913],[-92.17821,14.63142],[-92.16156,14.657],[-92.14972,14.66979],[-92.14834,14.69104],[-92.17272,14.74783],[-92.16911,14.78169],[-92.18439,14.80609],[-92.18697,14.82799],[-92.18233,14.85736],[-92.14611,14.88938],[-92.1516,14.95872],[-92.15384,14.99105],[-92.13392,15.01692],[-92.10234,15.01675],[-92.07916,15.0456],[-92.0735,15.06765],[-92.06783,15.07411],[-92.21375,15.262],[-92.01565,15.59989],[-91.73172,16.07815],[-91.34205,16.07683],[-90.46143,16.07584],[-90.46074,16.11113],[-90.45353,16.15417],[-90.46108,16.20231],[-90.46211,16.2483],[-90.441,16.30498],[-90.4937,16.42094],[-90.63721,16.47461],[-90.64888,16.51839],[-90.67429,16.58553],[-90.71549,16.68619],[-90.87376,16.80388],[-90.88577,16.82032],[-90.92628,16.81637],[-91.07597,16.89589],[-91.43646,17.20246],[-91.44814,17.25493],[-90.99392,17.25591],[-90.99564,17.81799],[-90.46623,17.82257],[-90.19982,17.82192],[-89.15886,17.82192],[-89.15893,17.83533],[-89.15675828804898,17.83331176592538],[-89.1568,17.81832],[-89.15234,17.26574],[-89.15165,17.0581],[-89.17894,16.67237],[-89.20933,16.18302],[-89.22892,15.89566],[-89.22463,15.88323],[-89.18756,15.89553],[-89.1184,15.89401],[-89.0206,15.89039],[-88.91956,15.88308],[-88.91184,15.8953],[-88.79336,15.94091],[-88.44261,16.04472],[-88.2501870307488,16.127177416294067],[-87.95177,15.96442],[-88.13067,15.81786],[-88.21344,15.72332],[-88.25266,15.67808],[-88.30811,15.66568],[-88.34244,15.61378],[-88.56758,15.4231],[-88.67465,15.33961],[-88.84097,15.24124],[-88.97254,15.13207],[-89.15016,15.06735],[-89.1501,15.06002],[-89.18014,15.00415],[-89.15354,14.98392],[-89.16298,14.94362],[-89.18244,14.90391],[-89.22386,14.88055],[-89.22187,14.83612],[-89.16536,14.77608],[-89.1287,14.7141],[-89.15246,14.66343],[-89.14392,14.62894],[-89.15085,14.58079],[-89.16148,14.56874],[-89.19406,14.57412],[-89.23212,14.58186],[-89.26266,14.54523],[-89.27984,14.53178],[-89.28628,14.51463],[-89.30241,14.50538],[-89.29827,14.49227],[-89.35055,14.47028],[-89.34589452852637,14.43326212661583],[-89.35524,14.42554],[-89.39524,14.45762],[-89.43506,14.41672],[-89.47128,14.43302],[-89.57994,14.41922],[-89.59797,14.30996],[-89.55917,14.30314],[-89.55711,14.27436],[-89.52656,14.23077],[-89.64441,14.20372],[-89.66832,14.18501],[-89.71361,14.14805],[-89.73352,14.10933],[-89.74835,14.06349],[-89.76534,14.03634],[-89.81873,14.06698],[-89.85648,14.06286],[-89.90588,14.03774],[-89.92095,14.01536],[-90.00086,13.95806],[-90.0242,13.93965],[-90.08403,13.8765],[-90.08987,13.86241],[-90.09956,13.86075],[-90.11879,13.83341],[-90.50091,12.96021],[-90.46405757887113,12.933516912138858],[-90.5482,12.74168],[-92.73303,14.04373],[-92.71884,14.17418],[-92.38203,14.40448],[-92.22645,14.54039]]]}}
