{"type":"Feature","properties":{"sourceId":"gelderland"},"geometry":{"type":"Polygon","coordinates":[[[5.955841171557769,51.749414427583474],[5.953377,51.74925],[5.945978,51.74369],[5.936131,51.74347],[5.93338,51.74943],[5.916299,51.75368],[5.912456,51.76274],[5.894684,51.77844],[5.887187,51.77992],[5.866999,51.77637],[5.865781,51.77099],[5.867032,51.76364],[5.86442671952033,51.75897724163397],[5.846308,51.76049],[5.776756,51.75342],[5.753967,51.75664],[5.745842,51.76033],[5.732373,51.77316],[5.723617,51.77591],[5.706594,51.77742],[5.690538,51.79096],[5.662439,51.79647],[5.65348,51.80346],[5.646829,51.81514],[5.641661,51.81917],[5.633941,51.82095],[5.619761,51.82086],[5.602344,51.8281],[5.590504,51.83089],[5.556555,51.82851],[5.551076,51.82576],[5.546274,51.81947],[5.539296,51.81753],[5.517906,51.82059],[5.503613,51.83002],[5.490103,51.83181],[5.480832,51.82789],[5.476043,51.81822],[5.471993,51.81484],[5.44811,51.8109],[5.429661,51.8126],[5.422988,51.81566],[5.415161,51.8226],[5.404121,51.8233],[5.382665,51.80564],[5.366094,51.78826],[5.360087,51.77627],[5.358983,51.76167],[5.354891,51.75756],[5.321566,51.74773],[5.299861,51.73852],[5.272677,51.74136],[5.263896,51.74011],[5.249339,51.73489],[5.231228,51.74264],[5.220831,51.74479],[5.196279,51.74156],[5.167085,51.74431],[5.135396,51.74051],[5.133061,51.74232],[5.133554,51.74657],[5.14392,51.75494],[5.137166,51.761],[5.14093,51.76984],[5.137153,51.77451],[5.118343,51.7793],[5.105866,51.7867],[5.097531,51.78887],[5.088163,51.78703],[5.079421,51.78114],[5.068569,51.78127],[5.051552,51.7977],[5.016405,51.80947],[5.012241,51.81259],[5.010435,51.81825],[5.002912100474959,51.821324820029396],[5.024839,51.82153],[5.029019,51.83734],[5.025662,51.84027],[4.998512,51.84364],[4.997326,51.85318],[4.992647,51.86139],[4.995997,51.86315],[5.006067,51.85919],[5.025994356381759,51.859629642093886],[5.026093,51.8577],[5.044223,51.85789],[5.052295,51.85615],[5.060973,51.85736],[5.06487,51.86038],[5.063902,51.86285],[5.055775,51.86694],[5.057255,51.87185],[5.081199,51.8744],[5.087294,51.87988],[5.0914,51.88756],[5.113912,51.88709],[5.118564,51.89147],[5.120552,51.89795],[5.13145,51.91168],[5.136976,51.9133],[5.138792,51.91945],[5.149609,51.92886],[5.150939,51.93216],[5.180011,51.96471],[5.199984,51.95867],[5.211864,51.95886],[5.221496,51.96358],[5.231453,51.97518],[5.238231,51.97758],[5.245728,51.97642],[5.256991,51.96908],[5.270033,51.96417],[5.300467,51.96033],[5.31433,51.95443],[5.321454,51.95362],[5.335689,51.95683],[5.347952,51.96599],[5.354395,51.96873],[5.387256,51.96854],[5.418529,51.97536],[5.437509,51.98427],[5.470973,51.98169],[5.483489,51.98262],[5.495941,51.97904],[5.512232,51.9718],[5.538654,51.96654],[5.548774,51.95816],[5.556571,51.95446],[5.58882,51.94899],[5.606168,51.94192],[5.614772,51.94689],[5.621107,51.94712],[5.623699,51.95001],[5.628091,51.95145],[5.62829,51.95625],[5.623407,51.96614],[5.627452,51.9737],[5.617448,51.98207],[5.615043,51.99078],[5.611028,51.9945],[5.603802,51.99594],[5.593257,52.00255],[5.58976,52.01217],[5.591409,52.02064],[5.588731,52.02493],[5.590879,52.03525],[5.572997,52.04078],[5.571536,52.04288],[5.571729,52.04887],[5.560672,52.05121],[5.561664,52.07066],[5.563941,52.07906],[5.561786,52.08511],[5.557251,52.0889],[5.555436,52.1004],[5.551038,52.10643],[5.530562,52.10301],[5.534477,52.0945],[5.525918,52.08606],[5.525203,52.08163],[5.522817,52.07983],[5.509479,52.08022],[5.504256,52.0778],[5.498852,52.07273],[5.484067,52.07123],[5.468276,52.07713],[5.466179,52.0803],[5.46764,52.08418],[5.474392,52.08858],[5.487163,52.09308],[5.486491,52.10423],[5.494243,52.1098],[5.496039,52.11343],[5.498368,52.1146],[5.504052,52.11244],[5.508637,52.1131],[5.506273,52.12058],[5.499576,52.12167],[5.498265,52.12562],[5.500054,52.12817],[5.513011,52.13131],[5.515124,52.13658],[5.50167,52.14173],[5.499417,52.14855],[5.486604,52.15042],[5.485039,52.15287],[5.485382,52.15859],[5.481346,52.16234],[5.48045,52.16693],[5.443173,52.17055],[5.441484,52.17296],[5.440426,52.18332],[5.441827,52.20663],[5.433262,52.20802],[5.410553,52.2196],[5.404579,52.21645],[5.395989,52.22137],[5.4048130615972125,52.24850091903993],[5.465773,52.25985],[5.470552,52.26188],[5.477472,52.26119],[5.534484,52.27207],[5.576346,52.34938],[5.588767,52.36049],[5.605449,52.36205],[5.611689,52.35828],[5.615829,52.36141],[5.642927,52.36897],[5.653463,52.36444],[5.677389,52.37711],[5.69855,52.38067],[5.707728,52.38555],[5.716471,52.38702],[5.736228,52.39732],[5.740257,52.39738],[5.787983,52.42149],[5.811997,52.43567],[5.813852,52.43988],[5.823534,52.44924],[5.819508,52.45411],[5.819979,52.45827],[5.831396,52.47105],[5.840783,52.46993],[5.846392,52.47713],[5.851734,52.4936],[5.85773,52.49909],[5.865061303790518,52.51772734414403],[5.875836,52.52032],[5.886738,52.51558],[5.90849,52.4972],[5.925006,52.47296],[5.937548,52.47536],[5.952702,52.48293],[5.957497,52.48244],[5.965736,52.47526],[6.008135,52.50307],[6.012422,52.50451],[6.022804,52.50401],[6.029313,52.50752],[6.041875,52.5044],[6.053859,52.4985],[6.067672,52.48266],[6.088645,52.47566],[6.097718,52.46991],[6.100266,52.46652],[6.10208,52.45609],[6.101339,52.44477],[6.113363,52.43694],[6.115935,52.43332],[6.115969,52.42613],[6.112509,52.4199],[6.112798,52.41427],[6.109655,52.40728],[6.124685,52.39907],[6.124896,52.38609],[6.1226,52.38212],[6.11739,52.37948],[6.083362,52.37366],[6.077727,52.37061],[6.076228,52.36512],[6.081833,52.35921],[6.08206,52.35654],[6.074994,52.3511],[6.07512,52.33786],[6.070015,52.32474],[6.06521,52.32121],[6.06492,52.31876],[6.065998,52.31669],[6.078495,52.31507],[6.08334,52.30064],[6.102089,52.29781],[6.104732,52.29176],[6.110243,52.28697],[6.11131,52.27755],[6.121571,52.26922],[6.124907,52.26018],[6.122486,52.25151],[6.141586,52.24524],[6.142913,52.24263],[6.140569,52.23347],[6.145308,52.22771],[6.159576,52.22372],[6.161639,52.21756],[6.164923,52.21615],[6.169837,52.22036],[6.168622,52.22436],[6.170333,52.22961],[6.178327,52.2322],[6.181945,52.23228],[6.188747,52.228],[6.202209,52.22809],[6.216533,52.22524],[6.220464,52.22751],[6.227878,52.22828],[6.238153,52.22625],[6.261442,52.22708],[6.270913,52.22512],[6.290632,52.22903],[6.298335,52.22423],[6.320547,52.22437],[6.339208,52.22603],[6.340746,52.23398],[6.35273,52.24019],[6.367541,52.24038],[6.380733,52.24397],[6.389827,52.24126],[6.411496,52.24156],[6.422536,52.23062],[6.427648,52.22285],[6.446432,52.21097],[6.454335,52.20119],[6.466732,52.19843],[6.471981,52.18756],[6.478663,52.18109],[6.495763,52.17584],[6.513825,52.17998],[6.555005,52.17598],[6.589662,52.18086],[6.60042,52.17537],[6.603975,52.16538],[6.611899,52.16195],[6.630931,52.17146],[6.640299,52.16618],[6.645034,52.1717],[6.647838,52.17195],[6.669946,52.16428],[6.671514,52.16181],[6.669119,52.1562],[6.672822,52.14224],[6.66181,52.13139],[6.661622,52.12923],[6.716659,52.11697],[6.73675,52.11688],[6.762697775668317,52.11349002930802],[6.758851,52.09534],[6.748639,52.09173],[6.754072,52.08577],[6.750768,52.08066],[6.736213,52.07173],[6.699834,52.0677],[6.690838,52.05374],[6.690935,52.04288],[6.714943,52.04295],[6.753837,52.03128],[6.814332,51.99746],[6.828034,51.99617],[6.835752,51.97306],[6.830667,51.962],[6.801478,51.95626],[6.799999,51.9413],[6.790685,51.92721],[6.771269,51.91346],[6.722739,51.89316],[6.693687,51.91189],[6.681975,51.91416],[6.634806,51.89807],[6.586462,51.89115],[6.561388,51.87932],[6.544918,51.88131],[6.505764,51.86582],[6.501361,51.85947],[6.472824,51.85084],[6.449746,51.86238],[6.431991,51.85642],[6.425879,51.86294],[6.392888,51.86998],[6.390379,51.8648],[6.411849,51.85413],[6.405673,51.84382],[6.41114,51.83598],[6.407495,51.82503],[6.380975,51.83187],[6.366882,51.8306],[6.360515,51.83368],[6.358099,51.84371],[6.34647,51.84775],[6.305316,51.84621],[6.295315,51.86526],[6.279113,51.87118],[6.262056,51.86515],[6.209305,51.86615],[6.181319,51.88052],[6.179351,51.88717],[6.185248,51.88976],[6.156526,51.90204],[6.116557,51.89529],[6.138796,51.8883],[6.147601,51.87194],[6.169398,51.86342],[6.167472,51.83786],[6.100394,51.84609],[6.064946,51.86168],[6.057291,51.85011],[6.036744,51.83984],[6.028512,51.84175],[5.994722,51.82793],[5.963244,51.8334],[5.95053,51.82414],[5.96076,51.81841],[5.957302,51.81295],[5.981246,51.79971],[5.978057,51.78878],[5.992548,51.78532],[5.987021,51.77533],[5.995037,51.77067],[5.991943,51.76365],[5.960018,51.74971],[5.955961,51.74966],[5.955841171557769,51.749414427583474]]]}}
