{"type":"Feature","properties":{"sourceId":"greater-manchester"},"geometry":{"type":"Polygon","coordinates":[[[-2.180312,53.32869],[-2.195305,53.33739],[-2.192968,53.34294],[-2.184674,53.34461],[-2.189374,53.34772],[-2.18851,53.35099],[-2.193211,53.35245],[-2.208883,53.35336],[-2.222433,53.35807],[-2.255957,53.35903],[-2.266354,53.34904],[-2.301637,53.33844],[-2.304514,53.34126],[-2.299839,53.34451],[-2.29982,53.34761],[-2.313089,53.35331],[-2.315961,53.35739],[-2.323564,53.35656],[-2.325858,53.35966],[-2.330603,53.35961],[-2.333956,53.36395],[-2.355356,53.36665],[-2.358891,53.36266],[-2.36992,53.36204],[-2.401378,53.37366],[-2.411277,53.38227],[-2.432419,53.38607],[-2.44936,53.39307],[-2.473218,53.39109],[-2.479916,53.39709],[-2.464321,53.40411],[-2.452134,53.4164],[-2.450704,53.42211],[-2.462776,53.43501],[-2.474523,53.43769],[-2.479518,53.4424],[-2.478055,53.44757],[-2.487507,53.45419],[-2.493804,53.46426],[-2.491144,53.47545],[-2.492683,53.47723],[-2.500803,53.47839],[-2.549964,53.46644],[-2.548214,53.46002],[-2.568716,53.457],[-2.576041,53.44451],[-2.577372301554462,53.444910750813136],[-2.575686,53.44627],[-2.582421,53.44941],[-2.582686,53.45422],[-2.58837,53.45705],[-2.595813,53.45742],[-2.599034,53.46205],[-2.612073,53.46265],[-2.613853,53.46391],[-2.614743,53.4664],[-2.613251,53.46893],[-2.608261,53.47043],[-2.606884,53.47084],[-2.609421,53.47384],[-2.60822,53.47649],[-2.611117,53.47843],[-2.611633,53.48198],[-2.618884,53.48284],[-2.64452,53.48124],[-2.653449,53.48763],[-2.65607,53.49324],[-2.659773,53.49329],[-2.663137,53.49551],[-2.665982,53.50069],[-2.678211,53.49988],[-2.683392,53.50191],[-2.707553,53.51373],[-2.709509,53.51549],[-2.716299,53.51197],[-2.722036,53.51201],[-2.730152,53.52151],[-2.732036356951567,53.521137752999735],[-2.732097,53.52124],[-2.719737,53.52836],[-2.717567,53.5391],[-2.720206,53.54414],[-2.712343,53.55083],[-2.706831,53.56008],[-2.712624,53.56372],[-2.720823,53.57669],[-2.703052,53.59166],[-2.695362,53.59157],[-2.689576,53.60597],[-2.660969,53.60508],[-2.634202,53.60994],[-2.630588,53.60813],[-2.626437,53.59658],[-2.623332,53.59548],[-2.619644,53.59685],[-2.615994,53.60433],[-2.595562,53.6125],[-2.586453,53.60931],[-2.573317,53.59638],[-2.560667,53.60054],[-2.552629,53.60933],[-2.539764,53.61238],[-2.51169,53.62864],[-2.478805,53.6187],[-2.473814,53.61833],[-2.463689,53.62401],[-2.459181,53.62206],[-2.459494,53.62584],[-2.450802,53.63182],[-2.451344,53.64286],[-2.439064,53.64771],[-2.424793,53.63604],[-2.4244,53.62727],[-2.421115,53.62546],[-2.402976,53.62608],[-2.397995,53.6339],[-2.371866,53.63365],[-2.370265,53.636],[-2.37409,53.64288],[-2.368679,53.64672],[-2.364529,53.65572],[-2.372253,53.66533],[-2.371583,53.66875],[-2.354754,53.666],[-2.352837,53.66013],[-2.333344,53.6569],[-2.316813,53.65698],[-2.298238,53.66823],[-2.294292,53.66526],[-2.292153,53.65827],[-2.295793,53.65113],[-2.29377,53.64126],[-2.284485,53.63171],[-2.280829,53.62262],[-2.265422,53.61659],[-2.260942,53.61924],[-2.271246,53.64713],[-2.262329,53.65557],[-2.23351,53.67049],[-2.225794,53.67247],[-2.21709,53.67056],[-2.205909,53.66188],[-2.202086,53.65517],[-2.188587,53.64972],[-2.181544,53.64972],[-2.180651,53.6432],[-2.174923,53.64111],[-2.162755,53.64287],[-2.16555,53.65531],[-2.150215,53.67523],[-2.148636,53.68364],[-2.145306,53.68359],[-2.14258,53.67991],[-2.140694,53.6842],[-2.133874,53.68742],[-2.126346,53.68261],[-2.124932,53.67695],[-2.117688,53.67294],[-2.096836,53.67431],[-2.092819,53.67193],[-2.08608,53.67366],[-2.083595,53.67972],[-2.073961,53.67918],[-2.062203,53.6845],[-2.050688,53.6853],[-2.047236,53.67989],[-2.052943,53.67598],[-2.052269,53.67232],[-2.036027,53.66367],[-2.033986,53.65949],[-2.039711,53.64195],[-2.028652,53.63721],[-2.028876,53.62902],[-2.022347,53.61756],[-2.008504,53.61818],[-1.977376,53.58828],[-1.946125,53.57352],[-1.941289,53.56287],[-1.924336,53.55429],[-1.911533,53.55268],[-1.90804,53.53776],[-1.920868,53.52952],[-1.923566,53.52092],[-1.915116,53.51409],[-1.921087,53.5085],[-1.935197,53.50411],[-1.955714,53.50274],[-1.963636,53.50754],[-1.969574,53.5037],[-1.969094,53.49498],[-1.97292,53.48736],[-1.987059,53.4777],[-1.98649,53.47086],[-1.978897,53.4633],[-1.985793,53.45944],[-1.984396,53.45426],[-1.992034,53.45101],[-1.994879,53.44463],[-2.004721,53.44097],[-2.003239,53.43453],[-2.008053,53.43417],[-2.013385,53.4382],[-2.024525,53.43124],[-2.018686,53.4271],[-2.019253,53.42137],[-2.012803,53.41792],[-1.990725,53.41575],[-1.994702,53.40384],[-2.003456,53.39195],[-2.003602,53.38498],[-2.011912,53.38266],[-2.016004,53.37652],[-2.027665,53.37214],[-2.028312,53.36896],[-2.0401,53.37133],[-2.053806,53.3655],[-2.058529,53.35766],[-2.064865,53.35603],[-2.084126,53.35789],[-2.095697,53.36438],[-2.123296,53.36025],[-2.136799,53.3649],[-2.136782,53.35595],[-2.148704,53.34811],[-2.142609,53.34205],[-2.149143,53.33614],[-2.15128,53.32741],[-2.159384,53.32613],[-2.171122,53.32949],[-2.180312,53.32869]]]}}
