{"type":"Feature","properties":{"sourceId":"greenland"},"geometry":{"type":"Polygon","coordinates":[[[-37.38865,58.67169],[-54.62717,58.71155],[-56.63621189792891,61.56786086926117],[-53.99831,61.97204],[-53.98957,62.90261],[-57.83212,67.27208],[-63.89657,74.2359],[-74.26767,76.35192],[-74.69302372304485,76.60217624384342],[-75.3894,77.15178],[-74.99331346123044,77.63873535737363],[-71.86482,78.7359],[-69.36769,79.7382],[-67.20011,80.66812],[-66.20727,80.78637],[-63.67677,81.2917],[-61.9629,81.78935],[-60.21607,82.0503],[-58.01868259285339,82.46779765673034],[-35.65592,84.43072],[-9.454384,84.44358],[-9.596399,73.54061],[-34.48789,62.81725],[-37.38865,58.67169]]]}}
