{"type":"Feature","properties":{"sourceId":"guangxi"},"geometry":{"type":"Polygon","coordinates":[[[105.5429,23.19946],[105.5287,23.21879],[105.5213,23.24608],[105.5601,23.26122],[105.5584,23.29118],[105.5841,23.31924],[105.6627,23.35707],[105.6222,23.40434],[105.6641,23.41663],[105.6912,23.40623],[105.7324,23.4349],[105.7561,23.46955],[105.8076,23.47773],[105.8045,23.51363],[105.8251,23.53314],[105.8825,23.54101],[105.9346,23.51111],[105.993,23.49977],[106.0026,23.46671],[106.0297,23.49159],[106.061,23.50355],[106.0812,23.53692],[106.1156,23.54857],[106.1193,23.57846],[106.1118,23.60363],[106.143,23.68493],[106.1274,23.79697],[106.1537,23.82901],[106.1789,23.82916],[106.1576,23.88191],[106.1526,23.89667],[106.1496,23.90844],[106.1391,23.92327],[106.1252,23.95237],[106.075,23.985],[106.0757,24.0195],[106.0462,24.05054],[106.0421,24.08565],[106.0047,24.10069],[105.9885,24.1173],[105.9624,24.1079],[105.9171,24.10477],[105.905,24.035],[105.86,24.04],[105.8402,24.02702],[105.775,24.02],[105.77,24.055],[105.7056,24.05336],[105.655,24.025],[105.625,24.05],[105.615,24.12545],[105.5299,24.10916],[105.5154,24.00758],[105.4008,24.03392],[105.315,24.1],[105.2923,24.09975],[105.2971,24.07092],[105.2813,24.05273],[105.255,24.055],[105.1996,24.09035],[105.1687,24.13673],[105.1728,24.1762],[105.2133,24.18747],[105.146,24.28953],[105.181,24.33459],[105.1412,24.36399],[105.0973,24.36461],[105.0932,24.41089],[105.08,24.415],[105.0513,24.42902],[105.0224,24.42715],[104.9881,24.40339],[104.9318,24.40214],[104.895,24.415],[104.83,24.43],[104.725,24.43],[104.7279,24.30142],[104.585,24.375],[104.5,24.53],[104.4915,24.61175],[104.4419,24.64452],[104.4547,24.65139],[104.4681,24.65185],[104.4759,24.65747],[104.4848,24.657],[104.4939,24.66839],[104.5006,24.70473],[104.5177,24.73904],[104.5236054929302,24.738558961908296],[104.5205,24.72999],[104.5445,24.725],[104.63,24.65388],[104.6887,24.63391],[104.7117,24.61706],[104.7426,24.61924],[104.766,24.65856],[104.8381,24.67354],[104.8604,24.69537],[104.8703,24.73685],[104.9098,24.75806],[104.9713,24.76897],[104.9998,24.77957],[105.0351,24.78736],[105.0406,24.87585],[105.0674,24.89017],[105.0787,24.91851],[105.1162,24.94217],[105.14,24.945],[105.2003,24.99041],[105.26,24.9319],[105.3146,24.91944],[105.3431,24.92972],[105.3812,24.93595],[105.4245,24.92287],[105.4512,24.8609],[105.479,24.8422],[105.49,24.80949],[105.4952,24.80481],[105.5927,24.78393],[105.695,24.755],[105.7925,24.69787],[105.8241,24.696],[105.8625,24.72064],[105.9202,24.71845],[105.945,24.67],[106.025,24.62],[106.065,24.68],[106.155,24.74],[106.1757,24.76149],[106.2041,24.81478],[106.2096,24.86806],[106.1942,24.90388],[106.1623,24.94217],[106.1914,24.95089],[106.2144,24.97392],[106.3051,24.96085],[106.5718,25.07036],[106.6391,25.1226],[106.6367,25.15865],[106.66,25.15],[106.6886,25.17667],[106.7154,25.15554],[106.76,25.165],[106.8884,25.17791],[106.9989,25.23849],[107.0144,25.27171],[107.0171,25.35737],[106.995,25.38],[106.985,25.425],[107.0175,25.48915],[107.0769,25.50278],[107.0686,25.54926],[107.0841,25.56505],[107.1383,25.56289],[107.205,25.59],[107.2218,25.55204],[107.2633,25.53872],[107.2921,25.50681],[107.3069,25.49907],[107.3199,25.45754],[107.2942,25.4318],[107.29,25.415],[107.3265,25.39552],[107.3574,25.39521],[107.3783,25.40296],[107.3996,25.38684],[107.3986,25.3524],[107.4212,25.29003],[107.4384,25.28599],[107.4703,25.29623],[107.4604,25.22047],[107.4655,25.2124],[107.5105,25.20525],[107.62,25.255],[107.6375,25.31175],[107.675,25.185],[107.6959,25.18599],[107.7268,25.22358],[107.7481,25.24097],[107.7542,25.23196],[107.7464,25.21768],[107.7515,25.18723],[107.755,25.115],[107.8322,25.11296],[107.91,25.145],[108.0718,25.18661],[108.1027,25.20308],[108.15,25.23],[108.165,25.375],[108.1944,25.39273],[108.193,25.42002],[108.2514,25.42684],[108.3273,25.53253],[108.4224,25.4287],[108.4605,25.45227],[108.4921,25.44854],[108.5003,25.4194],[108.605,25.305],[108.6297,25.3043],[108.64,25.33],[108.6198,25.40514],[108.5999,25.42033],[108.6071,25.46807],[108.628,25.46187],[108.6919,25.52138],[108.68,25.565],[108.6946,25.62048],[108.7664,25.62264],[108.765,25.575],[108.7722,25.5539],[108.8017,25.52308],[108.9332,25.54988],[108.966,25.53408],[109.0029,25.52122],[109.0204,25.51301],[109.0383,25.51828],[109.0881,25.54151],[109.087,25.55607],[109.051,25.57806],[109.0462,25.63224],[109.0802,25.72275],[109.0424,25.74857],[109.0115,25.73991],[108.9936,25.74177],[108.9773,25.72491],[108.9466,25.68872],[108.9114,25.68454],[108.8931,25.70357],[108.9154,25.72831],[108.9638,25.72862],[109.0223,25.79278],[109.0688,25.77702],[109.1045,25.78907],[109.1258,25.7563],[109.1423,25.74084],[109.1516,25.74579],[109.1608,25.75661],[109.1804,25.75816],[109.1911,25.73775],[109.2175,25.7362],[109.2432,25.71981],[109.2721,25.71548],[109.3456,25.72661],[109.355,25.815],[109.48026188257222,26.009558807082946],[109.4949,26.00434],[109.5406,25.98906],[109.6281,26.04815],[109.6345,26.04614],[109.6448,26.01437],[109.6696,26.01282],[109.6858,25.99909],[109.7054,26.00434],[109.6679,25.92516],[109.676,25.87822],[109.7223,25.88641],[109.7435,25.88795],[109.7661,25.87112],[109.7859,25.86139],[109.8123,25.87343],[109.835,25.92007],[109.812,25.98166],[109.7919,25.99184],[109.8106,26.03288],[109.8597,26.0247],[109.8861,26.04074],[109.9141,26.14157],[109.9613,26.18594],[109.9972,26.1804],[110.0337,26.16129],[110.0871,26.16391],[110.0664,26.0904],[110.0617,26.03997],[110.0851,26.03195],[110.0967,26.01653],[110.1189,26.02825],[110.1426,26.01684],[110.1704,26.019],[110.1869,26.05925],[110.2421,26.02378],[110.2373,25.9673],[110.2535,25.95604],[110.2878,25.96715],[110.3062,25.96869],[110.3273,25.97564],[110.3738,26.08269],[110.4655,26.171],[110.4898,26.16314],[110.5479,26.21767],[110.5547,26.28264],[110.6292,26.31003],[110.6739,26.31281],[110.7079,26.28772],[110.7374,26.31219],[110.7406,26.30296],[110.7384,26.29418],[110.7242,26.27556],[110.7309,26.26186],[110.7585,26.24924],[110.7765,26.25786],[110.8397,26.25586],[110.8879,26.27294],[110.909,26.25555],[110.9283,26.25401],[110.937,26.29157],[110.945,26.315],[110.9482,26.33865],[110.9657,26.37572],[110.9942,26.33712],[111.0903,26.30634],[111.1574,26.30711],[111.1846,26.28295],[111.2179,26.26186],[111.2704,26.26879],[111.2494,26.14681],[111.2531,26.09564],[111.2359,26.08053],[111.2146,26.05092],[111.1806,25.95496],[111.2397,25.8654],[111.2939,25.85212],[111.3255,25.88764],[111.4536,25.8654],[111.4127,25.84625],[111.4244,25.78691],[111.2977,25.73898],[111.3015,25.66876],[111.2973,25.65236],[111.3142,25.61243],[111.305,25.515],[111.275,25.455],[111.1765,25.37722],[111.1284,25.31268],[111.0889,25.29034],[111.0999,25.22575],[110.9873,25.16673],[110.9533,25.07845],[110.9369,25.04082],[110.9547,24.98201],[110.975,24.91],[110.995,24.905],[111.0958,24.93688],[111.1089,24.98326],[111.1082,25.03179],[111.1332,25.03895],[111.1906,25.05979],[111.2709,25.14093],[111.2891,25.11638],[111.3197,25.09804],[111.3526,25.09928],[111.3845,25.12073],[111.4151,25.09586],[111.4051,25.03491],[111.4546,25.02588],[111.4199,24.97299],[111.4319,24.954],[111.445,24.9182],[111.445,24.85155],[111.4642,24.81603],[111.4223,24.68103],[111.4309,24.662],[111.4783,24.67073],[111.5232,24.63266],[111.5682,24.64296],[111.5881,24.67884],[111.6472,24.68103],[111.6417,24.72282],[111.7035,24.77738],[111.7323,24.77271],[111.7708,24.77957],[111.8734,24.75525],[111.9507,24.76117],[112.0211,24.739561789181693],[112.0211,24.73186],[111.9689,24.71721],[111.9476,24.69132],[111.9538,24.64764],[111.9356,24.63422],[111.955,24.6],[112.0001,24.55837],[112.02,24.505],[112.0032,24.46715],[112.0557,24.39276],[112.0654,24.35116],[112.0255,24.28984],[111.9311,24.22161],[111.8793,24.22223],[111.8879,24.16116],[111.8791,24.12357],[111.9157,24.04772],[111.9409,23.98468],[111.909,23.94327],[111.8566,23.9381],[111.8549,23.90577],[111.8206,23.90734],[111.8237,23.85617],[111.822,23.83482],[111.8063,23.80718],[111.7385,23.81236],[111.708,23.82775],[111.6829,23.81236],[111.6575,23.82775],[111.64,23.7888],[111.629,23.77246],[111.6314,23.74135],[111.6561,23.73067],[111.6661,23.72218],[111.6626,23.69986],[111.6214,23.66339],[111.6111,23.63572],[111.5559,23.63509],[111.4913,23.62219],[111.4889,23.56367],[111.4656,23.51048],[111.4233,23.46608],[111.3986,23.46797],[111.3894,23.38165],[111.3633,23.33816],[111.3773,23.30947],[111.3588,23.28614],[111.3845,23.21705],[111.3935,23.18266],[111.3948,23.15772],[111.3784,23.12142],[111.3876,23.07815],[111.4271,23.07057],[111.4323,23.03456],[111.4075,23.01149],[111.4014,22.98495],[111.3722,22.96503],[111.3722,22.92867],[111.3636,22.88946],[111.3351,22.86922],[111.297,22.82714],[111.2912,22.80245],[111.2558,22.78441],[111.2246,22.75149],[111.172,22.73439],[111.1188,22.74104],[111.0752,22.72679],[111.0865,22.70177],[111.0865,22.68752],[111.0553,22.64855],[110.9967,22.63105],[110.9854,22.63469],[110.9814,22.64166],[110.9761,22.64277],[110.97,22.64206],[110.9642,22.63857],[110.9489,22.6045],[110.907,22.60577],[110.895,22.57],[110.8273,22.58675],[110.7916,22.55695],[110.7697,22.58517],[110.7616,22.52413],[110.7449,22.46212],[110.7111,22.45482],[110.7109,22.40198],[110.742,22.3669],[110.7739,22.3134],[110.7927,22.28862],[110.7606,22.27289],[110.7283,22.28576],[110.7123,22.28505],[110.6853,22.25224],[110.6491,22.21983],[110.6787,22.19408],[110.6756,22.17087],[110.6275,22.14766],[110.5973,22.15243],[110.5822,22.18486],[110.5547,22.19058],[110.5194,22.14162],[110.4844,22.14098],[110.4438,22.18963],[110.4215,22.20425],[110.3796,22.16197],[110.3467,22.182],[110.3278,22.16483],[110.3662,22.12572],[110.3649,22.09137],[110.3511,22.04332],[110.3656,22.01277],[110.3604,21.99272],[110.3875,21.96311],[110.3927,21.92744],[110.3934,21.90323],[110.3865,21.89017],[110.357,21.8889],[110.3288,21.8889],[110.2993,21.90642],[110.2646,21.88125],[110.2203,21.87743],[110.1977,21.89336],[110.1668,21.89718],[110.1362,21.88125],[110.0758,21.8615],[110.0415,21.85672],[109.9944,21.87488],[109.958,21.85098],[109.944,21.81561],[109.9481,21.73909],[109.9343,21.72793],[109.911,21.65424],[109.8674,21.64466],[109.8241,21.63413],[109.8,21.62],[109.7778,21.63509],[109.7685,21.65807],[109.7496,21.61722],[109.7572,21.57636],[109.7761,21.52303],[109.7905,21.49364],[109.7878,21.40993],[109.4915,20.75019],[108.951,20.74224],[108.8653,20.80159],[108.7739,21.29258],[108.1113,21.17834],[108.0698,21.47735],[108.033,21.54411],[107.9963,21.54427],[107.9676,21.53389],[107.9522,21.53501],[107.9439,21.5473],[107.8514,21.62743],[107.7031,21.60062],[107.5424,21.58083],[107.3735,21.58466],[106.9952,21.82708],[106.9828,21.90929],[106.7131,21.9561],[106.6841,21.96167],[106.5358,22.35389],[106.5399,22.47449],[106.5907,22.60894],[106.7816,22.79264],[106.3174,22.84327],[105.867,22.90148],[105.5511,23.05825],[105.4829,23.13405],[105.534,23.18897],[105.5429,23.19946]]]}}
