{"type":"Feature","properties":{"sourceId":"ghana"},"geometry":{"type":"Polygon","coordinates":[[[-2.91978,5.58796],[-3.043747,5.713065],[-3.26746,6.608472],[-3.241702,6.823028],[-3.01244,7.170612],[-2.944075,7.593914],[-2.78612,7.953496],[-2.540018,8.240531],[-2.667649,8.896055],[-2.804261,9.060737],[-2.704011,9.424],[-2.7103992227188303,9.433382205531924],[-2.685442,9.472243],[-2.673887,9.483604],[-2.684722,9.508131],[-2.735776,9.643209],[-2.748287,9.685134],[-2.777052,9.698765],[-2.779739,9.742776],[-2.749725,9.794422],[-2.72633,9.807088],[-2.717098,9.826363],[-2.73239,9.958698],[-2.78012,10.07177],[-2.776734,10.14278],[-2.787513,10.19094],[-2.751747,10.22213],[-2.746671,10.24981],[-2.759658,10.27326],[-2.828186,10.30426],[-2.823283,10.38219],[-2.772638,10.40158],[-2.763741,10.42391],[-2.858592,10.46074],[-2.865956,10.49437],[-2.890488,10.54909],[-2.930511,10.61828],[-2.931184,10.63386],[-2.895791,10.68831],[-2.925012,10.72094],[-2.886462,10.75986],[-2.80881,10.91926],[-2.810072,10.94502],[-2.830635,10.96811],[-2.825203,11.0022],[-2.730103,10.99883],[-2.500077,10.98265],[-2.157818,10.96786],[-1.609497,10.95569],[-1.600228,11.01231],[-1.435384,11.00809],[-1.387368,10.98804],[-1.112709,10.98029],[-1.105156,10.99849],[-0.938988,10.99141],[-0.894699,10.95434],[-0.868264,10.95703],[-0.840454,10.98939],[-0.693169,10.99006],[-0.679808,10.94636],[-0.619633,10.8923],[-0.587409,10.90678],[-0.566191,10.97885],[-0.536102,10.96618],[-0.477608,11.01487],[-0.430527,11.02747],[-0.423288,11.09249],[-0.396317,11.11023],[-0.360489,11.05814],[-0.323067,11.10598],[-0.263329,11.12114],[-0.268822,11.16922],[-0.141502671737292,11.136063301872769],[-0.148338,11.12007],[-0.146974,11.10298],[-0.127472,11.10064],[-0.097752,11.08191],[-0.052912,11.08142],[-0.030784,11.10449],[-0.010482,11.10439],[-0.000719,11.08096],[0.028881,10.99188],[0.02614,10.98257],[-0.0106,10.9652],[-0.029954,10.88316],[-0.034163,10.85606],[-0.077212,10.77207],[-0.078292,10.72389],[-0.094799,10.71272],[-0.063938,10.6307],[0.03548,10.59784],[0.051694,10.57992],[0.05773,10.55718],[0.11323,10.53752],[0.138363,10.52178],[0.149878,10.46291],[0.163648,10.44821],[0.164609,10.42843],[0.183655,10.41298],[0.188482,10.39972],[0.279808,10.40509],[0.286674,10.3774],[0.315964,10.30449],[0.361862,10.29128],[0.342636,10.18553],[0.35834,10.13898],[0.348067,10.09895],[0.361742,10.08161],[0.366017,10.03901],[0.355601,10.02805],[0.359279,10.01403],[0.354203,9.986622],[0.350231,9.922674],[0.346257,9.881242],[0.325263,9.795281],[0.320371,9.773329],[0.324377,9.759493],[0.314053,9.728352],[0.321453,9.71865],[0.340418,9.714417],[0.267279,9.572769],[0.245611,9.580404],[0.236467,9.577889],[0.230438,9.54835],[0.226978,9.490157],[0.22399,9.462834],[0.244288,9.434081],[0.259459,9.424019],[0.276782,9.422633],[0.339922,9.447484],[0.388589,9.486674],[0.495868,9.47332],[0.4992,9.463279],[0.489774,9.45011],[0.496726,9.434315],[0.517721,9.433444],[0.549789,9.417663],[0.560572,9.402946],[0.540263,9.341448],[0.535088,9.309374],[0.501192,9.258126],[0.472453,9.14727],[0.468557,9.098423],[0.458061,9.078472],[0.45131,9.044734],[0.464282,9.001711],[0.489525,8.952193],[0.504119,8.917431],[0.505987,8.859234],[0.491394,8.841456],[0.447191,8.816131],[0.392285,8.80153],[0.376951,8.796521],[0.368913,8.75442],[0.466542,8.591829],[0.508988,8.559559],[0.5684,8.520161],[0.647202,8.420379],[0.689462,8.39247],[0.706023,8.349612],[0.708343,8.293502],[0.686731,8.285604],[0.636053,8.264504],[0.598891,8.218179],[0.583713,8.20256],[0.586939,8.139719],[0.579767,8.094683],[0.593546,8.007896],[0.591864,7.98553],[0.613196,7.921114],[0.621946,7.865329],[0.612323,7.796149],[0.606486,7.754178],[0.585986,7.70529],[0.578304,7.670443],[0.580378,7.626179],[0.541934,7.61291],[0.513765,7.594715],[0.513824,7.511558],[0.514783,7.458665],[0.519121,7.450402],[0.534553,7.419425],[0.566399,7.388022],[0.599641,7.395335],[0.627303,7.395186],[0.636227,7.370971],[0.639653,7.289388],[0.611862,7.183207],[0.600596,7.156341],[0.592562,7.135947],[0.586522,7.114199],[0.588599,7.10736],[0.608234,7.093306],[0.592742,7.063351],[0.54658,6.995669],[0.516675,6.972918],[0.519418,6.939746],[0.526722,6.858627],[0.527611,6.826811],[0.578652,6.757479],[0.63051,6.641154],[0.652783,6.605166],[0.732994,6.568777],[0.707583,6.529212],[0.717698,6.494631],[0.746447,6.440339],[0.786361,6.404657],[0.89146,6.328696],[1.002008,6.296879],[1.023188,6.250374],[1.050739,6.221449],[1.081209,6.167521],[1.197166,6.167521],[1.197681,6.110942],[1.282454,5.892541],[1.313583409293749,5.900291076377067],[1.394038,3.983727],[-3.807399,3.704056],[-3.110848,5.084447],[-3.117714,5.127876],[-3.068962,5.140186],[-2.792836,5.130145],[-2.780924,5.58762],[-2.91978,5.58796]]]}}
