{"type":"Feature","properties":{"sourceId":"galicia"},"geometry":{"type":"Polygon","coordinates":[[[-6.810322,42.87131],[-6.837616,42.83456],[-6.835041,42.82348],[-6.859245,42.78784],[-6.892376,42.76315],[-6.935806,42.73743],[-6.946449,42.73825],[-6.95838,42.74726],[-6.969194,42.72457],[-6.984043,42.71656],[-6.993742,42.72337],[-7.016916,42.71],[-7.025585,42.70685],[-7.037516,42.69411],[-7.013054,42.66937],[-6.999664,42.64173],[-7.039147,42.63137],[-7.039747,42.60181],[-7.027044,42.58589],[-7.04936,42.56376],[-7.050905,42.51463],[-6.976061,42.51311],[-6.963787,42.52019],[-6.931686,42.52418],[-6.878557,42.50311],[-6.838303,42.49881],[-6.823025,42.49685],[-6.80397,42.46836],[-6.817467,42.44332],[-6.819227,42.43497],[-6.81221,42.4265],[-6.819677,42.42088],[-6.828218,42.41603],[-6.828239,42.41023],[-6.806717,42.38866],[-6.779423,42.3848],[-6.727066,42.36184],[-6.735993,42.29763],[-6.762772,42.25813],[-6.784058,42.21352],[-6.795388,42.20716],[-6.870232,42.21555],[-6.941128,42.14107],[-6.987047,42.10077],[-7.001553,42.08408],[-7.011595,42.05694],[-6.970139,42.05745],[-6.955033,42.02915],[-6.974988,42.00753],[-6.976962,42.00125],[-6.986962,41.98782],[-6.978378,41.97034],[-6.990137,41.95914],[-7.009467,41.9474],[-7.070791,41.94686],[-7.140343,41.98889],[-7.157407,41.97496],[-7.176346,41.97776],[-7.184385,41.96931],[-7.180775,41.95157],[-7.182549,41.9408],[-7.1719,41.91911],[-7.18261,41.8978],[-7.19575,41.87838],[-7.231034,41.86564],[-7.253169,41.86227],[-7.308816,41.84212],[-7.356211,41.83808],[-7.383649,41.84035],[-7.395982,41.82119],[-7.427711,41.80443],[-7.44617,41.83703],[-7.452914,41.86243],[-7.485302,41.85973],[-7.492484,41.86885],[-7.509791,41.86342],[-7.503777,41.8492],[-7.540135,41.83039],[-7.61696,41.82602],[-7.614216,41.84606],[-7.60408,41.8664],[-7.589016,41.87769],[-7.608166,41.87799],[-7.61732,41.88218],[-7.628218,41.87786],[-7.659008,41.88081],[-7.699954,41.90597],[-7.731114,41.89078],[-7.742938,41.89155],[-7.759747,41.89725],[-7.783253,41.8828],[-7.836983,41.8778],[-7.838745,41.86598],[-7.873764,41.84271],[-7.895222,41.85806],[-7.885557,41.88348],[-7.888482,41.9054],[-7.886263,41.92446],[-7.902097,41.92475],[-7.918194,41.87878],[-7.945466,41.86967],[-7.979411,41.87092],[-8.011658,41.82768],[-8.032384,41.82772],[-8.055235,41.81432],[-8.092522,41.80708],[-8.121925,41.80559],[-8.167992,41.81674],[-8.164902,41.84859],[-8.170953,41.87479],[-8.201294,41.8725],[-8.204429,41.88911],[-8.215463,41.89563],[-8.218676,41.91185],[-8.200837,41.93898],[-8.178815,41.95567],[-8.165175,41.98401],[-8.141554,41.99046],[-8.131392,42.0058],[-8.087552,42.01714],[-8.087117,42.04741],[-8.098351,42.06801],[-8.12067,42.07929],[-8.171158,42.06441],[-8.187058,42.06623],[-8.195801,42.12968],[-8.189535,42.13731],[-8.197432,42.14864],[-8.204813,42.1405],[-8.229789,42.12874],[-8.240965,42.1364],[-8.258106,42.11996],[-8.273306,42.12191],[-8.298369,42.10548],[-8.303003,42.10328],[-8.314033,42.10243],[-8.320169,42.10115],[-8.323259,42.09857],[-8.323431,42.09341],[-8.324075,42.0901],[-8.332577,42.0822],[-8.344288,42.08364],[-8.353429,42.08803],[-8.361712,42.08806],[-8.369136,42.08462],[-8.382354,42.07478],[-8.390894,42.07424],[-8.397803,42.07892],[-8.402614,42.07887],[-8.411708,42.07606],[-8.419519,42.07204],[-8.429904,42.07163],[-8.438659,42.07784],[-8.446635,42.08132],[-8.478398,42.08013],[-8.484364,42.0809],[-8.489857,42.08045],[-8.495693,42.07886],[-8.500071,42.07736],[-8.51419,42.07752],[-8.521142,42.07787],[-8.525221,42.07546],[-8.525605,42.06679],[-8.523717,42.06427],[-8.526979,42.06099],[-8.536892,42.05732],[-8.546848,42.05347],[-8.561053,42.05181],[-8.573585,42.05222],[-8.582425,42.05136],[-8.597531,42.0542],[-8.634997,42.04668],[-8.645983,42.0361],[-8.65551,42.02991],[-8.656626,42.01818],[-8.659507,42.00363],[-8.678779,41.98933],[-8.699713,41.98233],[-8.721943,41.97583],[-8.742199,41.96523],[-8.746061,41.95604],[-8.745718,41.94679],[-8.747477,41.93935],[-8.764076,41.92557],[-8.778591,41.91965],[-8.787174,41.91492],[-8.8106,41.90503],[-8.829854,41.89206],[-8.843651,41.87864],[-8.853564,41.87288],[-8.863049,41.87055],[-8.870688,41.86234],[-9.214475,41.84694],[-9.600434,42.6761],[-9.779014,44.14855],[-7.188574926256019,44.01100679420021],[-7.033138,43.54693],[-7.035112,43.54034],[-7.033568,43.53536],[-7.041979,43.52752],[-7.05142,43.50374],[-7.05348,43.47615],[-7.062149,43.47572],[-7.084551,43.46363],[-7.093477,43.45398],[-7.102404,43.44039],[-7.127037,43.42469],[-7.142143,43.43254],[-7.162228,43.4331],[-7.173901,43.43136],[-7.177849,43.41372],[-7.184115,43.3917],[-7.178707,43.38054],[-7.159996,43.37318],[-7.139225,43.38041],[-7.130642,43.37093],[-7.133045,43.36338],[-7.134247,43.33067],[-7.110128,43.31375],[-7.101803,43.30101],[-7.090645,43.29782],[-7.07365,43.3007],[-7.071591,43.28002],[-7.074337,43.26877],[-7.065325,43.24414],[-7.043867,43.22701],[-7.020092,43.21112],[-7.007732,43.21375],[-7.002926,43.20655],[-6.99357,43.20699],[-6.987219,43.2013],[-6.971512,43.20242],[-6.983872,43.16838],[-6.971856,43.13857],[-6.947136,43.1283],[-6.914349,43.13895],[-6.878472,43.15723],[-6.870918,43.17777],[-6.841736,43.15924],[-6.828346,43.14208],[-6.867829,43.10224],[-6.940613,43.08895],[-6.970825,43.05961],[-6.984215,43.04292],[-6.999664,43.02749],[-6.999493,43.01745],[-6.975117,42.99109],[-6.959667,42.98732],[-6.953316,42.99586],[-6.958122,43.0246],[-6.949711,43.02649],[-6.943875,43.01017],[-6.911431,42.98694],[-6.867829,42.98104],[-6.839676,42.95692],[-6.844998,42.92777],[-6.838131,42.91558],[-6.823314243455272,42.907261248561646],[-6.810322,42.87131]]]}}
