{"type":"Feature","properties":{"sourceId":"gansu"},"geometry":{"type":"Polygon","coordinates":[[[92.60101,39.49768],[92.90726,40.59519],[93.72024,40.69105],[93.77243,40.87614],[94.03473,41.18176],[94.52774,41.52195],[94.7406,41.58669],[94.87793,41.69958],[95.14023,41.78872],[95.26108,41.63803],[95.60165,41.8266],[95.99579,41.91965],[96.0878,41.99726],[96.07201,42.14661],[95.9436,42.41332],[95.91064,42.52677],[96.37732,42.7332],[97.2345,42.81354],[97.85934,41.65599],[97.63412,41.46331],[98.35167,40.93375],[98.37227,40.7124],[99.1214,40.86731],[99.57087,40.86685],[99.65698,40.9436],[99.67888,40.94815],[100.0724,40.91248],[100.3127,40.68585],[100.2008,40.53572],[100.2036,40.2439],[99.7538,39.92712],[100.2825,39.70296],[100.3491,39.52152],[100.8449,39.4224],[100.8708,39.1119],[100.9345,39.06444],[101.2404,39.03092],[101.2206,38.95765],[101.423,38.78746],[101.7788,38.68579],[102.0354,38.89254],[101.7952,39.09596],[102.4351,39.2631],[102.9817,39.13965],[103.356,39.36046],[103.851,39.48709],[104.0947,39.43355],[104.2201,39.09829],[104.2094,38.9295],[103.9362,38.66728],[103.5091,38.39872],[103.5511,38.14414],[103.391,38.06756],[103.4253,37.88461],[103.6708,37.79622],[103.849,37.65583],[104.0882,37.48439],[104.1858,37.41898],[104.2757,37.43289],[104.28440304538069,37.43178269876473],[104.275,37.42],[104.296,37.40617],[104.3502,37.40644],[104.4093,37.43316],[104.4769,37.41298],[104.5644,37.42389],[104.651,37.40562],[104.6496,37.36279],[104.6867,37.33659],[104.6516,37.30792],[104.6293,37.30546],[104.6142,37.29509],[104.585,37.25821],[104.6025,37.20955],[104.6317,37.1956],[104.7124,37.20408],[104.7701,37.23416],[104.8466,37.206],[104.8449,37.17728],[104.8697,37.15868],[104.8779,37.13541],[104.9057,37.11872],[104.9054,37.09325],[104.9407,37.07408],[104.9496,37.02613],[104.9891,37.02969],[105.0049,37.01352],[105.0362,37.00255],[105.0533,37.01489],[105.1289,36.98884],[105.1553,36.99186],[105.1721,36.94303],[105.1601,36.90763],[105.1745,36.88566],[105.191,36.88237],[105.2027,36.89088],[105.2216,36.88154],[105.2332,36.88731],[105.2521,36.88017],[105.2686,36.86122],[105.275,36.83],[105.2257,36.74769],[105.1944,36.71577],[105.2123,36.63261],[105.2583,36.58631],[105.2411,36.54385],[105.2573,36.52757],[105.2854,36.51985],[105.3173,36.51543],[105.352,36.42874],[105.3791,36.42957],[105.3888,36.36905],[105.4131,36.33283],[105.4574,36.29825],[105.4499,36.22877],[105.4959,36.14869],[105.4821,36.1082],[105.4282,36.10931],[105.3623,36.05715],[105.3366,36.03383],[105.327,36.00328],[105.3194,35.90323],[105.3263,35.87959],[105.3678,35.86652],[105.3623,35.84481],[105.3664,35.79916],[105.3846,35.78691],[105.4042,35.81419],[105.4258,35.78161],[105.4475,35.77019],[105.4447,35.74623],[105.4684,35.72728],[105.501,35.71614],[105.5426,35.7192],[105.5611,35.68379],[105.593,35.71335],[105.6452,35.73369],[105.6926,35.72951],[105.6813,35.68156],[105.705,35.67766],[105.7077,35.64502],[105.735,35.615],[105.7935,35.56044],[105.8093,35.56854],[105.815,35.535],[105.8347,35.48583],[105.8584,35.49674],[105.8698,35.53223],[105.9532,35.52971],[105.9875,35.51965],[106.0091,35.48947],[105.9576,35.47577],[105.8794,35.44948],[105.8876,35.40724],[105.9267,35.41983],[105.9446,35.42235],[105.9659,35.42543],[105.9755,35.43214],[106.0061,35.43885],[106.0414,35.45088],[106.0603,35.42235],[106.0812,35.39997],[106.0936,35.38345],[106.1018,35.3619],[106.1152,35.35966],[106.13,35.39017],[106.1458,35.40668],[106.1715,35.42571],[106.1767,35.41843],[106.1945,35.40612],[106.2278,35.40584],[106.2302,35.35378],[106.2732,35.30028],[106.3003,35.28458],[106.315,35.25459],[106.3576,35.23272],[106.3786,35.2445],[106.3689,35.26581],[106.4167,35.27309],[106.4458,35.29607],[106.4678,35.30728],[106.4894,35.32885],[106.508,35.35658],[106.4901,35.44179],[106.4975,35.48472],[106.4718,35.48625],[106.4539,35.54941],[106.4618,35.57175],[106.4812,35.57915],[106.4386,35.68128],[106.4634,35.70805],[106.5265,35.71976],[106.5324,35.73425],[106.6024,35.72366],[106.6433,35.70192],[106.6796,35.71084],[106.7178,35.68686],[106.7517,35.68407],[106.7569,35.7153],[106.8125,35.70721],[106.8242,35.73286],[106.8661,35.73481],[106.9121,35.76741],[106.9292,35.80027],[106.9124,35.83396],[106.8695,35.89656],[106.9426,35.92631],[106.9461,35.98801],[106.9571,36.07824],[106.9509,36.12262],[106.8311,36.23154],[106.7627,36.23209],[106.6848,36.27722],[106.6051,36.29852],[106.5526,36.29355],[106.5162,36.2786],[106.515,36.345],[106.532,36.37043],[106.5241,36.48701],[106.4503,36.61222],[106.5,36.62],[106.497,36.67971],[106.5324,36.68797],[106.535,36.715],[106.575,36.73],[106.6426,36.71467],[106.6621,36.82028],[106.647,36.88264],[106.5914,36.93288],[106.6419,36.95785],[106.6632,37.01845],[106.665,37.055],[106.6302,37.10393],[106.6803,37.11078],[106.7099,37.11324],[106.7552,37.07408],[106.7741,37.12063],[106.7693,37.13788],[106.7813,37.15238],[106.7984,37.14253],[106.8184,37.13268],[106.8475,37.11215],[106.8633,37.10913],[106.8894,37.0949],[106.991,37.09736],[107.26245218601211,37.09217867649131],[107.2702,37.01516],[107.287,36.92849],[107.2983,36.90982],[107.33,36.905],[107.367,36.88621],[107.4751,36.89967],[107.5345,36.8255],[107.59,36.815],[107.6416,36.80929],[107.6715,36.8222],[107.695,36.785],[107.885,36.74],[107.929,36.65575],[108.0481,36.58742],[108.0698,36.59706],[108.115,36.56],[108.2528,36.54716],[108.318,36.54991],[108.37,36.495],[108.385,36.445],[108.4543,36.41714],[108.4917,36.4141],[108.5109,36.4373],[108.5144,36.46133],[108.5573,36.43206],[108.6091,36.4257],[108.6259,36.35136],[108.6297,36.2476],[108.6991,36.13898],[108.6723,36.08379],[108.6658,36.01356],[108.4948,35.90323],[108.4886,35.87152],[108.5,35.71],[108.5089,35.66343],[108.5144,35.62744],[108.5363,35.59451],[108.6064,35.54927],[108.5858,35.50652],[108.6122,35.41843],[108.5981,35.35322],[108.5908,35.30938],[108.5374,35.31218],[108.4773,35.28514],[108.4268,35.27996],[108.3806,35.28654],[108.3432,35.30448],[108.3367,35.30574],[108.295,35.27758],[108.2382,35.2644],[108.2323,35.28795],[108.2217,35.29986],[108.1855,35.30812],[108.0897,35.28206],[108.0766,35.27596],[108.0683,35.2678],[108.0592,35.263],[107.9551,35.24422],[107.9587,35.26524],[107.9545,35.26973],[107.9288,35.27078],[107.9293,35.25732],[107.8946,35.26405],[107.8839,35.26125],[107.8076,35.28697],[107.7776,35.30231],[107.742,35.31428],[107.7057,35.30189],[107.7037,35.29432],[107.7162,35.27218],[107.7053,35.25929],[107.6943,35.25796],[107.6843,35.25389],[107.6598,35.25894],[107.6494,35.25683],[107.6423,35.24197],[107.6643,35.21155],[107.678,35.21645],[107.7,35.175],[107.716,35.14377],[107.7218,35.12482],[107.7357,35.09913],[107.7465,35.09323],[107.7565,35.08634],[107.746,35.07019],[107.8061,35.02564],[107.8253,35.01903],[107.85,34.99246],[107.7082,34.96728],[107.6679,34.9549],[107.6435,34.94055],[107.6204,34.96728],[107.5953,34.9663],[107.5671,34.97502],[107.5471,34.97094],[107.5235,34.91578],[107.4152,34.93647],[107.2865,34.94181],[107.1972,34.8879],[107.1708,34.94674],[107.1239,34.95645],[107.0863,35.0269],[107.0401,35.04532],[106.9828,35.07454],[106.9586,35.06794],[106.9363,35.08536],[106.8995,35.098],[106.8577,35.09856],[106.8362,35.08494],[106.8036,35.08775],[106.7545,35.1025],[106.725,35.105],[106.7078,35.10769],[106.6963,35.08396],[106.6338,35.08016],[106.5614,35.09533],[106.5336,35.08747],[106.5214,35.04728],[106.4975,35.03688],[106.4824,35.02395],[106.4716,34.98374],[106.4838,34.93872],[106.5013,34.92324],[106.5171,34.87664],[106.5409,34.86058],[106.5494,34.76658],[106.4992,34.75036],[106.4697,34.71876],[106.4359,34.70535],[106.435,34.67007],[106.3684,34.62572],[106.3089,34.58885],[106.302,34.57867],[106.3341,34.56665],[106.3276,34.51589],[106.3574,34.51221],[106.3954,34.50896],[106.3992,34.51271],[106.3992,34.51724],[106.4022,34.52197],[106.4057,34.52417],[106.4142,34.5236],[106.42,34.52417],[106.4292,34.52749],[106.4354,34.5248],[106.4408,34.52367],[106.4471,34.52487],[106.4491,34.53081],[106.4522,34.5312],[106.4522,34.52731],[106.4528,34.52431],[106.4552,34.52342],[106.4597,34.52392],[106.4604,34.52961],[106.4639,34.53039],[106.4637,34.52774],[106.465,34.52455],[106.4711,34.52243],[106.4772,34.52219],[106.4816,34.52516],[106.4843,34.51731],[106.4972,34.51221],[106.5081,34.51257],[106.5056,34.50677],[106.5078,34.49913],[106.5204,34.4934],[106.5311,34.4934],[106.5361,34.49114],[106.5338,34.48406],[106.5346,34.47847],[106.539,34.47798],[106.55,34.48979],[106.5546,34.48802],[106.5555,34.48173],[106.5618,34.47769],[106.5766,34.47196],[106.5776,34.46687],[106.5811,34.46545],[106.5912,34.46425],[106.5845,34.45618],[106.5958,34.44953],[106.6033,34.44932],[106.6151,34.42822],[106.6155,34.41123],[106.6296,34.40202],[106.6327,34.3926],[106.6461,34.3897],[106.6566,34.38258],[106.6631,34.38251],[106.669,34.38403],[106.6753,34.38428],[106.6749,34.37808],[106.678,34.37465],[106.6876,34.37613],[106.6912,34.37167],[106.6988,34.3698],[106.7037,34.36611],[106.6759,34.32983],[106.685,34.32],[106.6642,34.26403],[106.5169,34.30005],[106.4812,34.26147],[106.4829,34.23849],[106.5258,34.23707],[106.5705,34.14733],[106.5502,34.12204],[106.4908,34.1172],[106.4585,34.03189],[106.468,33.99888],[106.4375,33.95308],[106.4427,33.94201],[106.4295,33.93079],[106.4259,33.92581],[106.4184,33.92047],[106.4021,33.9106],[106.411,33.87369],[106.4201,33.86443],[106.4453,33.867],[106.4646,33.87512],[106.4809,33.85131],[106.4491,33.83249],[106.4436,33.80982],[106.4517,33.78671],[106.4694,33.78457],[106.4778,33.76944],[106.4695,33.70978],[106.5106,33.69964],[106.5688,33.62949],[106.5689,33.58116],[106.544,33.58102],[106.5492,33.53667],[106.5173,33.52251],[106.4937,33.54512],[106.4694,33.53581],[106.4498,33.59546],[106.4479,33.61919],[106.4318,33.62648],[106.3674,33.62105],[106.3351,33.59718],[106.3097,33.61319],[106.2747,33.61276],[106.2017,33.56557],[106.1853,33.5517],[106.1585,33.56157],[106.153,33.58574],[106.1283,33.60561],[106.0797,33.61991],[106.0416,33.61076],[105.9497,33.61905],[105.9506,33.59789],[105.936,33.57673],[105.9171,33.56171],[105.8957,33.55742],[105.8783,33.53882],[105.8766,33.52923],[105.8344,33.49989],[105.8207,33.4651],[105.8342,33.40565],[105.8215,33.38358],[105.7316,33.40121],[105.6955,33.39333],[105.6998,33.37871],[105.7256,33.34831],[105.7408,33.34243],[105.7501,33.32178],[105.7312,33.31819],[105.7367,33.28663],[105.7824,33.28132],[105.791,33.26123],[105.8249,33.25075],[105.8437,33.23194],[105.9192,33.23969],[105.9549,33.20595],[105.9602,33.15882],[105.918,33.17391],[105.8864,33.15322],[105.8897,33.14186],[105.9152,33.12289],[105.9046,33.05759],[105.9137,32.99686],[105.8613,32.94833],[105.8195,32.96431],[105.7664,32.93291],[105.702,32.92585],[105.6406,32.89602],[105.5225,32.92657],[105.4801,32.91519],[105.48035313775897,32.91306513187024],[105.4262,32.9296],[105.4065,32.88694],[105.3929,32.88088],[105.3973,32.83532],[105.4153,32.80712],[105.4193,32.79474],[105.4242,32.78464],[105.4244,32.77829],[105.4278,32.77551],[105.437,32.77692],[105.4414,32.77306],[105.4415,32.76461],[105.4463,32.77042],[105.4494,32.7714],[105.4554,32.76649],[105.4578,32.7548],[105.4512,32.73444],[105.293,32.65152],[105.0978,32.58438],[105.0662,32.63703],[104.8692,32.59438],[104.7322,32.62562],[104.4541,32.73235],[104.3535,32.81273],[104.2919,32.82153],[104.2601,32.90112],[104.2809,32.95798],[104.3612,32.96547],[104.3241,33.04551],[104.3631,33.12],[104.0584,33.66578],[103.7624,33.65235],[103.6601,33.67293],[103.6368,33.70178],[103.573,33.69407],[103.553,33.66408],[103.5125,33.6735],[103.4994,33.74261],[103.3356,33.73406],[103.1467,33.79701],[103.1089,33.97315],[103.1456,34.022],[103.1125,34.04526],[103.1263,34.07314],[103.1771,34.0811],[103.1496,34.09873],[103.119,34.11692],[103.1145,34.16394],[102.9802,34.17853],[102.9271,34.2939],[102.8764,34.2939],[102.8588,34.26828],[102.796,34.26849],[102.7853,34.2365],[102.704,34.1959],[102.6576,34.18227],[102.669,34.11209],[102.6562,34.06518],[102.6363,34.08451],[102.6048,34.09219],[102.4413,34.06397],[102.3974,33.96928],[102.1832,33.954],[102.3511,33.74131],[102.345,33.6219],[102.4417,33.58574],[102.4805,33.54397],[102.4722,33.47928],[102.4853,33.46123],[102.4796,33.44726],[102.4485,33.44835],[102.3668,33.37549],[102.27,33.4025],[102.2113,33.3334],[102.223,33.23007],[102.1785,33.20611],[102.1258,33.26883],[102.0822,33.18756],[101.9885,33.1956],[101.8686,33.09424],[101.8128,33.12061],[101.8331,33.19166],[101.7547,33.24903],[101.771,33.27934],[101.8065,33.29122],[101.8689,33.32922],[101.8728,33.38014],[101.9195,33.44433],[101.8975,33.48787],[101.8659,33.57659],[101.7349,33.48413],[101.6279,33.48413],[101.6089,33.5157],[101.6047,33.59374],[101.5507,33.67378],[101.5053,33.68647],[101.4433,33.67098],[101.4088,33.63643],[101.2347,33.66544],[101.1693,33.64978],[101.15,33.67394],[101.1705,33.78707],[101.1267,33.83093],[100.986,33.8878],[100.8703,34.04128],[100.7589,34.17146],[100.7589,34.19439],[100.8061,34.32274],[100.8957,34.3919],[100.9561,34.39133],[101.0474,34.35024],[101.2321,34.33692],[101.2864,34.2861],[101.32,34.27764],[101.3983,34.24331],[101.5401,34.21422],[101.5796,34.20414],[101.6575,34.16239],[101.6647,34.12687],[101.7059,34.1263],[101.7392,34.09418],[101.7564,34.12801],[101.8461,34.16607],[101.8807,34.14606],[101.9287,34.13312],[102.0105,34.23111],[102.052,34.23962],[102.0496,34.27226],[102.062,34.30119],[102.1301,34.28704],[102.1653,34.36299],[102.2391,34.35846],[102.1663,34.43125],[102.1471,34.49948],[102.0881,34.52384],[102.0341,34.53258],[101.9915,34.52384],[101.9165,34.58216],[101.9092,34.64281],[101.9089,34.75771],[101.9099,34.87973],[101.9596,34.90423],[102.0407,34.90001],[102.0633,34.96953],[102.1296,35.02297],[102.2127,35.06401],[102.2659,35.06822],[102.3328,35.16763],[102.3943,35.18279],[102.2689,35.30229],[102.2813,35.42151],[102.3071,35.43969],[102.4152,35.42291],[102.4969,35.5892],[102.5218,35.59004],[102.5733,35.55136],[102.6908,35.53376],[102.7879,35.56142],[102.8001,35.56016],[102.7951,35.57329],[102.7647,35.59213],[102.7555,35.61237],[102.6952,35.69969],[102.6786,35.76894],[102.6916,35.7986],[102.7127,35.81781],[102.7261,35.82171],[102.75,35.83577],[102.7522,35.84133],[102.769,35.85706],[102.7795,35.86401],[102.8416,35.86012],[102.9283,35.84732],[102.9429,35.96092],[102.9625,35.9944],[102.9503,36.01425],[102.9489,36.02647],[102.9644,36.04063],[102.9275,36.04854],[102.8918,36.06492],[102.8792,36.08143],[102.8763,36.0935],[102.9359,36.1064],[102.9438,36.1516],[102.9973,36.20605],[103.0183,36.23749],[103.0202,36.25341],[102.9903,36.26102],[102.9668,36.27915],[102.9416,36.28829],[102.921,36.297],[102.9108,36.31291],[102.8998,36.32038],[102.894,36.32951],[102.8746,36.33006],[102.842,36.33089],[102.8274,36.35163],[102.7517,36.46538],[102.7325,36.53171],[102.7311,36.5819],[102.5978,36.66143],[102.5869,36.73393],[102.6978,36.78179],[102.5821,36.86754],[102.5546,36.90378],[102.5539,36.91723],[102.5242,36.92787],[102.4642,36.9525],[102.4417,36.96635],[102.4571,37.00399],[102.4832,37.09298],[102.6267,37.11543],[102.3263,37.32952],[102.0829,37.4754],[102.1032,37.54715],[102.0268,37.60175],[101.9737,37.70827],[101.8632,37.65828],[101.8003,37.63512],[101.6456,37.70822],[101.637,37.75125],[101.4464,37.84829],[101.3886,37.78768],[101.3551,37.77652],[101.1758,37.84015],[100.9753,37.99346],[100.922,37.99488],[100.8916,38.00157],[100.8751,38.05242],[100.9115,38.1513],[100.8252,38.14276],[100.6279,38.25166],[100.593,38.22273],[100.5463,38.23052],[100.4253,38.26406],[100.2541,38.35269],[100.1727,38.3255],[100.1857,38.23306],[100.1843,38.2131],[100.1696,38.20366],[99.82489,38.34985],[99.76496,38.38979],[99.66591,38.42885],[99.52511,38.53299],[99.50592,38.5675],[99.50077,38.60909],[99.44755,38.59702],[98.77533,39.07251],[98.58856,38.9092],[98.45986,38.93251],[98.37976,39.00788],[98.26996,39.03945],[98.26035,38.87821],[98.09967,38.77443],[97.81483,38.92042],[97.03674,39.19182],[97.0134,38.88034],[97.09305,38.57072],[96.70652,38.46925],[96.68243,38.20797],[96.64905,38.19585],[96.33529,38.1421],[96.21139,38.13348],[96.04248,38.16372],[95.8406,38.277],[95.70328,38.35674],[95.52063,38.28239],[95.24872,38.27916],[95.06882,38.3815],[94.87655,38.37935],[94.66507,38.35997],[94.53323,38.31903],[94.48242,38.46004],[94.35882,38.74444],[93.91937,38.69087],[93.74908,38.74552],[93.71893,38.81858],[93.80813,38.85789],[93.72986,38.90065],[93.28766,38.87179],[93.16543,38.90386],[93.0954,39.13006],[92.34283,39.00425],[92.29907,39.20842],[92.40051,39.31411],[92.60101,39.49768]]]}}
