{"type":"Feature","properties":{"sourceId":"groningen"},"geometry":{"type":"Polygon","coordinates":[[[6.821311,53.49649],[6.929332,53.45654],[6.954578,53.3957],[6.995954,53.35073],[7.00685,53.32943],[7.061512,53.32704],[7.111054,53.33481],[7.189534,53.33448],[7.220022,53.2149],[7.220549,53.19716],[7.212982,53.18967],[7.230455,53.18079],[7.205009,53.17352],[7.194018,53.1609],[7.192205,53.14647],[7.182299,53.13582],[7.188436,53.12269],[7.205696,53.11417],[7.202251,53.08151],[7.215711,53.01248],[7.220429,53.00672],[7.211986,52.99862],[7.183969,52.93986],[7.090966,52.84905],[7.095226,52.83734],[7.095225157068064,52.83734],[7.094715,52.83874],[7.093853,52.83873],[7.076287,52.84005],[7.074101,52.84366],[7.077453,52.84813],[7.077316,52.85063],[7.070734,52.84974],[7.062007,52.85404],[7.044021,52.8683],[7.040629,52.87407],[7.024499,52.87426],[7.021217,52.87627],[7.021502,52.88011],[7.046408,52.91484],[7.046232,52.91694],[7.027052,52.92032],[7.017123,52.9254],[6.937202,52.99392],[6.743898,53.11761],[6.737024,53.12078],[6.694964,53.12243],[6.639996,53.10993],[6.614784,53.13686],[6.600856,53.14569],[6.589664,53.14743],[6.587237,53.15223],[6.588248,53.15676],[6.582354,53.16449],[6.567943,53.16044],[6.564064,53.16137],[6.56045,53.17],[6.549414,53.18168],[6.541949,53.18114],[6.535604,53.18495],[6.531073,53.19664],[6.513308,53.1989],[6.506939,53.20144],[6.496292,53.19983],[6.485337,53.20513],[6.447183,53.19755],[6.442368,53.18908],[6.406076,53.1786],[6.403722,53.17584],[6.401877,53.16831],[6.380652,53.15448],[6.379787,53.14749],[6.364721,53.12286],[6.362287,53.11015],[6.355278,53.10738],[6.344158,53.08979],[6.314974,53.09527],[6.3133469311649035,53.093210570538474],[6.290605,53.09849],[6.281758,53.10597],[6.26184,53.11295],[6.236264,53.11209],[6.203892,53.11469],[6.174343,53.13464],[6.176047,53.16726],[6.191898,53.18995],[6.197614,53.19481],[6.198647,53.1992],[6.208283,53.20123],[6.216343,53.20597],[6.226937,53.21816],[6.227454,53.22093],[6.223065,53.22909],[6.213522,53.23295],[6.213644,53.23642],[6.217421,53.24313],[6.22732,53.24726],[6.231188,53.25759],[6.234958,53.25883],[6.238151,53.26392],[6.243993,53.2684],[6.250117,53.27075],[6.252607,53.28907],[6.258405,53.2921],[6.268608,53.29323],[6.273786,53.30035],[6.281419,53.30634],[6.281784,53.30907],[6.279254,53.31291],[6.284576,53.33786],[6.28309,53.34024],[6.273569,53.34394],[6.254196,53.34726],[6.248273,53.34633],[6.239401,53.34174],[6.23343,53.34181],[6.229316,53.34413],[6.22373,53.35365],[6.218528,53.35615],[6.179481,53.36295],[6.169303,53.37433],[6.166463,53.38445],[6.166555,53.39071],[6.194209,53.41466],[6.347769,53.44741],[6.349216,53.45026],[6.350711,53.49792],[6.366506,53.49822],[6.382431,53.49625],[6.391422,53.49971],[6.395666,53.50524],[6.389235,53.51546],[6.381086,53.52037],[6.367783,53.52247],[6.351318,53.52084],[6.315514,53.6551],[6.316752,53.65679],[6.519829,53.65732],[6.63969,53.58017],[6.821311,53.49649]]]}}
