{"type":"Feature","properties":{"sourceId":"guyana"},"geometry":{"type":"Polygon","coordinates":[[[-59.29031,1.356908],[-59.57431,1.673151],[-59.69284,1.739694],[-59.77661,1.876954],[-59.7464,2.255736],[-59.91119,2.336695],[-60.04133,2.790114],[-60.00089,3.092634],[-59.8722,3.381949],[-59.91658,3.582523],[-59.73244,3.727035],[-59.61824,3.934971],[-59.77882,4.177271],[-59.74228,4.284446],[-59.69112,4.366267],[-59.9081,4.455609],[-60.12165,4.497708],[-60.16319,4.511741],[-60.16697,4.573003],[-60.13435,4.605514],[-60.08595,4.625362],[-60.00458,5.043751],[-60.20302,5.227375],[-60.45227,5.169592],[-60.71199,5.216263],[-60.73723,5.198484],[-60.74555,5.208143],[-61.42101,5.97204],[-61.37375,5.981461],[-61.18703,6.236488],[-61.27785,6.568056],[-61.18643,6.74044],[-60.97725,6.773826],[-60.91206,6.863321],[-60.73623,6.813552],[-60.35567,7.067062],[-60.45456,7.14159],[-60.56225,7.081042],[-60.64961,7.169478],[-60.65295,7.346693],[-60.76536,7.552188],[-60.56155,7.858167],[-60.36103,7.890039],[-60.05658,8.089703],[-59.97857,8.247027],[-59.86963,8.274592],[-60.03202,8.536309],[-58.7443,9.182536],[-56.65916474032571,7.31234413129489],[-57.13084,5.952517],[-57.137456782589716,5.869088398573704],[-57.16324,5.773477],[-57.1520719891047,5.684810583401596],[-57.15261,5.678027],[-57.27361,5.486435],[-57.35177,5.328944],[-57.33653,5.093172],[-57.69254,5.0243],[-57.84782,4.940708],[-57.93505,4.830635],[-58.08461,4.16518],[-58.06194,4.007471],[-57.84921,3.658481],[-57.71901,3.547759],[-57.67987,3.401309],[-57.67108,3.365505],[-57.60553,3.327583],[-57.29561,3.323305],[-57.29915,3.13559],[-57.22042,2.843768],[-57.07798,2.679121],[-57.07243,2.629155],[-56.94858,2.39309],[-56.83061,2.195734],[-56.70038,2.015629],[-56.56916,2.009776],[-56.4503530249689,1.9353286498774966],[-56.523,1.872126],[-56.80282,1.806973],[-57.11801,1.950364],[-57.21954,1.892317],[-57.31124,1.925205],[-57.52099,1.65546],[-57.84577,1.654587],[-57.93016,1.595692],[-57.99424,1.457517],[-58.27011,1.532411],[-58.43079,1.43494],[-58.49121,1.244105],[-58.66425,1.257835],[-58.71918,1.187813],[-58.86887,1.149369],[-58.94714,1.28804],[-59.29031,1.356908]]]}}
