{"type":"Feature","properties":{"sourceId":"guangdong"},"geometry":{"type":"Polygon","coordinates":[[[109.4236,20.68073],[109.4027,20.67552],[109.40996799993016,20.748990778167336],[109.4915,20.75019],[109.7878,21.40993],[109.7905,21.49364],[109.7761,21.52303],[109.7572,21.57636],[109.7496,21.61722],[109.7685,21.65807],[109.7778,21.63509],[109.8,21.62],[109.8241,21.63413],[109.8674,21.64466],[109.911,21.65424],[109.9343,21.72793],[109.9481,21.73909],[109.944,21.81561],[109.958,21.85098],[109.9944,21.87488],[110.0415,21.85672],[110.0758,21.8615],[110.1362,21.88125],[110.1668,21.89718],[110.1977,21.89336],[110.2203,21.87743],[110.2646,21.88125],[110.2993,21.90642],[110.3288,21.8889],[110.357,21.8889],[110.3865,21.89017],[110.3934,21.90323],[110.3927,21.92744],[110.3875,21.96311],[110.3604,21.99272],[110.3656,22.01277],[110.3511,22.04332],[110.3649,22.09137],[110.3662,22.12572],[110.3278,22.16483],[110.3467,22.182],[110.3796,22.16197],[110.4215,22.20425],[110.4438,22.18963],[110.4844,22.14098],[110.5194,22.14162],[110.5547,22.19058],[110.5822,22.18486],[110.5973,22.15243],[110.6275,22.14766],[110.6756,22.17087],[110.6787,22.19408],[110.6491,22.21983],[110.6853,22.25224],[110.7123,22.28505],[110.7283,22.28576],[110.7606,22.27289],[110.7927,22.28862],[110.7739,22.3134],[110.742,22.3669],[110.7109,22.40198],[110.7111,22.45482],[110.7449,22.46212],[110.7616,22.52413],[110.7697,22.58517],[110.7916,22.55695],[110.8273,22.58675],[110.895,22.57],[110.907,22.60577],[110.9489,22.6045],[110.9642,22.63857],[110.97,22.64206],[110.9761,22.64277],[110.9814,22.64166],[110.9854,22.63469],[110.9967,22.63105],[111.0553,22.64855],[111.0865,22.68752],[111.0865,22.70177],[111.0752,22.72679],[111.1188,22.74104],[111.172,22.73439],[111.2246,22.75149],[111.2558,22.78441],[111.2912,22.80245],[111.297,22.82714],[111.3351,22.86922],[111.3636,22.88946],[111.3722,22.92867],[111.3722,22.96503],[111.4014,22.98495],[111.4075,23.01149],[111.4323,23.03456],[111.4271,23.07057],[111.3876,23.07815],[111.3784,23.12142],[111.3948,23.15772],[111.3935,23.18266],[111.3845,23.21705],[111.3588,23.28614],[111.3773,23.30947],[111.3633,23.33816],[111.3894,23.38165],[111.3986,23.46797],[111.4233,23.46608],[111.4656,23.51048],[111.4889,23.56367],[111.4913,23.62219],[111.5559,23.63509],[111.6111,23.63572],[111.6214,23.66339],[111.6626,23.69986],[111.6661,23.72218],[111.6561,23.73067],[111.6314,23.74135],[111.629,23.77246],[111.64,23.7888],[111.6575,23.82775],[111.6829,23.81236],[111.708,23.82775],[111.7385,23.81236],[111.8063,23.80718],[111.822,23.83482],[111.8237,23.85617],[111.8206,23.90734],[111.8549,23.90577],[111.8566,23.9381],[111.909,23.94327],[111.9409,23.98468],[111.9157,24.04772],[111.8791,24.12357],[111.8879,24.16116],[111.8793,24.22223],[111.9311,24.22161],[112.0255,24.28984],[112.0654,24.35116],[112.0557,24.39276],[112.0032,24.46715],[112.02,24.505],[112.0001,24.55837],[111.955,24.6],[111.9356,24.63422],[111.9538,24.64764],[111.9476,24.69132],[111.9689,24.71721],[112.0211,24.73186],[112.0211,24.739561789181693],[112.0228,24.73904],[112.0568,24.80107],[112.0849,24.80793],[112.1646,24.84719],[112.1752,24.93034],[112.123,24.96925],[112.1515,25.02526],[112.1931,25.18817],[112.2519,25.15647],[112.3488,25.18335],[112.401,25.1341],[112.4293,25.15725],[112.5561,25.12524],[112.5762,25.12695],[112.62,25.13363],[112.6602,25.11607],[112.6887,25.09368],[112.7075,25.08389],[112.7106,25.06414],[112.7081,25.01562],[112.7348,24.95774],[112.7673,24.94684],[112.7771,24.8855],[112.895,24.9],[112.993,24.9252],[113.0098,24.94933],[113.0138,24.97501],[112.9879,25.03117],[113.0165,25.08358],[112.9676,25.14357],[112.9728,25.16859],[113.0045,25.19018],[113.0122,25.1891],[113.0334,25.20013],[113.0268,25.21504],[112.976,25.26333],[112.8895,25.25122],[112.86,25.2908],[112.8572,25.31874],[112.8792,25.32851],[112.9003,25.3012],[112.924,25.29716],[112.948,25.33441],[112.9791,25.35054],[113.014,25.34496],[113.0749,25.38327],[113.1082,25.41165],[113.1336,25.41723],[113.1195,25.447],[113.1549,25.4783],[113.1829,25.47133],[113.2093,25.49302],[113.2318,25.50604],[113.2943,25.49194],[113.2996,25.44529],[113.3156,25.4408],[113.4332,25.35783],[113.4701,25.36543],[113.4986,25.37443],[113.5106,25.3704],[113.5123,25.35442],[113.5597,25.34573],[113.5743,25.30461],[113.6158,25.32618],[113.6481,25.32836],[113.6728,25.32293],[113.6802,25.34201],[113.6879,25.35458],[113.7339,25.34852],[113.7485,25.35799],[113.7476,25.34992],[113.7521,25.34232],[113.7483,25.32991],[113.8239,25.32696],[113.8393,25.36016],[113.8826,25.37846],[113.8935,25.43521],[113.942,25.43521],[113.94361862261925,25.43961385888168],[113.9821,25.44017],[113.9725,25.40793],[114.0151,25.38125],[114.0185,25.32758],[114.0003,25.28071],[114.0305,25.24687],[114.0539,25.2624],[114.1219,25.29903],[114.1867,25.30027],[114.3107,25.28754],[114.3121,25.33441],[114.3457,25.32665],[114.3787,25.31268],[114.4164,25.32324],[114.4508,25.37071],[114.4672,25.36791],[114.5002,25.38001],[114.5445,25.40731],[114.5778,25.36854],[114.6039,25.3493],[114.6276,25.322],[114.6537,25.32479],[114.676,25.31144],[114.6993,25.31393],[114.7172,25.28599],[114.7343,25.27202],[114.7264,25.24718],[114.6907,25.22762],[114.6708,25.19842],[114.6681,25.1863],[114.6767,25.16611],[114.7113,25.15741],[114.7168,25.12819],[114.6629,25.11669],[114.6523,25.09337],[114.6241,25.09368],[114.5857,25.08622],[114.5462,25.08498],[114.5143,25.03335],[114.4587,25.01313],[114.3848,24.95898],[114.3804,24.91415],[114.3934,24.89391],[114.3316,24.82662],[114.322,24.78486],[114.2788,24.7406],[114.2616,24.71003],[114.16,24.695],[114.1682,24.64203],[114.253,24.6336],[114.3007,24.57304],[114.3584,24.57492],[114.3876,24.50027],[114.4264,24.47809],[114.5232,24.54744],[114.5884,24.52995],[114.6499,24.57242],[114.6743,24.53744],[114.7045,24.52026],[114.7367,24.56367],[114.7354,24.60769],[114.767,24.6052],[114.8312,24.58241],[114.8638,24.55962],[114.893,24.5746],[114.9063,24.64109],[114.9177,24.66355],[114.9383,24.64795],[114.9706,24.6698],[115.0145,24.66761],[115.0423,24.68227],[115.0657,24.69787],[115.0941,24.66574],[115.1196,24.66231],[115.134,24.68103],[115.1954,24.68695],[115.1923,24.70816],[115.2534,24.72625],[115.2888,24.75151],[115.3599,24.73405],[115.3712,24.76741],[115.4114,24.78362],[115.4845,24.73436],[115.535,24.68258],[115.5446,24.64109],[115.5731,24.60582],[115.6126,24.61456],[115.65,24.60176],[115.6778,24.54338],[115.72,24.53588],[115.778,24.56024],[115.8319,24.55805],[115.8515,24.56367],[115.8357,24.59614],[115.799,24.62673],[115.7815,24.66574],[115.7983,24.66948],[115.8089,24.70224],[115.7808,24.725],[115.7743,24.80481],[115.8192,24.89485],[115.85,24.855],[115.9102,24.8799],[115.8896,24.90668],[115.88818120519167,24.934325479580053],[115.9126,24.91182],[115.9707,24.91182],[115.9794,24.89562],[116.0155,24.89313],[116.0603,24.8475],[116.1432,24.84298],[116.1555,24.85276],[116.1665,24.86386],[116.1872,24.86833],[116.1949,24.85981],[116.2043,24.85435],[116.2135,24.84477],[116.2148,24.82717],[116.2266,24.82219],[116.2211,24.80255],[116.2491,24.79125],[116.3068,24.80294],[116.3445,24.83072],[116.348,24.86126],[116.35,24.8629],[116.3569,24.87071],[116.3805,24.87818],[116.3859,24.86635],[116.389,24.85739],[116.4091,24.84298],[116.3718,24.82694],[116.3672,24.80871],[116.3708,24.80154],[116.3901,24.80068],[116.3976,24.77925],[116.4102,24.74169],[116.4252,24.73719],[116.4322,24.73605],[116.4371,24.71639],[116.481,24.71842],[116.5045,24.64733],[116.4975,24.61893],[116.5117,24.60957],[116.5256,24.60395],[116.5509,24.6144],[116.5684,24.62392],[116.5873,24.64124],[116.5953,24.65575],[116.624,24.63687],[116.636,24.64998],[116.6606,24.65575],[116.6978,24.65591],[116.72,24.645],[116.7476,24.65388],[116.7754,24.679],[116.7948,24.67354],[116.8065,24.65653],[116.7859,24.6375],[116.7764,24.6144],[116.751,24.58241],[116.7558,24.57694],[116.75,24.55961],[116.7488,24.55353],[116.7555,24.54509],[116.7674,24.53621],[116.7749,24.5368],[116.7741,24.5302],[116.7732,24.51831],[116.7931,24.49676],[116.8054,24.48465],[116.842,24.47567],[116.8303,24.44231],[116.8647,24.39174],[116.8937,24.37548],[116.8884,24.35437],[116.9077,24.32113],[116.905,24.29907],[116.9066,24.28311],[116.928,24.28562],[116.9287,24.26121],[116.927,24.22043],[116.9486,24.21644],[116.9665,24.19992],[116.978,24.19742],[116.9887,24.18489],[116.9823,24.17158],[116.9713,24.165],[116.9294,24.13775],[116.9261,24.11519],[116.9192,24.10038],[116.9199,24.07648],[116.9287,24.05328],[116.9465,24.05587],[116.9441,24.04247],[116.9339,24.03878],[116.9338,24.02561],[116.92,24.02],[116.9476,24.0046],[116.9749,24.00319],[116.9722,23.99615],[116.969,23.99155],[116.9662,23.97535],[116.9757,23.9488],[116.9704,23.93876],[116.9659,23.92958],[116.9536,23.92701],[116.9511,23.92555],[116.9492,23.92315],[116.948,23.9197],[116.9507,23.90687],[116.9546,23.90118],[116.9654,23.89769],[116.9689,23.88839],[116.9689,23.87952],[116.951,23.87301],[116.9615,23.85605],[116.9815,23.85797],[116.9853,23.86363],[116.993,23.86163],[116.9975,23.85688],[117.0006,23.8586],[117.0063,23.85648],[117.0072,23.85032],[117.012,23.84734],[117.0153,23.84165],[117.0199,23.82956],[117.0253,23.82386],[117.0229,23.81982],[117.0153,23.81291],[117.0214,23.79995],[117.0341,23.77325],[117.0321,23.7663],[117.0385,23.76312],[117.0385,23.75487],[117.0466,23.74018],[117.0427,23.73554],[117.0475,23.69766],[117.0616,23.68867],[117.0689,23.69031],[117.0832,23.66434],[117.1001,23.66445],[117.1102,23.65459],[117.1163,23.65058],[117.118,23.64472],[117.127,23.65211],[117.1364,23.65262],[117.1421,23.65388],[117.1525,23.64067],[117.1624,23.63863],[117.1689,23.64138],[117.1717,23.63674],[117.1846,23.62939],[117.1889,23.60898],[117.1879,23.55911],[117.39671335221819,23.4164544041397],[117.665,23.14843],[117.4019,22.96044],[117.3812,21.60124],[112.2502,20.07133],[110.7669,20.2622],[109.8962,20.05851],[109.3565,20.20937],[109.3583,20.22718],[109.5711,20.29233],[109.4236,20.68073]],[[113.5314,22.1944],[113.5272,22.1878],[113.5273,22.18128],[113.528,22.1762],[113.539,22.15692],[113.549,22.1453],[113.5485,22.13657],[113.5401,22.13578],[113.5406,22.12395],[113.541,22.12341],[113.5476,22.11908],[113.5493,22.10838],[113.5697,22.0986],[113.5705,22.07546],[113.6117,22.07586],[113.6316,22.10775],[113.6325,22.16579],[113.6058,22.20537],[113.5711,22.20429],[113.5706,22.209],[113.5669,22.21073],[113.552,22.21611],[113.551,22.21608],[113.5509,22.21708],[113.55,22.21698],[113.5491,22.21668],[113.5483,22.21678],[113.5476,22.21674],[113.547,22.21682],[113.546,22.21687],[113.5452,22.217],[113.5441,22.21705],[113.5432,22.21652],[113.5423,22.21454],[113.5413,22.21328],[113.5414,22.21313],[113.5407,22.21315],[113.5382,22.21372],[113.536,22.21373],[113.535,22.21349],[113.533,22.21239],[113.5334,22.21109],[113.5346,22.20707],[113.5352,22.2065],[113.5343,22.20076],[113.5314,22.1944]],[[114.1949,22.5557],[114.1935,22.55567],[114.1925,22.55603],[114.192,22.55604],[114.1917,22.55585],[114.1908,22.55514],[114.1904,22.55462],[114.1898,22.55444],[114.189,22.55448],[114.1887,22.55488],[114.1885,22.55551],[114.188,22.5557],[114.1874,22.55566],[114.1871,22.55536],[114.1869,22.55486],[114.1863,22.5548],[114.1849,22.55517],[114.1835,22.55535],[114.1816,22.55553],[114.1812,22.55526],[114.1809,22.55434],[114.1792,22.55515],[114.1779,22.55575],[114.1778,22.55635],[114.1777,22.55808],[114.1775,22.55936],[114.1773,22.55973],[114.1764,22.56005],[114.1758,22.56012],[114.1749,22.56006],[114.1741,22.55985],[114.1733,22.55968],[114.1728,22.55971],[114.1717,22.55967],[114.1712,22.55967],[114.1706,22.55973],[114.1702,22.55992],[114.1698,22.56035],[114.1696,22.56077],[114.1693,22.56105],[114.1689,22.56124],[114.1683,22.56131],[114.1676,22.56131],[114.1673,22.56121],[114.167,22.56107],[114.1667,22.56073],[114.1663,22.56029],[114.1655,22.55954],[114.1651,22.55929],[114.1644,22.55915],[114.1637,22.55919],[114.1633,22.55938],[114.1624,22.56137],[114.162,22.56175],[114.1617,22.56193],[114.1613,22.56203],[114.161,22.56188],[114.1602,22.56144],[114.1598,22.56091],[114.1596,22.56065],[114.1591,22.55993],[114.159,22.55968],[114.1584,22.55915],[114.1582,22.55894],[114.1579,22.55812],[114.1575,22.55726],[114.1571,22.55639],[114.1569,22.55541],[114.1567,22.55512],[114.1565,22.55503],[114.1564,22.55504],[114.1562,22.55514],[114.1561,22.55522],[114.1559,22.55522],[114.1556,22.55512],[114.1554,22.55496],[114.1551,22.55471],[114.1549,22.55443],[114.1547,22.5544],[114.1545,22.55448],[114.1541,22.55449],[114.1538,22.55449],[114.1534,22.55456],[114.153,22.55469],[114.1525,22.55485],[114.1523,22.55487],[114.1521,22.55481],[114.1519,22.55466],[114.1519,22.55437],[114.1516,22.55286],[114.1516,22.55228],[114.1516,22.55179],[114.1514,22.55143],[114.1512,22.55121],[114.1509,22.55103],[114.1503,22.5509],[114.1499,22.5506],[114.1497,22.55018],[114.1496,22.54964],[114.1495,22.54893],[114.1495,22.54847],[114.1497,22.54811],[114.1501,22.54784],[114.1505,22.54781],[114.151,22.54795],[114.1515,22.5481],[114.1516,22.54804],[114.1519,22.54758],[114.1519,22.54725],[114.1518,22.54687],[114.1515,22.54647],[114.1512,22.54635],[114.1509,22.54639],[114.1506,22.54632],[114.1502,22.54598],[114.1498,22.54539],[114.1487,22.5442],[114.1482,22.54324],[114.1483,22.54294],[114.1486,22.54233],[114.1486,22.54211],[114.1483,22.54186],[114.1477,22.5418],[114.1473,22.54156],[114.1468,22.54153],[114.146,22.5413],[114.1454,22.5412],[114.1448,22.54119],[114.1446,22.54121],[114.1445,22.54127],[114.1444,22.54136],[114.1443,22.54165],[114.144,22.54212],[114.1431,22.54213],[114.1422,22.54216],[114.1418,22.54245],[114.1415,22.54282],[114.1412,22.54294],[114.1404,22.54294],[114.1399,22.54302],[114.1395,22.54321],[114.1387,22.54361],[114.1376,22.54367],[114.1359,22.54309],[114.1346,22.54179],[114.1333,22.54166],[114.1311,22.54213],[114.13,22.54184],[114.1289,22.54046],[114.1278,22.53978],[114.1264,22.53995],[114.1252,22.53989],[114.123,22.53857],[114.1216,22.53743],[114.1199,22.53502],[114.1173,22.53455],[114.1162,22.53394],[114.116,22.53305],[114.1157,22.53148],[114.1144,22.53067],[114.1128,22.52986],[114.1119,22.52973],[114.1113,22.52985],[114.1097,22.5308],[114.1081,22.53369],[114.104,22.53551],[114.1014,22.53507],[114.0971,22.53442],[114.0954,22.53537],[114.0936,22.53696],[114.0905,22.53723],[114.0882,22.5363],[114.0853,22.53268],[114.0798,22.53123],[114.0776,22.52956],[114.0745,22.52084],[114.0728,22.51884],[114.0682,22.51771],[114.0636,22.51678],[114.0596,22.51375],[114.0573,22.51115],[114.0566,22.50689],[114.0563,22.50534],[114.0537,22.5034],[114.0501,22.50292],[114.0445,22.50465],[114.0369,22.50641],[114.0252,22.5072],[114.012,22.50193],[113.9968,22.51117],[113.9464,22.50421],[113.9429,22.50401],[113.9429,22.50276],[113.9435,22.50203],[113.9454,22.50007],[113.9454,22.49604],[113.9399,22.49503],[113.94,22.49008],[113.9478,22.4733],[113.868,22.42978],[113.865,22.334],[113.8472,22.2742],[113.836,22.271],[113.813,22.219],[113.83,22.18],[113.9122,22.13041],[114.253,22.135],[114.256,22.135],[114.5053,22.14497],[114.506,22.367],[114.4563,22.5453],[114.4344,22.56306],[114.3328,22.56904],[114.3089,22.56706],[114.2758,22.56605],[114.2369,22.55148],[114.2322,22.54449],[114.2284,22.54393],[114.2267,22.54391],[114.2265,22.54398],[114.2261,22.54429],[114.2255,22.5452],[114.2254,22.54529],[114.2255,22.54546],[114.2257,22.5458],[114.2257,22.54596],[114.2259,22.54607],[114.2267,22.54701],[114.227,22.54785],[114.227,22.54805],[114.2265,22.54826],[114.2261,22.54856],[114.2258,22.54897],[114.2244,22.55102],[114.2233,22.55104],[114.2221,22.55158],[114.2215,22.55169],[114.2209,22.55238],[114.2209,22.5528],[114.2209,22.55309],[114.2204,22.55375],[114.2201,22.55369],[114.2198,22.55379],[114.2194,22.55481],[114.2185,22.55558],[114.2179,22.55609],[114.217,22.55592],[114.2169,22.55578],[114.2168,22.55536],[114.2165,22.55519],[114.2162,22.5552],[114.2159,22.5554],[114.2156,22.55533],[114.2151,22.55506],[114.2137,22.55526],[114.2115,22.55657],[114.2086,22.55704],[114.2074,22.55676],[114.2069,22.55661],[114.2065,22.55664],[114.2035,22.55641],[114.2019,22.55648],[114.2015,22.55683],[114.2012,22.55759],[114.2003,22.55773],[114.1983,22.557],[114.1976,22.55674],[114.1967,22.55715],[114.1961,22.5571],[114.1957,22.55644],[114.1949,22.5557]]]}}
