{"type":"Feature","properties":{"sourceId":"guinea-bissau"},"geometry":{"type":"Polygon","coordinates":[[[-15.00217,10.93883],[-15.03067,10.92333],[-15.07256,10.88658],[-15.27924,10.64981],[-16.56555,10.14494],[-16.96427,12.25816],[-16.71999,12.34168],[-16.68995,12.36381],[-16.62884,12.36549],[-16.39504,12.37387],[-16.2038,12.46876],[-16.04279,12.47848],[-15.68607,12.42987],[-15.46051,12.53244],[-15.42446,12.54753],[-15.34275,12.6189],[-15.1759,12.6936],[-14.88373,12.68322],[-14.42917,12.68523],[-14.00826,12.68288],[-13.7003,12.68322],[-13.70407,12.61153],[-13.6512,12.52139],[-13.63472,12.48954],[-13.62923,12.4235],[-13.6512,12.31686],[-13.71609,12.24004],[-13.80295,12.24708],[-13.90835,12.2293],[-13.93787,12.15514],[-13.87402,12.1491],[-13.68519,12.01112],[-13.70339,11.87508],[-13.69515,11.76486],[-13.7003,11.69628],[-13.7693,11.67712],[-13.87573,11.65459],[-13.99006,11.63744],[-14.0855,11.61928],[-14.26609,11.65863],[-14.31622,11.59036],[-14.50848,11.48574],[-14.66091,11.48574],[-14.90021,11.06757],[-14.95274,10.97456],[-15.00217,10.93883]]]}}
