{"type":"Feature","properties":{"sourceId":"guyane"},"geometry":{"type":"Polygon","coordinates":[[[-54.09737,2.093117],[-54.3528,2.147325],[-54.57184,2.260538],[-54.62299,2.331891],[-54.38095,2.549361],[-54.21345,2.847944],[-54.23126,3.117891],[-54.20105,3.210104],[-54.13513,3.293397],[-54.0812,3.314832],[-54.06434,3.391033],[-54.03088,3.424231],[-54.02296,3.542185],[-53.99417,3.595867],[-54.05651,3.628896],[-54.0881,3.670697],[-54.13166,3.779185],[-54.19384,3.793688],[-54.29457,3.922651],[-54.36933,4.030742],[-54.3422,4.140715],[-54.3964,4.175225],[-54.44416,4.41518],[-54.46213,4.507816],[-54.43,4.592343],[-54.44953,4.653595],[-54.44492,4.70928],[-54.47365,4.724937],[-54.47811,4.858707],[-54.48841,4.911386],[-54.45361,4.942628],[-54.44721,5.019614],[-54.41466,5.088314],[-54.30499,5.246102],[-54.20089,5.321311],[-54.01698,5.555199],[-54.03498,5.638536],[-54.01222,5.707548],[-53.75498,6.370288],[-50.8667,5.096418],[-51.61913,4.176157],[-51.65092,4.046444],[-51.75768,3.98457],[-51.77565,3.922142],[-51.79779,3.879327],[-51.82079,3.852951],[-51.83659,3.847299],[-51.86371,3.810132],[-51.91212,3.724486],[-51.98353,3.622044],[-52.22077,3.233071],[-52.32857,3.11652],[-52.30007,3.079495],[-52.50366,2.577485],[-52.63481,2.366195],[-52.89368,2.170654],[-52.99187,2.157617],[-53.28781,2.181633],[-53.79456,2.272888],[-54.09737,2.093117]]]}}
