{"type":"Feature","properties":{"sourceId":"hainan"},"geometry":{"type":"Polygon","coordinates":[[[118.4373,15.32778],[117.4759,14.38467],[112.0878,14.29739],[110.1928,15.47488],[109.9328,15.85535],[108.9264,18.02341],[108.4046,18.38155],[108.3153,19.32641],[109.0035,20.06722],[109.2234,20.18589],[109.4369,20.25126],[109.43692864008842,20.2512526311173],[109.3583,20.22718],[109.3565,20.20937],[109.8962,20.05851],[110.7669,20.2622],[112.2502,20.07133],[112.86073482468677,20.253373136549705],[117.3435,19.12026],[117.2907,15.64366],[118.4373,15.32778]]]}}
