{"type":"Feature","properties":{"sourceId":"hubei"},"geometry":{"type":"Polygon","coordinates":[[[109.5893,31.74569],[109.5864,31.75525],[109.5856,31.77145],[109.5825,31.78407],[109.6133,31.84417],[109.5735,31.8968],[109.6168,31.96818],[109.5792,32.00284],[109.5838,32.06963],[109.6151,32.09959],[109.5878,32.12823],[109.5828,32.17823],[109.5871,32.21498],[109.544,32.22253],[109.4853,32.30324],[109.5059,32.33893],[109.4873,32.38272],[109.5476,32.48182],[109.5718,32.50412],[109.5713,32.51425],[109.6211,32.54305],[109.6084,32.60005],[109.722,32.61219],[109.8228,32.5879],[109.911,32.60525],[109.9697,32.58573],[109.9809,32.56519],[110.0137,32.55477],[110.0806,32.59933],[110.0797,32.62203],[110.1582,32.65296],[110.1448,32.68706],[110.1493,32.76129],[110.1285,32.76187],[110.1174,32.78114],[110.1298,32.7981],[110.134,32.80935],[110.1194,32.80978],[110.1146,32.8131],[110.1121,32.82107],[110.1075,32.82803],[110.0926,32.83745],[110.0731,32.84657],[110.0605,32.85014],[110.0505,32.85158],[110.0455,32.8532],[110.0307,32.86232],[110.0262,32.87252],[110.0243,32.87371],[110.0119,32.87241],[110.0023,32.8735],[109.9943,32.8775],[109.9902,32.88204],[109.9867,32.88788],[109.9816,32.88773],[109.9737,32.88604],[109.963,32.88752],[109.9538,32.88917],[109.9445,32.88777],[109.9331,32.88683],[109.9267,32.88705],[109.9232,32.88831],[109.9194,32.89306],[109.914,32.9002],[109.9044,32.90478],[109.8919,32.90582],[109.8811,32.90276],[109.8774,32.90413],[109.8732,32.90827],[109.8674,32.91213],[109.8583,32.91472],[109.8534,32.91267],[109.8465,32.89779],[109.8438,32.89481],[109.8396,32.89306],[109.8225,32.8924],[109.8146,32.88878],[109.8117,32.88811],[109.8045,32.88146],[109.7992,32.87923],[109.7932,32.87897],[109.7843,32.88413],[109.7757,32.89393],[109.7663,32.90719],[109.7591,32.91133],[109.7714,32.96259],[109.7862,33.05774],[109.7563,33.08004],[109.7042,33.09571],[109.6722,33.10865],[109.6027,33.10333],[109.568,33.11095],[109.5255,33.13123],[109.4645,33.13669],[109.4331,33.15192],[109.4465,33.17233],[109.4778,33.19047],[109.4752,33.20232],[109.483,33.20692],[109.4976,33.21043],[109.4943,33.22515],[109.4972,33.23061],[109.5063,33.23402],[109.5159,33.24504],[109.5432,33.24346],[109.5981,33.23876],[109.6023,33.27213],[109.6195,33.27343],[109.6454,33.27213],[109.6496,33.25276],[109.6722,33.26058],[109.692,33.25993],[109.7237,33.23661],[109.796,33.24134],[109.8525,33.25448],[109.9247,33.23079],[109.9689,33.21334],[110.0002,33.2183],[110.034,33.19309],[110.0712,33.20613],[110.1067,33.20796],[110.125,33.20429],[110.1364,33.20835],[110.1507,33.21029],[110.16,33.21176],[110.1694,33.2058],[110.1751,33.19963],[110.1784,33.19367],[110.1998,33.1826],[110.2275,33.1617],[110.2829,33.1752],[110.3304,33.1719],[110.3656,33.18921],[110.4178,33.17398],[110.4742,33.19718],[110.4926,33.2183],[110.5243,33.25828],[110.5681,33.25599],[110.6027,33.21729],[110.604,33.15595],[110.6486,33.16931],[110.6976,33.10722],[110.7366,33.1581],[110.8074,33.16701],[110.8055,33.19417],[110.8313,33.2127],[110.8599,33.22031],[110.918,33.21471],[110.9382,33.25304],[110.9687,33.25932],[110.98238213312433,33.25610469871578],[110.9909,33.24012],[111.0033,33.23409],[111.0122,33.21543],[111.0053,33.17377],[111.0321,33.1528],[111.0515,33.15667],[111.0761,33.17808],[111.1698,33.09571],[111.181,33.09168],[111.1827,33.08289],[111.1838,33.07385],[111.1719,33.06975],[111.1648,33.06896],[111.1546,33.06249],[111.1404,33.05673],[111.1368,33.04451],[111.1382,33.04174],[111.1413,33.03863],[111.1803,33.04296],[111.2204,33.03975],[111.2303,33.01466],[111.2572,32.97785],[111.2429,32.96223],[111.2307,32.93364],[111.2407,32.87065],[111.2778,32.90063],[111.2815,32.85479],[111.3715,32.82489],[111.4195,32.733],[111.5014,32.67387],[111.509,32.64776],[111.5244,32.621],[111.5632,32.58602],[111.6259,32.63359],[111.6364,32.60164],[111.6617,32.61425],[111.8058,32.53596],[111.877,32.50252],[111.9373,32.51005],[111.9833,32.45618],[112.0992,32.40533],[112.149,32.3746],[112.2135,32.38518],[112.2658,32.34434],[112.3218,32.31978],[112.3974,32.36791],[112.4421,32.33994],[112.4737,32.37227],[112.5276,32.37605],[112.5379,32.38475],[112.7456,32.34255],[112.8938,32.37735],[112.9072,32.38862],[112.9365,32.37996],[112.9853,32.36793],[112.9932,32.39156],[113.0234,32.42002],[113.0565,32.39982],[113.1173,32.37909],[113.1479,32.37431],[113.1641,32.41633],[113.2103,32.42404],[113.3055,32.34241],[113.3103,32.32067],[113.3419,32.29889],[113.4113,32.26761],[113.4206,32.26793],[113.5138,32.31697],[113.5289,32.32957],[113.5439,32.30005],[113.5596,32.30389],[113.5551,32.33421],[113.5728,32.34208],[113.5855,32.35151],[113.6014,32.35328],[113.6196,32.36354],[113.6452,32.40315],[113.7162,32.40837],[113.7312,32.37721],[113.7465,32.32851],[113.76,32.315],[113.7348,32.28981],[113.7305,32.24647],[113.7433,32.21231],[113.7694,32.19275],[113.7106,32.13041],[113.7199,32.08485],[113.7696,32.02957],[113.7427,32.00051],[113.7598,31.9759],[113.8028,31.96361],[113.7924,31.93002],[113.826,31.90907],[113.8208,31.87249],[113.8392,31.84299],[113.8915,31.84023],[113.919,31.87931],[113.9407,31.85433],[113.9356,31.79823],[113.9782,31.74627],[114.0142,31.7721],[114.0619,31.76663],[114.1127,31.80363],[114.1288,31.83573],[114.1528,31.8406],[114.1716,31.85073],[114.2111,31.83549],[114.2306,31.82922],[114.266,31.77524],[114.2851,31.75415],[114.3356,31.74817],[114.414,31.72729],[114.5006,31.73547],[114.5058,31.74664],[114.5062,31.74963],[114.5019,31.75229],[114.5015,31.75984],[114.5074,31.76773],[114.5283,31.7347],[114.5737,31.76028],[114.5668,31.69516],[114.5441,31.65942],[114.5356,31.62941],[114.5484,31.55665],[114.5759,31.55359],[114.6177,31.57974],[114.6465,31.57014],[114.6581,31.54694],[114.6904,31.52577],[114.7175,31.51803],[114.7623,31.52207],[114.7658,31.50583],[114.7782,31.47876],[114.83,31.46118],[114.8782,31.46923],[114.8876,31.47347],[114.9342,31.47245],[114.9639,31.49485],[114.9851,31.46804],[114.9903,31.46804],[115.0088,31.48826],[115.0183,31.51844],[115.0543,31.50421],[115.0923,31.50741],[115.1154,31.53334],[115.1292,31.58278],[115.1247,31.59802],[115.1646,31.59802],[115.1705,31.58073],[115.1864,31.55984],[115.2198,31.54645],[115.2109,31.51461],[115.2045,31.49851],[115.1994,31.44536],[115.2141,31.42412],[115.2453,31.41805],[115.2453,31.38981],[115.2461,31.38896],[115.2624,31.38764],[115.2807,31.39658],[115.302,31.37805],[115.3042,31.37805],[115.3328,31.39922],[115.363,31.39732],[115.36924982610331,31.402298185185185],[115.36560753773956,31.407472487623593],[115.374,31.39555],[115.3637,31.37386],[115.365,31.335],[115.4234,31.33898],[115.4502,31.30701],[115.4498,31.28207],[115.4605,31.26373],[115.4924,31.2583],[115.5188,31.25082],[115.5243,31.20311],[115.5353,31.18079],[115.5437,31.1614],[115.5696,31.14098],[115.6004,31.14084],[115.645,31.20649],[115.6917,31.20003],[115.7478,31.12967],[115.7626,31.10248],[115.7774,31.10351],[115.7904,31.11453],[115.8237,31.12012],[115.868,31.14333],[115.8843,31.09807],[115.92,31.07352],[115.93,31.03984],[115.9528,31.03734],[115.9876,31.03176],[116.0089,31.00822],[116.0443,31.01072],[116.0553,30.96981],[115.9926,30.95229],[115.9622,30.93772],[115.9434,30.91165],[115.9301,30.909],[115.921,30.8928],[115.9016,30.89515],[115.8628,30.87379],[115.8304,30.8368],[115.8519,30.82044],[115.8539,30.80717],[115.8486,30.79656],[115.8507,30.7768],[115.7677,30.76028],[115.748,30.71601],[115.7571,30.67645],[115.8131,30.59463],[115.8289,30.59596],[115.8627,30.58207],[115.8747,30.55339],[115.8944,30.52367],[115.8857,30.48981],[115.8821,30.45015],[115.9161,30.42307],[115.8783,30.3905],[115.8709,30.37732],[115.9006,30.33807],[115.8965,30.30621],[115.9161,30.29909],[115.9576,30.2985],[115.983,30.25877],[116.0076,30.23949],[116.0524,30.21087],[116.0484,30.17363],[116.062,30.13325],[116.0773,30.12731],[116.0754,30.11113],[116.067,30.09375],[116.0718,30.0257],[116.0628,29.96386],[116.114,29.89959],[116.1241,29.82307],[116.12348713400408,29.827713218416566],[116.0762,29.80133],[116.0424,29.77034],[115.9543,29.7298],[115.9106,29.7301],[115.8313,29.76289],[115.7509,29.81205],[115.6932,29.85777],[115.657,29.85881],[115.6149,29.84638],[115.5678,29.84012],[115.5049,29.84355],[115.4934,29.83424],[115.462,29.80833],[115.4648,29.80162],[115.4576,29.77287],[115.4579,29.75603],[115.4632,29.74843],[115.4115,29.70699],[115.3549,29.66628],[115.2897,29.63987],[115.2543,29.66643],[115.1467,29.66762],[115.1288,29.6882],[115.1055,29.68835],[115.094,29.66225],[115.1165,29.65002],[115.123,29.62092],[115.1081,29.59481],[115.1491,29.5898],[115.1467,29.57607],[115.1307,29.51805],[115.0984,29.52657],[115.096,29.5539],[115.0826,29.56853],[115.033,29.55629],[114.9946,29.57734],[114.959,29.56629],[114.9345,29.54359],[114.8923,29.53],[114.8833,29.50864],[114.8511,29.47771],[114.8844,29.42629],[114.7412,29.3732],[114.7393,29.39758],[114.7083,29.40027],[114.6825,29.39205],[114.6743,29.39459],[114.6657,29.39803],[114.6138,29.38846],[114.5838,29.35959],[114.4212,29.34747],[114.3026,29.37485],[114.2501,29.34911],[114.2429,29.30167],[114.2374,29.27277],[114.2451,29.24537],[114.0652,29.21031],[113.9941,29.13642],[113.9808,29.13087],[113.944,29.10493],[113.9342,29.05932],[113.9361520997678,29.043627056122084],[113.9061,29.03006],[113.868,29.03351],[113.8227,29.07313],[113.7849,29.09908],[113.7786,29.09803],[113.7428,29.05812],[113.7286,29.05872],[113.7143,29.08993],[113.6922,29.07823],[113.6755,29.07763],[113.6814,29.11842],[113.6537,29.15051],[113.6549,29.17794],[113.679,29.20747],[113.679,29.22844],[113.6558,29.22559],[113.6252,29.25091],[113.6052,29.25091],[113.5945,29.25765],[113.623,29.31903],[113.6534,29.34792],[113.6522,29.3729],[113.6656,29.39638],[113.7248,29.40237],[113.7336,29.41627],[113.7236,29.46845],[113.6996,29.48488],[113.6615,29.51043],[113.6328,29.50924],[113.6223,29.5176],[113.6239,29.52709],[113.6464,29.53403],[113.6491,29.53818],[113.6548,29.54154],[113.6661,29.54124],[113.6763,29.55184],[113.6883,29.55666],[113.7298,29.59234],[113.7013,29.61025],[113.6809,29.63771],[113.6694,29.63555],[113.6622,29.64308],[113.6591,29.6671],[113.6246,29.67157],[113.5784,29.66449],[113.5367,29.68052],[113.5264,29.70915],[113.543,29.75357],[113.5415,29.77168],[113.5544,29.8023],[113.5626,29.8431],[113.5241,29.82002],[113.4937,29.79015],[113.4553,29.75886],[113.4192,29.74336],[113.3319,29.65718],[113.2721,29.59376],[113.2675,29.57868],[113.2227,29.54434],[113.158,29.46277],[113.1442,29.44887],[113.125,29.45514],[113.1073,29.45589],[113.0952,29.43496],[113.0929,29.42285],[113.073,29.43526],[113.0661,29.46411],[113.0593,29.50774],[113.0193,29.51536],[112.9861,29.49579],[112.9693,29.47069],[112.9528,29.46755],[112.9376,29.47831],[112.9278,29.53284],[112.9068,29.60316],[112.8998,29.61436],[112.912,29.63107],[112.9346,29.66598],[112.9178,29.69223],[112.9125,29.75842],[112.8708,29.78375],[112.8492,29.77674],[112.7968,29.738],[112.8038,29.72857],[112.7868,29.6791],[112.7568,29.65957],[112.7098,29.63808],[112.6876,29.59764],[112.6742,29.58868],[112.6463,29.59376],[112.6104,29.60824],[112.568,29.62301],[112.5371,29.60063],[112.5309,29.59958],[112.501,29.61063],[112.4833,29.62973],[112.4349,29.63465],[112.4226,29.60063],[112.3934,29.56226],[112.3623,29.54001],[112.3179,29.5412],[112.3124,29.52388],[112.2779,29.49385],[112.2598,29.52821],[112.2949,29.58406],[112.2317,29.61063],[112.2154,29.63972],[112.1958,29.61749],[112.1821,29.62062],[112.1661,29.65927],[112.1478,29.65584],[112.116,29.65449],[112.0573,29.68015],[112.0511,29.69402],[112.0662,29.74426],[112.0367,29.75186],[111.9816,29.78092],[111.9423,29.80773],[111.9325,29.83231],[111.8749,29.86193],[111.8514,29.85777],[111.8245,29.87355],[111.7789,29.9115],[111.7299,29.92206],[111.6932,29.88679],[111.6008,29.89185],[111.5397,29.89423],[111.5138,29.92771],[111.4795,29.91715],[111.4542,29.92265],[111.416,29.91834],[111.3839,29.90614],[111.3621,29.9533],[111.3409,29.9408],[111.2378,30.03908],[111.0273,30.04844],[110.9581,30.063],[110.9185,30.06137],[110.9068,30.10845],[110.754,30.11321],[110.7539,30.04592],[110.7024,30.02764],[110.6442,30.07296],[110.6052,30.05795],[110.4993,30.05008],[110.5055,30.01367],[110.5539,30.00549],[110.5613,29.9872],[110.5082,29.92608],[110.5437,29.8987],[110.5437,29.86923],[110.5729,29.84988],[110.6069,29.84303],[110.6443,29.77749],[110.6334,29.75827],[110.5657,29.71802],[110.5189,29.69447],[110.4842,29.69238],[110.46,29.70714],[110.4486,29.66344],[110.3666,29.63376],[110.2833,29.65942],[110.1074,29.78807],[109.9345,29.75186],[109.8726,29.77943],[109.797,29.76557],[109.762,29.74113],[109.7711,29.72563],[109.7637,29.69253],[109.7174,29.67045],[109.7167,29.61361],[109.6571,29.59943],[109.6157,29.63152],[109.5888,29.63137],[109.5586,29.6066],[109.5258,29.61361],[109.5038,29.59346],[109.4896,29.55539],[109.4618,29.55315],[109.4617,29.51574],[109.46,29.5135],[109.4362,29.49236],[109.4298,29.48974],[109.4135,29.50005],[109.4098,29.48051],[109.4022,29.47244],[109.4175,29.4544],[109.401,29.43414],[109.368,29.41822],[109.388,29.39055],[109.389,29.37021],[109.3605,29.38188],[109.3386,29.35375],[109.3529,29.28595],[109.321,29.25705],[109.258,29.22545],[109.2752,29.20132],[109.2726,29.12517],[109.2424,29.11437],[109.23040733854185,29.117225395585276],[109.2305,29.12367],[109.217,29.14249],[109.1599,29.18611],[109.1374,29.18048],[109.1099,29.21024],[109.1369,29.2745],[109.1253,29.28558],[109.1036,29.29478],[109.1111,29.31656],[109.1084,29.3638],[109.0584,29.40955],[109.0326,29.40027],[109.0185,29.36946],[108.9957,29.36841],[108.9787,29.35615],[108.9676,29.3355],[108.9178,29.3352],[108.9334,29.37302],[108.9437,29.41388],[108.9281,29.44035],[108.8779,29.45156],[108.8755,29.46561],[108.887,29.50717],[108.8864,29.53613],[108.9131,29.57734],[108.9071,29.59898],[108.8985,29.60689],[108.8729,29.60054],[108.8869,29.62868],[108.8862,29.64062],[108.8246,29.68],[108.803,29.65009],[108.7923,29.69074],[108.7743,29.69909],[108.7491,29.69603],[108.7463,29.68455],[108.758,29.66732],[108.7447,29.65897],[108.7391,29.6709],[108.7102,29.70565],[108.6898,29.71459],[108.6785,29.81146],[108.663,29.85881],[108.6211,29.87206],[108.5966,29.87072],[108.5825,29.85851],[108.5708,29.84913],[108.5382,29.80982],[108.5163,29.76587],[108.5166,29.75737],[108.5097,29.73964],[108.5058,29.73576],[108.4974,29.73293],[108.5011,29.72029],[108.4384,29.75165],[108.4466,29.77779],[108.4284,29.79105],[108.4234,29.82367],[108.3932,29.85404],[108.43,29.87665],[108.4545,29.86443],[108.5174,29.86443],[108.5189,29.86597],[108.5233,29.905],[108.5432,29.99508],[108.5296,30.07251],[108.5633,30.14349],[108.5652,30.1619],[108.5501,30.16828],[108.5823,30.2607],[108.5151,30.32132],[108.4578,30.3664],[108.4048,30.38013],[108.4201,30.39701],[108.4328,30.42026],[108.4184,30.43447],[108.421,30.48434],[108.4605,30.48434],[108.4958,30.50198],[108.5669,30.46761],[108.6505,30.5392],[108.6486,30.55531],[108.6395,30.57881],[108.6532,30.58798],[108.6831,30.58946],[108.6888,30.5763],[108.692,30.55945],[108.6944,30.54644],[108.7092,30.52086],[108.7334,30.49188],[108.78,30.50472],[108.8022,30.49173],[108.8245,30.49581],[108.845,30.51037],[108.8896,30.55147],[108.9197,30.59005],[108.9432,30.60645],[108.9642,30.62558],[108.9729,30.62932],[108.9836,30.62299],[109.0111,30.62932],[109.0515,30.64264],[109.0962,30.63643],[109.1132,30.64087],[109.1159,30.63415],[109.1101,30.62292],[109.0712,30.60438],[109.1148,30.53018],[109.1387,30.52013],[109.2458,30.58148],[109.2935,30.62757],[109.3342,30.49202],[109.3528,30.48566],[109.4575,30.6162],[109.4824,30.62196],[109.5134,30.65371],[109.5308,30.63452],[109.5723,30.64633],[109.5869,30.6639],[109.6029,30.6924],[109.6604,30.72782],[109.6606,30.75867],[109.6834,30.77016],[109.6987,30.77075],[109.716,30.77975],[109.7354,30.82147],[109.7762,30.84889],[109.8178,30.8623],[109.8983,30.89869],[109.9321,30.87954],[109.9512,30.87586],[109.9719,30.88528],[109.9931,30.87998],[110.0154,30.82728],[110.0404,30.8029],[110.0514,30.79929],[110.0736,30.80297],[110.0749,30.79995],[110.0776,30.80161],[110.1109,30.84705],[110.1475,30.9139],[110.1565,30.95686],[110.1725,30.98175],[110.17,30.99193],[110.1546,30.9963],[110.1421,31.00528],[110.1282,31.06823],[110.1174,31.08095],[110.1302,31.10645],[110.1749,31.11813],[110.2004,31.15288],[110.1728,31.24788],[110.1527,31.28398],[110.1632,31.30425],[110.1391,31.40069],[110.1108,31.4187],[110.0527,31.4208],[110.0293,31.44653],[109.9846,31.4764],[109.9788,31.51578],[109.8627,31.54177],[109.8327,31.5642],[109.727,31.55118],[109.745,31.58073],[109.7417,31.59696],[109.7629,31.60427],[109.7518,31.61608],[109.7337,31.70076],[109.6679,31.73006],[109.6015,31.71984],[109.57959979101457,31.729852204238338],[109.5893,31.74569]]]}}
