{"type":"Feature","properties":{"sourceId":"hunan"},"geometry":{"type":"Polygon","coordinates":[[[113.942,25.43521],[113.8935,25.43521],[113.8826,25.37846],[113.8393,25.36016],[113.8239,25.32696],[113.7483,25.32991],[113.7521,25.34232],[113.7476,25.34992],[113.7485,25.35799],[113.7339,25.34852],[113.6879,25.35458],[113.6802,25.34201],[113.6728,25.32293],[113.6481,25.32836],[113.6158,25.32618],[113.5743,25.30461],[113.5597,25.34573],[113.5123,25.35442],[113.5106,25.3704],[113.4986,25.37443],[113.4701,25.36543],[113.4332,25.35783],[113.3156,25.4408],[113.2996,25.44529],[113.2943,25.49194],[113.2318,25.50604],[113.2093,25.49302],[113.1829,25.47133],[113.1549,25.4783],[113.1195,25.447],[113.1336,25.41723],[113.1082,25.41165],[113.0749,25.38327],[113.014,25.34496],[112.9791,25.35054],[112.948,25.33441],[112.924,25.29716],[112.9003,25.3012],[112.8792,25.32851],[112.8572,25.31874],[112.86,25.2908],[112.8895,25.25122],[112.976,25.26333],[113.0268,25.21504],[113.0334,25.20013],[113.0122,25.1891],[113.0045,25.19018],[112.9728,25.16859],[112.9676,25.14357],[113.0165,25.08358],[112.9879,25.03117],[113.0138,24.97501],[113.0098,24.94933],[112.993,24.9252],[112.895,24.9],[112.7771,24.8855],[112.7673,24.94684],[112.7348,24.95774],[112.7081,25.01562],[112.7106,25.06414],[112.7075,25.08389],[112.6887,25.09368],[112.6602,25.11607],[112.62,25.13363],[112.5762,25.12695],[112.5561,25.12524],[112.4293,25.15725],[112.401,25.1341],[112.3488,25.18335],[112.2519,25.15647],[112.1931,25.18817],[112.1515,25.02526],[112.123,24.96925],[112.1752,24.93034],[112.1646,24.84719],[112.0849,24.80793],[112.0568,24.80107],[112.0228,24.73904],[111.9507,24.76117],[111.8734,24.75525],[111.7708,24.77957],[111.7323,24.77271],[111.7035,24.77738],[111.6417,24.72282],[111.6472,24.68103],[111.5881,24.67884],[111.5682,24.64296],[111.5232,24.63266],[111.4783,24.67073],[111.4309,24.662],[111.4223,24.68103],[111.4642,24.81603],[111.445,24.85155],[111.445,24.9182],[111.4319,24.954],[111.4199,24.97299],[111.4546,25.02588],[111.4051,25.03491],[111.4151,25.09586],[111.3845,25.12073],[111.3526,25.09928],[111.3197,25.09804],[111.2891,25.11638],[111.2709,25.14093],[111.1906,25.05979],[111.1332,25.03895],[111.1082,25.03179],[111.1089,24.98326],[111.0958,24.93688],[110.995,24.905],[110.975,24.91],[110.9547,24.98201],[110.9369,25.04082],[110.9533,25.07845],[110.9873,25.16673],[111.0999,25.22575],[111.0889,25.29034],[111.1284,25.31268],[111.1765,25.37722],[111.275,25.455],[111.305,25.515],[111.3142,25.61243],[111.2973,25.65236],[111.3015,25.66876],[111.2977,25.73898],[111.4244,25.78691],[111.4127,25.84625],[111.4536,25.8654],[111.3255,25.88764],[111.2939,25.85212],[111.2397,25.8654],[111.1806,25.95496],[111.2146,26.05092],[111.2359,26.08053],[111.2531,26.09564],[111.2494,26.14681],[111.2704,26.26879],[111.2179,26.26186],[111.1846,26.28295],[111.1574,26.30711],[111.0903,26.30634],[110.9942,26.33712],[110.9657,26.37572],[110.9482,26.33865],[110.945,26.315],[110.937,26.29157],[110.9283,26.25401],[110.909,26.25555],[110.8879,26.27294],[110.8397,26.25586],[110.7765,26.25786],[110.7585,26.24924],[110.7309,26.26186],[110.7242,26.27556],[110.7384,26.29418],[110.7406,26.30296],[110.7374,26.31219],[110.7079,26.28772],[110.6739,26.31281],[110.6292,26.31003],[110.5547,26.28264],[110.5479,26.21767],[110.4898,26.16314],[110.4655,26.171],[110.3738,26.08269],[110.3273,25.97564],[110.3062,25.96869],[110.2878,25.96715],[110.2535,25.95604],[110.2373,25.9673],[110.2421,26.02378],[110.1869,26.05925],[110.1704,26.019],[110.1426,26.01684],[110.1189,26.02825],[110.0967,26.01653],[110.0851,26.03195],[110.0617,26.03997],[110.0664,26.0904],[110.0871,26.16391],[110.0337,26.16129],[109.9972,26.1804],[109.9613,26.18594],[109.9141,26.14157],[109.8861,26.04074],[109.8597,26.0247],[109.8106,26.03288],[109.7919,25.99184],[109.812,25.98166],[109.835,25.92007],[109.8123,25.87343],[109.7859,25.86139],[109.7661,25.87112],[109.7435,25.88795],[109.7223,25.88641],[109.676,25.87822],[109.6679,25.92516],[109.7054,26.00434],[109.6858,25.99909],[109.6696,26.01282],[109.6448,26.01437],[109.6345,26.04614],[109.6281,26.04815],[109.5406,25.98906],[109.4949,26.00434],[109.48026188257222,26.009558807082946],[109.4918,26.02748],[109.4674,26.07344],[109.5045,26.09502],[109.5141,26.11105],[109.5121,26.13602],[109.4976,26.16314],[109.4729,26.15636],[109.4746,26.20381],[109.455,26.24],[109.495,26.285],[109.475,26.33],[109.43,26.33],[109.3431,26.27956],[109.2913,26.29526],[109.2748,26.33311],[109.2978,26.35342],[109.3335,26.42785],[109.3912,26.46228],[109.3686,26.47887],[109.3902,26.50069],[109.4125,26.53847],[109.3782,26.63334],[109.3562,26.66832],[109.3147,26.6671],[109.2975,26.69839],[109.3782,26.70329],[109.4104,26.71771],[109.4259,26.7404],[109.4479,26.7591],[109.4853,26.75818],[109.4983,26.74347],[109.5203,26.74009],[109.5323,26.78178],[109.5007,26.82039],[109.5141,26.83969],[109.5206,26.87982],[109.4698,26.90983],[109.5382,26.92115],[109.5557,26.94503],[109.5594,26.95727],[109.5358,27.03466],[109.5161,27.0832],[109.4659,27.08618],[109.4613,27.1062],[109.4733,27.1279],[109.4715,27.1392],[109.4606,27.14531],[109.4328,27.13095],[109.4176,27.16089],[109.3874,27.1725],[109.2724,27.13492],[109.2529,27.16059],[109.2329,27.15814],[109.196,27.10291],[109.172,27.09398],[109.1585,27.07502],[109.1322,27.07777],[109.1042,27.0793],[109.1358,27.1117],[109.1269,27.13248],[109.075,27.135],[109.0125,27.10559],[108.9394,27.05882],[108.9305,27.04628],[108.8841,27.01387],[108.8446,27.06738],[108.8045,27.08419],[108.8828,27.1059],[108.935,27.16],[108.9221,27.20395],[108.9118,27.20968],[108.9098,27.21724],[108.9445,27.22868],[108.9765,27.24517],[108.9927,27.26371],[109.0396,27.27782],[109.053,27.29613],[109.0433,27.33639],[109.0653,27.32389],[109.1015,27.33861],[109.1145,27.35591],[109.1193,27.38762],[109.1413,27.42054],[109.1612,27.41597],[109.202,27.44583],[109.2439,27.4178],[109.291,27.4245],[109.3044,27.43456],[109.3109,27.48178],[109.3936,27.53841],[109.4561,27.55759],[109.464,27.57098],[109.4753,27.63457],[109.4669,27.69056],[109.4505,27.6977],[109.4401,27.70093],[109.4349,27.70359],[109.4125,27.73277],[109.3784,27.74652],[109.3599,27.76657],[109.3373,27.78138],[109.3441,27.84211],[109.3161,27.89037],[109.3153,27.90372],[109.3075,27.91115],[109.3122,27.92829],[109.3054,27.96226],[109.3201,27.96833],[109.3236,27.99198],[109.3624,28.00774],[109.3816,28.03805],[109.3682,28.05926],[109.3421,28.07319],[109.3054,28.06229],[109.3407,28.14194],[109.3689,28.24164],[109.3718,28.2579],[109.3965,28.26614],[109.3958,28.27642],[109.3632,28.28246],[109.3495,28.29743],[109.3281,28.29788],[109.3077,28.28095],[109.2846,28.30876],[109.2756,28.31141],[109.273,28.32667],[109.2661,28.33899],[109.2873,28.37048],[109.2832,28.38075],[109.276,28.38113],[109.2674,28.39684],[109.2565,28.43949],[109.2616,28.46311],[109.2693,28.48076],[109.2723,28.48899],[109.2706,28.49834],[109.27004967451177,28.49833371056585],[109.2699,28.50004],[109.2692,28.50328],[109.2706,28.50551],[109.2713,28.50698],[109.269,28.5159],[109.2771,28.52172],[109.2794,28.54401],[109.2892,28.54879],[109.2914,28.5621],[109.2903,28.56964],[109.2912,28.57178],[109.2965,28.57533],[109.3179,28.57717],[109.3196,28.58151],[109.3179,28.59176],[109.3085,28.60095],[109.3074,28.62356],[109.2999,28.6332],[109.2815,28.63576],[109.2511,28.61421],[109.2271,28.64766],[109.2721,28.67628],[109.2578,28.69541],[109.2912,28.71957],[109.2916,28.7265],[109.2955,28.73809],[109.2966,28.7423],[109.2956,28.74781],[109.2948,28.75011],[109.2919,28.75233],[109.2878,28.75404],[109.2823,28.75786],[109.266,28.76736],[109.2588,28.77891],[109.2441,28.80283],[109.2434,28.83001],[109.2413,28.857],[109.234,28.88271],[109.2492,28.89751],[109.2541,28.92343],[109.2611,28.96287],[109.2859,28.97616],[109.2944,29.01812],[109.3187,29.04657],[109.3082,29.07072],[109.2512,29.09218],[109.2301,29.09585],[109.2305,29.12367],[109.23040733854185,29.117225395585276],[109.2424,29.11437],[109.2726,29.12517],[109.2752,29.20132],[109.258,29.22545],[109.321,29.25705],[109.3529,29.28595],[109.3386,29.35375],[109.3605,29.38188],[109.389,29.37021],[109.388,29.39055],[109.368,29.41822],[109.401,29.43414],[109.4175,29.4544],[109.4022,29.47244],[109.4098,29.48051],[109.4135,29.50005],[109.4298,29.48974],[109.4362,29.49236],[109.46,29.5135],[109.4617,29.51574],[109.4618,29.55315],[109.4896,29.55539],[109.5038,29.59346],[109.5258,29.61361],[109.5586,29.6066],[109.5888,29.63137],[109.6157,29.63152],[109.6571,29.59943],[109.7167,29.61361],[109.7174,29.67045],[109.7637,29.69253],[109.7711,29.72563],[109.762,29.74113],[109.797,29.76557],[109.8726,29.77943],[109.9345,29.75186],[110.1074,29.78807],[110.2833,29.65942],[110.3666,29.63376],[110.4486,29.66344],[110.46,29.70714],[110.4842,29.69238],[110.5189,29.69447],[110.5657,29.71802],[110.6334,29.75827],[110.6443,29.77749],[110.6069,29.84303],[110.5729,29.84988],[110.5437,29.86923],[110.5437,29.8987],[110.5082,29.92608],[110.5613,29.9872],[110.5539,30.00549],[110.5055,30.01367],[110.4993,30.05008],[110.6052,30.05795],[110.6442,30.07296],[110.7024,30.02764],[110.7539,30.04592],[110.754,30.11321],[110.9068,30.10845],[110.9185,30.06137],[110.9581,30.063],[111.0273,30.04844],[111.2378,30.03908],[111.3409,29.9408],[111.3621,29.9533],[111.3839,29.90614],[111.416,29.91834],[111.4542,29.92265],[111.4795,29.91715],[111.5138,29.92771],[111.5397,29.89423],[111.6008,29.89185],[111.6932,29.88679],[111.7299,29.92206],[111.7789,29.9115],[111.8245,29.87355],[111.8514,29.85777],[111.8749,29.86193],[111.9325,29.83231],[111.9423,29.80773],[111.9816,29.78092],[112.0367,29.75186],[112.0662,29.74426],[112.0511,29.69402],[112.0573,29.68015],[112.116,29.65449],[112.1478,29.65584],[112.1661,29.65927],[112.1821,29.62062],[112.1958,29.61749],[112.2154,29.63972],[112.2317,29.61063],[112.2949,29.58406],[112.2598,29.52821],[112.2779,29.49385],[112.3124,29.52388],[112.3179,29.5412],[112.3623,29.54001],[112.3934,29.56226],[112.4226,29.60063],[112.4349,29.63465],[112.4833,29.62973],[112.501,29.61063],[112.5309,29.59958],[112.5371,29.60063],[112.568,29.62301],[112.6104,29.60824],[112.6463,29.59376],[112.6742,29.58868],[112.6876,29.59764],[112.7098,29.63808],[112.7568,29.65957],[112.7868,29.6791],[112.8038,29.72857],[112.7968,29.738],[112.8492,29.77674],[112.8708,29.78375],[112.9125,29.75842],[112.9178,29.69223],[112.9346,29.66598],[112.912,29.63107],[112.8998,29.61436],[112.9068,29.60316],[112.9278,29.53284],[112.9376,29.47831],[112.9528,29.46755],[112.9693,29.47069],[112.9861,29.49579],[113.0193,29.51536],[113.0593,29.50774],[113.0661,29.46411],[113.073,29.43526],[113.0929,29.42285],[113.0952,29.43496],[113.1073,29.45589],[113.125,29.45514],[113.1442,29.44887],[113.158,29.46277],[113.2227,29.54434],[113.2675,29.57868],[113.2721,29.59376],[113.3319,29.65718],[113.4192,29.74336],[113.4553,29.75886],[113.4937,29.79015],[113.5241,29.82002],[113.5626,29.8431],[113.5544,29.8023],[113.5415,29.77168],[113.543,29.75357],[113.5264,29.70915],[113.5367,29.68052],[113.5784,29.66449],[113.6246,29.67157],[113.6591,29.6671],[113.6622,29.64308],[113.6694,29.63555],[113.6809,29.63771],[113.7013,29.61025],[113.7298,29.59234],[113.6883,29.55666],[113.6763,29.55184],[113.6661,29.54124],[113.6548,29.54154],[113.6491,29.53818],[113.6464,29.53403],[113.6239,29.52709],[113.6223,29.5176],[113.6328,29.50924],[113.6615,29.51043],[113.6996,29.48488],[113.7236,29.46845],[113.7336,29.41627],[113.7248,29.40237],[113.6656,29.39638],[113.6522,29.3729],[113.6534,29.34792],[113.623,29.31903],[113.5945,29.25765],[113.6052,29.25091],[113.6252,29.25091],[113.6558,29.22559],[113.679,29.22844],[113.679,29.20747],[113.6549,29.17794],[113.6537,29.15051],[113.6814,29.11842],[113.6755,29.07763],[113.6922,29.07823],[113.7143,29.08993],[113.7286,29.05872],[113.7428,29.05812],[113.7786,29.09803],[113.7849,29.09908],[113.8227,29.07313],[113.868,29.03351],[113.9061,29.03006],[113.9361520997678,29.04362705612208],[113.9483,28.94597],[113.9665,28.93696],[113.9965,28.95378],[113.9959,28.91818],[114.0149,28.91247],[114.0201,28.89082],[114.0496,28.89954],[114.0465,28.87264],[114.0534,28.84302],[114.0652,28.82964],[114.1054,28.83806],[114.1337,28.81926],[114.1277,28.77744],[114.1438,28.76646],[114.12,28.72],[114.1134,28.69646],[114.1158,28.61482],[114.0733,28.56206],[114.0848,28.54065],[114.1217,28.5313],[114.1526,28.50023],[114.2006,28.49132],[114.2109,28.47774],[114.1713,28.44892],[114.1607,28.43685],[114.2031,28.40922],[114.2206,28.39654],[114.2384,28.39367],[114.2403,28.32509],[114.1339,28.25767],[114.0882,28.20443],[114.045,28.19157],[113.9801,28.17417],[113.99,28.125],[114.0298,28.06138],[113.935,28.04],[113.9214,28.02054],[113.8566,28.01122],[113.845,27.99198],[113.8122,27.9891],[113.7511,27.94649],[113.7166,27.89113],[113.7215,27.87201],[113.7488,27.85957],[113.7499,27.81175],[113.6942,27.75419],[113.6563,27.69189],[113.6412,27.66878],[113.5971,27.63837],[113.5962,27.62012],[113.5818,27.57372],[113.5688,27.54359],[113.5743,27.5235],[113.6124,27.50827],[113.5787,27.46959],[113.5962,27.41597],[113.5883,27.39676],[113.588,27.36049],[113.6697,27.32481],[113.7981,27.36475],[113.8503,27.36171],[113.8379,27.31779],[113.8499,27.28545],[113.8372,27.24639],[113.7679,27.14379],[113.76,27.09336],[113.8146,27.03497],[113.8465,27.00897],[113.8949,26.95329],[113.8736,26.87461],[113.8225,26.81028],[113.852,26.66065],[113.9025,26.61462],[113.9825,26.61217],[114.0226,26.58362],[114.0851,26.57072],[114.0518,26.4801],[114.0827,26.47334],[114.0704,26.42846],[114.0189,26.38295],[113.9629,26.22106],[113.9371,26.1918],[113.9275,26.16561],[113.9543,26.14527],[113.9969,26.16992],[114.0292,26.17886],[114.0501,26.16068],[114.0731,26.15852],[114.0975,26.17732],[114.1414,26.19981],[114.2032,26.19703],[114.2146,26.15513],[114.1867,26.13756],[114.103,26.10859],[114.0882,26.07745],[114.0357,26.08793],[114.0292,26.07899],[113.9948,26.01298],[114.013,25.9386],[114.0092,25.90031],[113.9574,25.83729],[113.9485,25.78011],[113.9038,25.73991],[113.9049,25.70589],[113.9461,25.61614],[113.9811,25.56103],[113.9746,25.53749],[113.9536,25.53718],[113.933,25.50155],[113.9241,25.4532],[113.9392,25.43955],[113.94361862261925,25.43961385888168],[113.942,25.43521]]]}}
