{"type":"Feature","properties":{"sourceId":"hokkaido"},"geometry":{"type":"Polygon","coordinates":[[[141.2595,45.76178],[142.071,45.63206],[142.91,45.47657],[144.3885,44.99315],[145.7538,44.49305],[145.7237,44.25699],[145.3309,43.83378],[145.3387,43.82358],[145.3217,43.8048],[145.4013,43.69171],[145.4552,43.67082],[145.4757,43.64394],[145.7324,43.55065],[145.7803,43.52864],[145.8122,43.47208],[145.8431,43.3885],[146.0089,43.22661],[146.0089,43.22415],[146.2476,41.49323],[141.7740850503854,41.633247412360575],[141.7702,41.64179],[141.53158865575466,41.64083735406534],[140.9497,41.65905],[140.9333,41.66298],[140.8748,41.68992],[140.8715,41.68986],[139.8627,41.15589],[139.8499,41.15414],[139.8138,41.15098],[139.7843,41.151],[139.7559,41.15337],[139.7182,41.16015],[137.9346,41.19252],[138.3603,42.25986],[140.6634,45.8154],[141.2595,45.76178]]]}}
