{"type":"Feature","properties":{"sourceId":"hungary"},"geometry":{"type":"Polygon","coordinates":[[[22.16114,48.41849],[22.20715,48.42897],[22.2686,48.41302],[22.25933,48.38749],[22.26585,48.36674],[22.32422,48.35602],[22.35031,48.276],[22.38567,48.24091],[22.40147,48.25417],[22.43614,48.2552],[22.45537,48.24617],[22.49159,48.25748],[22.52506,48.23839],[22.57502,48.19756],[22.60403,48.14375],[22.60403,48.1103],[22.6236,48.10651],[22.67578,48.09574],[22.70642,48.11362],[22.74822,48.12519],[22.82324,48.12416],[22.8344,48.11018],[22.8344,48.09723],[22.86495,48.07567],[22.88796,48.05537],[22.8883,48.02908],[22.85105,47.98877],[22.90186,47.96843],[22.90649,47.95062],[22.85293,47.90576],[22.77981,47.83736],[22.68436,47.78571],[22.61295,47.76679],[22.5436,47.7691],[22.45983,47.79332],[22.43374,47.73309],[22.33314,47.74856],[22.2583,47.68874],[22.18311,47.5888],[22.05608,47.52022],[22.04029,47.45131],[22.04029,47.41043],[22.01729,47.37208],[21.8858,47.26129],[21.85867,47.23705],[21.86863,47.18645],[21.79172,47.10145],[21.6671,47.03199],[21.70074,47.00695],[21.68598,46.9519],[21.60496,46.85784],[21.5332,46.7168],[21.46145,46.64826],[21.41201,46.6136],[21.33305,46.62468],[21.32584,46.57633],[21.27468,46.50028],[21.33099,46.45654],[21.29768,46.38696],[21.21597,46.35522],[21.17718,46.2931],[21.10199,46.25608],[21.06766,46.2283],[20.94372,46.25893],[20.76656,46.20193],[20.71129,46.15653],[20.68382,46.13584],[20.63885,46.11966],[20.58975,46.14702],[20.51319,46.17698],[20.47199,46.13203],[20.30823,46.14464],[20.27856789209224,46.12182583034124],[20.26446,46.1283],[20.18103,46.16062],[20.14437,46.14556],[20.09884,46.18291],[20.06207,46.15047],[20.01675,46.17793],[19.93469,46.17876],[19.85264,46.15189],[19.81865,46.13096],[19.74157,46.16866],[19.69969,46.19017],[19.66021,46.19207],[19.63085,46.17103],[19.56648,46.18185],[19.50005,46.14369],[19.51447,46.11799],[19.47032,46.10399],[19.41044,46.05322],[19.3634,46.0556],[19.22916,46.00269],[19.13441,46.04035],[19.10042,46.04274],[19.05888,46.00173],[19.06746,45.97263],[18.99914,45.96237],[18.99261,45.93516],[18.90438,45.9385],[18.80894,45.91533],[18.820857604228046,45.88098007545926],[18.8055,45.87376],[18.75709,45.88726],[18.69856,45.91032],[18.62474,45.8361],[18.57651,45.79733],[18.44811,45.73207],[18.32897,45.74453],[18.26923,45.75219],[18.16709,45.77327],[18.12744,45.77782],[18.10221,45.75926],[18.03629,45.76692],[17.9932,45.78943],[17.92265,45.78093],[17.86737,45.76165],[17.83218,45.78033],[17.74412,45.81313],[17.64542,45.8392],[17.62877,45.89204],[17.55976,45.92966],[17.52766,45.93109],[17.44903,45.94399],[17.4365,45.91868],[17.32973,45.94041],[17.30261,45.97048],[17.2506,46.01163],[17.2221,46.06525],[17.19721,46.07752],[17.16734,46.11085],[17.15155,46.16759],[17.12219,46.16557],[17.06486,46.18744],[17.03997,46.20467],[16.96924,46.22367],[16.9356,46.24754],[16.89938,46.26487],[16.87758,46.28433],[16.8544,46.34728],[16.80479,46.37121],[16.75226,46.37666],[16.71295,46.39004],[16.65236,46.44839],[16.595621282265938,46.471003504599615],[16.60034,46.47133],[16.59622,46.48031],[16.5394,46.50406],[16.53442,46.51541],[16.53425,46.53525],[16.51194,46.56594],[16.4982,46.56653],[16.44928,46.61266],[16.42233,46.62563],[16.3892,46.64602],[16.39795,46.65698],[16.42353,46.65792],[16.43229,46.69514],[16.38559,46.7022],[16.37941,46.71974],[16.36133,46.73033],[16.32431,46.75539],[16.33307,46.77808],[16.31487,46.78161],[16.31865,46.79653],[16.34216,46.803],[16.35401,46.83084],[16.34422,46.8481],[16.29169,46.8751],[16.23384,46.87956],[16.14681,46.85702],[16.11245569636359,46.87070925730308],[16.120660104781173,46.8674400232928],[16.13196,46.87316],[16.18372,46.908],[16.1984,46.93766],[16.22149,46.93398],[16.24964,46.94663],[16.24655,46.95671],[16.27727,46.96157],[16.28949,46.99671],[16.43599,46.9907],[16.48594,46.99213],[16.51872,47.00027],[16.4661,47.03889],[16.53889,47.05445],[16.47022,47.09268],[16.53892,47.12719],[16.51683,47.15459],[16.45949,47.14623],[16.46869,47.16935],[16.45549,47.19132],[16.42423,47.20387],[16.44102,47.20929],[16.44606,47.24606],[16.48174,47.25831],[16.49272,47.28394],[16.46705,47.33745],[16.43828,47.35205],[16.45907,47.35651],[16.46789,47.38408],[16.45216,47.40554],[16.49769,47.38692],[16.5233,47.40482],[16.5787,47.4034],[16.6669,47.4547],[16.67819,47.48318],[16.66098,47.49821],[16.70715,47.51267],[16.71825,47.54049],[16.68071,47.56934],[16.67509,47.60663],[16.65174,47.62709],[16.62446,47.63161],[16.58626,47.62199],[16.51868,47.65056],[16.43008,47.66502],[16.47544,47.6777],[16.55935,47.7209],[16.54661,47.7339],[16.60737,47.75624],[16.74625,47.67833],[16.83277,47.6788],[16.91277,47.68458],[17.10251,47.70674],[17.06007,47.7935],[17.08072,47.80555],[17.03491,47.86025],[17.09129,47.87214],[17.11979,47.92992],[17.12187,47.96152],[17.10844,47.96939],[17.15991338973702,48.00410955997179],[17.151883348077522,48.005703334638866],[17.151883348077526,48.005703334638866],[17.16107,48.00388],[17.22158,48.01347],[17.26175,47.99142],[17.32578,47.98303],[17.42868,47.91761],[17.45137,47.88096],[17.49633,47.86274],[17.52297,47.86195],[17.56419,47.81132],[17.60624,47.81728],[17.70966,47.75087],[17.76177,47.7445],[17.78227,47.7342],[17.94961,47.7405],[17.97174,47.75285],[18.00276,47.74133],[18.03472,47.75227],[18.0883,47.75341],[18.17791,47.73725],[18.29591,47.72646],[18.4366,47.7556],[18.45446,47.7631],[18.48707,47.74971],[18.51625,47.75237],[18.55042,47.76194],[18.6461,47.75409],[18.72997,47.78433],[18.73856,47.80854],[18.79226,47.81809],[18.8503,47.81204],[18.86129,47.82952],[18.83349,47.83709],[18.81602,47.85991],[18.76863,47.8771],[18.7644,47.89876],[18.7637,47.91829],[18.77865,47.9304],[18.78173,47.95548],[18.76046,47.97448],[18.81924,47.98987],[18.82625,48.00581],[18.82158,48.01971],[18.83544,48.04225],[18.93859,48.05367],[18.98215,48.04863],[19.01568,48.06928],[19.05831,48.05236],[19.08543,48.06788],[19.10685,48.06259],[19.1353,48.06898],[19.242,48.04869],[19.2581,48.06712],[19.28083,48.07223],[19.2992,48.08519],[19.40048,48.08026],[19.4458,48.09356],[19.46417,48.0751],[19.49764,48.11007],[19.50114,48.13701],[19.51777,48.15376],[19.51367,48.17205],[19.53319,48.18769],[19.53288,48.2004],[19.57974,48.21155],[19.62862,48.24468],[19.68947,48.19921],[19.77859,48.19957],[19.77742,48.16528],[19.79275,48.14897],[19.8089,48.14977],[19.81813,48.16677],[19.8444,48.15647],[19.85303,48.1673],[19.89881,48.15922],[19.89589,48.12052],[19.93888,48.12635],[19.95635,48.14849],[20.0284,48.17218],[20.04993,48.16222],[20.07595,48.17558],[20.13813,48.22223],[20.15099,48.24718],[20.21693,48.24373],[20.24086,48.27517],[20.28654,48.25665],[20.32867,48.26877],[20.3412,48.2967],[20.36888,48.31278],[20.414,48.36309],[20.45457,48.444],[20.47309,48.44858],[20.51148,48.48998],[20.51423,48.52255],[20.58725,48.5308],[20.6621,48.55502],[20.72607,48.56097],[20.83039,48.57644],[20.86669,48.54704],[20.91877,48.55464],[20.93195,48.53412],[20.95488,48.51684],[20.98193,48.51278],[21.01505,48.52691],[21.08757,48.51251],[21.09289,48.48817],[21.13495,48.48714],[21.22246,48.53193],[21.3067,48.5174],[21.33186,48.5543],[21.41693,48.55418],[21.42643,48.56169],[21.43873,48.57965],[21.5124,48.54577],[21.52562,48.50119],[21.60891,48.50363],[21.62358,48.45368],[21.66289,48.40946],[21.66289,48.39166],[21.71914,48.3492],[21.76374,48.3364],[21.83773,48.32556],[21.8429,48.34645],[21.93509,48.36006],[22.02782,48.38605],[22.05181,48.37608],[22.08629,48.36659],[22.13717,48.37568],[22.16508,48.40332],[22.152062200414502,48.41143793939283],[22.16114,48.41849]]]}}
