{"type":"Feature","properties":{"sourceId":"hertfordshire"},"geometry":{"type":"Polygon","coordinates":[[[-0.53158,51.61633],[-0.53736,51.63603],[-0.54098,51.63812],[-0.533617,51.64858],[-0.538235,51.65166],[-0.538249,51.66167],[-0.532424,51.66469],[-0.524196,51.65976],[-0.5221,51.66935],[-0.515593,51.66784],[-0.507741,51.67417],[-0.511679,51.67812],[-0.525307,51.67705],[-0.526695,51.6801],[-0.546399,51.67874],[-0.549918,51.68146],[-0.55027,51.68752],[-0.54546,51.69584],[-0.548869,51.70191],[-0.556245,51.70408],[-0.564899,51.71154],[-0.562665,51.71908],[-0.553426,51.72423],[-0.553866,51.7302],[-0.567281,51.73629],[-0.571253,51.73404],[-0.575916,51.73558],[-0.58771,51.75033],[-0.613288,51.74575],[-0.615391,51.74982],[-0.622612,51.7522],[-0.644284,51.75249],[-0.651501,51.75797],[-0.672706,51.76592],[-0.677611,51.77064],[-0.681574,51.78511],[-0.691734,51.79156],[-0.691051,51.79399],[-0.685378,51.79522],[-0.686667,51.79901],[-0.709508,51.81851],[-0.71914,51.81443],[-0.725494,51.81693],[-0.739069,51.82973],[-0.739158,51.83281],[-0.746147,51.83654],[-0.746833,51.84336],[-0.737042,51.84412],[-0.732059,51.85044],[-0.723897,51.85147],[-0.723825,51.85538],[-0.718035,51.85871],[-0.710207,51.85947],[-0.706875,51.85639],[-0.695883,51.85975],[-0.691186,51.85829],[-0.685162,51.84971],[-0.692086,51.84212],[-0.689342,51.84269],[-0.682654,51.83736],[-0.675338,51.82495],[-0.666842,51.81768],[-0.647776,51.81558],[-0.632623,51.8216],[-0.610863,51.81377],[-0.594344,51.81564],[-0.590922,51.80978],[-0.582789,51.80877],[-0.576999,51.8154],[-0.57628,51.82012],[-0.568105,51.82127],[-0.563704,51.82487],[-0.562063,51.8311],[-0.557196,51.83266],[-0.5522927720358232,51.828836665390796],[-0.555532,51.82726],[-0.545503,51.81856],[-0.544432,51.81392],[-0.521699,51.8036],[-0.500556,51.81456],[-0.499721,51.82202],[-0.505085,51.82605],[-0.500643,51.83465],[-0.491394,51.83342],[-0.488435,51.8406],[-0.479021,51.84025],[-0.470701,51.84352],[-0.469456,51.8463],[-0.474138,51.85108],[-0.471386,51.85305],[-0.464937,51.84834],[-0.453872,51.85001],[-0.447758,51.84567],[-0.439273,51.84931],[-0.425705,51.84476],[-0.420988,51.84739],[-0.399026,51.83543],[-0.373688,51.82727],[-0.367506,51.82956],[-0.362167,51.83913],[-0.356659,51.83819],[-0.341415,51.84473],[-0.337678,51.85026],[-0.347886,51.85859],[-0.352722,51.86721],[-0.352644,51.873],[-0.349277,51.87491],[-0.348514,51.88009],[-0.363742,51.89578],[-0.375555,51.89955],[-0.383287,51.91376],[-0.381931,51.91936],[-0.387698,51.92704],[-0.400611,51.9322],[-0.403784,51.943],[-0.400243,51.94846],[-0.401123,51.95419],[-0.397221,51.96475],[-0.392077,51.96716],[-0.388769,51.97595],[-0.382376,51.9769],[-0.381516,51.95875],[-0.38475,51.9506],[-0.372088,51.94612],[-0.348339,51.95716],[-0.347628,51.97219],[-0.351545,51.97571],[-0.361305,51.97648],[-0.364747,51.98203],[-0.311201,51.98015],[-0.304816,51.98803],[-0.293923,51.99406],[-0.295713,51.9986],[-0.286702,51.99938],[-0.284793,51.99524],[-0.278144,51.99172],[-0.274899,51.9795],[-0.260451,51.97769],[-0.255784,51.98317],[-0.246523,51.98377],[-0.241903,51.99659],[-0.236426,51.99603],[-0.213151,52.00649],[-0.200234,52.00824],[-0.19976,52.01113],[-0.216044,52.03666],[-0.19372,52.06011],[-0.171412,52.05868],[-0.162381,52.07569],[-0.155034,52.07942],[-0.1545968827379144,52.079997130438855],[-0.147908,52.07454],[-0.145842,52.06958],[-0.149855,52.06433],[-0.148817,52.05818],[-0.153188,52.05348],[-0.14413,52.04862],[-0.132652,52.04751],[-0.122107,52.03407],[-0.120711,52.02924],[-0.123888,52.02205],[-0.121405,52.02138],[-0.107631,52.03022],[-0.055366,52.04792],[-0.037918,52.05964],[-0.024863,52.06495],[-0.011812,52.06319],[0.004244,52.05148],[0.041177,52.05476],[0.053483,52.02568],[0.061501,52.01965],[0.060504,52.01534],[0.066358,52.00872],[0.075779,52.00188],[0.071883,51.98351],[0.096998,51.98592],[0.099658,51.98293],[0.09919,51.97839],[0.108564,51.97244],[0.106151,51.96605],[0.116227,51.95669],[0.12009,51.94747],[0.122318,51.92654],[0.126492,51.92391],[0.123445,51.91134],[0.126074,51.88652],[0.13765,51.88687],[0.141248,51.88987],[0.14703,51.88863],[0.16617,51.89309],[0.167281,51.89577],[0.179567,51.89723],[0.185566,51.8932],[0.179308,51.88703],[0.178771,51.88239],[0.194367,51.87463],[0.197098,51.86882],[0.194865,51.8642],[0.173038,51.86017],[0.175034,51.84941],[0.166443,51.84847],[0.162949,51.83443],[0.167749,51.83022],[0.163112,51.82664],[0.167522,51.82329],[0.167086,51.82043],[0.173776,51.82038],[0.174836,51.81685],[0.167567,51.81168],[0.160353,51.81219],[0.155384,51.80246],[0.152141,51.80115],[0.151425,51.79544],[0.126549,51.79325],[0.121242,51.78864],[0.108056,51.78639],[0.099531,51.78155],[0.063863,51.78225],[0.052097,51.77439],[0.027346,51.77257],[0.019979,51.76875],[0.01407,51.76105],[0.014116,51.75621],[0.004922,51.75376],[0.002104,51.74364],[-0.005966,51.74003],[-0.011913,51.74121],[-0.013127,51.71823],[-0.017997,51.7031],[-0.014784,51.69095],[-0.00933,51.68599],[-0.01041310363006816,51.68231371218409],[-0.049026,51.68596],[-0.061824,51.68469],[-0.085221,51.69183],[-0.109396,51.69344],[-0.149487,51.68722],[-0.163797,51.68979],[-0.165318,51.68311],[-0.173184,51.67482],[-0.188624,51.66937],[-0.19138,51.66614],[-0.194274,51.66989],[-0.203619,51.67181],[-0.212435,51.66808],[-0.211841,51.66332],[-0.226412,51.65934],[-0.228998,51.66167],[-0.251436,51.65754],[-0.253414,51.64799],[-0.258154,51.64376],[-0.263489,51.64652],[-0.273585,51.64365],[-0.275507,51.64049],[-0.296026,51.63717],[-0.317144,51.64217],[-0.338285,51.63168],[-0.399726,51.6151],[-0.44048,51.62177],[-0.446232,51.62119],[-0.449792,51.61677],[-0.457079,51.61405],[-0.487075,51.62826],[-0.491067,51.63239],[-0.500724,51.63144],[-0.501812,51.6216],[-0.49743,51.61847],[-0.50095,51.60902],[-0.498895,51.60306],[-0.502561,51.60055],[-0.5023765494512875,51.59935046424429],[-0.510738,51.59798],[-0.522012,51.60087],[-0.53158,51.61633]]]}}
