{"type":"Feature","properties":{"sourceId":"hampshire"},"geometry":{"type":"Polygon","coordinates":[[[-1.4996941088989244,50.726117643546],[-1.518657,50.72036],[-1.5387363992582563,50.70660212878329],[-1.57113,50.69041],[-1.680953,50.71748],[-1.6916358712409896,50.73240592714234],[-1.69141,50.73539],[-1.682532,50.74359],[-1.680036,50.75204],[-1.712718,50.7542],[-1.740779,50.7499],[-1.742791,50.75476],[-1.737323,50.7637],[-1.748613,50.7812],[-1.770975,50.77404],[-1.77148,50.77063],[-1.776787,50.76824],[-1.786728,50.76781],[-1.786436,50.77977],[-1.793898,50.78398],[-1.795081,50.78769],[-1.799543,50.78857],[-1.799891,50.80055],[-1.803357,50.80501],[-1.808973,50.80665],[-1.801267,50.81299],[-1.805384,50.81648],[-1.800125,50.82055],[-1.8022,50.82913],[-1.793539,50.82961],[-1.788937,50.83608],[-1.801025,50.84411],[-1.798282,50.84878],[-1.802288,50.85227],[-1.805758,50.86435],[-1.813409,50.86616],[-1.816468,50.86001],[-1.829889,50.857],[-1.848765,50.86019],[-1.850634,50.86286],[-1.843587,50.87785],[-1.846249,50.88213],[-1.842372,50.88713],[-1.845524,50.89037],[-1.839773,50.89607],[-1.82437,50.89418],[-1.815295,50.90281],[-1.818082,50.91124],[-1.809063,50.926],[-1.810395,50.9292],[-1.825901,50.92863],[-1.841991,50.93338],[-1.855147,50.92893],[-1.864251,50.92094],[-1.872652,50.9192],[-1.877723,50.92564],[-1.895815,50.93577],[-1.907837,50.94652],[-1.919917,50.96284],[-1.926173,50.96502],[-1.929185,50.96935],[-1.938294,50.97123],[-1.943976,50.97722],[-1.954104,50.98009],[-1.9550745532731029,50.9876597553263],[-1.951665,50.98585],[-1.94932578479141,50.98661777342979],[-1.949071,50.98649],[-1.9484917289294177,50.98689152589491],[-1.92071,50.99601],[-1.886722,50.99731],[-1.883975,51.00055],[-1.875735,51.00098],[-1.874705,50.99147],[-1.869899,50.98434],[-1.845523,51.00638],[-1.836255,51.00833],[-1.812564,50.98758],[-1.802607,50.99082],[-1.73463,50.97613],[-1.717463,50.97786],[-1.7129953166665592,50.975729724382134],[-1.691416,50.95943],[-1.66829,50.95041],[-1.6597571344810644,50.95034475571159],[-1.655322,50.94823],[-1.64143,50.95344],[-1.639529,50.95688],[-1.635905,50.95892],[-1.614123,50.95818],[-1.604167,50.97786],[-1.61584,50.9824],[-1.62202,50.98974],[-1.622706,50.99255],[-1.621676,50.99774],[-1.618586,51.00249],[-1.594554,51.01027],[-1.601077,51.01956],[-1.600047,51.0228],[-1.630603,51.03597],[-1.631976,51.04115],[-1.627856,51.061],[-1.627896,51.07748],[-1.62781,51.07759],[-1.627513,51.08215],[-1.631289,51.09013],[-1.630259,51.10522],[-1.627513,51.11341],[-1.628886,51.12009],[-1.658755,51.12936],[-1.654979,51.14896],[-1.657382,51.15585],[-1.663218,51.16295],[-1.673881063614962,51.18030948935987],[-1.67213,51.18708],[-1.6816593654189778,51.192972580595224],[-1.682788,51.19481],[-1.691371,51.20341],[-1.6928674130825543,51.214897395404314],[-1.69247,51.21617],[-1.652877,51.22301],[-1.635643,51.22019],[-1.6285945833869073,51.23294777870205],[-1.624423,51.23244],[-1.621718,51.23566],[-1.621312,51.23758],[-1.621718,51.23936],[-1.620139,51.23947],[-1.619597,51.24136],[-1.616754,51.24207],[-1.61513,51.24153],[-1.613641,51.24162],[-1.610121,51.24292],[-1.610843,51.24427],[-1.611114,51.2454],[-1.610392,51.24693],[-1.608542,51.24865],[-1.606917,51.25066],[-1.606475,51.25228],[-1.603778,51.25151],[-1.601953,51.25306],[-1.600825,51.25376],[-1.590356,51.25325],[-1.58634,51.25424],[-1.584851,51.255],[-1.582955,51.255],[-1.580572,51.25566],[-1.544085,51.24491],[-1.534472,51.24964],[-1.530696,51.25694],[-1.538249,51.26232],[-1.534816,51.28036],[-1.519023,51.28981],[-1.520739,51.30891],[-1.527949,51.31578],[-1.529323,51.32694],[-1.524173,51.33809],[-1.514216,51.33745],[-1.4989371794856925,51.33088564237871],[-1.499244,51.32906],[-1.49656,51.32802],[-1.482069,51.33022],[-1.450596,51.3317],[-1.429113,51.33576],[-1.432925,51.34197],[-1.443053,51.34866],[-1.442638,51.35383],[-1.428,51.3558],[-1.418423,51.36594],[-1.416534,51.37008],[-1.41107,51.37181],[-1.37799,51.3668],[-1.364255,51.36753],[-1.349583,51.36611],[-1.318527,51.37196],[-1.293927,51.36987],[-1.287117,51.36686],[-1.278912,51.36762],[-1.275615,51.36627],[-1.26845,51.36926],[-1.264885,51.36956],[-1.262245,51.3674],[-1.257279,51.37087],[-1.252169,51.37095],[-1.249207,51.37053],[-1.241772,51.36525],[-1.22518,51.36828],[-1.218633,51.36494],[-1.202482,51.36522],[-1.189131,51.36224],[-1.176929,51.35635],[-1.168917,51.3597],[-1.147544,51.35841],[-1.144073,51.35626],[-1.138591,51.35619],[-1.124394,51.35721],[-1.122952,51.35995],[-1.115219,51.35969],[-1.114464,51.36288],[-1.116255,51.36858],[-1.114587,51.37336],[-1.096233,51.38097],[-1.086822,51.38279],[-1.078013,51.37891],[-1.080937,51.37523],[-1.080451,51.37376],[-1.072852,51.37418],[-1.066165,51.3713],[-1.062914,51.36702],[-1.052232,51.36115],[-1.050353,51.35722],[-1.010884,51.3582],[-0.99009,51.36175],[-0.987144,51.35893],[-0.972344,51.35894],[-0.923935,51.36494],[-0.91984,51.36416],[-0.91543,51.35983],[-0.889574,51.35578],[-0.877937,51.35159],[-0.87313,51.35131],[-0.86812,51.35339],[-0.853007,51.35318],[-0.842162,51.35107],[-0.828731,51.35169],[-0.81712,51.34639],[-0.814522,51.34066],[-0.797011,51.34052],[-0.785604,51.33756],[-0.783152,51.33477],[-0.7761822262013465,51.33146052397113],[-0.773403,51.32649],[-0.767338,51.32436],[-0.763541,51.31623],[-0.746124,51.30812],[-0.741092,51.30025],[-0.741492,51.29497],[-0.732131,51.27015],[-0.735341,51.26016],[-0.7315,51.2561],[-0.737721,51.2493],[-0.740211,51.24113],[-0.738232,51.23803],[-0.742809,51.23262],[-0.748421,51.23236],[-0.768857,51.238],[-0.775752,51.24362],[-0.790174,51.24443],[-0.800573,51.24106],[-0.805471,51.24663],[-0.821356,51.2405],[-0.822489,51.23582],[-0.827313,51.23585],[-0.830629,51.22657],[-0.850593,51.21079],[-0.846775,51.19965],[-0.827326,51.18185],[-0.835475,51.14668],[-0.827988,51.14386],[-0.816724,51.14634],[-0.804956,51.15329],[-0.797074,51.15099],[-0.792654,51.13827],[-0.78225,51.13341],[-0.784507,51.12837],[-0.77184,51.11992],[-0.769993,51.1157],[-0.747556,51.11093],[-0.750193,51.10523],[-0.760312,51.10653],[-0.770206,51.1035],[-0.766686,51.10084],[-0.760484,51.10214],[-0.75625,51.09619],[-0.760294,51.09154],[-0.7581006168471845,51.08684165953737],[-0.781323,51.08113],[-0.785422,51.07148],[-0.800416,51.06541],[-0.810642,51.06516],[-0.81446,51.06858],[-0.818483,51.06293],[-0.825781,51.06359],[-0.827986,51.06957],[-0.837707,51.07101],[-0.849101,51.06324],[-0.852978,51.04729],[-0.882176,51.02924],[-0.898688,51.02258],[-0.899256,51.00967],[-0.895098,51.00444],[-0.902695,51.00183],[-0.909184,50.99512],[-0.919702,50.97906],[-0.917288,50.97239],[-0.919095,50.96922],[-0.930717,50.95922],[-0.929261,50.95352],[-0.93295,50.94749],[-0.942761,50.9432],[-0.935927,50.93957],[-0.926979,50.92514],[-0.941811,50.919],[-0.949364,50.9088],[-0.956244,50.89223],[-0.954488,50.88713],[-0.941002,50.8753],[-0.938754,50.87],[-0.929072,50.86429],[-0.934417,50.85525],[-0.933991,50.84486],[-0.937799,50.84335],[-0.946881,50.82871],[-0.948127,50.82207],[-0.943127,50.79859],[-0.934703,50.78407],[-0.9344238436442358,50.77131470189816],[-0.953469,50.73682],[-1.1725177599892194,50.76177870372706],[-1.253002,50.80102],[-1.4396052447568795,50.744362238158175],[-1.491387,50.73027],[-1.4996941088989244,50.726117643546]]]}}
