{"type":"Feature","properties":{"sourceId":"hong-kong"},"geometry":{"type":"Polygon","coordinates":[[[113.9478,22.4733],[113.94,22.49008],[113.9399,22.49503],[113.9454,22.49604],[113.9454,22.50007],[113.9435,22.50203],[113.9429,22.50276],[113.9429,22.50401],[113.9464,22.50421],[113.9968,22.51117],[114.012,22.50193],[114.0252,22.5072],[114.0369,22.50641],[114.0445,22.50465],[114.0501,22.50292],[114.0537,22.5034],[114.0563,22.50534],[114.0566,22.50689],[114.0573,22.51115],[114.0596,22.51375],[114.0636,22.51678],[114.0682,22.51771],[114.0728,22.51884],[114.0745,22.52084],[114.0776,22.52956],[114.0798,22.53123],[114.0853,22.53268],[114.0882,22.5363],[114.0905,22.53723],[114.0936,22.53696],[114.0954,22.53537],[114.0971,22.53442],[114.1014,22.53507],[114.104,22.53551],[114.1081,22.53369],[114.1097,22.5308],[114.1113,22.52985],[114.1119,22.52973],[114.1128,22.52986],[114.1144,22.53067],[114.1157,22.53148],[114.116,22.53305],[114.1162,22.53394],[114.1173,22.53455],[114.1199,22.53502],[114.1216,22.53743],[114.123,22.53857],[114.1252,22.53989],[114.1264,22.53995],[114.1278,22.53978],[114.1289,22.54046],[114.13,22.54184],[114.1311,22.54213],[114.1333,22.54166],[114.1346,22.54179],[114.1359,22.54309],[114.1376,22.54367],[114.1387,22.54361],[114.1395,22.54321],[114.1399,22.54302],[114.1404,22.54294],[114.1412,22.54294],[114.1415,22.54282],[114.1418,22.54245],[114.1422,22.54216],[114.1431,22.54213],[114.144,22.54212],[114.1443,22.54165],[114.1444,22.54136],[114.1445,22.54127],[114.1446,22.54121],[114.1448,22.54119],[114.1454,22.5412],[114.146,22.5413],[114.1468,22.54153],[114.1473,22.54156],[114.1477,22.5418],[114.1483,22.54186],[114.1486,22.54211],[114.1486,22.54233],[114.1483,22.54294],[114.1482,22.54324],[114.1487,22.5442],[114.1498,22.54539],[114.1502,22.54598],[114.1506,22.54632],[114.1509,22.54639],[114.1512,22.54635],[114.1515,22.54647],[114.1518,22.54687],[114.1519,22.54725],[114.1519,22.54758],[114.1516,22.54804],[114.1515,22.5481],[114.151,22.54795],[114.1505,22.54781],[114.1501,22.54784],[114.1497,22.54811],[114.1495,22.54847],[114.1495,22.54893],[114.1496,22.54964],[114.1497,22.55018],[114.1499,22.5506],[114.1503,22.5509],[114.1509,22.55103],[114.1512,22.55121],[114.1514,22.55143],[114.1516,22.55179],[114.1516,22.55228],[114.1516,22.55286],[114.1519,22.55437],[114.1519,22.55466],[114.1521,22.55481],[114.1523,22.55487],[114.1525,22.55485],[114.153,22.55469],[114.1534,22.55456],[114.1538,22.55449],[114.1541,22.55449],[114.1545,22.55448],[114.1547,22.5544],[114.1549,22.55443],[114.1551,22.55471],[114.1554,22.55496],[114.1556,22.55512],[114.1559,22.55522],[114.1561,22.55522],[114.1562,22.55514],[114.1564,22.55504],[114.1565,22.55503],[114.1567,22.55512],[114.1569,22.55541],[114.1571,22.55639],[114.1575,22.55726],[114.1579,22.55812],[114.1582,22.55894],[114.1584,22.55915],[114.159,22.55968],[114.1591,22.55993],[114.1596,22.56065],[114.1598,22.56091],[114.1602,22.56144],[114.161,22.56188],[114.1613,22.56203],[114.1617,22.56193],[114.162,22.56175],[114.1624,22.56137],[114.1633,22.55938],[114.1637,22.55919],[114.1644,22.55915],[114.1651,22.55929],[114.1655,22.55954],[114.1663,22.56029],[114.1667,22.56073],[114.167,22.56107],[114.1673,22.56121],[114.1676,22.56131],[114.1683,22.56131],[114.1689,22.56124],[114.1693,22.56105],[114.1696,22.56077],[114.1698,22.56035],[114.1702,22.55992],[114.1706,22.55973],[114.1712,22.55967],[114.1717,22.55967],[114.1728,22.55971],[114.1733,22.55968],[114.1741,22.55985],[114.1749,22.56006],[114.1758,22.56012],[114.1764,22.56005],[114.1773,22.55973],[114.1775,22.55936],[114.1777,22.55808],[114.1778,22.55635],[114.1779,22.55575],[114.1792,22.55515],[114.1809,22.55434],[114.1812,22.55526],[114.1816,22.55553],[114.1835,22.55535],[114.1849,22.55517],[114.1863,22.5548],[114.1869,22.55486],[114.1871,22.55536],[114.1874,22.55566],[114.188,22.5557],[114.1885,22.55551],[114.1887,22.55488],[114.189,22.55448],[114.1898,22.55444],[114.1904,22.55462],[114.1908,22.55514],[114.1917,22.55585],[114.192,22.55604],[114.1925,22.55603],[114.1935,22.55567],[114.1949,22.5557],[114.1957,22.55644],[114.1961,22.5571],[114.1967,22.55715],[114.1976,22.55674],[114.1983,22.557],[114.2003,22.55773],[114.2012,22.55759],[114.2015,22.55683],[114.2019,22.55648],[114.2035,22.55641],[114.2065,22.55664],[114.2069,22.55661],[114.2074,22.55676],[114.2086,22.55704],[114.2115,22.55657],[114.2137,22.55526],[114.2151,22.55506],[114.2156,22.55533],[114.2159,22.5554],[114.2162,22.5552],[114.2165,22.55519],[114.2168,22.55536],[114.2169,22.55578],[114.217,22.55592],[114.2179,22.55609],[114.2185,22.55558],[114.2194,22.55481],[114.2198,22.55379],[114.2201,22.55369],[114.2204,22.55375],[114.2209,22.55309],[114.2209,22.5528],[114.2209,22.55238],[114.2215,22.55169],[114.2221,22.55158],[114.2233,22.55104],[114.2244,22.55102],[114.2258,22.54897],[114.2261,22.54856],[114.2265,22.54826],[114.227,22.54805],[114.227,22.54785],[114.2267,22.54701],[114.2259,22.54607],[114.2257,22.54596],[114.2257,22.5458],[114.2255,22.54546],[114.2254,22.54529],[114.2255,22.5452],[114.2261,22.54429],[114.2265,22.54398],[114.2267,22.54391],[114.2284,22.54393],[114.2322,22.54449],[114.2369,22.55148],[114.2758,22.56605],[114.3089,22.56706],[114.3328,22.56904],[114.4344,22.56306],[114.4563,22.5453],[114.506,22.367],[114.5053,22.14497],[114.256,22.135],[114.253,22.135],[113.9122,22.13041],[113.83,22.18],[113.813,22.219],[113.836,22.271],[113.8472,22.2742],[113.865,22.334],[113.868,22.42978],[113.9478,22.4733]]]}}
