{"type":"Feature","properties":{"sourceId":"hessen"},"geometry":{"type":"Polygon","coordinates":[[[9.499319,51.65916],[9.505234,51.62899],[9.524288,51.62803],[9.541111,51.64157],[9.554844,51.64039],[9.567547,51.62697],[9.613258,51.63526],[9.632606,51.63848],[9.641018,51.6178],[9.695949,51.57792],[9.687023,51.56555],[9.650459,51.54922],[9.629173,51.54666],[9.615612,51.51985],[9.589691,51.51911],[9.649257,51.4678],[9.631834,51.45786],[9.645138,51.41725],[9.632692,51.40295],[9.593382,51.3969],[9.581623,51.39797],[9.561024,51.37741],[9.580593,51.37242],[9.569435,51.36085],[9.5545,51.35892],[9.568062,51.3438],[9.582138,51.34359],[9.672088,51.31946],[9.731483,51.29756],[9.735088,51.3186],[9.692001,51.36749],[9.787445,51.39305],[9.79414,51.40981],[9.906235,51.42201],[9.933872,51.39235],[9.93375648017972,51.382564396619436],[9.912525,51.38008],[9.927233,51.30997],[9.96439,51.28044],[10.02729,51.26906],[10.0567,51.22279],[10.2092,51.18253],[10.20997,51.1727],[10.10353,51.14576],[10.13256,51.09438],[10.13682,51.05157],[10.19681,51.03332],[10.17669,51.00971],[10.13411,51.01823],[10.03348,51.02334],[10.00368,50.98145],[10.02109,50.95585],[9.931297,50.95293],[9.9282,50.92793],[10.02187,50.88058],[9.945618,50.83416],[9.914654,50.785],[9.915041,50.72929],[9.863176,50.67315],[9.866659,50.63266],[9.948714,50.61646],[9.982775,50.63831],[9.963809,50.6577],[10.04141,50.66825],[10.06735,50.63733],[10.02477,50.61842],[10.03367,50.57297],[10.02477,50.51197],[10.037009560293138,50.51197],[10.02975,50.48657],[10.0162,50.47085],[9.9967,50.46182],[9.970269,50.43797],[9.917221,50.41207],[9.870186,50.41087],[9.853449,50.40239],[9.810362,50.42224],[9.804182,50.42569],[9.788475,50.4264],[9.769421,50.42689],[9.758949,50.42607],[9.749679,50.41443],[9.741037,50.36353],[9.731641,50.35823],[9.731985,50.35081],[9.741298,50.32771],[9.744294,50.31266],[9.720145,50.29546],[9.710502,50.29168],[9.704674,50.28439],[9.651661,50.27267],[9.634666,50.25253],[9.637367,50.24042],[9.617969,50.22587],[9.576645,50.23392],[9.548722,50.23076],[9.507533,50.24392],[9.498845,50.24344],[9.492552,50.2226],[9.505461,50.2002],[9.493802,50.18597],[9.504032,50.14748],[9.507876,50.10069],[9.47005,50.09652],[9.413499,50.0882],[9.393189,50.11702],[9.381631,50.13137],[9.327027,50.14312],[9.30985,50.13623],[9.280213,50.144],[9.25898,50.14054],[9.222066,50.15072],[9.182475,50.13892],[9.168474,50.11292],[9.154767,50.11828],[9.121111,50.12825],[9.097362,50.12605],[9.051064,50.11762],[9.015416,50.11224],[8.996395,50.09377],[8.997731,50.0702],[8.99023,50.0695],[8.989679,50.06675],[8.976088,50.05279],[8.975186,50.04948],[8.97789,50.04402],[8.984928,50.04071],[8.991795,50.04113],[9.006729,50.04463],[9.024765,50.04248],[9.031012,50.03636],[9.028827,50.02764],[9.029205,50.0216],[9.031749,50.01695],[9.038401,50.01019],[9.034367,50.00666],[9.012523,49.99135],[9.017672,49.97756],[9.024281,49.95525],[9.017758,49.94672],[9.024153,49.94517],[9.025526,49.93401],[9.029131,49.92426],[9.021792,49.90987],[9.02647,49.90763],[9.034367,49.89596],[9.036426,49.89005],[9.03574,49.87638],[9.042864,49.87113],[9.031706,49.86748],[9.033852,49.84618],[9.039602,49.83843],[9.048185,49.84081],[9.057798,49.83178],[9.075222,49.81633],[9.088955,49.78969],[9.094534,49.78919],[9.111442,49.79595],[9.127579,49.79478],[9.125948,49.78797],[9.131441,49.78248],[9.110413,49.7745],[9.105089,49.75788],[9.142453,49.74372],[9.112846,49.7045],[9.088955,49.69623],[9.083895,49.68472],[9.086981,49.66818],[9.098997,49.65946],[9.066811,49.62328],[9.062013,49.61576],[9.064321,49.6017],[9.082628,49.59742],[9.095821335878508,49.580855679623895],[9.0699,49.57644],[9.068785,49.56425],[9.069934,49.53864],[9.031105,49.50648],[8.986129,49.51206],[8.948364,49.50738],[8.930511,49.47906],[8.902359,49.50559],[8.823738,49.51183],[8.825798,49.52989],[8.776359,49.52409],[8.732757,49.52788],[8.699318,49.5719],[8.708772,49.58993],[8.695425,49.63137],[8.61812,49.62309],[8.580302,49.61156],[8.585864,49.59101],[8.60811,49.55098],[8.583083,49.52644],[8.546377,49.53294],[8.530805,49.55639],[8.473522,49.59678],[8.45072,49.59642],[8.420678330149157,49.59057713874159],[8.408832,49.61213],[8.38935,49.62451],[8.372865,49.66138],[8.360501,49.67884],[8.363124,49.69278],[8.390848,49.70611],[8.445173,49.72016],[8.48196,49.7577],[8.483677,49.76208],[8.480072,49.76779],[8.472176,49.77134],[8.432436,49.76868],[8.418947,49.77813],[8.405657,49.8026],[8.382225,49.82641],[8.38892,49.84651],[8.391323,49.85636],[8.384113,49.86156],[8.359566,49.86676],[8.344578,49.88821],[8.361812,49.91331],[8.339825,49.96392],[8.318538,49.98192],[8.292274,49.99693],[8.279056,50.00873],[8.267727,50.02252],[8.239231,50.0363],[8.209705,50.04071],[8.164472,50.03498],[8.149967,50.03052],[8.135719,50.02864],[8.115463,50.02318],[8.09761,50.0196],[8.072805,50.0148],[8.057098,50.01232],[8.043623,50.01028],[8.029203,50.00344],[8.018045,50.0009],[8.004999,49.99648],[7.997875,49.99025],[7.968693,49.98087],[7.947922,49.97789],[7.930412,49.97739],[7.925005,49.97805],[7.907581,49.97673],[7.887926,49.97435],[7.875322,49.97672],[7.86973,49.9807],[7.864666,49.98915],[7.865095,49.99632],[7.861147,50.00768],[7.85634,50.01315],[7.838058,50.02087],[7.832308,50.02368],[7.8263,50.02996],[7.822952,50.03167],[7.814627,50.03983],[7.8057,50.04275],[7.796516,50.0454],[7.786388,50.05179],[7.780981,50.05488],[7.803898,50.07962],[7.837372,50.07863],[7.841406,50.0876],[7.839947,50.10137],[7.855911,50.1236],[7.884321,50.11139],[7.905779,50.1192],[7.917967,50.10374],[7.925777,50.09966],[7.931871,50.10263],[7.93436,50.14413],[7.886124,50.16854],[7.890072,50.17343],[7.888269,50.18124],[7.914019,50.19333],[7.919598,50.20591],[7.948694,50.20877],[7.995043,50.22827],[8.011522,50.21657],[8.03401,50.21349],[8.038044,50.21651],[8.04328,50.22437],[8.058987,50.23354],[8.058965,50.23461],[8.057442,50.23616],[8.050833,50.2449],[8.038645,50.26998],[8.066368,50.26965],[8.078298,50.25862],[8.104734,50.25829],[8.11203,50.26038],[8.12499,50.27711],[8.126879,50.28945],[8.120871,50.30272],[8.10688,50.31472],[8.109026,50.32256],[8.096151,50.33302],[8.077869,50.34749],[8.06757,50.3678],[8.061561,50.37678],[8.045254,50.38168],[8.044181,50.38677],[8.038602,50.38661],[8.021779,50.38729],[8.025942,50.40193],[8.010492,50.40198],[7.981825,50.41043],[7.988176,50.42252],[7.991266,50.43389],[7.991352,50.44258],[8.007746,50.44461],[8.01341,50.45242],[8.01281,50.46133],[7.991009,50.47581],[7.984142,50.49367],[7.993326,50.49798],[7.988691,50.503],[7.987575,50.50999],[7.998819,50.51643],[8.036928,50.55004],[8.047142,50.55118],[8.063621,50.54709],[8.068771,50.5364],[8.102684,50.53104],[8.121815,50.5346],[8.142242,50.55216],[8.156662,50.59958],[8.140526,50.61505],[8.144302,50.63389],[8.113575,50.66578],[8.114204,50.67043],[8.125454550344983,50.68032945025963],[8.127437,50.67897],[8.15237,50.70429],[8.172455,50.73613],[8.164043,50.74775],[8.14045,50.78964],[8.179241,50.8027],[8.27499,50.87059],[8.30671,50.8502],[8.369067,50.86137],[8.433705,50.91353],[8.461202,50.91623],[8.467369,50.96022],[8.523761,51.00127],[8.540187,51.01876],[8.53081,51.04505],[8.537859,51.06388],[8.508224,51.07635],[8.518352,51.08369],[8.555603,51.09975],[8.616886,51.09824],[8.657226,51.09323],[8.672933,51.09959],[8.692417,51.108],[8.708467,51.10659],[8.722801,51.1088],[8.722544,51.11689],[8.711042,51.11888],[8.704691,51.11899],[8.698168,51.13552],[8.76194,51.17445],[8.757305,51.19425],[8.768892,51.2021],[8.771467,51.20952],[8.744516,51.21898],[8.734989,51.25133],[8.740311,51.2632],[8.718939,51.27937],[8.691902,51.27759],[8.626842,51.2631],[8.599891,51.25031],[8.569851,51.2805],[8.570022,51.28704],[8.608818,51.3084],[8.619633,51.32525],[8.654308,51.33683],[8.689412,51.35754],[8.698811,51.36891],[8.744087,51.37199],[8.812923,51.38625],[8.853779,51.37425],[8.891887,51.39064],[8.940983,51.38603],[8.946819,51.39653],[8.955059,51.4128],[8.948707,51.43068],[8.927593,51.43379],[8.92416,51.44684],[8.912315,51.46567],[8.893776,51.48031],[8.960209,51.49859],[8.972531,51.50302],[8.97116,51.50429],[8.971278927266935,51.50499034946084],[8.968161733714771,51.507405134311504],[8.971899,51.50451],[8.97323,51.50327],[8.986645,51.5081],[9.004154,51.51077],[9.018917,51.51366],[9.023358,51.50092],[9.08123,51.49303],[9.065998,51.46814],[9.074497,51.44149],[9.156649,51.4369],[9.221134,51.45582],[9.225082,51.47989],[9.291633,51.50633],[9.312801,51.51056],[9.327736,51.55071],[9.381981,51.59126],[9.348507,51.61002],[9.431321,51.62757],[9.44807,51.64295],[9.441297990441495,51.65199821439238],[9.499319,51.65916]]]}}
