{"type":"Feature","properties":{"sourceId":"hebei"},"geometry":{"type":"MultiPolygon","coordinates":[[[[114.0934,40.75818],[114.0662,40.78704],[114.0384,40.81355],[114.0309,40.83096],[114.045,40.84472],[114.0257,40.92596],[113.9691,40.93608],[113.9684,40.96227],[113.9632,40.97912],[113.9214,41.00633],[113.8743,41.05217],[113.816,41.08168],[113.8108,41.10367],[113.8537,41.11324],[113.8994,41.1771],[113.9904,41.18692],[113.9969,41.23057],[113.9426,41.2378],[113.8863,41.31547],[113.9282,41.38789],[113.8575,41.41132],[113.875,41.4399],[113.9231,41.48595],[113.988,41.52452],[114.0913,41.54379],[114.1421,41.53274],[114.2139,41.51809],[114.2104,41.54867],[114.2067,41.57436],[114.2231,41.58797],[114.2139,41.62083],[114.2393,41.62443],[114.2032,41.67625],[114.207,41.69958],[114.1857,41.78975],[114.2812,41.87058],[114.3127,41.92195],[114.3406,41.95183],[114.3622,41.9623],[114.4199,41.94851],[114.4872,41.97302],[114.4508,42.03629],[114.4978,42.1107],[114.5637,42.13693],[114.7546,42.11758],[114.7865,42.15093],[114.827,42.14966],[114.8573,42.10153],[114.9002,42.01665],[114.9321,41.93217],[114.918,41.91173],[114.9321,41.9079],[114.9348,41.89614],[114.9211,41.89129],[114.9393,41.84501],[114.9276,41.82276],[114.8758,41.80408],[114.8967,41.75441],[114.8991,41.68855],[114.8936,41.63187],[114.8696,41.60903],[114.9939,41.61467],[115.0797,41.62468],[115.1415,41.62135],[115.2414,41.58566],[115.2493,41.61262],[115.2847,41.62597],[115.3063,41.59414],[115.3475,41.60132],[115.3156,41.6783],[115.2998,41.7065],[115.4471,41.75262],[115.5669,41.79487],[115.6266,41.82404],[115.6816,41.85831],[115.7248,41.89384],[115.7571,41.8918],[115.8192,41.94366],[115.8491,41.93625],[115.9202,41.94621],[115.9507,41.88976],[116.0046,41.82941],[116.01,41.795],[116.0651,41.78411],[116.0992,41.79167],[116.0953,41.84297],[116.1804,41.87825],[116.2072,41.936],[116.3164,42.01308],[116.3686,42.0141],[116.4159,41.99726],[116.4942,41.98706],[116.7187,41.98246],[116.85,42.02],[116.8726,42.08447],[116.8437,42.13591],[116.8238,42.13846],[116.7723,42.20665],[116.8993,42.19546],[116.8945,42.25495],[116.8705,42.34281],[116.8787,42.39152],[116.9481,42.42701],[117.0065,42.45842],[117.0483,42.46146],[117.0882,42.48476],[117.15,42.4726],[117.2015,42.47412],[117.2694,42.48526],[117.3257,42.46804],[117.3793,42.46399],[117.4054,42.49286],[117.3683,42.51463],[117.4349,42.60061],[117.542,42.61476],[117.667,42.58949],[117.7714,42.62487],[117.7927,42.62234],[117.7961,42.59454],[118.0268,42.40064],[118.0158,42.34231],[118.0639,42.29814],[118.1099,42.15781],[118.0888,42.11312],[118.1496,42.09122],[118.1624,42.08039],[118.1336,42.03374],[118.1992,42.04394],[118.2088,42.09338],[118.2634,42.09007],[118.2953,42.05592],[118.2905,42.04394],[118.275,42.01818],[118.321,41.97302],[118.3094,41.93344],[118.2747,41.92221],[118.3365,41.87391],[118.3344,41.84118],[118.2984,41.76978],[118.2678,41.74621],[118.2318,41.77054],[118.2129,41.80664],[118.1494,41.78693],[118.145,41.74],[118.159,41.7006],[118.2156,41.64726],[118.2204,41.58951],[118.3159,41.56434],[118.3056,41.46717],[118.355,41.445],[118.3708,41.34254],[118.3832,41.31676],[118.4192,41.34022],[118.5191,41.36238],[118.6647,41.35723],[118.7437,41.32655],[118.7612,41.35413],[118.8278,41.37501],[118.8443,41.37372],[118.8443,41.34769],[118.8958,41.30541],[118.9459,41.31908],[119.0341,41.30077],[119.1515,41.30154],[119.1872,41.28942],[119.1965,41.30257],[119.2227817236894,41.31055380361853],[119.2278,41.27007],[119.14,41.21],[119.16,41.19],[119.0733,41.1404],[119.05,41.1],[118.9545,41.08142],[118.9201,41.04466],[118.9311,41.0141],[118.9984,40.99959],[118.9929,40.97005],[118.9651,40.96227],[118.9414,40.96072],[118.9088,40.97238],[118.8858,40.95527],[118.8607,40.86082],[118.8305,40.81641],[118.8381,40.79692],[118.8861,40.7691],[118.88,40.75],[118.9133,40.74023],[118.983,40.68663],[119.043,40.67126],[119.0461,40.65616],[119.076,40.66501],[119.1155,40.65434],[119.1581,40.68246],[119.1708,40.66345],[119.1268,40.63219],[119.1484,40.59336],[119.1872,40.59884],[119.2216,40.59075],[119.2102,40.56833],[119.2102,40.55737],[119.2545,40.53024],[119.304,40.52293],[119.4221,40.52972],[119.4756,40.5258],[119.5364,40.54042],[119.5556,40.52763],[119.5347,40.50936],[119.5385,40.49683],[119.5827,40.45687],[119.5876,40.40461],[119.5762,40.37375],[119.5886,40.3298],[119.6384,40.2701],[119.6109,40.22712],[119.6195,40.21506],[119.6631,40.22922],[119.7043,40.18989],[119.7369,40.18937],[119.7427,40.13427],[119.7338,40.11642],[119.7235,40.10696],[119.751,40.08122],[119.752,40.056],[119.7704,40.03944],[119.7906,40.03629],[119.8009,40.03957],[119.81,40.04483],[119.8232,40.04588],[119.8378,40.03498],[119.8401,40.02656],[119.8387,40.02104],[119.8351,40.00605],[119.92117394385065,39.70661501169554],[118.79018215976811,38.426897723262265],[118.0416,38.40141],[117.8967,38.30375],[117.8558,38.27626],[117.8423,38.26561],[117.8291,38.26386],[117.8052,38.27734],[117.7988,38.27761],[117.7858,38.26224],[117.7993,38.22733],[117.7848,38.20554],[117.7833,38.17242],[117.7566,38.16345],[117.7586,38.13577],[117.7351,38.12396],[117.7231,38.10829],[117.7203,38.09498],[117.7022,38.07985],[117.6725,38.08046],[117.6159,38.07424],[117.5774,38.07262],[117.5489,38.05938],[117.5324,38.03025],[117.5139,38.00482],[117.505,37.94907],[117.4768,37.93012],[117.4557,37.88894],[117.4401,37.86686],[117.4159,37.8468],[117.3203,37.86591],[117.2993,37.85561],[117.2607,37.84138],[117.1761,37.851],[117.1359,37.84273],[117.0715,37.85182],[117.0337,37.83758],[116.9733,37.84165],[116.9059,37.84666],[116.7996,37.84206],[116.763,37.81534],[116.74,37.8007],[116.7373,37.78984],[116.7457,37.78415],[116.7416,37.76081],[116.7133,37.76909],[116.7088,37.74981],[116.6932,37.73977],[116.6702,37.72769],[116.6625,37.70223],[116.6529,37.68199],[116.6319,37.68267],[116.627,37.65889],[116.5949,37.62463],[116.5705,37.61178],[116.5398,37.58329],[116.5166,37.56349],[116.4923,37.53791],[116.477,37.52239],[116.4569,37.51858],[116.4528,37.51558],[116.4424,37.50619],[116.4362,37.49175],[116.4285,37.47901],[116.4179,37.48365],[116.4078,37.4989],[116.4011,37.50734],[116.399,37.5134],[116.3852,37.51504],[116.3836,37.52218],[116.3681,37.52511],[116.3738,37.53961],[116.3747,37.56288],[116.3595,37.56948],[116.3371,37.57615],[116.3342,37.58057],[116.3283,37.58254],[116.3135,37.5805],[116.2916,37.56928],[116.2808,37.54941],[116.2838,37.54247],[116.2685,37.52164],[116.2723,37.50979],[116.2781,37.50448],[116.2757,37.48371],[116.2618,37.4784],[116.2358,37.49263],[116.2166,37.4799],[116.2226,37.45694],[116.2346,37.45476],[116.2352,37.44883],[116.2215,37.43868],[116.2175,37.42634],[116.2371,37.41925],[116.2538,37.42525],[116.2547,37.41939],[116.2695,37.40419],[116.2287,37.36375],[116.1916,37.36743],[116.1623,37.38564],[116.1285,37.37712],[116.113,37.37623],[116.0558,37.37152],[116.0172,37.35965],[115.9939,37.35133],[115.9926,37.34336],[115.9825,37.34176],[115.9796,37.34046],[115.9759,37.3385],[115.9719,37.33833],[115.9702,37.33768],[115.9688,37.33615],[115.9691,37.33406],[115.9771,37.32656],[115.9656,37.3241],[115.9676,37.31605],[115.9763,37.31673],[115.9657,37.30069],[115.9598,37.28744],[115.9682,37.27508],[115.959,37.2511],[115.9621,37.24283],[115.937,37.23012],[115.9061,37.21167],[115.8973,37.18931],[115.9005,37.17796],[115.8822,37.15998],[115.874,37.15293],[115.872,37.14739],[115.8743,37.12289],[115.8648,37.09585],[115.8592,37.08072],[115.8483,37.06121],[115.8345,37.05107],[115.8254,37.04565],[115.8234,37.04244],[115.82,37.03415],[115.8159,37.03099],[115.8049,37.02962],[115.8069,37.02147],[115.784,37.00632],[115.7768,36.99769],[115.7708,36.99549],[115.7686,36.98946],[115.7715,36.98494],[115.7735,36.97102],[115.7859,36.9658],[115.7807,36.95298],[115.7591,36.94173],[115.7529,36.93487],[115.7542,36.92348],[115.7598,36.91662],[115.7538,36.90845],[115.7428,36.90722],[115.7352,36.90838],[115.7293,36.89836],[115.7142,36.88992],[115.7053,36.88309],[115.6948,36.86912],[115.6944,36.86163],[115.6866,36.84786],[115.682,36.84347],[115.6841,36.83072],[115.6825,36.82547],[115.6798,36.81598],[115.6722,36.81166],[115.6584,36.81341],[115.6373,36.80489],[115.5794,36.78303],[115.548,36.77767],[115.5454,36.78372],[115.5365,36.78743],[115.5295,36.78317],[115.4889,36.76668],[115.4782,36.76099],[115.4706,36.75964],[115.4683,36.74602],[115.4406,36.70724],[115.4133,36.68838],[115.3794,36.65782],[115.3704,36.63454],[115.347,36.62944],[115.3322,36.60189],[115.3257,36.58242],[115.3241,36.56426],[115.3221,36.55109],[115.3058,36.53399],[115.3009,36.52919],[115.294,36.53178],[115.2871,36.53295],[115.2798,36.52802],[115.2862,36.50208],[115.2668,36.50053],[115.2646,36.48818],[115.2769,36.47607],[115.2861,36.45853],[115.307,36.4556],[115.308,36.45073],[115.3107,36.44963],[115.3103,36.44307],[115.2896,36.41614],[115.2919,36.41023],[115.3197,36.39641],[115.3362,36.39503],[115.3422,36.35834],[115.3619,36.34168],[115.3441,36.30959],[115.3618,36.30378],[115.407,36.32405],[115.4117,36.27929],[115.4539,36.26884],[115.4539,36.25037],[115.4686,36.2451],[115.467,36.20772],[115.4744,36.15583],[115.47451654545253,36.15463989162901],[115.48044510938347,36.14814187353102],[115.4522,36.1791],[115.4403,36.17313],[115.4316,36.14869],[115.3964,36.15728],[115.3832,36.13094],[115.3638,36.13054],[115.3587,36.09941],[115.2981,36.09211],[115.2998,36.12983],[115.2716,36.1394],[115.2579,36.17322],[115.2426,36.19234],[115.1922,36.21519],[115.1662,36.19137],[115.1434,36.20965],[115.1154,36.21201],[115.0935,36.203],[115.0847,36.1861],[115.0612,36.18139],[115.0353,36.1613],[115.0336,36.11777],[115.0088,36.08781],[114.9929,36.07061],[114.9551,36.07408],[114.9165,36.0533],[114.923,36.09766],[114.9058,36.11638],[114.9093,36.14245],[114.8756,36.15049],[114.855,36.14889],[114.8455,36.1347],[114.819,36.13025],[114.7982,36.13566],[114.7749,36.13593],[114.7642,36.1315],[114.7386,36.15617],[114.7303,36.15766],[114.7191,36.14952],[114.7048,36.14522],[114.6796,36.14799],[114.6046,36.13025],[114.5903,36.12304],[114.58,36.14564],[114.54,36.16144],[114.5275,36.17447],[114.475,36.18514],[114.4552,36.20397],[114.4135,36.20675],[114.4085,36.22267],[114.4022,36.22655],[114.3661,36.22821],[114.3517,36.23804],[114.3426,36.2568],[114.3236,36.25659],[114.2541,36.26345],[114.2366,36.2559],[114.2178,36.27134],[114.2048,36.27279],[114.1946,36.2467],[114.1696,36.26573],[114.1296,36.28296],[114.0605,36.276],[114.0433,36.29583],[114.0438,36.30385],[114.0568,36.31713],[114.0509,36.33304],[114.0328,36.32909],[114.0274,36.35253],[114.02,36.35723],[114.0018,36.34914],[113.982,36.36048],[113.9489,36.36262],[113.9395,36.35682],[113.9129,36.32169],[113.879,36.3564],[113.8532,36.35696],[113.8439,36.34914],[113.8309,36.33635],[113.8146,36.33234],[113.7739,36.36007],[113.7431,36.36801],[113.73113803072036,36.365969428769944],[113.7181,36.42515],[113.6742,36.43068],[113.5602,36.51681],[113.5938,36.53778],[113.5554,36.62931],[113.495,36.65],[113.5094,36.69692],[113.4955,36.7232],[113.5904,36.74109],[113.6827,36.79416],[113.6807,36.84886],[113.7068,36.8766],[113.73,36.835],[113.7662,36.85298],[113.7713,36.86946],[113.7967,36.8788],[113.7658,36.94907],[113.7936,36.99789],[113.7724,37.01626],[113.7916,37.03956],[113.7823,37.05668],[113.7778,37.06148],[113.765,37.06189],[113.7655,37.07353],[113.77,37.10366],[113.771,37.14664],[113.7964,37.15348],[113.8235,37.16469],[113.8442,37.20224],[113.8494,37.20934],[113.8535,37.21338],[113.8607,37.22076],[113.875,37.24153],[113.9155,37.33905],[113.9536,37.34123],[113.9574,37.36825],[113.9705,37.39471],[113.9904,37.4198],[114.0079,37.41516],[114.0319,37.44406],[114.0357,37.47785],[114.1054,37.53777],[114.1349,37.64088],[114.1363,37.67146],[114.1308,37.69713],[114.0992,37.71873],[114.0499,37.7304],[114.0115,37.72837],[114.0444,37.76013],[114.0413,37.78496],[114.0135,37.8148],[113.9727,37.82267],[113.9742,37.88352],[113.954,37.91644],[113.9293,37.92795],[113.9246,37.94934],[113.9178,37.95855],[113.9056,37.98426],[113.8759,37.99616],[113.8747,38.06174],[113.8601,38.0712],[113.83,38.10647],[113.834,38.17654],[113.7887,38.16318],[113.7198,38.21768],[113.6845,38.22146],[113.6512,38.23656],[113.6189,38.23818],[113.553,38.25652],[113.5695,38.34139],[113.5331,38.364],[113.5324,38.4119],[113.5513,38.42266],[113.5633,38.4345],[113.5746,38.45009],[113.5928,38.46354],[113.5633,38.48369],[113.5588,38.52158],[113.5725,38.57045],[113.6144,38.59353],[113.6021,38.62894],[113.6203,38.64423],[113.6913,38.64235],[113.715,38.65281],[113.7174,38.6764],[113.7133,38.7048],[113.7466,38.69462],[113.7737,38.6981],[113.7679,38.73293],[113.7978,38.75462],[113.8328,38.75515],[113.8311,38.79049],[113.8523,38.80788],[113.8472,38.84078],[113.8043,38.85709],[113.773,38.93164],[113.7782,38.98103],[113.8077,38.98503],[113.9176,39.05998],[113.9468,39.0901],[113.9581,39.09676],[113.9869,39.08824],[114.0364,39.10795],[114.1064,39.04399],[114.218,39.04159],[114.3471,39.07198],[114.366,39.10502],[114.3677,39.13139],[114.3818,39.15988],[114.4538,39.17239],[114.475,39.205],[114.4672,39.23039],[114.424,39.23624],[114.4346,39.25831],[114.426,39.29127],[114.4779,39.34173],[114.4765,39.40622],[114.515,39.46],[114.5421,39.49927],[114.5692,39.56256],[114.57,39.58],[114.5407,39.58426],[114.5174,39.56388],[114.5002,39.60569],[114.4714,39.6168],[114.4312,39.60886],[114.4072,39.64403],[114.4054,39.69424],[114.4168,39.75445],[114.4181,39.78057],[114.3955,39.81038],[114.4024,39.8322],[114.3932,39.84057],[114.3935,39.84657],[114.3935,39.855],[114.3931,39.87075],[114.2726,39.87549],[114.2173,39.86285],[114.2046,39.87839],[114.2321,39.89841],[114.206,39.92317],[114.174,39.90315],[114.138,39.91553],[114.0439,39.92554],[114.0261,39.98659],[114.0189,39.99606],[113.9402,40.01105],[113.9626,40.03892],[113.9777,40.05942],[113.9773,40.08411],[113.9759,40.10906],[113.9907,40.10696],[114.0089,40.09856],[114.0165,40.07781],[114.0195,40.05968],[114.036,40.05259],[114.0882,40.06914],[114.0975,40.10591],[114.0748,40.1529],[114.0673,40.16707],[114.0631,40.18123],[114.0916,40.18491],[114.1232,40.16786],[114.23,40.18832],[114.2393,40.21139],[114.4514,40.24416],[114.5225,40.29733],[114.5321,40.3421],[114.5201,40.35623],[114.4418,40.37532],[114.3189,40.36983],[114.2928,40.40487],[114.2822,40.42944],[114.295,40.435],[114.2832,40.5044],[114.2942,40.52998],[114.2911,40.54903],[114.2853,40.5931],[114.254,40.61395],[114.229,40.61057],[114.2135,40.63298],[114.1926,40.65876],[114.1555,40.71604],[114.1352,40.74283],[114.1225,40.75116],[114.10785213312792,40.7476730299216],[114.0934,40.75818]],[[117.2149,40.49403],[117.2096,40.50982],[117.2434,40.50995],[117.2607,40.51054],[117.2581,40.52032],[117.2464,40.53735],[117.2561,40.54922],[117.3098,40.57361],[117.3572,40.56963],[117.3814,40.55535],[117.4264,40.57081],[117.4219,40.62242],[117.4478,40.62561],[117.4476,40.64496],[117.4614,40.64613],[117.4686,40.63167],[117.4826,40.63083],[117.5086,40.63864],[117.5095,40.66384],[117.474,40.68259],[117.4487,40.67693],[117.4189,40.68578],[117.3856,40.68689],[117.2935,40.66007],[117.2542,40.68168],[117.208,40.69268],[117.1587,40.69945],[117.1464,40.6973],[117.1021,40.70771],[117.0034,40.6971],[116.9399,40.73997],[116.9182,40.78067],[116.8913,40.77781],[116.8928,40.79939],[116.8484,40.84304],[116.8181,40.84771],[116.7986,40.84706],[116.7838,40.88237],[116.7155,40.91027],[116.7198,40.93167],[116.6856,40.96033],[116.6815,40.9808],[116.6949,41.01488],[116.6879,41.04402],[116.6326,41.06382],[116.6065,41.05308],[116.6049,41.01242],[116.5958,40.97912],[116.545,41.00192],[116.447,40.98884],[116.4305,40.90145],[116.3608,40.9484],[116.327,40.92454],[116.3236,40.90365],[116.3557,40.87835],[116.4415,40.78561],[116.4439,40.77144],[116.4031,40.78054],[116.2731,40.76962],[116.2494,40.79224],[116.2256,40.78873],[116.2065,40.74375],[116.1945,40.73776],[116.1675,40.70563],[116.1545,40.66645],[116.127,40.66892],[116.0881,40.63154],[116.0158,40.60613],[115.9907,40.58854],[115.9518,40.61382],[115.9011,40.61786],[115.8647,40.59962],[115.8125,40.58671],[115.7949,40.56363],[115.7636,40.55646],[115.7417,40.53768],[115.7236,40.49579],[115.7641,40.48521],[115.7627,40.46406],[115.7665,40.4604],[115.7705,40.45968],[115.7676,40.45521],[115.7646,40.45129],[115.764,40.44652],[115.7623,40.44198],[115.7861,40.42715],[115.8353,40.37499],[115.8572,40.35655],[115.8924,40.35309],[115.9102,40.3525],[115.9159,40.32155],[115.9573,40.25988],[115.9185,40.25451],[115.901,40.23826],[115.8902,40.23636],[115.8755,40.2167],[115.8626,40.18792],[115.8458,40.19009],[115.8398,40.18314],[115.844,40.17763],[115.8362,40.16792],[115.8429,40.15362],[115.8375,40.14673],[115.7968,40.16261],[115.7833,40.18025],[115.7643,40.17704],[115.746,40.16294],[115.7199,40.13],[115.7029,40.13466],[115.6926,40.13161],[115.6919,40.12649],[115.6864,40.13157],[115.6508,40.13295],[115.5784,40.11773],[115.5581,40.09908],[115.5109,40.07177],[115.4457,40.03051],[115.434,40.01039],[115.416,39.97515],[115.4155,39.94896],[115.4467,39.93936],[115.4845,39.91764],[115.513,39.89841],[115.4981,39.88471],[115.5066,39.83451],[115.5406,39.81104],[115.5099,39.78994],[115.4787,39.80036],[115.4206,39.78031],[115.4176,39.77028],[115.4315,39.74679],[115.4579,39.73623],[115.4788,39.73346],[115.4708,39.64813],[115.4939,39.64588],[115.5104,39.6357],[115.5039,39.60913],[115.503,39.58823],[115.5171,39.58704],[115.5391,39.61243],[115.5643,39.58783],[115.5789,39.58492],[115.6266,39.59471],[115.6733,39.60132],[115.6805,39.59339],[115.6835,39.58915],[115.6869,39.58611],[115.6865,39.5828],[115.6865,39.57725],[115.6902,39.57268],[115.6854,39.56296],[115.7091,39.5576],[115.715,39.54138],[115.728,39.54231],[115.736,39.53019],[115.7372,39.52119],[115.7449,39.5096],[115.8253,39.50437],[115.8193,39.53],[115.8387,39.54092],[115.8659,39.54443],[115.8791,39.54628],[115.8882,39.55449],[115.8877,39.56739],[115.9059,39.56593],[115.9103,39.58201],[115.9043,39.58896],[115.9049,39.59841],[115.9208,39.59114],[115.9276,39.58128],[115.9502,39.55918],[115.9623,39.56084],[115.9732,39.5697],[115.9739,39.59121],[115.9815,39.59087],[115.9883,39.5752],[116.0043,39.57513],[116.0137,39.58433],[116.0169,39.57394],[116.0258,39.57189],[116.0258,39.56997],[116.0937,39.57308],[116.0985,39.56931],[116.1061,39.56799],[116.125,39.56573],[116.1442,39.57129],[116.1509,39.58029],[116.179,39.58572],[116.1889,39.58472],[116.2013,39.57453],[116.215,39.57229],[116.2196,39.56415],[116.236,39.5478],[116.2368,39.5098],[116.2502,39.49762],[116.2737,39.48808],[116.284,39.4892],[116.3073,39.47417],[116.3236,39.45561],[116.3398,39.4519],[116.4105,39.4468],[116.4287,39.44083],[116.4443,39.44673],[116.4513,39.45409],[116.4412,39.48165],[116.4398,39.50874],[116.4619,39.52708],[116.4754,39.53509],[116.4714,39.54999],[116.5006,39.54654],[116.5242,39.57123],[116.5206,39.59021],[116.5378,39.59173],[116.5663,39.60476],[116.5663,39.61673],[116.581,39.61984],[116.5885,39.61554],[116.6046,39.61614],[116.6162,39.59769],[116.6435,39.59729],[116.6735,39.59901],[116.6763,39.59683],[116.687,39.5965],[116.6976,39.58565],[116.7048,39.58611],[116.7226,39.59134],[116.7213,39.59815],[116.7051,39.60747],[116.7,39.60893],[116.7008,39.61495],[116.7111,39.61799],[116.7226,39.62057],[116.7242,39.6168],[116.7315,39.61382],[116.7454,39.61541],[116.7576,39.60893],[116.7676,39.59782],[116.7696,39.59266],[116.7751,39.59154],[116.7873,39.59491],[116.7866,39.60794],[116.80019466250208,39.612352040650855],[116.7874,39.59564],[116.7974,39.57685],[116.7764,39.54747],[116.7984,39.52391],[116.8077,39.48391],[116.7751,39.46641],[116.78,39.445],[116.8272,39.43195],[116.8468,39.43832],[116.8568,39.43169],[116.8245,39.41126],[116.8097,39.37544],[116.819,39.33642],[116.8434,39.3343],[116.8588,39.34704],[116.8769,39.33078],[116.8774,39.31783],[116.8533,39.29738],[116.8705,39.23412],[116.8454,39.21523],[116.8599,39.1511],[116.8846,39.1519],[116.9031,39.1463],[116.9079,39.129],[116.8557,39.05892],[116.7795,39.06345],[116.7486,39.05145],[116.7253,38.98717],[116.6985,38.93805],[116.6944,38.89397],[116.7115,38.8929],[116.7088,38.84987],[116.7328,38.84853],[116.7284,38.78942],[116.7349,38.74926],[116.7452,38.7415],[116.783,38.73507],[116.852,38.73614],[116.8629,38.69623],[116.8657,38.67693],[116.9127,38.67452],[117.0188,38.68953],[117.0473,38.6772],[117.0418,38.64074],[117.0658,38.59487],[117.0916,38.5785],[117.1198,38.58199],[117.1544,38.60721],[117.2028,38.62022],[117.2124,38.63726],[117.2209,38.62277],[117.2255,38.58481],[117.2459,38.55327],[117.3125,38.55367],[117.3637,38.56186],[117.3925,38.57407],[117.4212,38.58897],[117.4864,38.60963],[117.5262,38.59755],[117.5479,38.6111],[117.5757,38.60882],[117.8675,38.63886],[118.0083,39.05758],[118.0582,39.22095],[118.063,39.25785],[118.0331,39.26429],[118.0298,39.28728],[117.9642,39.31783],[117.885,39.33416],[117.8471,39.33722],[117.8617,39.36085],[117.8524,39.36854],[117.8622,39.37505],[117.8723,39.43937],[117.9003,39.47198],[117.9022,39.49755],[117.9094,39.51808],[117.9061,39.53198],[117.9195,39.55991],[117.9296,39.56679],[117.9278,39.5787],[117.8989,39.59286],[117.8581,39.60225],[117.822,39.59286],[117.7952,39.60344],[117.7652,39.60079],[117.7443,39.5955],[117.7374,39.59061],[117.7461,39.57831],[117.7259,39.57407],[117.7276,39.55912],[117.7321,39.54231],[117.7125,39.53807],[117.7048,39.54853],[117.6957,39.56203],[117.6972,39.58426],[117.6703,39.59034],[117.6516,39.58677],[117.6392,39.59987],[117.637,39.6119],[117.6394,39.62063],[117.6595,39.6328],[117.6629,39.65011],[117.6634,39.6665],[117.6404,39.70177],[117.6207,39.71141],[117.5884,39.71867],[117.5932,39.74455],[117.5494,39.7629],[117.56,39.785],[117.5642,39.79851],[117.5475,39.82119],[117.5456,39.84519],[117.5362,39.85415],[117.5099,39.89946],[117.5209,39.92988],[117.5108,39.93988],[117.5288,39.94673],[117.5453,39.97659],[117.54,39.99106],[117.558,39.98685],[117.5887,39.98962],[117.6059,39.97146],[117.6222,39.96436],[117.6648,39.96752],[117.691,39.98107],[117.7281,39.96449],[117.7774,39.96199],[117.7911,39.98264],[117.7935,40.00789],[117.7832,40.02354],[117.7625,40.02512],[117.7436,40.01907],[117.7516,40.03721],[117.7714,40.05259],[117.7686,40.06375],[117.7515,40.08385],[117.7072,40.09528],[117.6754,40.09475],[117.6661,40.10027],[117.6564,40.10079],[117.6473,40.12482],[117.605,40.16536],[117.5788,40.17651],[117.5728,40.21768],[117.5563,40.23132],[117.4753,40.24232],[117.438,40.25307],[117.4136,40.2511],[117.3896,40.23512],[117.38159701844867,40.22944964103354],[117.3662,40.23276],[117.3356,40.24658],[117.3377,40.25353],[117.3282,40.28876],[117.3126,40.28516],[117.2906,40.28476],[117.2874,40.29995],[117.2694,40.31651],[117.2697,40.33385],[117.2507,40.34916],[117.2482,40.35936],[117.2287,40.38546],[117.235,40.39369],[117.2357,40.4197],[117.2404,40.41996],[117.2609,40.4397],[117.2314,40.45955],[117.2311,40.46941],[117.2149,40.49403]]],[[[117.1408,39.89604],[117.1458,39.88919],[117.1419,39.8689],[117.2195,39.84927],[117.2406,39.85441],[117.2483,39.84664],[117.2418,39.83438],[117.1872,39.8349],[117.1457,39.81882],[117.1482,39.80735],[117.1501,39.79522],[117.1635,39.79442],[117.1726,39.78044],[117.1939,39.76303],[117.1568,39.75036],[117.1455,39.73808],[117.1443,39.72066],[117.1573,39.70666],[117.1494,39.66253],[117.1614,39.64152],[117.1167,39.62024],[117.069,39.64013],[117.0098,39.65461],[116.9739,39.63874],[116.9484,39.67965],[116.947,39.70626],[116.9093,39.70587],[116.9101,39.69814],[116.9051,39.69689],[116.89612324280812,39.68984885607762],[116.8893,39.68929],[116.8882,39.69464],[116.882,39.70494],[116.8827,39.71419],[116.882,39.72244],[116.8933,39.72416],[116.9121,39.7301],[116.909,39.74178],[116.9018,39.75498],[116.9095,39.76052],[116.9162,39.76738],[116.9115,39.77497],[116.921,39.77972],[116.9433,39.77457],[116.9483,39.78638],[116.9354,39.79377],[116.938,39.8001],[116.9248,39.81269],[116.922,39.83438],[116.9116,39.84927],[116.903,39.85184],[116.8948,39.84808],[116.8914,39.84374],[116.8787,39.84558],[116.8628,39.84433],[116.8453,39.86067],[116.8211,39.87806],[116.8059,39.88972],[116.788,39.88531],[116.7811,39.91882],[116.7822,39.93574],[116.7739,39.95331],[116.7676,39.96035],[116.7571,39.95811],[116.7584,39.9714],[116.7706,39.99225],[116.7719,40.00145],[116.7667,40.01026],[116.774,40.03235],[116.7961,40.02702],[116.8163,40.02571],[116.8181,40.03636],[116.818,40.04523],[116.827,40.04713],[116.8646,40.03846],[116.8964,40.04569],[116.9063,40.04989],[116.9113,40.0422],[116.9244,40.04956],[116.9399,40.03971],[116.9562,40.04707],[116.9635,40.03425],[116.9826,40.0357],[116.9934,40.02781],[117.0162,40.02591],[117.0227,40.03031],[117.0295,40.04095],[117.0451,40.04904],[117.0593,40.05942],[117.077,40.06342],[117.0942,40.07131],[117.1284,40.06086],[117.1484,40.06533],[117.1558,40.07242],[117.1748,40.06769],[117.19099202747272,40.0658113669783],[117.1891,40.06585],[117.1785,40.06546],[117.173,40.05745],[117.1802,40.02492],[117.1897,39.99297],[117.1739,39.9787],[117.153,39.96495],[117.1383,39.94541],[117.1373,39.93455],[117.1278,39.9175],[117.1349,39.91691],[117.1365,39.91],[117.1431,39.90559],[117.1408,39.89604]]],[[[117.204243118714,40.07301517020545],[117.2082,40.06546],[117.19339917615874,40.06576221577477],[117.2009,40.06835],[117.204243118714,40.07301517020545]]]]}}
