{"type":"Feature","properties":{"sourceId":"honduras"},"geometry":{"type":"Polygon","coordinates":[[[-87.50431843277185,16.44679828964089],[-86.97776,16.67244],[-86.96233134219658,16.87299161881285],[-86.52833,17.21427],[-83.36976,17.93171],[-81.66138,15.93493],[-82.10358,14.65003],[-82.41598788514402,14.773677997768232],[-82.37865,15.0312],[-82.87811,15.1119],[-83.13955,15.00382],[-83.27259,15.01128],[-83.40271,15.03963],[-83.50159,15.01775],[-83.69556,14.88225],[-83.90396,14.78086],[-84.11304,14.79646],[-84.17141,14.72242],[-84.23184,14.76891],[-84.27475,14.74069],[-84.29535,14.68125],[-84.36195,14.72873],[-84.46323,14.63574],[-84.67232,14.70117],[-84.79037,14.85218],[-84.91039,14.84376],[-85.05199,14.72238],[-85.07579,14.59645],[-85.17975,14.58428],[-85.25117,14.37531],[-85.20374,14.29136],[-85.39161,14.25174],[-85.43939,14.14657],[-85.76897,13.99324],[-85.79489,13.8874],[-85.82626,13.94338],[-85.98916,14.00967],[-85.97338,14.07168],[-86.02525,14.11127],[-86.17108,14.06066],[-86.35943,13.80159],[-86.54613,13.83563],[-86.78743,13.78806],[-86.81657,13.66014],[-86.74464,13.32017],[-86.84586,13.32376],[-86.92258,13.27386],[-86.9924,13.05541],[-87.3533,13.00107],[-87.53783,13.18008],[-87.58658032097068,13.170628084877235],[-87.6079766032129,13.120627258317016],[-87.58438,13.17577],[-87.66438,13.24095],[-87.72531,13.32064],[-87.73373,13.3492],[-87.80802,13.3988],[-87.72989,13.43828],[-87.71467,13.44422],[-87.71704,13.50568],[-87.77918,13.5348],[-87.7763,13.5644],[-87.75261,13.60295],[-87.7533,13.61929],[-87.74421,13.66677],[-87.72394,13.72521],[-87.72566,13.74539],[-87.70729,13.78757],[-87.7054,13.80391],[-87.7109,13.81641],[-87.79621,13.9254],[-88.01491,13.90174],[-88.06847,13.99371],[-88.10726,14.0067],[-88.23429,14.0037],[-88.31532,13.90541],[-88.41307,13.89061],[-88.47777,13.86183],[-88.49058,13.97951],[-88.70533,14.05166],[-88.73417,14.13624],[-88.79837,14.1682],[-88.85296,14.17553],[-89.0036,14.27905],[-89.01909,14.33487],[-89.10891,14.41423],[-89.16661,14.37357],[-89.33653,14.441],[-89.34589452852637,14.433262126615832],[-89.35055,14.47028],[-89.29827,14.49227],[-89.30241,14.50538],[-89.28628,14.51463],[-89.27984,14.53178],[-89.26266,14.54523],[-89.23212,14.58186],[-89.19406,14.57412],[-89.16148,14.56874],[-89.15085,14.58079],[-89.14392,14.62894],[-89.15246,14.66343],[-89.1287,14.7141],[-89.16536,14.77608],[-89.22187,14.83612],[-89.22386,14.88055],[-89.18244,14.90391],[-89.16298,14.94362],[-89.15354,14.98392],[-89.18014,15.00415],[-89.1501,15.06002],[-89.15016,15.06735],[-88.97254,15.13207],[-88.84097,15.24124],[-88.67465,15.33961],[-88.56758,15.4231],[-88.34244,15.61378],[-88.30811,15.66568],[-88.25266,15.67808],[-88.21344,15.72332],[-88.13067,15.81786],[-87.95177,15.96442],[-88.0497784142687,16.017874041283854],[-87.50431843277185,16.44679828964089]]]}}
