{"type":"Feature","properties":{"sourceId":"herefordshire"},"geometry":{"type":"Polygon","coordinates":[[[-2.879219,51.93051],[-2.889237,51.93244],[-2.88761,51.9279],[-2.951636,51.90811],[-2.951525,51.9069],[-2.972886,51.90628],[-2.972668,51.90804],[-2.97501,51.90961],[-2.971315,51.91358],[-2.976014,51.92103],[-2.973946,51.92192],[-2.976069,51.9268],[-3.005301,51.92576],[-3.008774,51.92905],[-3.008609,51.93892],[-3.099286,52.02295],[-3.086292,52.04073],[-3.093319,52.0492],[-3.091653,52.05015],[-3.125816,52.07855],[-3.118568,52.08741],[-3.123715,52.10313],[-3.122428,52.1048],[-3.107417,52.10515],[-3.106273,52.10664],[-3.109457,52.11302],[-3.109643,52.11407],[-3.105787,52.11794],[-3.13683,52.12354],[-3.142889,52.12818],[-3.134746,52.13374],[-3.136469,52.13832],[-3.082353,52.14966],[-3.071946,52.15844],[-3.084115,52.16314],[-3.09722,52.15483],[-3.122526,52.16371],[-3.122178,52.16703],[-3.094859,52.18415],[-3.096661,52.18435],[-3.097793,52.19736],[-3.10191,52.20206],[-3.072449,52.21269],[-3.072079,52.21432],[-3.078185,52.21564],[-3.070522,52.22882],[-3.074383,52.23428],[-3.043561,52.23872],[-3.043945,52.24508],[-3.049587,52.24507],[-3.04538,52.24662],[-3.048151,52.24942],[-2.99976,52.26397],[-2.991597,52.26056],[-2.978176,52.26166],[-2.977609,52.25977],[-2.964595,52.26284],[-2.965085,52.26797],[-2.96664,52.26829],[-2.965983,52.27083],[-2.977336,52.27046],[-3.012072,52.27752],[-3.012711,52.27934],[-3.00954,52.28261],[-3.011818,52.28771],[-3.004479,52.29202],[-3.000221,52.30535],[-3.00367,52.30935],[-3.001161,52.3216],[-2.966751,52.32942],[-2.967049,52.33192],[-2.955006,52.34857],[-2.933167,52.34996],[-2.936466,52.35276],[-2.930609,52.3542],[-2.939356,52.36144],[-2.923241,52.36745],[-2.900779,52.36728],[-2.902243,52.36977],[-2.920834,52.3754],[-2.913588,52.3819],[-2.919682,52.38411],[-2.905573,52.38555],[-2.897504,52.38096],[-2.897504,52.37945],[-2.892288,52.37858],[-2.894704,52.37416],[-2.890587,52.37443],[-2.892398,52.3755],[-2.88852,52.3765],[-2.888718,52.3774],[-2.885876,52.37791],[-2.887423,52.37961],[-2.886218,52.38053],[-2.887574,52.38458],[-2.86349,52.38874],[-2.854888,52.39531],[-2.805315,52.38797],[-2.809034,52.3841],[-2.807453,52.37615],[-2.79911,52.37295],[-2.792874,52.37537],[-2.794421,52.37018],[-2.792281,52.36578],[-2.795343,52.36043],[-2.792182,52.35665],[-2.732692,52.3553],[-2.741343,52.34957],[-2.738706,52.34748],[-2.740001,52.34654],[-2.737919,52.34321],[-2.748241,52.33492],[-2.767112,52.33591],[-2.759624,52.3299],[-2.745845,52.32668],[-2.746684,52.3254],[-2.738417,52.32188],[-2.738355,52.32025],[-2.72532,52.32023],[-2.712211,52.30805],[-2.680032,52.31147],[-2.680333,52.31522],[-2.688843,52.31562],[-2.685549,52.32442],[-2.668275,52.3414],[-2.660328,52.34102],[-2.659153,52.33863],[-2.655851,52.33777],[-2.659825,52.33483],[-2.649396,52.3314],[-2.643484,52.3334],[-2.636412,52.32813],[-2.637096,52.32445],[-2.631347,52.32342],[-2.632077,52.32297],[-2.629476,52.32043],[-2.624,52.32107],[-2.624502,52.31971],[-2.623407,52.31898],[-2.626282,52.31748],[-2.625689,52.31483],[-2.628153,52.3134],[-2.622933,52.30806],[-2.62049887139598,52.30763612252092],[-2.63172,52.30786],[-2.636344,52.31024],[-2.643421,52.30946],[-2.648111,52.30662],[-2.659485,52.30661],[-2.66399,52.30488],[-2.661569,52.29922],[-2.646481,52.29176],[-2.640321,52.28524],[-2.626525,52.28605],[-2.618753,52.28096],[-2.612778,52.28517],[-2.605964,52.28547],[-2.602384,52.2836],[-2.602108,52.27921],[-2.607674,52.27646],[-2.614597,52.26732],[-2.628896,52.26223],[-2.631948,52.25809],[-2.635346,52.25129],[-2.635369858994244,52.25043423111555],[-2.63552,52.25033],[-2.6353785149386217,52.25012376170564],[-2.635467,52.24695],[-2.629255,52.23918],[-2.604119,52.24154],[-2.589429,52.2445],[-2.585348295587442,52.24677169411742],[-2.584509072318513,52.24691830603778],[-2.576514,52.24643],[-2.570619,52.24991],[-2.566764,52.24895],[-2.5573394394448297,52.2503421651871],[-2.553258176585017,52.25012911929169],[-2.548321,52.24843],[-2.541253,52.25095],[-2.531905,52.25014],[-2.525634,52.24686],[-2.514678,52.25444],[-2.495432,52.25562],[-2.492199,52.26396],[-2.499194,52.27023],[-2.499569,52.27408],[-2.4882139757550967,52.27983865683236],[-2.4696811812529442,52.282643223836935],[-2.467605,52.28212],[-2.4632377364694715,52.283618310062245],[-2.462134264694632,52.283785298399046],[-2.454299,52.28343],[-2.43873,52.27507],[-2.437163,52.27161],[-2.439091,52.2683],[-2.455482,52.26393],[-2.473491,52.25374],[-2.475945,52.24112],[-2.468472,52.23706],[-2.465097,52.23313],[-2.4540126379172764,52.23428470457926],[-2.4157287550970143,52.23112635285013],[-2.414583,52.23047],[-2.403172,52.22777],[-2.402729,52.22494],[-2.405306,52.22124],[-2.401546,52.21326],[-2.401942,52.20935],[-2.408777,52.20358],[-2.4109901563623946,52.19756032439225],[-2.416180515039853,52.19161061616009],[-2.420266,52.18849],[-2.420158,52.18283],[-2.424283,52.18057],[-2.427861,52.17444],[-2.436286,52.17188],[-2.436187,52.16753],[-2.429677,52.16246],[-2.425513,52.1525],[-2.415307,52.14393],[-2.40073,52.14683],[-2.393973,52.14548],[-2.3887853601852913,52.14921337398112],[-2.3819334353035755,52.152537491130595],[-2.37905,52.15314],[-2.359489,52.14973],[-2.353691,52.14437],[-2.348778,52.13448],[-2.350282,52.13095],[-2.355871,52.1296],[-2.357537,52.12613],[-2.354947,52.11288],[-2.352097,52.10698],[-2.353319,52.10297],[-2.349898,52.09466],[-2.340263,52.09259],[-2.339531,52.08539],[-2.341745,52.07891],[-2.34212,52.06565],[-2.348648,52.06222],[-2.352733,52.05679],[-2.349814,52.05034],[-2.349632,52.04185],[-2.353307,52.02524],[-2.352483552043934,52.0207014149722],[-2.352539,52.0206],[-2.392466,52.01305],[-2.394783,52.00416],[-2.399241,51.99965],[-2.399071,51.99647],[-2.436948,51.99746],[-2.434999,51.99889],[-2.436397,52.00129],[-2.434067,52.00677],[-2.435507,52.01055],[-2.43377,52.0123],[-2.435023,52.01418],[-2.46435,52.01518],[-2.462731,52.01633],[-2.463774,52.01866],[-2.462551,52.02052],[-2.463703,52.02322],[-2.47936,52.02249],[-2.477967,52.02019],[-2.484163,52.0127],[-2.490105,52.01095],[-2.492006,52.00812],[-2.485951,52.00071],[-2.471119,51.99488],[-2.49494,51.98061],[-2.492547,51.96417],[-2.500531,51.96204],[-2.468824,51.95632],[-2.463757,51.94393],[-2.465324,51.9419],[-2.463438,51.93945],[-2.468088,51.93773],[-2.466283,51.92844],[-2.448983,51.91914],[-2.437302,51.89894],[-2.4685,51.89148],[-2.474553,51.88543],[-2.487531,51.88441],[-2.488484,51.88075],[-2.493984,51.88032],[-2.494827,51.8841],[-2.50161,51.88203],[-2.503426,51.88647],[-2.507527,51.8866],[-2.517142,51.87801],[-2.522386,51.87759],[-2.524624,51.88147],[-2.537514,51.88747],[-2.54014,51.87752],[-2.529124,51.8713],[-2.529124,51.86963],[-2.512782,51.86765],[-2.516794,51.86211],[-2.53406,51.85839],[-2.53406,51.86022],[-2.567936,51.86241],[-2.585129,51.85977],[-2.578907,51.85177],[-2.582299,51.84953],[-2.601213,51.8561],[-2.624361,51.83942],[-2.63003,51.83946],[-2.632732,51.84324],[-2.626766,51.85171],[-2.628812,51.8596],[-2.633732,51.86228],[-2.642057,51.86132],[-2.645525,51.8531],[-2.644462,51.84396],[-2.640417,51.83923],[-2.653478,51.82618],[-2.657813,51.827],[-2.65797,51.83125],[-2.686648,51.8366],[-2.687148,51.83314],[-2.693299,51.83418],[-2.69672,51.84413],[-2.70487,51.8453],[-2.707484,51.83943],[-2.717671,51.84287],[-2.717709,51.84753],[-2.71934,51.84844],[-2.726677,51.84036],[-2.732385,51.84075],[-2.73312,51.8391],[-2.741545,51.83886],[-2.741096,51.84196],[-2.778065,51.86463],[-2.77856,51.86834],[-2.770374,51.87834],[-2.814427,51.89797],[-2.818819,51.90394],[-2.835934,51.9061],[-2.83742,51.91341],[-2.842328,51.91791],[-2.846236,51.91566],[-2.847915,51.91689],[-2.853792,51.91552],[-2.854245,51.91349],[-2.862834,51.91438],[-2.86361,51.91624],[-2.845622,51.92149],[-2.847721,51.92363],[-2.854309,51.92384],[-2.855472,51.92594],[-2.876935,51.93007],[-2.877205,51.93035],[-2.879219,51.93051]]]}}
