{"type":"Feature","properties":{"sourceId":"henan"},"geometry":{"type":"Polygon","coordinates":[[[113.7431,36.36801],[113.7739,36.36007],[113.8146,36.33234],[113.8309,36.33635],[113.8439,36.34914],[113.8532,36.35696],[113.879,36.3564],[113.9129,36.32169],[113.9395,36.35682],[113.9489,36.36262],[113.982,36.36048],[114.0018,36.34914],[114.02,36.35723],[114.0274,36.35253],[114.0328,36.32909],[114.0509,36.33304],[114.0568,36.31713],[114.0438,36.30385],[114.0433,36.29583],[114.0605,36.276],[114.1296,36.28296],[114.1696,36.26573],[114.1946,36.2467],[114.2048,36.27279],[114.2178,36.27134],[114.2366,36.2559],[114.2541,36.26345],[114.3236,36.25659],[114.3426,36.2568],[114.3517,36.23804],[114.3661,36.22821],[114.4022,36.22655],[114.4085,36.22267],[114.4135,36.20675],[114.4552,36.20397],[114.475,36.18514],[114.5275,36.17447],[114.54,36.16144],[114.58,36.14564],[114.5903,36.12304],[114.6046,36.13025],[114.6796,36.14799],[114.7048,36.14522],[114.7191,36.14952],[114.7303,36.15766],[114.7386,36.15617],[114.7642,36.1315],[114.7749,36.13593],[114.7982,36.13566],[114.819,36.13025],[114.8455,36.1347],[114.855,36.14889],[114.8756,36.15049],[114.9093,36.14245],[114.9058,36.11638],[114.923,36.09766],[114.9165,36.0533],[114.9551,36.07408],[114.9929,36.07061],[115.0088,36.08781],[115.0336,36.11777],[115.0353,36.1613],[115.0612,36.18139],[115.0847,36.1861],[115.0935,36.203],[115.1154,36.21201],[115.1434,36.20965],[115.1662,36.19137],[115.1922,36.21519],[115.2426,36.19234],[115.2579,36.17322],[115.2716,36.1394],[115.2998,36.12983],[115.2981,36.09211],[115.3587,36.09941],[115.3638,36.13054],[115.3832,36.13094],[115.3964,36.15728],[115.4316,36.14869],[115.4403,36.17313],[115.4522,36.1791],[115.4826,36.14578],[115.4801,36.11363],[115.4629,36.07769],[115.444,36.01162],[115.4324,35.99841],[115.3599,35.95967],[115.3642,35.90209],[115.3494,35.85594],[115.3319,35.80431],[115.3419,35.79275],[115.3583,35.78008],[115.3928,35.80083],[115.4033,35.81461],[115.4536,35.86638],[115.4773,35.88311],[115.4714,35.90674],[115.4879,35.9195],[115.5028,35.91985],[115.5081,35.8903],[115.5557,35.90671],[115.5901,35.92193],[115.6244,35.92402],[115.6454,35.92861],[115.6795,35.93076],[115.6886,35.95263],[115.728,35.95263],[115.7703,35.96672],[115.7703,35.99062],[115.7798,36.00356],[115.804,36.01664],[115.8496,36.01208],[115.8793,36.03184],[115.9343,36.03911],[115.9874,36.05391],[116.0214,36.07656],[116.049,36.10881],[116.0984,36.11694],[116.0989,36.10079],[116.0881,36.05743],[116.07,36.02467],[116.0441,35.96731],[116.0338,35.96286],[115.9836,35.96793],[115.9075,35.95828],[115.9058,35.92854],[115.9013,35.92186],[115.8716,35.9163],[115.8834,35.90963],[115.8862,35.88265],[115.8785,35.87069],[115.8689,35.85608],[115.8452,35.84871],[115.8067,35.84189],[115.7714,35.84996],[115.7034,35.78203],[115.689,35.7525],[115.5954,35.72338],[115.5125,35.72087],[115.483,35.69272],[115.4588,35.65004],[115.4282,35.64488],[115.4373,35.62312],[115.4115,35.60511],[115.3819,35.56309],[115.3601,35.54564],[115.3542,35.50917],[115.3588,35.49852],[115.3563,35.48947],[115.3281,35.48402],[115.3099,35.46948],[115.2135,35.4036],[115.1618,35.42515],[115.1153,35.39661],[115.088,35.39619],[115.0663,35.37058],[115.0214,35.37002],[115.0193,35.33959],[114.9735,35.27842],[114.9345,35.24338],[114.9287,35.19541],[114.8841,35.18667],[114.8394,35.16258],[114.8847,35.11093],[114.8847,35.08447],[114.8217,35.05741],[114.8435,35.00877],[114.8701,35.03267],[114.9179,34.97544],[114.951,35.00075],[115.0076,34.99077],[115.022,34.976],[115.0638,35.00188],[115.1117,35.0106],[115.123,35.00835],[115.145,34.97783],[115.162,34.96812],[115.2225,34.95954],[115.2061,34.9162],[115.2325,34.91789],[115.2535,34.91502],[115.2546,34.90902],[115.2332,34.881],[115.2464,34.8472],[115.2713,34.86354],[115.3146,34.86762],[115.3966,34.8348],[115.4267,34.80817],[115.4497,34.74345],[115.4336,34.72842],[115.4524,34.6983],[115.4613,34.66131],[115.4802,34.63095],[115.5357,34.57811],[115.6323,34.57881],[115.6803,34.56263],[115.6912,34.60594],[115.8422,34.56906],[115.9708,34.58559],[115.9868,34.62191],[116.0375,34.59901],[116.0663,34.60227],[116.1015,34.60171],[116.1456,34.56171],[116.18743634146041,34.57655235350567],[116.1863,34.51858],[116.1557,34.47274],[116.1493,34.44953],[116.1756,34.42135],[116.1885,34.4205],[116.19,34.395],[116.1995,34.3766],[116.2573,34.37178],[116.2913,34.3321],[116.3452,34.3175],[116.3559,34.26488],[116.4769,34.26842],[116.4983,34.29254],[116.5709,34.27254],[116.5358,34.24445],[116.5287,34.21592],[116.5488,34.17971],[116.5239,34.14818],[116.5182,34.10498],[116.5651,34.06859],[116.5876,34.0097],[116.6319,33.97298],[116.6314,33.91601],[116.6307,33.89806],[116.6079,33.89635],[116.5782,33.9153],[116.5565,33.91516],[116.5455,33.89322],[116.5086,33.88168],[116.4642,33.86942],[116.4278,33.84647],[116.4266,33.82223],[116.4244,33.80611],[116.4144,33.80254],[116.407,33.80711],[116.3998,33.80939],[116.3809,33.78985],[116.3378,33.78685],[116.2326,33.74989],[116.1921,33.73119],[116.1608,33.71706],[116.1349,33.75189],[116.1033,33.76573],[116.0977,33.786],[116.0743,33.78742],[116.065,33.835],[116.0568,33.86429],[116.0433,33.8764],[116.02,33.89],[116.0062,33.90504],[115.9868,33.91145],[116.0036,33.96742],[115.9736,34.00087],[115.9533,34.01553],[115.9044,34.01183],[115.901,34.03019],[115.8829,34.0346],[115.8697,34.03004],[115.8628,34.01752],[115.8239,34.04939],[115.8103,34.06717],[115.7779,34.07428],[115.7602,34.06759],[115.7312,34.08565],[115.6919,34.07115],[115.644,34.06717],[115.6392,34.04071],[115.5968,34.03787],[115.5751,34.00215],[115.5331,33.88823],[115.5424,33.86742],[115.5863,33.86386],[115.6098,33.87099],[115.603,33.78985],[115.5755,33.79527],[115.5585,33.786],[115.5523,33.77173],[115.5887,33.7252],[115.5848,33.66678],[115.6294,33.58988],[115.4991,33.57001],[115.4527,33.57458],[115.4033,33.55828],[115.3923,33.51735],[115.3602,33.52694],[115.3369,33.50605],[115.3352,33.46496],[115.3077,33.45579],[115.3073,33.42815],[115.3036,33.39906],[115.3079,33.36308],[115.3249,33.36408],[115.3467,33.33354],[115.3455,33.31188],[115.3235,33.30127],[115.33,33.26797],[115.3104,33.22978],[115.2818,33.20192],[115.2885,33.14862],[115.2392,33.14028],[115.1625,33.11369],[115.1475,33.08694],[115.0002,33.1042],[114.9669,33.15236],[114.9251,33.15854],[114.8847,33.13396],[114.8833,33.08421],[114.8983,33.07558],[114.9163,33.02882],[114.8871,33.02407],[114.872,32.99945],[114.8693,32.97497],[114.8773,32.9682],[114.9134,32.95611],[114.9372,32.92585],[114.9625,32.93219],[115.014,32.93205],[115.0069,32.90942],[115.0109,32.9002],[115.0495,32.89588],[115.1197,32.89328],[115.1487,32.85681],[115.1819,32.85219],[115.1681,32.79189],[115.1668,32.65874],[115.192,32.66481],[115.1822,32.63677],[115.187,32.58992],[115.2232,32.5798],[115.2426,32.58674],[115.3041,32.54898],[115.3264,32.55984],[115.3681,32.56446],[115.4644,32.51801],[115.4816,32.49804],[115.5049,32.45488],[115.5542,32.40214],[115.5963,32.42388],[115.6174,32.40562],[115.6417,32.41765],[115.6531,32.4075],[115.6644,32.41156],[115.6732,32.43286],[115.6788,32.44633],[115.6771,32.4627],[115.7008,32.46719],[115.6979,32.48182],[115.7521,32.47603],[115.7683,32.49919],[115.771,32.47009],[115.7791,32.46314],[115.8187,32.49789],[115.8568,32.50658],[115.8733,32.4879],[115.8537,32.46285],[115.8714,32.43518],[115.8852,32.40794],[115.8932,32.30759],[115.9037,32.28002],[115.9118,32.27305],[115.9039,32.25535],[115.9073,32.20263],[115.9288,32.16646],[115.9143,32.1105],[115.925,32.08272],[115.9089,32.03122],[115.9186,32.00371],[115.8963,31.95653],[115.9059,31.92652],[115.8989,31.89563],[115.8901,31.87814],[115.8876,31.86152],[115.8855,31.84446],[115.891,31.82623],[115.9037,31.81748],[115.901,31.79939],[115.8615,31.7813],[115.844,31.79151],[115.811,31.77313],[115.7667,31.79414],[115.7327,31.7883],[115.719,31.77167],[115.6706,31.78801],[115.6376,31.76466],[115.479,31.6788],[115.4656,31.64783],[115.477,31.6186],[115.4234,31.58614],[115.4093,31.53875],[115.3616,31.49836],[115.3726,31.43569],[115.3643,31.40933],[115.36924982610331,31.402298185185185],[115.363,31.39732],[115.3328,31.39922],[115.3042,31.37805],[115.302,31.37805],[115.2807,31.39658],[115.2624,31.38764],[115.2461,31.38896],[115.2453,31.38981],[115.2453,31.41805],[115.2141,31.42412],[115.1994,31.44536],[115.2045,31.49851],[115.2109,31.51461],[115.2198,31.54645],[115.1864,31.55984],[115.1705,31.58073],[115.1646,31.59802],[115.1247,31.59802],[115.1292,31.58278],[115.1154,31.53334],[115.0923,31.50741],[115.0543,31.50421],[115.0183,31.51844],[115.0088,31.48826],[114.9903,31.46804],[114.9851,31.46804],[114.9639,31.49485],[114.9342,31.47245],[114.8876,31.47347],[114.8782,31.46923],[114.83,31.46118],[114.7782,31.47876],[114.7658,31.50583],[114.7623,31.52207],[114.7175,31.51803],[114.6904,31.52577],[114.6581,31.54694],[114.6465,31.57014],[114.6177,31.57974],[114.5759,31.55359],[114.5484,31.55665],[114.5356,31.62941],[114.5441,31.65942],[114.5668,31.69516],[114.5737,31.76028],[114.5283,31.7347],[114.5074,31.76773],[114.5015,31.75984],[114.5019,31.75229],[114.5062,31.74963],[114.5058,31.74664],[114.5006,31.73547],[114.414,31.72729],[114.3356,31.74817],[114.2851,31.75415],[114.266,31.77524],[114.2306,31.82922],[114.2111,31.83549],[114.1716,31.85073],[114.1528,31.8406],[114.1288,31.83573],[114.1127,31.80363],[114.0619,31.76663],[114.0142,31.7721],[113.9782,31.74627],[113.9356,31.79823],[113.9407,31.85433],[113.919,31.87931],[113.8915,31.84023],[113.8392,31.84299],[113.8208,31.87249],[113.826,31.90907],[113.7924,31.93002],[113.8028,31.96361],[113.7598,31.9759],[113.7427,32.00051],[113.7696,32.02957],[113.7199,32.08485],[113.7106,32.13041],[113.7694,32.19275],[113.7433,32.21231],[113.7305,32.24647],[113.7348,32.28981],[113.76,32.315],[113.7465,32.32851],[113.7312,32.37721],[113.7162,32.40837],[113.6452,32.40315],[113.6196,32.36354],[113.6014,32.35328],[113.5855,32.35151],[113.5728,32.34208],[113.5551,32.33421],[113.5596,32.30389],[113.5439,32.30005],[113.5289,32.32957],[113.5138,32.31697],[113.4206,32.26793],[113.4113,32.26761],[113.3419,32.29889],[113.3103,32.32067],[113.3055,32.34241],[113.2103,32.42404],[113.1641,32.41633],[113.1479,32.37431],[113.1173,32.37909],[113.0565,32.39982],[113.0234,32.42002],[112.9932,32.39156],[112.9853,32.36793],[112.9365,32.37996],[112.9072,32.38862],[112.8938,32.37735],[112.7456,32.34255],[112.5379,32.38475],[112.5276,32.37605],[112.4737,32.37227],[112.4421,32.33994],[112.3974,32.36791],[112.3218,32.31978],[112.2658,32.34434],[112.2135,32.38518],[112.149,32.3746],[112.0992,32.40533],[111.9833,32.45618],[111.9373,32.51005],[111.877,32.50252],[111.8058,32.53596],[111.6617,32.61425],[111.6364,32.60164],[111.6259,32.63359],[111.5632,32.58602],[111.5244,32.621],[111.509,32.64776],[111.5014,32.67387],[111.4195,32.733],[111.3715,32.82489],[111.2815,32.85479],[111.2778,32.90063],[111.2407,32.87065],[111.2307,32.93364],[111.2429,32.96223],[111.2572,32.97785],[111.2303,33.01466],[111.2204,33.03975],[111.1803,33.04296],[111.1413,33.03863],[111.1382,33.04174],[111.1368,33.04451],[111.1404,33.05673],[111.1546,33.06249],[111.1648,33.06896],[111.1719,33.06975],[111.1838,33.07385],[111.1827,33.08289],[111.181,33.09168],[111.1698,33.09571],[111.0761,33.17808],[111.0515,33.15667],[111.0321,33.1528],[111.0053,33.17377],[111.0122,33.21543],[111.0033,33.23409],[110.9909,33.24012],[110.9738,33.27221],[111.0158,33.34853],[110.9878,33.4409],[111.0153,33.45846],[111.0153,33.50851],[110.8241,33.66829],[110.728,33.79684],[110.5987,33.85757],[110.5667,33.89208],[110.6176,33.93518],[110.6659,33.94898],[110.6387,33.97616],[110.6152,34.02222],[110.5757,34.0188],[110.5753,34.10174],[110.5816,34.11128],[110.6174,34.13171],[110.6306,34.16239],[110.5625,34.18633],[110.5257,34.21264],[110.5012,34.21264],[110.4783,34.23096],[110.4313,34.24374],[110.4164,34.28786],[110.471,34.33436],[110.4651,34.40649],[110.454,34.39926],[110.4072,34.4133],[110.3458,34.52367],[110.3585,34.56863],[110.36696859912661,34.59706856920379],[110.3817,34.59082],[110.4167,34.58291],[110.4517,34.58913],[110.5341,34.57895],[110.6138,34.59422],[110.6776,34.59309],[110.7518,34.62191],[110.8129,34.60439],[110.9125,34.66315],[110.9585,34.68517],[111.0254,34.72652],[111.0663,34.74175],[111.1083,34.74909],[111.1246,34.76672],[111.1386,34.79717],[111.153,34.81253],[111.1737,34.80084],[111.1961,34.80196],[111.2139,34.78773],[111.2307,34.78871],[111.241,34.79999],[111.2737,34.80154],[111.3272,34.82494],[111.3365,34.83198],[111.3536,34.81944],[111.3918,34.81042],[111.5634,34.83353],[111.6602,34.93323],[111.802,35.02409],[111.814,35.06316],[111.8758,35.06373],[111.9534,35.06035],[112.01,35.045],[112.02,35.025],[112.06,35.03],[112.07,35.09],[112.066,35.14013],[112.0557,35.19289],[112.0811,35.21477],[112.0777,35.26973],[112.18,35.23],[112.2404,35.2316],[112.2796,35.20804],[112.3613,35.21814],[112.395,35.225],[112.5508,35.20748],[112.5604,35.21197],[112.6195,35.21309],[112.6449,35.23496],[112.684,35.21253],[112.7101,35.18223],[112.7232,35.20411],[112.7678,35.20355],[112.8152,35.24338],[112.9113,35.24394],[112.95,35.27],[112.991,35.28542],[112.991,35.30672],[112.9992,35.3521],[113.1297,35.31905],[113.16,35.365],[113.1983,35.42878],[113.3089,35.42095],[113.3267,35.46067],[113.5149,35.51043],[113.5121,35.55793],[113.5533,35.60093],[113.6179,35.61712],[113.6288,35.66734],[113.5945,35.72255],[113.6096,35.81336],[113.6618,35.82728],[113.644,35.86012],[113.66,35.97],[113.6927,35.98912],[113.7016,36.02078],[113.72,36.13],[113.6893,36.16726],[113.7428,36.32232],[113.7332,36.35661],[113.73113803072036,36.365969428769944],[113.7431,36.36801]]]}}
