{"type":"Feature","properties":{"sourceId":"heilongjiang"},"geometry":{"type":"Polygon","coordinates":[[[124.535,53.30145],[125.666,53.16349],[126.1776,52.83853],[126.1634,52.66873],[126.6367,52.18632],[126.5891,51.97081],[127.0074,51.32074],[126.9299,51.14231],[127.3123,50.75123],[127.3817,50.58324],[127.3659,50.54049],[127.381,50.40633],[127.3645,50.32311],[127.4682,50.27311],[127.5767,50.25116],[127.6275,50.2415],[127.6206,50.17954],[127.5458,50.02848],[127.6941,49.7653],[127.9839,49.61115],[128.608,49.61205],[128.6461,49.62206],[128.7872,49.61338],[129.1179,49.46911],[129.5226,49.52089],[130.2498,48.88639],[130.4269,48.91979],[130.6961,48.8882],[130.7016,48.85207],[130.5821,48.66013],[130.7826,48.50478],[130.8842,48.28959],[130.8028,48.09553],[131.0516,47.78382],[132.4974,47.82187],[132.6324,47.95407],[133.0568,48.12944],[134.174,48.39775],[134.509,48.44287],[134.669,48.43057],[134.8016,48.39319],[134.6835,48.11385],[134.6086,48.02805],[134.68,47.89057],[134.8036,47.719],[134.7047,47.59042],[134.5825,47.47406],[134.5365,47.44899],[134.2275,47.33324],[134.2447,47.20418],[134.2337,47.10098],[134.073,46.78126],[133.9309,46.25347],[133.6899,45.95067],[133.4811,45.61308],[133.4221,45.55974],[133.214,45.49383],[133.1481,45.29518],[133.1673,45.11424],[132.9538,44.98229],[131.9925,45.24685],[131.8723,45.26184],[131.5022,44.95022],[131.1012,44.85198],[131.4019,44.05462],[131.35139926995603,43.47293003762935],[131.3093,43.4751],[131.243,43.48357],[131.18,43.465],[131.1359,43.4412],[131.0284,43.52466],[130.87,43.46],[130.825,43.52],[130.6425,43.59332],[130.6316,43.62415],[130.4105,43.67284],[130.4366,43.73439],[130.3885,43.79489],[130.385,43.88],[130.395,43.905],[130.355,43.95],[130.375,43.99],[130.3706,44.04565],[130.3507,44.05404],[130.3219,44.04812],[130.2965,44.03183],[130.2834,44.00171],[130.2457,43.97552],[130.225,43.965],[130.1475,43.93153],[130.085,43.865],[130.035,43.87],[130.035,43.96],[129.9902,44.00961],[129.9312,44.03923],[129.845,44.03],[129.7657,43.96762],[129.7362,43.90433],[129.655,43.89],[129.6,43.9],[129.4595,43.87624],[129.4066,43.84369],[129.3807,43.81867],[129.3686,43.80765],[129.2487,43.82214],[129.195,43.795],[129.2,43.715],[129.185,43.69],[129.21,43.61],[128.985,43.555],[128.895,43.56],[128.865,43.575],[128.7716,43.72645],[128.7419,43.74047],[128.7606,43.75392],[128.7605,43.76074],[128.755,43.77221],[128.732,43.81892],[128.7649,43.86053],[128.7213,43.89542],[128.6551,43.91941],[128.6375,43.94958],[128.6011,43.96786],[128.5933,44.00961],[128.5761,44.05083],[128.53,44.135],[128.4686,44.18565],[128.47,44.255],[128.4796,44.3209],[128.459,44.33073],[128.49,44.355],[128.45,44.47],[128.4,44.495],[128.3752,44.51609],[128.3485,44.51609],[128.2874,44.4954],[128.2647,44.46417],[128.2494,44.45829],[128.2336,44.44616],[128.2106,44.44162],[128.1876,44.41735],[128.16,44.365],[128.1,44.365],[128.075,44.385],[128.0433,44.35651],[128.0384,44.34791],[128.0487,44.32876],[128.0455,44.31003],[128.06,44.28],[128.0474,44.25086],[128.07,44.22],[128.0433,44.16743],[128.0748,44.1322],[128.0457,44.11002],[127.9708,44.1041],[127.8915,44.06884],[127.85,44.07994],[127.78,44.095],[127.7604,44.08684],[127.7325,44.1083],[127.7277,44.20313],[127.6955,44.20313],[127.6776,44.17753],[127.6326,44.20116],[127.61,44.20953],[127.6004,44.22872],[127.6237,44.25184],[127.6213,44.29461],[127.52,44.37467],[127.4898,44.40583],[127.5035,44.4279],[127.507,44.44751],[127.4668,44.48475],[127.4843,44.51781],[127.5358,44.51291],[127.5667,44.54815],[127.5647,44.55494],[127.5612,44.56149],[127.5556,44.5673],[127.5497,44.57855],[127.5304,44.57873],[127.5057,44.59395],[127.4884,44.60813],[127.4409,44.61571],[127.4156,44.62053],[127.3962,44.63391],[127.2639,44.64228],[127.2481,44.62029],[127.2285,44.62395],[127.2296,44.6457],[127.1726,44.65205],[127.1245,44.61393],[127.0861,44.61907],[127.065,44.595],[127.045,44.6],[127.055,44.655],[127.0425,44.716],[127.005,44.77],[126.9868,44.82446],[127.0191,44.88409],[127.0758,44.89966],[127.0847,44.91595],[127.0936,44.94293],[127.0706,44.97524],[127.0473,45.00608],[127.0177,45.03666],[126.9951,45.06212],[126.9748,45.09049],[126.969,45.12732],[126.9604,45.14379],[126.8334,45.14742],[126.7884,45.15226],[126.7582,45.17913],[126.729,45.19051],[126.6734,45.1997],[126.6411,45.23162],[126.5663,45.2558],[126.4087,45.23404],[126.315,45.19],[126.2854,45.19607],[126.2741,45.17962],[126.2637,45.16866],[126.252,45.16625],[126.2329,45.15287],[126.1742,45.15493],[126.1503,45.141],[126.1316,45.14887],[126.0903,45.15069],[126.0779,45.16582],[126.041,45.17224],[126.0094,45.16909],[125.9821,45.19583],[125.9658,45.19547],[125.9517,45.20212],[125.9426,45.20127],[125.9114,45.20369],[125.8887,45.21687],[125.8408,45.24093],[125.8161,45.25616],[125.8099,45.27078],[125.7862,45.28358],[125.7696,45.29783],[125.7296,45.33151],[125.7026,45.35034],[125.6989,45.36614],[125.7057,45.38302],[125.7143,45.39676],[125.7136,45.40809],[125.7109,45.42424],[125.7039,45.43532],[125.7135,45.4682],[125.6997,45.4824],[125.7051,45.50093],[125.6982,45.51044],[125.655,45.525],[125.6072,45.52271],[125.5176,45.4836],[125.435,45.5],[125.406,45.48336],[125.4069,45.4452],[125.355,45.41],[125.345,45.425],[125.29,45.425],[125.18,45.415],[125.105,45.41],[125.055,45.445],[125.0292,45.49034],[125.0043,45.49215],[124.9583,45.49889],[124.9384,45.50851],[124.9,45.515],[124.8675,45.4972],[124.8722,45.44303],[124.8349,45.45616],[124.795,45.46],[124.7494,45.47024],[124.7194,45.44725],[124.645,45.455],[124.595,45.47],[124.5486,45.4505],[124.51,45.44],[124.44,45.475],[124.4085,45.44905],[124.385,45.465],[124.3577,45.54964],[124.285,45.555],[124.2753,45.58665],[124.2382,45.61068],[124.2355,45.64429],[124.15,45.695],[124.04,45.77],[124.065,45.775],[124.065,45.82],[124.08,45.88],[123.98,45.94],[123.9862,45.96022],[124.0439,46.01652],[124.0233,46.10371],[124.0123,46.15796],[123.956,46.26819],[123.9134,46.31469],[123.8351,46.309],[123.7335,46.28338],[123.58,46.25],[123.4863,46.27199],[123.3641,46.23828],[123.2233,46.28077],[123.13093984962407,46.23722878625134],[123.08,46.31],[122.98,46.39],[122.97,46.60983],[123.2673,46.6763],[123.5928,46.6909],[123.6185,46.80781],[123.4946,46.80382],[123.4534,46.81698],[123.4698,46.87709],[123.5014,46.93151],[123.42,46.91],[123.3572,46.8057],[123.2501,46.83765],[123.165,46.72386],[122.9961,46.7088],[122.8793,46.78784],[122.8629,46.87991],[122.7461,46.97276],[122.7969,47.04673],[122.6857,47.06919],[122.57,47.12],[122.374,47.34906],[122.4893,47.403],[122.5388,47.53204],[122.8409,47.68111],[123.1499,47.79471],[123.2831,47.96694],[123.5358,48.03218],[123.8118,48.27223],[124.037,48.42829],[124.2574,48.53957],[124.3089,48.5157],[124.3326,48.43216],[124.3285,48.37404],[124.3615,48.31311],[124.4329,48.24525],[124.4785,48.15922],[124.5462,48.23199],[124.5142,48.31905],[124.4988,48.351],[124.5139,48.44423],[124.5235,48.46154],[124.5293,48.47679],[124.5214,48.49408],[124.519,48.57661],[124.633,48.83037],[124.8596,49.19068],[125.0512,49.17497],[125.1164,49.18126],[125.1679,49.2019],[125.2053,49.19562],[125.2033,49.27273],[125.21,49.44],[125.2043,49.494],[125.0931,49.6454],[125.1933,49.78659],[125.13,49.81],[125.2043,49.86809],[125.1604,49.95741],[125.2277,50.01921],[125.2235,50.12762],[125.0629,50.18481],[124.9022,50.3025],[124.5602,50.34108],[124.4833,50.36912],[124.4559,50.40589],[124.4092,50.34721],[124.3858,50.24808],[124.3611,50.16722],[124.2363,50.16239],[124.2039,50.16326],[123.8798,50.17866],[123.6868,50.40589],[123.7885,50.47674],[123.9368,50.48023],[124.0068,50.55009],[123.8448,50.69298],[123.4479,51.18107],[123.29,51.21],[123.06,51.28],[122.92,51.33],[122.86,51.41],[122.82,51.54],[122.77,51.64],[122.7077,51.79928],[122.6692,51.8748],[122.6665,51.9595],[122.617,52.03222],[122.6019,52.14192],[122.7324,52.17646],[122.7393,52.23621],[122.5717,52.25471],[122.4509,52.2984],[122.4619,52.3387],[122.28,52.43],[122.2133,52.44597],[122.146,52.45852],[121.9427,52.27572],[121.8246,52.25639],[121.7052,52.30764],[121.6832,52.33198],[121.6214,52.41163],[121.517,52.42922],[121.4099,52.47944],[121.1819,52.568],[121.15,52.62],[121.36,52.72],[121.56,52.86],[121.62,52.94],[121.73,53.1],[121.6351,53.16159],[121.642,53.2085],[121.6008,53.24878],[121.4786,53.31857],[121.458,53.45024],[123.5214,53.65559],[124.535,53.30145]]]}}
