{"type":"Feature","properties":{"sourceId":"ireland-and-northern-ireland"},"geometry":{"type":"Polygon","coordinates":[[[-10.42441,56.69324],[-7.370785,56.09785],[-6.063212,55.37104],[-5.431093,54.99403],[-5.059265,54.46769],[-5.077687467395787,54.27241301709815],[-5.434554,53.73236],[-5.128636170881685,53.73236],[-5.149074563015814,53.51571434306535],[-5.292829,53.45655],[-5.94347544589478,51.69069420715308],[-8.162727,49.60002],[-10.76456,50.43397],[-14.40224,56.67119],[-14.1318,56.86553],[-10.42441,56.69324]]]}}
