{"type":"Feature","properties":{"sourceId":"isole"},"geometry":{"type":"Polygon","coordinates":[[[11.25351,37.85436],[11.23575,37.92198],[9.356832,38.07627],[7.802627,38.72932],[7.718453,41.33676],[9.187342533288378,41.32681138292548],[9.254565,41.31103],[9.330386069776607,41.37024929318694],[9.418028,41.42728],[9.623821,41.4474],[9.627708,41.51465],[9.877036,41.51893],[12.537585841679752,40.336606120697724],[12.72135,40.21443],[12.765694238930319,40.23523684698081],[15.526045640225831,39.00856207250762],[15.70054,38.40924],[15.67646,38.28534],[15.58389,38.22885],[15.45472,37.83514],[15.458962371308953,37.82925625708418],[15.45372,37.81395],[15.68604,37.02034],[15.52049,36.32393],[15.50718,36.30954],[13.83638,36.34822],[13.23388,35.07638],[11.97558,35.14535],[11.91399,35.33933],[11.59768,36.54378],[11.60037,37.85861],[11.25351,37.85436]]]}}
