{"type":"Feature","properties":{"sourceId":"ivory-coast"},"geometry":{"type":"Polygon","coordinates":[[[-7.575074,4.36079],[-7.6149,4.880259],[-7.592927,5.02118],[-7.416613,5.592297],[-7.493363,5.770403],[-7.849674,5.972823],[-7.891618,6.238856],[-8.180009,6.273666],[-8.407288,6.335091],[-8.633881,6.51318],[-8.355103,6.813263],[-8.314591,7.172433],[-8.380509,7.243279],[-8.479561949105578,7.5533306185042015],[-8.466339,7.542551],[-8.414498,7.593941],[-8.313218,7.576585],[-8.207131,7.531319],[-8.174858,7.563992],[-8.161469,7.584412],[-8.140612,7.663614],[-8.109627,7.72324],[-8.084565,7.798759],[-8.12336,7.883107],[-8.043022,8.014356],[-7.937622,8.005857],[-7.936936,8.050732],[-7.975388,8.200277],[-8.220864,8.243771],[-8.185845,8.467958],[-7.947235,8.479843],[-7.894707,8.414301],[-7.745018,8.367769],[-7.627259,8.359957],[-7.648545,8.502594],[-7.664338,8.621417],[-7.781754,8.777529],[-7.941056,8.810779],[-7.878571,9.016998],[-7.705193,9.062093],[-7.820893,9.188532],[-7.899857,9.20141],[-7.862778,9.295274],[-7.844239,9.426032],[-8.054352,9.435177],[-8.135376,9.58484],[-8.100014,9.656262],[-8.086281,9.83695],[-8.098297,10.0385],[-7.991867,10.09529],[-7.940912003362636,10.223780206048302],[-7.631379,10.48106],[-7.458344,10.46013],[-7.05803,10.21222],[-6.950227,10.36356],[-6.646729,10.68018],[-6.212769,10.75034],[-6.170884,10.64509],[-6.146851,10.42096],[-6.150285,10.36423],[-6.179124,10.2379],[-5.97107,10.27844],[-5.869446,10.38449],[-5.783959,10.44494],[-5.659676,10.47465],[-5.559769,10.47465],[-5.521548264902834,10.451994176738246],[-5.527409,10.42192],[-5.496032,10.3718],[-5.447885,10.31292],[-5.41127,10.28642],[-5.367352,10.2753],[-5.353045,10.29158],[-5.327692,10.28358],[-5.200951,10.29598],[-5.18837,10.27482],[-5.15544,10.27415],[-5.088172,10.10327],[-5.069611,10.09742],[-5.074896,10.0827],[-5.064162,10.0708],[-5.001598,10.05337],[-4.993134,10.0193],[-4.999529,10.00584],[-4.996671,9.979698],[-4.966406,9.952161],[-4.982583,9.908885],[-4.974144,9.884669],[-4.935105,9.863522],[-4.915828,9.882453],[-4.883272,9.86114],[-4.839387,9.855827],[-4.824356,9.833057],[-4.804521,9.794289],[-4.828016,9.786146],[-4.817776,9.761989],[-4.779486,9.726582],[-4.716218,9.68235],[-4.695256,9.667516],[-4.660581,9.68024],[-4.649111,9.698588],[-4.625489,9.692035],[-4.611764,9.706421],[-4.595564,9.685602],[-4.506192,9.6369],[-4.436092,9.652305],[-4.412446,9.600547],[-4.380707,9.584083],[-4.366211,9.591558],[-4.35864,9.616163],[-4.323572,9.590873],[-4.304388,9.590462],[-4.273269,9.649615],[-4.273782,9.688145],[-4.242113,9.727098],[-4.247035,9.740424],[-4.181244,9.754203],[-4.038285,9.789705],[-4.022873,9.812307],[-3.96654,9.816864],[-3.932748,9.853742],[-3.79159,9.890983],[-3.755061,9.92433],[-3.661185,9.926132],[-3.596352,9.906421],[-3.554364,9.920497],[-3.365421,9.905707],[-3.334465,9.880811],[-3.310744,9.852395],[-3.264148,9.836111],[-3.190265,9.838621],[-3.17324,9.824062],[-3.148021,9.835278],[-3.099949,9.759955],[-3.076793,9.720707],[-3.053577,9.71226],[-2.927184,9.566359],[-2.786793,9.39654],[-2.763743,9.384107],[-2.739535,9.388015],[-2.685442,9.472243],[-2.7103992227188303,9.433382205531924],[-2.704011,9.424],[-2.804261,9.060737],[-2.667649,8.896055],[-2.540018,8.240531],[-2.78612,7.953496],[-2.944075,7.593914],[-3.01244,7.170612],[-3.241702,6.823028],[-3.26746,6.608472],[-3.043747,5.713065],[-2.91978,5.58796],[-2.780924,5.58762],[-2.792836,5.130145],[-3.068962,5.140186],[-3.117714,5.127876],[-3.110848,5.084447],[-3.2234231836074736,4.861350959257679],[-7.531648,4.141916],[-7.575074,4.36079]]]}}
