{"type":"Feature","properties":{"sourceId":"interior-admreg"},"geometry":{"type":"Polygon","coordinates":[[[-124.7443,53.36858],[-124.6797,53.41772],[-124.5836,53.47824],[-124.5136,53.55744],[-124.368,53.5101],[-124.403,53.45494],[-124.3769,53.46353],[-124.2815,53.48233],[-124.1421,53.44185],[-124.0098,53.43945],[-124.0009,53.45514],[-124.004,53.48716],[-123.6039,53.4863],[-123.5986,53.48808],[-123.5901,53.48765],[-123.5852,53.4853],[-123.4655,53.4858],[-123.4623,53.49188],[-123.4501,53.48529],[-123.4249,53.48524],[-123.4246,53.47134],[-123.2975,53.47401],[-123.3018,53.28401],[-123.2879,53.29026],[-123.2385,53.30257],[-123.1615,53.30339],[-123.0908,53.29477],[-123.0565,53.30421],[-122.9968,53.28492],[-122.9713,53.30503],[-122.8965,53.32062],[-122.8416,53.38497],[-122.6898,53.39848],[-122.6369,53.38865],[-122.6047,53.37718],[-122.3561,53.37637],[-122.3582,53.44022],[-122.342,53.45276],[-121.5724,53.44917],[-121.5653,53.44385],[-121.2657,53.44962],[-121.0158,53.4349],[-120.6876,53.26111],[-120.6546,53.23399],[-120.4596,53.16242],[-120.4005,53.09897],[-120.3992,53.05772],[-120.4555,53.04369],[-120.3731,52.96684],[-120.1698,52.93209],[-120.0352,52.82351],[-119.9515,52.73546],[-119.8897,52.72382],[-119.7922,52.67888],[-119.6136,52.713],[-119.5161,52.65223],[-119.3472,52.65973],[-119.3568,52.60305],[-119.225,52.61055],[-119.1975,52.6364],[-119.0463,52.63887],[-118.9929,52.60555],[-118.927,52.57635],[-118.8748,52.48195],[-118.9215,52.44931],[-118.9105,52.35715],[-118.7691,52.31771],[-118.8556,52.2463],[-118.81750037956694,52.20216593019139],[-119.0369,51.9358],[-119.0176,51.47796],[-119.4379,51.27395],[-119.5553,51.09231],[-119.5628,50.99561],[-119.7266,50.98804],[-119.6758,50.86058],[-119.6449,50.82611],[-119.5628,50.85451],[-119.5175,50.82763],[-119.4901,50.7686],[-119.5464,50.75297],[-119.5464,50.58847],[-119.659,50.58498],[-119.6669,50.48547],[-119.6573,50.39911],[-119.7156,50.32015],[-119.7585,50.25961],[-119.7705,50.23645],[-119.7551,50.20811],[-119.796,50.21119],[-119.8382,50.18218],[-119.7874,50.11441],[-119.7434,50.10605],[-119.7678,50.08843],[-119.774,50.04898],[-119.8135,50.03509],[-119.8042,50.00862],[-119.8354,50.00134],[-119.8681,49.96886],[-119.8869,49.96977],[-119.9535,49.92691],[-119.993,49.94371],[-120.0445,49.9068],[-120.061,49.8745],[-120.0703,49.84905],[-120.1227,49.84933],[-120.1471,49.85898],[-120.1692,49.8648],[-120.1731,49.85716],[-120.199,49.86455],[-120.2323,49.84927],[-120.243,49.87536],[-120.2445,49.87901],[-120.2584,49.88612],[-120.2697,49.89038],[-120.28,49.90069],[-120.2936,49.90182],[-120.3129,49.90164],[-120.3216,49.91318],[-120.3421,49.91325],[-120.3726,49.90299],[-120.3752,49.89082],[-120.4263,49.8402],[-120.4411,49.81583],[-120.4919,49.77971],[-120.4906,49.77315],[-120.5894,49.77309],[-120.6021,49.77021],[-120.6022,49.74978],[-120.6933,49.75051],[-120.7045,49.74988],[-120.761,49.74985],[-120.7617,49.76017],[-120.7718,49.76059],[-120.7729,49.76388],[-120.8313,49.76393],[-120.8322,49.76032],[-120.9175,49.75981],[-120.9203,49.75914],[-120.9259,49.75414],[-120.9218,49.74968],[-120.9171,49.74568],[-120.916,49.73266],[-120.9323,49.72715],[-120.9348,49.72337],[-120.9341,49.71637],[-120.9502,49.71668],[-120.9758,49.69087],[-120.9684,49.67957],[-120.9626,49.64157],[-120.96481129987563,49.6393548206509],[-120.9653,49.64051],[-120.9986,49.65674],[-121.1174,49.63473],[-121.1524,49.63384],[-121.1291,49.65429],[-121.1044,49.68274],[-121.151,49.7227],[-121.1785,49.76486],[-121.1641,49.8052],[-121.1098,49.81894],[-121.0707,49.8526],[-121.0838,49.87428],[-121.1476,49.89596],[-121.2177,49.90171],[-121.2822,49.88712],[-121.2829,49.91144],[-121.2554,49.96447],[-121.2808,50.00818],[-121.3152,50.05405],[-121.6228,50.05482],[-121.6561,50.08248],[-121.7532,50.09988],[-121.802,50.09416],[-121.8521,50.08094],[-121.8782,50.06111],[-121.9579,50.09812],[-122.008,50.09372],[-122.0739,50.1307],[-122.1185,50.12982],[-122.1522,50.11882],[-122.2037,50.1197],[-122.2449,50.13863],[-122.295,50.17558],[-122.3175,50.1867],[-122.2765,50.1991],[-122.2641,50.22129],[-122.285,50.23337],[-122.2916,50.24699],[-122.2315,50.27332],[-122.2315,50.31829],[-122.1724,50.33231],[-122.1491,50.34678],[-122.1158,50.41661],[-122.1218,50.427],[-122.106,50.42963],[-122.0775,50.42394],[-122.0611,50.42531],[-122.0488,50.42066],[-122.0138,50.41071],[-121.9771,50.41508],[-121.9745,50.75362],[-122.9466,50.75818],[-122.9411,51.2043],[-123.0743,51.22667],[-123.132,51.15351],[-123.1856,51.1018],[-123.2611,51.06298],[-123.2803,51.00857],[-123.4053,51.00944],[-123.5056,50.97227],[-123.6827,50.90563],[-123.69586394468001,50.88646843369505],[-123.7007,50.88822],[-123.7007,50.88849],[-123.7008,50.88857],[-123.7019,50.892],[-123.7103,50.89793],[-123.8791,50.9528],[-123.9869,50.97227],[-124.0356,50.95064],[-124.0762,51.01289],[-124.127,51.02714],[-124.1297,51.04787],[-124.1723,51.06298],[-124.1949,51.05866],[-124.221,51.06211],[-124.1689,51.0936],[-124.1599,51.13025],[-124.2389,51.15566],[-124.3659,51.1548],[-124.3577,51.19742],[-124.3975,51.19871],[-124.4621,51.19183],[-124.5039,51.1759],[-124.5335,51.17427],[-124.5344,51.18194],[-124.712,51.23484],[-124.7504,51.24172],[-124.7655,51.29842],[-124.8136,51.32289],[-124.9111,51.31216],[-124.986,51.29026],[-125.0773,51.31731],[-125.1329,51.32632],[-125.2036,51.3319],[-125.2359,51.36792],[-125.2929,51.38892],[-125.321,51.39278],[-125.3352,51.40388],[-125.3353,51.40395],[-125.3359,51.40434],[-125.3359,51.40435],[-125.308,51.45144],[-125.2874,51.47283],[-125.2318,51.51387],[-125.2386,51.55872],[-125.2167,51.63038],[-125.2112,51.70618],[-125.2495,51.71487],[-125.2594,51.71839],[-125.2242,51.74446],[-125.24,51.76274],[-125.3101,51.78271],[-125.3526,51.7929],[-125.4041,51.84087],[-125.4886,51.88963],[-125.4721,51.91251],[-125.5257,51.94342],[-125.5772,51.92352],[-125.5971,51.9087],[-125.6589,51.93707],[-125.7138,52.01785],[-125.8209,52.05756],[-125.8594,52.05122],[-125.8841,52.01194],[-125.845,51.98277],[-125.8868,51.97684],[-125.9054,51.94892],[-125.9033,51.90827],[-125.9219,51.9087],[-125.9383,51.89853],[-125.9576,51.84045],[-125.9919,51.79078],[-125.9555,51.76529],[-126.0111,51.7249],[-125.9946,51.69384],[-125.9466,51.67213],[-125.9562,51.6585],[-125.9644,51.63208],[-125.9892,51.59115],[-126.0146,51.60608],[-126.0537,51.60096],[-126.0647,51.58304],[-126.0921,51.54078],[-126.1258,51.52028],[-126.1114,51.46984],[-126.1588,51.45914],[-126.178,51.43988],[-126.2054,51.45529],[-126.2975,51.46428],[-126.3366,51.46727],[-126.3771,51.47839],[-126.4307,51.49207],[-126.454,51.49122],[-126.4849,51.45743],[-126.4947,51.43025],[-126.4972,51.42536],[-126.5529,51.42062],[-126.5872,51.4112],[-126.6174,51.44459],[-126.7094,51.48267],[-126.7369,51.43561],[-126.73103562750235,51.42230579925801],[-126.7685,51.42833],[-126.7534,51.39749],[-126.8069,51.38035],[-126.925,51.36578],[-127.0651,51.32203],[-127.1159,51.27996],[-127.105,51.24816],[-127.1338,51.23441],[-127.28731637481721,51.224601375754624],[-127.3837,51.23312],[-127.485,51.23849],[-127.5777,51.19892],[-127.7432,51.1929],[-127.7435,51.16664],[-127.7895,51.16621],[-127.8435,51.1213],[-127.97754978987699,51.11189464804948],[-128.8637,52.12848],[-128.6363,52.20007],[-128.5606,52.24967],[-128.5895,52.39404],[-128.4837,52.43257],[-128.3958,52.48111],[-128.2214,52.49783],[-128.1981,52.62056],[-128.1569,52.68471],[-128.0566,52.718],[-127.9138,52.72798],[-127.9001,52.68721],[-127.8603,52.69387],[-127.83,52.67722],[-127.8108,52.67555],[-127.804,52.69969],[-127.7367,52.72548],[-127.738,52.78699],[-127.6804,52.79861],[-127.5938,52.78366],[-127.5911,52.73546],[-127.5403,52.70468],[-127.4757,52.71633],[-127.359,52.81687],[-127.2357,52.83074],[-127.3288,52.90145],[-127.256,53.02139],[-127.462,53.07918],[-127.5101,53.14677],[-127.381,53.23152],[-127.2794,53.28574],[-127.1667,53.2841],[-127.0981,53.24714],[-127.094,53.28985],[-127.0116,53.31693],[-126.9553,53.26686],[-127.0171,53.2085],[-126.98,53.15007],[-126.991,53.08578],[-126.8893,53.11381],[-126.8413,53.12205],[-126.7712,53.0602],[-126.7726,53.0123],[-126.7067,52.9966],[-126.6779,53.03378],[-126.6463,53.04121],[-126.6167,53.0055],[-125.0009,53.00054],[-125.0104,53.44669],[-124.9475,53.44799],[-124.7443,53.36858]]]}}
