{"type":"Feature","properties":{"sourceId":"inner-mongolia"},"geometry":{"type":"Polygon","coordinates":[[[99.4989,42.6667],[100.8779,42.77054],[101.8334,42.5945],[102.126,42.31625],[103.4124,41.98471],[104.5484,41.97058],[104.6211,41.75035],[105.0104,41.70616],[107.4242,42.55237],[109.4418,42.55165],[110.3623,42.85504],[110.9575,43.4094],[111.8625,43.77313],[111.3097,44.35399],[111.6477,44.99078],[111.939,45.17823],[113.6161,44.84715],[114.5213,45.47917],[115.6537,45.54833],[116.1253,45.77963],[116.5415,46.38586],[117.2813,46.46364],[117.3811,46.67325],[118.8966,46.87579],[119.325,46.71636],[119.8045,46.78166],[119.6283,47.1212],[118.511,47.89464],[117.8461,47.91941],[117.3791,47.54012],[116.8179,47.79472],[116.2655,47.77329],[115.9236,47.58267],[115.4953,47.84709],[115.4213,48.16679],[115.7061,48.32603],[115.7014,48.57167],[116.6631,49.92947],[117.7768,49.62775],[119.1997,50.16015],[119.0179,50.39327],[119.1883,50.65497],[120.0155,51.75303],[120.6539,52.15337],[120.5543,52.49332],[119.9657,52.53243],[119.9398,52.8255],[120.8545,53.39018],[121.4069,53.44515],[121.46866203526113,53.38209096199838],[121.4786,53.31857],[121.6008,53.24878],[121.642,53.2085],[121.6351,53.16159],[121.73,53.1],[121.62,52.94],[121.56,52.86],[121.36,52.72],[121.15,52.62],[121.1819,52.568],[121.4099,52.47944],[121.517,52.42922],[121.6214,52.41163],[121.6832,52.33198],[121.7052,52.30764],[121.8246,52.25639],[121.9427,52.27572],[122.146,52.45852],[122.2133,52.44597],[122.28,52.43],[122.4619,52.3387],[122.4509,52.2984],[122.5717,52.25471],[122.7393,52.23621],[122.7324,52.17646],[122.6019,52.14192],[122.617,52.03222],[122.6665,51.9595],[122.6692,51.8748],[122.7077,51.79928],[122.77,51.64],[122.82,51.54],[122.86,51.41],[122.92,51.33],[123.06,51.28],[123.29,51.21],[123.4479,51.18107],[123.8448,50.69298],[124.0068,50.55009],[123.9368,50.48023],[123.7885,50.47674],[123.6868,50.40589],[123.8798,50.17866],[124.2039,50.16326],[124.2363,50.16239],[124.3611,50.16722],[124.3858,50.24808],[124.4092,50.34721],[124.4559,50.40589],[124.4833,50.36912],[124.5602,50.34108],[124.9022,50.3025],[125.0629,50.18481],[125.2235,50.12762],[125.2277,50.01921],[125.1604,49.95741],[125.2043,49.86809],[125.13,49.81],[125.1933,49.78659],[125.0931,49.6454],[125.2043,49.494],[125.21,49.44],[125.2033,49.27273],[125.2053,49.19562],[125.1679,49.2019],[125.1164,49.18126],[125.0512,49.17497],[124.8596,49.19068],[124.633,48.83037],[124.519,48.57661],[124.5214,48.49408],[124.5293,48.47679],[124.5235,48.46154],[124.5139,48.44423],[124.4988,48.351],[124.5142,48.31905],[124.5462,48.23199],[124.4785,48.15922],[124.4329,48.24525],[124.3615,48.31311],[124.3285,48.37404],[124.3326,48.43216],[124.3089,48.5157],[124.2574,48.53957],[124.037,48.42829],[123.8118,48.27223],[123.5358,48.03218],[123.2831,47.96694],[123.1499,47.79471],[122.8409,47.68111],[122.5388,47.53204],[122.4893,47.403],[122.374,47.34906],[122.57,47.12],[122.6857,47.06919],[122.7969,47.04673],[122.7461,46.97276],[122.8629,46.87991],[122.8793,46.78784],[122.9961,46.7088],[123.165,46.72386],[123.2501,46.83765],[123.3572,46.8057],[123.42,46.91],[123.5014,46.93151],[123.4698,46.87709],[123.4534,46.81698],[123.4946,46.80382],[123.6185,46.80781],[123.5928,46.6909],[123.2673,46.6763],[122.97,46.60983],[122.98,46.39],[123.08,46.31],[123.13093984962407,46.23722878625134],[123.105,46.225],[123.105,46.195],[123.075,46.145],[123.025,46.115],[122.765,46.085],[122.76,46.065],[122.8,45.885],[122.7303,45.82593],[122.7599,45.74836],[122.7063,45.70714],[122.6637,45.73446],[122.6459,45.77279],[122.5587,45.82354],[122.5188,45.81636],[122.49,45.885],[122.4447,45.91916],[122.354,45.91963],[122.3522,45.90888],[122.353,45.89718],[122.3578,45.85893],[122.3252,45.86623],[122.2861,45.82617],[122.2512,45.80128],[122.2277,45.84351],[122.2028,45.8575],[122.1455,45.87603],[122.0918,45.89228],[122.0763,45.93205],[122.015,45.98],[121.955,46.0],[121.87,46.02],[121.8023,46.02748],[121.755,46.005],[121.7495,45.98885],[121.7907,45.92465],[121.785,45.885],[121.745,45.83],[121.73,45.805],[121.68,45.78],[121.6358,45.76776],[121.6276,45.751],[121.64,45.725],[121.7,45.69],[121.803,45.68004],[121.8531,45.70378],[121.9318,45.70067],[121.975,45.635],[121.9561,45.59458],[121.9603,45.55998],[121.9815,45.52535],[122.0135,45.47121],[122.159,45.41966],[122.12,45.375],[122.1295,45.30315],[122.1522,45.27972],[122.2243,45.26643],[122.1917,45.18857],[122.1244,45.18688],[122.0863,45.14573],[122.09,45.07],[122.0457,44.99588],[122.005,44.905],[122.005,44.895],[122.015,44.865],[122.065,44.81302],[122.0856,44.62127],[122.1075,44.58802],[122.122,44.56063],[122.195,44.47],[122.27,44.405],[122.265,44.3],[122.245,44.27],[122.2627,44.23487],[122.409,44.21765],[122.5861,44.24422],[122.6878,44.27864],[122.8738,44.39062],[123.025,44.48],[123.0723,44.497],[123.1197,44.49944],[123.1197,44.4725],[123.1,44.42],[123.1118,44.35798],[123.1966,44.32729],[123.2645,44.24053],[123.2865,44.18737],[123.3669,44.15364],[123.3734,44.14033],[123.3517,44.13122],[123.3358,44.09128],[123.3152,44.08339],[123.3,44.07],[123.32,44.02],[123.373,43.94859],[123.4369,43.86325],[123.4692,43.72745],[123.5131,43.63409],[123.4843,43.59531],[123.4513,43.59879],[123.4264,43.61184],[123.4129,43.61284],[123.4096,43.59792],[123.4149,43.55601],[123.3378,43.56907],[123.2946,43.54967],[123.305,43.475],[123.4098,43.40418],[123.445,43.405],[123.475,43.435],[123.5196,43.39469],[123.5488,43.40131],[123.5862,43.36063],[123.68232975693041,43.36370615222177],[123.68,43.35539],[123.692,43.31419],[123.6491,43.26246],[123.6319,43.20793],[123.6491,43.1819],[123.625,43.155],[123.5797,43.04205],[123.5522,43.0044],[123.4819,43.04556],[123.4087,43.03477],[123.2343,42.99059],[123.1688,42.923],[123.1581,42.85004],[123.1924,42.83041],[123.1004,42.80069],[123.0386,42.7765],[122.9803,42.78331],[122.9446,42.7634],[122.9226,42.77625],[122.8756,42.77172],[122.8447,42.72255],[122.7945,42.74701],[122.7262,42.79238],[122.6215,42.77726],[122.5659,42.82789],[122.4241,42.84501],[122.3372,42.83368],[122.355,42.755],[122.4327,42.7571],[122.3853,42.71625],[122.3698,42.69026],[122.2723,42.70061],[122.21058302976822,42.7237615784582],[122.2081,42.72583],[122.20801864294594,42.7247235440649],[122.1923,42.73062],[122.1827,42.69253],[122.1175,42.70565],[122.1,42.72],[122.0543,42.72432],[121.9682,42.70767],[121.91,42.68],[121.8761,42.57735],[121.8404,42.54221],[121.8171,42.53613],[121.8078,42.51615],[121.7419,42.49033],[121.6973,42.44651],[121.6602,42.44322],[121.6447,42.47286],[121.6156,42.49235],[121.6066,42.51665],[121.5514,42.49412],[121.4721,42.49767],[121.4037,42.48552],[121.3543,42.46273],[121.3004,42.4417],[121.2678,42.38949],[121.1854,42.36336],[121.1486,42.31972],[121.0264,42.2552],[120.9293,42.28163],[120.8675,42.27096],[120.7377,42.22292],[120.465,42.13],[120.451,42.09822],[120.4798,42.07019],[120.4383,42.0572],[120.395,42.0],[120.3295,41.98808],[120.289,41.94264],[120.2625,41.92834],[120.1829,41.84859],[120.1221,41.77208],[120.1139,41.72495],[120.0806,41.70547],[120.0377,41.71265],[120.0431,41.75543],[120.0474,41.77144],[120.0392,41.81572],[120.0131,41.83146],[119.9916,41.9056],[119.9573,41.92731],[119.957,41.96945],[119.9137,42.0164],[119.8447,42.11605],[119.8577,42.16875],[119.8516,42.21682],[119.8203,42.21835],[119.7465,42.21784],[119.6174,42.26689],[119.556,42.30702],[119.5762,42.34332],[119.5615,42.36514],[119.5331,42.36539],[119.5182,42.37478],[119.5137,42.38721],[119.5031,42.39773],[119.4931,42.39735],[119.4765,42.34903],[119.4403,42.33317],[119.3998,42.31197],[119.3417,42.3022],[119.293,42.2721],[119.271,42.2627],[119.2544,42.23017],[119.2252,42.19699],[119.2726,42.15895],[119.3021,42.11924],[119.3484,42.1009],[119.3694,42.07631],[119.3711,42.05681],[119.3592,42.02277],[119.3417,41.98948],[119.3114,41.97008],[119.3122,41.85729],[119.3053,41.83222],[119.2995,41.80408],[119.2779,41.78923],[119.281,41.76978],[119.3033,41.7562],[119.2871,41.73622],[119.2902,41.69624],[119.3002,41.67189],[119.2978,41.64778],[119.3053,41.6352],[119.3232,41.62763],[119.3309,41.61403],[119.3531,41.60569],[119.4087,41.58245],[119.4003,41.57834],[119.4008,41.5673],[119.381,41.56807],[119.3507,41.56447],[119.3532,41.54032],[119.3888,41.49804],[119.3663,41.45958],[119.3464,41.41698],[119.2928,41.40166],[119.28,41.39],[119.306,41.35362],[119.2401,41.32887],[119.2223,41.31444],[119.2227817236894,41.31055380361853],[119.1965,41.30257],[119.1872,41.28942],[119.1515,41.30154],[119.0341,41.30077],[118.9459,41.31908],[118.8958,41.30541],[118.8443,41.34769],[118.8443,41.37372],[118.8278,41.37501],[118.7612,41.35413],[118.7437,41.32655],[118.6647,41.35723],[118.5191,41.36238],[118.4192,41.34022],[118.3832,41.31676],[118.3708,41.34254],[118.355,41.445],[118.3056,41.46717],[118.3159,41.56434],[118.2204,41.58951],[118.2156,41.64726],[118.159,41.7006],[118.145,41.74],[118.1494,41.78693],[118.2129,41.80664],[118.2318,41.77054],[118.2678,41.74621],[118.2984,41.76978],[118.3344,41.84118],[118.3365,41.87391],[118.2747,41.92221],[118.3094,41.93344],[118.321,41.97302],[118.275,42.01818],[118.2905,42.04394],[118.2953,42.05592],[118.2634,42.09007],[118.2088,42.09338],[118.1992,42.04394],[118.1336,42.03374],[118.1624,42.08039],[118.1496,42.09122],[118.0888,42.11312],[118.1099,42.15781],[118.0639,42.29814],[118.0158,42.34231],[118.0268,42.40064],[117.7961,42.59454],[117.7927,42.62234],[117.7714,42.62487],[117.667,42.58949],[117.542,42.61476],[117.4349,42.60061],[117.3683,42.51463],[117.4054,42.49286],[117.3793,42.46399],[117.3257,42.46804],[117.2694,42.48526],[117.2015,42.47412],[117.15,42.4726],[117.0882,42.48476],[117.0483,42.46146],[117.0065,42.45842],[116.9481,42.42701],[116.8787,42.39152],[116.8705,42.34281],[116.8945,42.25495],[116.8993,42.19546],[116.7723,42.20665],[116.8238,42.13846],[116.8437,42.13591],[116.8726,42.08447],[116.85,42.02],[116.7187,41.98246],[116.4942,41.98706],[116.4159,41.99726],[116.3686,42.0141],[116.3164,42.01308],[116.2072,41.936],[116.1804,41.87825],[116.0953,41.84297],[116.0992,41.79167],[116.0651,41.78411],[116.01,41.795],[116.0046,41.82941],[115.9507,41.88976],[115.9202,41.94621],[115.8491,41.93625],[115.8192,41.94366],[115.7571,41.8918],[115.7248,41.89384],[115.6816,41.85831],[115.6266,41.82404],[115.5669,41.79487],[115.4471,41.75262],[115.2998,41.7065],[115.3156,41.6783],[115.3475,41.60132],[115.3063,41.59414],[115.2847,41.62597],[115.2493,41.61262],[115.2414,41.58566],[115.1415,41.62135],[115.0797,41.62468],[114.9939,41.61467],[114.8696,41.60903],[114.8936,41.63187],[114.8991,41.68855],[114.8967,41.75441],[114.8758,41.80408],[114.9276,41.82276],[114.9393,41.84501],[114.9211,41.89129],[114.9348,41.89614],[114.9321,41.9079],[114.918,41.91173],[114.9321,41.93217],[114.9002,42.01665],[114.8573,42.10153],[114.827,42.14966],[114.7865,42.15093],[114.7546,42.11758],[114.5637,42.13693],[114.4978,42.1107],[114.4508,42.03629],[114.4872,41.97302],[114.4199,41.94851],[114.3622,41.9623],[114.3406,41.95183],[114.3127,41.92195],[114.2812,41.87058],[114.1857,41.78975],[114.207,41.69958],[114.2032,41.67625],[114.2393,41.62443],[114.2139,41.62083],[114.2231,41.58797],[114.2067,41.57436],[114.2104,41.54867],[114.21376296309515,41.519287311014345],[114.21315022037055,41.518242984283724],[114.1421,41.53274],[114.0913,41.54379],[113.988,41.52452],[113.9231,41.48595],[113.875,41.4399],[113.8575,41.41132],[113.9282,41.38789],[113.8863,41.31547],[113.9426,41.2378],[113.9969,41.23057],[113.9904,41.18692],[113.8994,41.1771],[113.8537,41.11324],[113.8108,41.10367],[113.816,41.08168],[113.8743,41.05217],[113.9214,41.00633],[113.9632,40.97912],[113.9684,40.96227],[113.9691,40.93608],[114.0257,40.92596],[114.045,40.84472],[114.0309,40.83096],[114.0384,40.81355],[114.0662,40.78704],[114.0934,40.75818],[114.10785213312792,40.7476730299216],[114.0886,40.74309],[114.0508,40.72514],[114.048,40.63845],[114.0309,40.60926],[114.0453,40.59597],[114.058,40.5425],[113.9547,40.52972],[113.8692,40.46001],[113.7854,40.5292],[113.7535,40.48351],[113.6762,40.45296],[113.658,40.42369],[113.6295,40.41245],[113.5688,40.36303],[113.5657,40.35152],[113.5344,40.34157],[113.3988,40.32351],[113.3161,40.32351],[113.305,40.355],[113.2697,40.39546],[113.2526,40.41899],[113.2289,40.40487],[113.2018,40.39886],[113.1585,40.39337],[113.1218,40.38029],[113.0442,40.37375],[112.8873,40.33032],[112.8842,40.31043],[112.843,40.21061],[112.7266,40.17048],[112.6514,40.22765],[112.5879,40.25228],[112.5179,40.26983],[112.4619,40.30493],[112.3997,40.29707],[112.352,40.2604],[112.3019,40.25805],[112.2786,40.22529],[112.2851,40.21139],[112.2233,40.17704],[112.212,40.15841],[112.2164,40.13243],[112.1742,40.08254],[112.1289,40.02577],[112.1055,39.97817],[112.0853,39.95475],[112.0688,39.92501],[112.0403,39.89789],[111.9596,39.8001],[111.9119,39.67046],[111.9194,39.62182],[111.8219,39.62209],[111.7746,39.59193],[111.6733,39.64218],[111.5483,39.6628],[111.4951,39.66729],[111.456,39.65355],[111.4285,39.64403],[111.4151,39.61256],[111.4223,39.57659],[111.4089,39.54535],[111.4189,39.51755],[111.3914,39.50563],[111.3516,39.48099],[111.3506,39.44362],[111.3289,39.42187],[111.2932,39.42453],[111.2403,39.42903],[111.158,39.42585],[111.12,39.42],[111.11,39.4],[111.09585047748976,39.389387858117324],[111.0913,39.4098],[111.0546,39.43036],[111.135,39.5],[111.1538,39.5664],[111.1308,39.58902],[111.0814,39.56812],[111.0223,39.57923],[110.9626,39.5337],[110.8624,39.50722],[110.7278,39.35925],[110.7106,39.30242],[110.6207,39.27426],[110.5781,39.30774],[110.5705,39.34014],[110.5183,39.38739],[110.4215,39.38473],[110.3893,39.31889],[110.295,39.39],[110.244,39.44468],[110.1542,39.47304],[110.1103,39.43792],[110.1185,39.39574],[110.1324,39.3858],[110.1513,39.38672],[110.1721,39.35992],[110.1958,39.30947],[110.2009,39.28715],[109.958,39.19555],[109.8392,39.12527],[109.7768,39.07305],[109.7067,39.07624],[109.6669,38.94099],[109.5457,38.81162],[109.511,38.84051],[109.4132,38.77229],[109.394,38.72597],[109.3147,38.70266],[109.3222,38.61446],[109.2714,38.63833],[109.0403,38.43611],[108.9562,38.28239],[108.9188,38.17181],[109.0338,38.10133],[109.0427,38.0681],[109.028,38.02592],[108.9662,37.95286],[108.9418,37.92876],[108.9191,37.96531],[108.9,38.025],[108.8364,38.05945],[108.7925,38.05269],[108.822,37.9875],[108.7931,37.94068],[108.776,37.75606],[108.7815,37.69197],[108.537,37.69931],[108.3207,37.63816],[108.2534,37.67105],[108.1491,37.63762],[108.0399,37.65882],[107.9812,37.79188],[107.6822,37.8922],[107.6447,37.88244],[107.643044079191,37.874090672973594],[107.575,37.915],[107.4882,37.94853],[107.425,37.965],[107.4384,37.994],[107.3316,38.09539],[107.1531,38.16372],[107.01,38.14],[106.8012,38.16804],[106.7305,38.20689],[106.5461,38.26784],[106.5186,38.29667],[106.485,38.31661],[106.5921,38.38042],[106.6498,38.48853],[106.6649,38.56776],[106.6649,38.59836],[106.7109,38.71043],[106.7452,38.72918],[106.8036,38.81483],[106.9612,38.94152],[106.9718,39.03545],[106.9447,39.07838],[106.8832,39.0925],[106.8355,39.1873],[106.7983,39.24409],[106.8056,39.27718],[106.802,39.32368],[106.8091,39.35448],[106.7469,39.38606],[106.7136,39.385],[106.5983,39.37996],[106.5076,39.2987],[106.2721,39.27452],[106.2701,39.19794],[106.28,39.18011],[106.2797,39.1487],[106.2302,39.14284],[106.1448,39.16201],[106.1015,39.12607],[106.0644,39.03625],[106.0751,39.00985],[106.0328,38.96582],[105.9875,38.93912],[105.9587,38.89664],[105.9789,38.86618],[105.915,38.805],[105.885,38.79],[105.8941,38.73721],[105.8756,38.71981],[105.8776,38.69328],[105.8371,38.63591],[105.8564,38.60104],[105.835,38.55],[105.8502,38.54092],[105.8402,38.51647],[105.8413,38.49847],[105.8279,38.47294],[105.8371,38.44821],[105.8138,38.4275],[105.8244,38.38661],[105.81,38.36319],[105.8519,38.29533],[105.8248,38.23144],[105.7746,38.21552],[105.7492,38.12321],[105.8004,38.03592],[105.7568,37.81467],[105.6157,37.78781],[105.5903,37.71099],[105.3675,37.72484],[105.2919,37.70909],[105.1604,37.66725],[105.0169,37.58322],[104.8621,37.57288],[104.5782,37.53205],[104.4206,37.51926],[104.2929,37.44243],[104.28440304538069,37.43178269876473],[104.2757,37.43289],[104.1858,37.41898],[104.0882,37.48439],[103.849,37.65583],[103.6708,37.79622],[103.4253,37.88461],[103.391,38.06756],[103.5511,38.14414],[103.5091,38.39872],[103.9362,38.66728],[104.2094,38.9295],[104.2201,39.09829],[104.0947,39.43355],[103.851,39.48709],[103.356,39.36046],[102.9817,39.13965],[102.4351,39.2631],[101.7952,39.09596],[102.0354,38.89254],[101.7788,38.68579],[101.423,38.78746],[101.2206,38.95765],[101.2404,39.03092],[100.9345,39.06444],[100.8708,39.1119],[100.8449,39.4224],[100.3491,39.52152],[100.2825,39.70296],[99.7538,39.92712],[100.2036,40.2439],[100.2008,40.53572],[100.3127,40.68585],[100.0724,40.91248],[99.67888,40.94815],[99.65698,40.9436],[99.57087,40.86685],[99.1214,40.86731],[98.37227,40.7124],[98.35167,40.93375],[97.63412,41.46331],[97.85934,41.65599],[97.2345,42.81354],[97.16719874209942,42.80723212643817],[97.14328,42.89253],[97.1703,42.89497],[99.4989,42.6667]]]}}
