{"type":"Feature","properties":{"sourceId":"iraq"},"geometry":{"type":"Polygon","coordinates":[[[48.1493,30.44142],[48.17471,30.41952],[48.18483,30.40145],[48.20526,30.32532],[48.24285,30.34058],[48.25951,30.34399],[48.27633,30.33658],[48.29676,30.31762],[48.42258,30.19499],[48.42567,30.16769],[48.38722,30.12553],[48.44971,30.06999],[48.45657,30.00608],[48.5067,29.97457],[49.13086,29.81444],[49.55108,29.01775],[48.65295,29.34867],[48.20251,29.94661],[47.95807,29.97992],[47.68135,30.09583],[47.38335,30.09524],[47.19315,30.00787],[47.01736,29.67075],[46.8869,29.41388],[46.58821,29.09638],[46.42616,29.04837],[44.73306,29.16005],[42.03918,31.10469],[41.43164,31.35633],[40.39673,31.93002],[39.18939593462457,32.142287577968546],[39.31022,32.23586],[39.26087,32.35807],[39.04513,32.30724],[38.98945,32.47551],[39.08677,32.49909],[39.08891,32.50296],[38.79878765157719,33.368811330094225],[41.00975,34.41134],[41.04197,34.44763],[41.24749,34.7827],[41.29235,35.4824],[41.40422,35.62911],[41.39067,35.83813],[41.26864,36.05607],[41.30444,36.35289],[41.41903,36.5119],[41.83032,36.58337],[41.94559,36.66329],[42.37186,37.05436],[42.38383,37.08135],[42.36129,37.09329],[42.36404909522377,37.12311114741853],[42.39803,37.12249],[42.46238,37.15202],[42.57028,37.15478],[42.64686,37.2729],[42.67317,37.2803],[42.68065,37.31517],[42.71589,37.3219],[42.78917,37.39063],[42.83132,37.37918],[42.83847,37.354],[42.95799,37.32467],[43.00438,37.34168],[43.01998,37.36554],[43.15101,37.38249],[43.24048,37.3562],[43.30445,37.31337],[43.32457,37.3358],[43.36716,37.33304],[43.57109,37.26312],[43.83819,37.22924],[44.01651,37.33778],[44.12955,37.33212],[44.23439,37.2908],[44.27723,37.24904],[44.28679,37.1614],[44.23093,37.14841],[44.19668,37.10306],[44.23787,37.05835],[44.2411,37.02343],[44.26665,36.99048],[44.29986,36.98092],[44.34665,37.02893],[44.33946,37.04675],[44.35355,37.0609],[44.4099,37.06251],[44.4621,37.08385],[44.62234,37.19897],[44.76761,37.1759],[44.79394,37.14652],[44.76827,37.11983],[44.91937,37.02653],[44.91623,36.85545],[44.84588,36.79623],[44.94798,36.79165],[45.01796,36.76217],[45.07561,36.68503],[45.07553,36.60836],[45.0393,36.5504],[45.09967,36.43285],[45.14298,36.41889],[45.24219,36.44092],[45.28817,36.38546],[45.30865,36.28081],[45.3447,36.20301],[45.39139,36.08629],[45.39685,35.97945],[45.43876,36.00912],[45.56094,36.01171],[45.66988,35.94811],[45.75743,35.83252],[45.90179,35.85164],[46.0248,35.85206],[46.09611,35.87639],[46.14783,35.8596],[46.36299,35.8462],[46.38565,35.77047],[46.17485,35.68296],[46.03065,35.67459],[46.14601,35.33866],[46.21811,35.19289],[46.20094,35.11429],[46.16249,35.0789],[46.06705,35.02831],[45.9462,35.0744],[45.87547,34.89044],[45.70312,34.73484],[45.74982,34.58461],[45.756,34.52749],[45.57266,34.54842],[45.53146,34.46807],[45.47035,34.45505],[45.59669,34.31509],[45.60219,34.15216],[45.45868,33.98209],[45.52734,33.97184],[45.79101,33.63863],[45.91873,33.65464],[46.20506,33.27084],[46.23528,33.2048],[46.13022,33.0996],[46.17897,33.07083],[46.13708,32.97238],[46.2957,32.98333],[46.55525,32.94357],[47.17186,32.46314],[47.28275,32.50281],[47.38163,32.48283],[47.46815,32.39765],[47.57011,32.23081],[47.71156,32.0302],[47.87793,31.79312],[47.70737,31.40635],[47.70431,31.01148],[48.03961,31.00208],[48.02879,30.48211],[48.11394,30.45548],[48.1493,30.44142]]]}}
