{"type":"Feature","properties":{"sourceId":"iran"},"geometry":{"type":"Polygon","coordinates":[[[61.48453,24.03947],[57.67179,25.42797],[56.93152,25.59879],[56.75068,26.60555],[56.65413,26.73475],[55.8934,26.3852],[55.15463,25.61244],[53.51855,25.67696],[49.45368924456468,29.20239195171045],[49.13086,29.81444],[48.5067,29.97457],[48.45657,30.00608],[48.44971,30.06999],[48.38722,30.12553],[48.42567,30.16769],[48.42258,30.19499],[48.29676,30.31762],[48.27633,30.33658],[48.25951,30.34399],[48.24285,30.34058],[48.20526,30.32532],[48.18483,30.40145],[48.17471,30.41952],[48.1493,30.44142],[48.11394,30.45548],[48.02879,30.48211],[48.03961,31.00208],[47.70431,31.01148],[47.70737,31.40635],[47.87793,31.79312],[47.71156,32.0302],[47.57011,32.23081],[47.46815,32.39765],[47.38163,32.48283],[47.28275,32.50281],[47.17186,32.46314],[46.55525,32.94357],[46.2957,32.98333],[46.13708,32.97238],[46.17897,33.07083],[46.13022,33.0996],[46.23528,33.2048],[46.20506,33.27084],[45.91873,33.65464],[45.79101,33.63863],[45.52734,33.97184],[45.45868,33.98209],[45.60219,34.15216],[45.59669,34.31509],[45.47035,34.45505],[45.53146,34.46807],[45.57266,34.54842],[45.756,34.52749],[45.74982,34.58461],[45.70312,34.73484],[45.87547,34.89044],[45.9462,35.0744],[46.06705,35.02831],[46.16249,35.0789],[46.20094,35.11429],[46.21811,35.19289],[46.14601,35.33866],[46.03065,35.67459],[46.17485,35.68296],[46.38565,35.77047],[46.36299,35.8462],[46.14783,35.8596],[46.09611,35.87639],[46.0248,35.85206],[45.90179,35.85164],[45.75743,35.83252],[45.66988,35.94811],[45.56094,36.01171],[45.43876,36.00912],[45.39685,35.97945],[45.39139,36.08629],[45.3447,36.20301],[45.30865,36.28081],[45.28817,36.38546],[45.24219,36.44092],[45.14298,36.41889],[45.09967,36.43285],[45.0393,36.5504],[45.07553,36.60836],[45.07561,36.68503],[45.01796,36.76217],[44.94798,36.79165],[44.84588,36.79623],[44.91623,36.85545],[44.91937,37.02653],[44.774143429185564,37.116203322680256],[44.80087,37.12638],[44.85992,37.31338],[44.6347,37.46723],[44.65805,37.78808],[44.28177,37.91929],[44.55093,38.37181],[44.35318,38.40948],[44.34082,38.81189],[44.2337,39.13645],[44.07715,39.36509],[44.30099,39.36403],[44.41366,39.39698],[44.45536,39.41875],[44.50664,39.6879],[44.58973,39.75498],[44.803900936980234,39.62002792468301],[44.80465,39.61865],[44.9588,39.41706],[45.05434,39.36018],[45.07896,39.35474],[45.07862,39.33018],[45.13366,39.25863],[45.13257,39.21705],[45.38383,39.0917],[45.43213,38.99249],[45.5449,38.96279],[45.60022,38.95883],[45.60701,38.95328],[45.61074,38.94378],[45.65634,38.9448],[45.81947,38.88307],[46.15067,38.83258],[46.1516022933297,38.84033534865552],[46.18249,38.83743],[46.19468,38.84987],[46.21519,38.85408],[46.2188,38.8635],[46.24652,38.87212],[46.26566,38.88482],[46.28283,38.89865],[46.31879,38.90045],[46.33613,38.90913],[46.34068,38.91568],[46.36256,38.91],[46.3823,38.90499],[46.40376,38.89491],[46.4205,38.88128],[46.44788,38.89658],[46.45843,38.89217],[46.46444,38.88743],[46.48659,38.88449],[46.49466,38.88796],[46.50564,38.88402],[46.51977,38.88719],[46.52229,38.87192],[46.53304590411515,38.866243506428674],[46.53431,38.86283],[46.60602,38.90441],[46.70292,38.99781],[46.76188,39.02537],[46.77103,39.05549],[46.86653,39.13486],[46.96149,39.13838],[47.02131,39.16467],[47.06526,39.20313],[47.06783,39.23491],[47.13633,39.28383],[47.22301,39.31889],[47.31846,39.36801],[47.34833,39.40331],[47.39742,39.45078],[47.56222,39.50828],[47.76581,39.61098],[47.8791,39.66095],[47.91644,39.65734],[48.00373,39.69926],[48.34357,39.41028],[48.35455,39.39217],[48.36727,39.38113],[48.35997,39.37183],[48.34465,39.37199],[48.31418,39.36244],[48.20183,39.32779],[48.12424,39.27824],[48.12904,39.2163],[48.22792,39.12633],[48.30826,39.00024],[48.07219,38.95932],[48.00699,38.90787],[48.00978,38.83173],[48.3108,38.60164],[48.6454,38.3854],[48.73398,38.40155],[48.79423,38.44808],[48.87292,38.43972],[49.26368604175392,38.41333467530628],[51.83443958256072,37.838005580125454],[51.83271,37.29629],[54.03824,37.23616],[54.39674,37.3576],[54.59312,37.45033],[54.62711,37.43452],[54.67243,37.43261],[54.71706,37.46069],[54.77371,37.49788],[54.78298,37.51436],[54.81457,37.52579],[54.82332,37.60934],[54.79191,37.63422],[54.81216,37.66425],[54.8786,37.75226],[55.06176,37.85127],[55.12493,37.93553],[55.21763,37.93878],[55.54084,38.05293],[56.22058,38.04354],[56.37085,38.07188],[56.43127,38.22955],[56.99981,38.16264],[57.20581,38.22524],[57.35349,37.92135],[57.80069,37.85547],[58.31944,37.61497],[58.83223,37.62914],[59.35089,37.45524],[59.39209,37.27843],[59.55414,37.1231],[59.83704,37.08422],[60.26924,36.59257],[61.13979,36.57821],[61.08612,36.01595],[61.18152,35.67762],[61.25806353393246,35.59795968032279],[61.24741,35.53334],[61.17779,35.40689],[61.10704,35.29867],[61.07642,35.26393],[61.07826,35.17768],[61.05304,34.93254],[60.96818,34.74149],[60.90351,34.65056],[60.84109,34.58365],[60.74428,34.56735],[60.70678,34.53368],[60.53141,34.20674],[60.49016,34.14051],[60.53525,33.81969],[60.48761,33.73846],[60.56419,33.06684],[60.83897,32.23533],[60.81863,32.10256],[60.77962,32.03508],[60.80435,31.94095],[60.79182,31.85775],[60.81286,31.73883],[60.79449,31.65169],[60.82856,31.4898],[61.70283,31.36308],[61.74924,31.23994],[61.78922,31.17952],[61.82247,31.04117],[61.76754,30.92461],[61.78677,30.83769],[60.87151260758547,29.880339897722752],[60.82168,29.89305],[61.46713,29.02315],[61.60583,28.82543],[61.82625,28.60502],[61.90521,28.55377],[62.04185,28.49646],[62.37625,28.41194],[62.59598,28.23362],[62.77244,28.25903],[62.73193,28.02835],[62.74841,27.218],[63.18237,27.12759],[63.16314,26.68919],[62.82257,26.699],[62.28699,26.55168],[61.88255,26.27002],[61.84822,26.1844],[61.82281,26.06048],[61.81045,25.97101],[61.72462,25.75537],[61.65871,25.65515],[61.64858,25.40452],[61.60171,25.18941],[61.40808,24.53214],[61.55397075625919,24.506408636799765],[61.48453,24.03947]]]}}
