{"type":"Feature","properties":{"sourceId":"island-admreg"},"geometry":{"type":"Polygon","coordinates":[[[-129.3393,51.01635],[-127.8435,51.1213],[-127.7895,51.16621],[-127.7435,51.16664],[-127.7432,51.1929],[-127.5777,51.19892],[-127.485,51.23849],[-127.3837,51.23312],[-127.2718,51.22323],[-127.2162,51.22409],[-127.2038,51.2099],[-127.0747,51.23828],[-126.9937,51.24515],[-126.9233,51.24287],[-126.9271,51.25891],[-126.9271,51.28898],[-126.8948,51.3113],[-126.8509,51.32418],[-126.8111,51.32675],[-126.809,51.30143],[-126.7809,51.3113],[-126.7568,51.33576],[-126.73,51.36749],[-126.7184,51.39364],[-126.7369,51.43561],[-126.7094,51.48267],[-126.6174,51.44459],[-126.5872,51.4112],[-126.5529,51.42062],[-126.4972,51.42536],[-126.4947,51.43025],[-126.4849,51.45743],[-126.454,51.49122],[-126.4307,51.49207],[-126.3771,51.47839],[-126.3366,51.46727],[-126.2975,51.46428],[-126.2054,51.45529],[-126.178,51.43988],[-126.1588,51.45914],[-126.1114,51.46984],[-126.1258,51.52028],[-126.0921,51.54078],[-126.0647,51.58304],[-126.0537,51.60096],[-126.0146,51.60608],[-125.9892,51.59115],[-125.9644,51.63208],[-125.9562,51.6585],[-125.9466,51.67213],[-125.9946,51.69384],[-126.0111,51.7249],[-125.9555,51.76529],[-125.9919,51.79078],[-125.9576,51.84045],[-125.9383,51.89853],[-125.9219,51.9087],[-125.9033,51.90827],[-125.9054,51.94892],[-125.8868,51.97684],[-125.845,51.98277],[-125.8841,52.01194],[-125.8594,52.05122],[-125.8209,52.05756],[-125.7138,52.01785],[-125.6589,51.93707],[-125.5971,51.9087],[-125.5772,51.92352],[-125.5257,51.94342],[-125.4721,51.91251],[-125.4886,51.88963],[-125.4041,51.84087],[-125.3526,51.7929],[-125.3101,51.78271],[-125.24,51.76274],[-125.2242,51.74446],[-125.2594,51.71839],[-125.2495,51.71487],[-125.2112,51.70618],[-125.2167,51.63038],[-125.2386,51.55872],[-125.2318,51.51387],[-125.2874,51.47283],[-125.308,51.45144],[-125.3359,51.40435],[-125.3359,51.40434],[-125.3353,51.40395],[-125.3352,51.40388],[-125.321,51.39278],[-125.2929,51.38892],[-125.2359,51.36792],[-125.2036,51.3319],[-125.1329,51.32632],[-125.0773,51.31731],[-124.986,51.29026],[-124.9111,51.31216],[-124.8136,51.32289],[-124.7655,51.29842],[-124.7504,51.24172],[-124.712,51.23484],[-124.5344,51.18194],[-124.5335,51.17427],[-124.5039,51.1759],[-124.4621,51.19183],[-124.3975,51.19871],[-124.3577,51.19742],[-124.3659,51.1548],[-124.2389,51.15566],[-124.1599,51.13025],[-124.1689,51.0936],[-124.221,51.06211],[-124.1949,51.05866],[-124.1723,51.06298],[-124.1297,51.04787],[-124.127,51.02714],[-124.0762,51.01289],[-124.0356,50.95064],[-123.9869,50.97227],[-123.8791,50.9528],[-123.7103,50.89793],[-123.7019,50.892],[-123.7008,50.88857],[-123.7007,50.88849],[-123.7007,50.88822],[-123.69586394468001,50.88646843369505],[-123.7237,50.84595],[-123.835,50.83532],[-123.8499,50.7383],[-123.8252,50.70124],[-123.75,50.71376],[-123.7492,50.71363],[-123.7475,50.71304],[-123.7359,50.70513],[-123.7349,50.70362],[-123.7347,50.70292],[-123.7345,50.70241],[-123.7342,50.7021],[-123.7336,50.70175],[-123.7313,50.69847],[-123.7304,50.6951],[-123.7386,50.68407],[-123.7782,50.62316],[-123.7533,50.54303],[-123.8101,50.53765],[-123.8358,50.52696],[-123.9363,50.53656],[-124.027,50.50207],[-124.0041,50.47717],[-123.9467,50.44767],[-123.9674,50.40286],[-123.9146,50.35981],[-123.9375,50.3508],[-123.9388,50.35053],[-123.9398,50.34993],[-123.9407,50.34952],[-123.9465,50.34727],[-123.9466,50.34722],[-124.0909,50.37065],[-124.1658,50.33933],[-124.1743,50.26976],[-124.1843,50.21982],[-124.1081,50.19844],[-124.0957,50.17096],[-124.0724,50.14924],[-124.0776,50.14554],[-124.0781,50.14539],[-124.0783,50.14526],[-124.0785,50.14494],[-124.0786,50.14489],[-124.1476,50.14193],[-124.1619,50.09652],[-124.1555,50.05934],[-124.1128,50.03462],[-124.1242,50.02451],[-124.1163,50.01281],[-124.0624,49.98368],[-124.0638,49.93421],[-124.0415,49.92526],[-124.0576,49.86676],[-124.0308,49.83688],[-124.0669,49.79678],[-124.1314,49.7721],[-124.2209,49.76382],[-124.2303,49.76201],[-124.2308,49.76193],[-124.2331,49.76154],[-124.2351,49.76112],[-124.2355,49.761],[-124.2399,49.76015],[-124.2431,49.75693],[-124.2851,49.70621],[-124.2341,49.63189],[-124.122,49.56867],[-124.0709,49.45406],[-124.0461,49.36095],[-123.6278,49.23912],[-123.3316,48.98062],[-123.26509640140316,48.98059236692579],[-123.2377,48.96897],[-122.9789,48.83015],[-122.9844,48.76072],[-123.2481,48.69005],[-123.1739,48.51069],[-123.0929,48.41918],[-123.2951,48.14689],[-123.344,48.1467],[-124.8191,48.44423],[-125.4449,48.13874],[-128.6798,48.12648],[-129.3393,51.01635]]]}}
