{"type":"Feature","properties":{"sourceId":"israel-and-palestine"},"geometry":{"type":"Polygon","coordinates":[[[35.81509,33.3392],[35.91531,32.9406],[35.80834,32.772],[35.77835,32.72446],[35.59491,32.62828],[35.5729,32.36541],[35.59461,32.21856],[35.55452,32.02901],[35.57225,31.75415],[35.48771,31.41951],[35.4209,31.25116],[35.47936,31.1783],[35.42771,30.95172],[35.3321,30.77107],[35.20709,30.53307],[35.17202,30.11204],[35.07514,29.83713],[35.02336,29.64569],[34.95438,29.46411],[34.91627,29.4396],[34.87472,29.53553],[34.69667,30.10714],[34.52423,30.40912],[34.39776,30.86672],[34.23615,31.29219],[34.21211,31.3208],[33.99994,31.4521],[34.6756,33.45436],[34.84796566820415,33.31100744993912],[34.76799,33.12833],[35.10281,33.0926],[35.14493,33.09022],[35.14861,33.0855],[35.15599,33.08435],[35.17573,33.0919],[35.18731,33.08783],[35.18912,33.08183],[35.20772,33.08585],[35.21271,33.09816],[35.22579,33.09699],[35.23106,33.09196],[35.23839,33.09055],[35.28092,33.09929],[35.29371,33.10634],[35.29821,33.10397],[35.30021,33.09881],[35.318,33.1011],[35.31817,33.09599],[35.31908,33.08818],[35.32521,33.07959],[35.32471,33.07646],[35.3329,33.07481],[35.33721,33.06717],[35.34705,33.05833],[35.35726,33.05529],[35.37893,33.05299],[35.38301,33.05979],[35.39131,33.05698],[35.43232,33.06398],[35.44681,33.08916],[35.47623,33.09125],[35.50524,33.08759],[35.50678,33.11239],[35.52155,33.11556],[35.53931,33.12785],[35.54377,33.19841],[35.53893,33.23009],[35.54961,33.23801],[35.54725,33.24953],[35.55729,33.25767],[35.56601,33.27335],[35.56764,33.28512],[35.58214,33.28189],[35.58137,33.26596],[35.59639,33.25319],[35.62557,33.2407],[35.77715,33.33196],[35.79300055657922,33.34340871107155],[35.81509,33.3392]]]}}
