{"type":"Feature","properties":{"sourceId":"java"},"geometry":{"type":"Polygon","coordinates":[[[110.2862,-4.532613],[113.9502,-5.069052],[114.5737,-4.882992],[116.5814,-5.304294],[116.43579701143895,-7.540977683684257],[116.3232,-7.455066],[114.906,-7.400595],[114.6142,-7.733445],[114.4707,-8.042232],[114.4278,-8.082684],[114.4188,-8.106477],[114.4089,-8.163575],[114.413,-8.327006],[114.549,-8.54775],[114.8923,-9.115651],[114.99130548706528,-9.156084815509914],[115.0351,-9.541155],[105.4578,-7.917782],[104.1394,-6.511804],[105.179,-6.256601],[105.5717,-6.236124],[105.7324,-6.064086],[105.7928,-5.911799],[106.3229,-5.194891],[106.842,-4.932249],[109.0558,-3.951935],[110.2862,-4.532613]]]}}
