{"type":"Feature","properties":{"sourceId":"jiangxi"},"geometry":{"type":"Polygon","coordinates":[[[113.5743,27.5235],[113.5688,27.54359],[113.5818,27.57372],[113.5962,27.62012],[113.5971,27.63837],[113.6412,27.66878],[113.6563,27.69189],[113.6942,27.75419],[113.7499,27.81175],[113.7488,27.85957],[113.7215,27.87201],[113.7166,27.89113],[113.7511,27.94649],[113.8122,27.9891],[113.845,27.99198],[113.8566,28.01122],[113.9214,28.02054],[113.935,28.04],[114.0298,28.06138],[113.99,28.125],[113.9801,28.17417],[114.045,28.19157],[114.0882,28.20443],[114.1339,28.25767],[114.2403,28.32509],[114.2384,28.39367],[114.2206,28.39654],[114.2031,28.40922],[114.1607,28.43685],[114.1713,28.44892],[114.2109,28.47774],[114.2006,28.49132],[114.1526,28.50023],[114.1217,28.5313],[114.0848,28.54065],[114.0733,28.56206],[114.1158,28.61482],[114.1134,28.69646],[114.12,28.72],[114.1438,28.76646],[114.1277,28.77744],[114.1337,28.81926],[114.1054,28.83806],[114.0652,28.82964],[114.0534,28.84302],[114.0465,28.87264],[114.0496,28.89954],[114.0201,28.89082],[114.0149,28.91247],[113.9959,28.91818],[113.9965,28.95378],[113.9665,28.93696],[113.9483,28.94597],[113.9342,29.05932],[113.944,29.10493],[113.9808,29.13087],[113.9941,29.13642],[114.0652,29.21031],[114.2451,29.24537],[114.2374,29.27277],[114.2429,29.30167],[114.2501,29.34911],[114.3026,29.37485],[114.4212,29.34747],[114.5838,29.35959],[114.6138,29.38846],[114.6657,29.39803],[114.6743,29.39459],[114.6825,29.39205],[114.7083,29.40027],[114.7393,29.39758],[114.7412,29.3732],[114.8844,29.42629],[114.8511,29.47771],[114.8833,29.50864],[114.8923,29.53],[114.9345,29.54359],[114.959,29.56629],[114.9946,29.57734],[115.033,29.55629],[115.0826,29.56853],[115.096,29.5539],[115.0984,29.52657],[115.1307,29.51805],[115.1467,29.57607],[115.1491,29.5898],[115.1081,29.59481],[115.123,29.62092],[115.1165,29.65002],[115.094,29.66225],[115.1055,29.68835],[115.1288,29.6882],[115.1467,29.66762],[115.2543,29.66643],[115.2897,29.63987],[115.3549,29.66628],[115.4115,29.70699],[115.4632,29.74843],[115.4579,29.75603],[115.4576,29.77287],[115.4648,29.80162],[115.462,29.80833],[115.4934,29.83424],[115.5049,29.84355],[115.5678,29.84012],[115.6149,29.84638],[115.657,29.85881],[115.6932,29.85777],[115.7509,29.81205],[115.8313,29.76289],[115.9106,29.7301],[115.9543,29.7298],[116.0424,29.77034],[116.0762,29.80133],[116.12348713400408,29.827713218416566],[116.1241,29.82307],[116.2094,29.82471],[116.2403,29.7909],[116.2558,29.77794],[116.298,29.80088],[116.3284,29.81548],[116.3296,29.82575],[116.3912,29.85583],[116.4801,29.89691],[116.5325,29.89662],[116.5577,29.91313],[116.5735,30.00207],[116.5881,30.04488],[116.607,30.06924],[116.6515,30.07593],[116.7699,30.02541],[116.7914,29.99508],[116.8211,29.99523],[116.8205,29.94884],[116.8523,29.96906],[116.8894,29.95285],[116.8518,29.8795],[116.785,29.80862],[116.7514,29.81339],[116.6673,29.72786],[116.6396,29.70282],[116.641,29.64375],[116.6556,29.63062],[116.671,29.60048],[116.6976,29.59212],[116.7045,29.56883],[116.7162,29.55912],[116.7289,29.56793],[116.7411,29.59062],[116.774,29.59257],[116.7702,29.57928],[116.7716,29.56987],[116.7943,29.56002],[116.8231,29.55823],[116.8533,29.58271],[116.9165,29.63376],[116.9738,29.64689],[116.9883,29.67135],[117.0332,29.67612],[117.1105,29.70147],[117.1287,29.72533],[117.1218,29.75931],[117.1318,29.7757],[117.1349,29.78524],[117.1235,29.8055],[117.0892,29.82426],[117.1057,29.84839],[117.1486,29.87965],[117.1623,29.9106],[117.1967,29.91894],[117.2348,29.91388],[117.2509,29.89364],[117.2451,29.8728],[117.2279,29.85077],[117.2609,29.82367],[117.2883,29.81712],[117.2959,29.83469],[117.3251,29.84243],[117.3522,29.81145],[117.381,29.81443],[117.3917,29.83826],[117.4112,29.83975],[117.3923,29.79686],[117.427,29.75365],[117.4469,29.67821],[117.5304,29.58659],[117.6011,29.58242],[117.6471,29.61137],[117.6828,29.54748],[117.7401,29.54658],[117.8009,29.56689],[117.8902,29.54001],[117.9156,29.55494],[117.9399,29.54658],[117.9599,29.5648],[117.9811,29.55793],[118.0062,29.56749],[118.0416,29.53881],[118.0958,29.53224],[118.1188,29.46202],[118.1205,29.42883],[118.1315,29.41568],[118.1822,29.39257960264901],[118.1822,29.38113],[118.1985,29.35435],[118.1633,29.33026],[118.1528,29.28924],[118.0764,29.30287],[118.0605,29.28984],[118.0697,29.26259],[118.0651,29.22425],[118.039,29.222],[118.0246,29.20357],[118.0206,29.17615],[118.0225,29.16056],[118.0332,29.14826],[118.0282,29.09668],[118.0479,29.08393],[118.0646,29.06712],[118.0522,29.04747],[118.0787,29.01219],[118.0857,29.00123],[118.0883,28.99253],[118.1382,28.97766],[118.1849,28.9703],[118.1931,28.94973],[118.2189,28.94672],[118.1947,28.92584],[118.1851,28.91577],[118.1837,28.903],[118.1938,28.89879],[118.2549,28.91592],[118.2767,28.86136],[118.2876,28.82693],[118.2977,28.81926],[118.3564,28.80617],[118.3705,28.79264],[118.3772,28.75517],[118.387,28.72221],[118.3818,28.70625],[118.3894,28.69224],[118.4048,28.68486],[118.4235,28.66303],[118.4089,28.64013],[118.4228,28.62506],[118.4038,28.61014],[118.4081,28.58708],[118.4015,28.56809],[118.4096,28.55241],[118.4228,28.51365],[118.4043,28.50083],[118.4187,28.48589],[118.4604,28.46899],[118.4273,28.41601],[118.415,28.385],[118.455,28.34],[118.4419,28.30801],[118.42628474785748,28.299591079174323],[118.4118,28.30506],[118.3877,28.28269],[118.3672,28.26976],[118.352,28.2616],[118.3261,28.23982],[118.307,28.22659],[118.3175,28.20814],[118.3334,28.18885],[118.3633,28.18159],[118.34,28.135],[118.3403,28.09742],[118.2915,28.09621],[118.238,28.08107],[118.1909,28.0635],[118.1475,28.06759],[118.1245,28.06017],[118.0705,27.9866],[117.9925,27.9991],[117.9654,27.97083],[117.9287,27.98425],[117.8833,27.95468],[117.8473,27.9562],[117.833,27.93444],[117.7871,27.91699],[117.757,27.83877],[117.7309,27.8116],[117.7012,27.84166],[117.6881,27.83528],[117.666,27.84287],[117.6416,27.8623],[117.6042,27.87383],[117.5961,27.90903],[117.5855,27.9468],[117.5647,27.95271],[117.5537,27.97485],[117.5271,27.98849],[117.5117,27.98803],[117.5008,27.97227],[117.4933,27.9565],[117.4574,27.94907],[117.4385,27.93967],[117.4021,27.90236],[117.3649,27.89234],[117.3486,27.87975],[117.3409,27.86382],[117.3331,27.8664],[117.334,27.89158],[117.3266,27.90008],[117.3139,27.90205],[117.2864,27.87778],[117.2737,27.87751],[117.2698,27.87383],[117.2686,27.84909],[117.2651,27.76725],[117.2355,27.72927],[117.1961,27.72122],[117.1876,27.69052],[117.1706,27.68474],[117.1398,27.69432],[117.1124,27.70253],[117.0858,27.67669],[117.0892,27.63928],[117.0521,27.68201],[117.0312,27.67654],[117.0173,27.6627],[117.0107,27.65084],[116.9936,27.62909],[117.0008,27.60019],[117.0065,27.54907],[117.0923,27.52959],[117.0966,27.46167],[117.1172,27.41322],[117.0907,27.39341],[117.0873,27.3457],[117.1137,27.3123],[117.1573,27.28164],[117.1434,27.25906],[117.1141,27.22395],[117.0859,27.20746],[117.0348,27.15219],[117.0417,27.12072],[117.0459,27.11046],[117.0465,27.10442],[117.0411,27.10077],[117.0076,27.09191],[116.9606,27.06188],[116.926,27.02893],[116.9132,27.042],[116.8798,27.04109],[116.8524,27.01456],[116.8193,27.02901],[116.7698,27.01058],[116.7478,26.99544],[116.7271,27.00316],[116.6897,26.99689],[116.6448,26.96553],[116.6152,26.92896],[116.5895,26.89329],[116.5862,26.89019],[116.5831,26.88545],[116.5601,26.87304],[116.5439,26.84173],[116.5346,26.81285],[116.5452,26.75649],[116.5297,26.74331],[116.5273,26.7358],[116.5013,26.72614],[116.4998,26.69908],[116.531,26.65605],[116.5516,26.63304],[116.556,26.60626],[116.5447,26.58423],[116.5294,26.56657],[116.6154,26.45428],[116.5941,26.42631],[116.5903,26.37957],[116.566,26.37987],[116.5474,26.41463],[116.5066,26.41401],[116.474,26.36511],[116.451,26.35127],[116.4072,26.30234],[116.4123,26.28657],[116.3875,26.27525],[116.3785,26.24169],[116.3783,26.21028],[116.375,26.19],[116.391,26.16445],[116.4695,26.15097],[116.4786,26.12215],[116.4388,26.0904],[116.3972,26.06156],[116.3535,26.01036],[116.3478,25.97502],[116.3162,25.96237],[116.2853,25.92594],[116.2487,25.91976],[116.2166,25.91451],[116.1718,25.90108],[116.1591,25.88359],[116.1457,25.88011],[116.1231,25.86494],[116.1198,25.82245],[116.1684,25.77485],[116.1167,25.76171],[116.0936,25.70852],[116.0582,25.71192],[116.045,25.68841],[116.0288,25.60794],[116.051,25.56227],[116.0295,25.55189],[115.993,25.49457],[116.005,25.42777],[115.9938,25.41552],[115.9991,25.3994],[115.9875,25.3856],[115.9768,25.34682],[115.91,25.255],[115.8505,25.21954],[115.8409,25.15445],[115.8637,25.11622],[115.8934,25.04564],[115.8646,25.03055],[115.8567,24.96334],[115.88818120519167,24.934325479580053],[115.8896,24.90668],[115.9102,24.8799],[115.85,24.855],[115.8192,24.89485],[115.7743,24.80481],[115.7808,24.725],[115.8089,24.70224],[115.7983,24.66948],[115.7815,24.66574],[115.799,24.62673],[115.8357,24.59614],[115.8515,24.56367],[115.8319,24.55805],[115.778,24.56024],[115.72,24.53588],[115.6778,24.54338],[115.65,24.60176],[115.6126,24.61456],[115.5731,24.60582],[115.5446,24.64109],[115.535,24.68258],[115.4845,24.73436],[115.4114,24.78362],[115.3712,24.76741],[115.3599,24.73405],[115.2888,24.75151],[115.2534,24.72625],[115.1923,24.70816],[115.1954,24.68695],[115.134,24.68103],[115.1196,24.66231],[115.0941,24.66574],[115.0657,24.69787],[115.0423,24.68227],[115.0145,24.66761],[114.9706,24.6698],[114.9383,24.64795],[114.9177,24.66355],[114.9063,24.64109],[114.893,24.5746],[114.8638,24.55962],[114.8312,24.58241],[114.767,24.6052],[114.7354,24.60769],[114.7367,24.56367],[114.7045,24.52026],[114.6743,24.53744],[114.6499,24.57242],[114.5884,24.52995],[114.5232,24.54744],[114.4264,24.47809],[114.3876,24.50027],[114.3584,24.57492],[114.3007,24.57304],[114.253,24.6336],[114.1682,24.64203],[114.16,24.695],[114.2616,24.71003],[114.2788,24.7406],[114.322,24.78486],[114.3316,24.82662],[114.3934,24.89391],[114.3804,24.91415],[114.3848,24.95898],[114.4587,25.01313],[114.5143,25.03335],[114.5462,25.08498],[114.5857,25.08622],[114.6241,25.09368],[114.6523,25.09337],[114.6629,25.11669],[114.7168,25.12819],[114.7113,25.15741],[114.6767,25.16611],[114.6681,25.1863],[114.6708,25.19842],[114.6907,25.22762],[114.7264,25.24718],[114.7343,25.27202],[114.7172,25.28599],[114.6993,25.31393],[114.676,25.31144],[114.6537,25.32479],[114.6276,25.322],[114.6039,25.3493],[114.5778,25.36854],[114.5445,25.40731],[114.5002,25.38001],[114.4672,25.36791],[114.4508,25.37071],[114.4164,25.32324],[114.3787,25.31268],[114.3457,25.32665],[114.3121,25.33441],[114.3107,25.28754],[114.1867,25.30027],[114.1219,25.29903],[114.0539,25.2624],[114.0305,25.24687],[114.0003,25.28071],[114.0185,25.32758],[114.0151,25.38125],[113.9725,25.40793],[113.9821,25.44017],[113.9392,25.43955],[113.9241,25.4532],[113.933,25.50155],[113.9536,25.53718],[113.9746,25.53749],[113.9811,25.56103],[113.9461,25.61614],[113.9049,25.70589],[113.9038,25.73991],[113.9485,25.78011],[113.9574,25.83729],[114.0092,25.90031],[114.013,25.9386],[113.9948,26.01298],[114.0292,26.07899],[114.0357,26.08793],[114.0882,26.07745],[114.103,26.10859],[114.1867,26.13756],[114.2146,26.15513],[114.2032,26.19703],[114.1414,26.19981],[114.0975,26.17732],[114.0731,26.15852],[114.0501,26.16068],[114.0292,26.17886],[113.9969,26.16992],[113.9543,26.14527],[113.9275,26.16561],[113.9371,26.1918],[113.9629,26.22106],[114.0189,26.38295],[114.0704,26.42846],[114.0827,26.47334],[114.0518,26.4801],[114.0851,26.57072],[114.0226,26.58362],[113.9825,26.61217],[113.9025,26.61462],[113.852,26.66065],[113.8225,26.81028],[113.8736,26.87461],[113.8949,26.95329],[113.8465,27.00897],[113.8146,27.03497],[113.76,27.09336],[113.7679,27.14379],[113.8372,27.24639],[113.8499,27.28545],[113.8379,27.31779],[113.8503,27.36171],[113.7981,27.36475],[113.6697,27.32481],[113.588,27.36049],[113.5883,27.39676],[113.5962,27.41597],[113.5787,27.46959],[113.6124,27.50827],[113.5743,27.5235]]]}}
