{"type":"Feature","properties":{"sourceId":"jilin"},"geometry":{"type":"Polygon","coordinates":[[[131.2173,42.93883],[131.0621,42.84526],[130.6597,42.79087],[130.6371,42.58292],[130.5929,42.51463],[130.63916945192696,42.43237818788514],[130.5782,42.44872],[130.5952,42.48244],[130.5639,42.50245],[130.5609,42.52917],[130.5403,42.5491],[130.5289,42.58415],[130.5332,42.61043],[130.5246,42.62282],[130.4808,42.63076],[130.448,42.60844],[130.4256,42.62543],[130.3891,42.61756],[130.3555,42.64945],[130.3218,42.66656],[130.298,42.70647],[130.2603,42.72336],[130.251,42.74149],[130.2646,42.78694],[130.2531,42.81377],[130.2809,42.87886],[130.2698,42.9125],[130.1714,42.92634],[130.1403,42.91966],[130.1411,42.95154],[130.1587,42.97845],[130.151,42.98919],[130.1208,42.99919],[130.0236,42.9813],[129.9682,42.98936],[129.9689,43.00857],[129.9561,43.02043],[129.9067,43.01979],[129.878,43.00839],[129.8389,42.9628],[129.8243,42.87884],[129.8003,42.85285],[129.7896,42.81789],[129.7929,42.79709],[129.7481,42.72886],[129.7485,42.70316],[129.7643,42.67899],[129.736,42.65116],[129.7442,42.60653],[129.7238,42.57439],[129.7303,42.5366],[129.7198,42.49563],[129.7275,42.4743],[129.7111,42.45072],[129.6944,42.44296],[129.6499,42.44375],[129.6234,42.47218],[129.5853,42.46713],[129.5691,42.44869],[129.5841,42.42684],[129.5535,42.41089],[129.5368,42.38372],[129.4511,42.44901],[129.4216,42.44817],[129.4074,42.46006],[129.3795,42.45728],[129.3676,42.46562],[129.3337,42.46114],[129.2966,42.43032],[129.2825,42.40057],[129.2338,42.38867],[129.2179,42.37484],[129.213,42.34967],[129.2254,42.33126],[129.1995,42.33226],[129.1815,42.31943],[129.1904,42.28051],[129.1661,42.26544],[129.1627,42.244],[129.1676,42.22897],[129.1854,42.2179],[129.1736,42.20086],[129.153,42.1953],[129.1438,42.17912],[129.1066,42.15471],[129.0635,42.16802],[129.017,42.12714],[129.011,42.11225],[128.9541,42.10351],[128.9342,42.08107],[128.9351,42.04102],[128.9179,42.02802],[128.7995,42.05385],[128.7665,42.04912],[128.7336,42.06201],[128.6788,42.02798],[128.6446,42.0444],[128.6021,42.04255],[128.5659,42.01256],[128.5039,42.01069],[128.4478,42.03126],[128.284,42.03717],[128.0792,42.03441],[128.0265,42.00929],[128.0239,41.9852],[128.085,41.93596],[128.0916,41.88716],[128.0841,41.83413],[128.0953,41.78443],[128.1239,41.76494],[128.1501,41.70599],[128.1964,41.67352],[128.2481,41.6525],[128.2932,41.58516],[128.2623,41.52964],[128.2226,41.50198],[128.2164,41.45911],[128.1924,41.42577],[128.1634,41.41602],[128.1399,41.39466],[128.1177,41.39158],[128.1012,41.40809],[128.0551,41.40751],[128.0454,41.42621],[128.0251,41.43216],[128.0123,41.45682],[127.9924,41.45472],[127.9801,41.44251],[127.934,41.46816],[127.9045,41.44637],[127.8688,41.45592],[127.8534,41.42998],[127.7492,41.43766],[127.672,41.43133],[127.6509,41.43878],[127.6351,41.42956],[127.6161,41.44196],[127.5677,41.44187],[127.5429,41.48618],[127.5185,41.48108],[127.4638,41.49235],[127.4387,41.47163],[127.4151,41.47334],[127.4015,41.48858],[127.3794,41.49207],[127.3386,41.4791],[127.2934,41.49603],[127.2802,41.5224],[127.2476,41.52067],[127.2124,41.54207],[127.1413,41.55069],[127.1551,41.57105],[127.1854,41.57728],[127.1885,41.59899],[127.1689,41.61015],[127.1374,41.61181],[127.1095,41.65126],[127.0834,41.65612],[127.0677,41.66941],[127.0833,41.68323],[127.0884,41.70367],[127.064,41.71573],[127.0575,41.74691],[127.0203,41.75323],[127.0112,41.76929],[126.9608,41.78784],[126.9565,41.808],[126.9407,41.81948],[126.8687,41.79485],[126.8321,41.7441],[126.8136,41.75813],[126.799,41.75682],[126.7805,41.72398],[126.7282,41.75494],[126.6861,41.7602],[126.6718,41.74491],[126.6711,41.72633],[126.6995,41.70312],[126.6509,41.6706],[126.6095,41.68342],[126.5802,41.63136],[126.5627,41.6281],[126.5521,41.61552],[126.5704,41.55965],[126.5474,41.53632],[126.5324,41.49165],[126.4927,41.43727],[126.4945,41.38649],[126.4301,41.36368],[126.3975,41.33802],[126.3836,41.31348],[126.3537,41.28948],[126.3406,41.25267],[126.3132,41.24045],[126.2924,41.20463],[126.2727,41.19319],[126.2691,41.16897],[126.2291,41.15611],[126.159,41.10498],[126.1111,41.09851],[126.0975,41.06979],[126.1095,41.05135],[126.0885,41.0423],[126.0834,41.01609],[126.0576,41.00484],[126.0549,40.97952],[126.0252,40.94572],[125.9775,40.93487],[125.9404,40.89056],[125.9244,40.89477],[125.9243,40.91196],[125.909,40.92246],[125.8907,40.91195],[125.8638,40.91654],[125.8465,40.89532],[125.8139,40.88172],[125.7867,40.90079],[125.7545,40.89937],[125.7411,40.88387],[125.701,40.87762],[125.71935276339293,40.88048046810987],[125.6815,40.90858],[125.6493,40.91974],[125.5888,40.90417],[125.6609,40.96305],[125.6819,40.97083],[125.6877,41.01307],[125.71,41.04408],[125.75,41.07],[125.7564,41.12307],[125.7959,41.17374],[125.7457,41.18408],[125.7584,41.2298],[125.7447,41.24916],[125.6973,41.25252],[125.6795,41.28116],[125.6431,41.28297],[125.6424,41.34176],[125.6132,41.36238],[125.5782,41.40128],[125.54,41.43],[125.55,41.475],[125.5068,41.49726],[125.4955,41.5132],[125.5054,41.53428],[125.4814,41.54251],[125.46,41.6],[125.47,41.615],[125.4642,41.65881],[125.4436,41.67701],[125.4048,41.69394],[125.3629,41.68573],[125.3241,41.68163],[125.3304,41.71797],[125.3351,41.73597],[125.3238,41.76465],[125.2929,41.83683],[125.305,41.875],[125.3162,41.9194],[125.3492,41.92272],[125.35,41.94],[125.3097,41.9503],[125.4096,42.03782],[125.433,42.08778],[125.4845,42.11962],[125.4903,42.14202],[125.4501,42.16442],[125.4113,42.16035],[125.3684,42.18503],[125.345,42.195],[125.3259,42.14482],[125.318,42.20436],[125.2792,42.26308],[125.2963,42.2801],[125.2915,42.29382],[125.258,42.31223],[125.2346,42.3114],[125.2286,42.30651],[125.2204,42.30455],[125.218,42.30023],[125.2136,42.29909],[125.2096,42.30106],[125.207,42.2989],[125.1986,42.30055],[125.1917,42.30337],[125.1698,42.31223],[125.1781,42.3253],[125.1717,42.34979],[125.2012,42.36235],[125.1956,42.37757],[125.1823,42.38771],[125.1971,42.40495],[125.1779,42.4341],[125.1463,42.44284],[125.1434,42.47007],[125.0826,42.49982],[125.0898,42.51703],[125.085,42.54],[125.0867,42.56256],[125.0958,42.62057],[125.0756,42.62638],[125.033,42.62335],[125.0172,42.66148],[124.9856,42.68092],[124.9894,42.7228],[124.995,42.755],[124.9932,42.76541],[124.975,42.8],[124.9245,42.82235],[124.875,42.81],[124.8552,42.87143],[124.8631,42.91866],[124.8652,42.93424],[124.8679,42.95875],[124.8697,42.96697],[124.8664,42.97018],[124.8642,42.97288],[124.8685,42.9828],[124.8483,43.02573],[124.8682,43.03276],[124.8668,43.05183],[124.8871,43.07039],[124.8816,43.10073],[124.8974,43.12605],[124.8806,43.13607],[124.7779,43.12103],[124.7415,43.06952],[124.6842,43.06751],[124.63,42.985],[124.57,42.925],[124.5149,42.87672],[124.4542,42.85558],[124.4384,42.87697],[124.3724,42.89307],[124.4164,42.91696],[124.45,42.935],[124.435,42.98],[124.3676,42.97803],[124.3409,42.99712],[124.4147,43.0635],[124.4217,43.07428],[124.4167,43.08017],[124.3946,43.08995],[124.3592,43.12016],[124.3407,43.12467],[124.3225,43.14396],[124.3021,43.15473],[124.2803,43.16425],[124.278,43.17238],[124.2758,43.18065],[124.2876,43.22694],[124.2076,43.25758],[124.155,43.26],[124.1167,43.2502],[124.1125,43.28645],[124.0837,43.29495],[124.025,43.28845],[123.9598,43.34815],[123.87,43.415],[123.87,43.47],[123.7874,43.49303],[123.7339,43.46787],[123.725,43.455],[123.6951,43.40929],[123.68232975693041,43.36370615222177],[123.5862,43.36063],[123.5488,43.40131],[123.5196,43.39469],[123.475,43.435],[123.445,43.405],[123.4098,43.40418],[123.305,43.475],[123.2946,43.54967],[123.3378,43.56907],[123.4149,43.55601],[123.4096,43.59792],[123.4129,43.61284],[123.4264,43.61184],[123.4513,43.59879],[123.4843,43.59531],[123.5131,43.63409],[123.4692,43.72745],[123.4369,43.86325],[123.373,43.94859],[123.32,44.02],[123.3,44.07],[123.3152,44.08339],[123.3358,44.09128],[123.3517,44.13122],[123.3734,44.14033],[123.3669,44.15364],[123.2865,44.18737],[123.2645,44.24053],[123.1966,44.32729],[123.1118,44.35798],[123.1,44.42],[123.1197,44.4725],[123.1197,44.49944],[123.0723,44.497],[123.025,44.48],[122.8738,44.39062],[122.6878,44.27864],[122.5861,44.24422],[122.409,44.21765],[122.2627,44.23487],[122.245,44.27],[122.265,44.3],[122.27,44.405],[122.195,44.47],[122.122,44.56063],[122.1075,44.58802],[122.0856,44.62127],[122.065,44.81302],[122.015,44.865],[122.005,44.895],[122.005,44.905],[122.0457,44.99588],[122.09,45.07],[122.0863,45.14573],[122.1244,45.18688],[122.1917,45.18857],[122.2243,45.26643],[122.1522,45.27972],[122.1295,45.30315],[122.12,45.375],[122.159,45.41966],[122.0135,45.47121],[121.9815,45.52535],[121.9603,45.55998],[121.9561,45.59458],[121.975,45.635],[121.9318,45.70067],[121.8531,45.70378],[121.803,45.68004],[121.7,45.69],[121.64,45.725],[121.6276,45.751],[121.6358,45.76776],[121.68,45.78],[121.73,45.805],[121.745,45.83],[121.785,45.885],[121.7907,45.92465],[121.7495,45.98885],[121.755,46.005],[121.8023,46.02748],[121.87,46.02],[121.955,46.0],[122.015,45.98],[122.0763,45.93205],[122.0918,45.89228],[122.1455,45.87603],[122.2028,45.8575],[122.2277,45.84351],[122.2512,45.80128],[122.2861,45.82617],[122.3252,45.86623],[122.3578,45.85893],[122.353,45.89718],[122.3522,45.90888],[122.354,45.91963],[122.4447,45.91916],[122.49,45.885],[122.5188,45.81636],[122.5587,45.82354],[122.6459,45.77279],[122.6637,45.73446],[122.7063,45.70714],[122.7599,45.74836],[122.7303,45.82593],[122.8,45.885],[122.76,46.065],[122.765,46.085],[123.025,46.115],[123.075,46.145],[123.105,46.195],[123.105,46.225],[123.2233,46.28077],[123.3641,46.23828],[123.4863,46.27199],[123.58,46.25],[123.7335,46.28338],[123.8351,46.309],[123.9134,46.31469],[123.956,46.26819],[124.0123,46.15796],[124.0233,46.10371],[124.0439,46.01652],[123.9862,45.96022],[123.98,45.94],[124.08,45.88],[124.065,45.82],[124.065,45.775],[124.04,45.77],[124.15,45.695],[124.2355,45.64429],[124.2382,45.61068],[124.2753,45.58665],[124.285,45.555],[124.3577,45.54964],[124.385,45.465],[124.4085,45.44905],[124.44,45.475],[124.51,45.44],[124.5486,45.4505],[124.595,45.47],[124.645,45.455],[124.7194,45.44725],[124.7494,45.47024],[124.795,45.46],[124.8349,45.45616],[124.8722,45.44303],[124.8675,45.4972],[124.9,45.515],[124.9384,45.50851],[124.9583,45.49889],[125.0043,45.49215],[125.0292,45.49034],[125.055,45.445],[125.105,45.41],[125.18,45.415],[125.29,45.425],[125.345,45.425],[125.355,45.41],[125.4069,45.4452],[125.406,45.48336],[125.435,45.5],[125.5176,45.4836],[125.6072,45.52271],[125.655,45.525],[125.6982,45.51044],[125.7051,45.50093],[125.6997,45.4824],[125.7135,45.4682],[125.7039,45.43532],[125.7109,45.42424],[125.7136,45.40809],[125.7143,45.39676],[125.7057,45.38302],[125.6989,45.36614],[125.7026,45.35034],[125.7296,45.33151],[125.7696,45.29783],[125.7862,45.28358],[125.8099,45.27078],[125.8161,45.25616],[125.8408,45.24093],[125.8887,45.21687],[125.9114,45.20369],[125.9426,45.20127],[125.9517,45.20212],[125.9658,45.19547],[125.9821,45.19583],[126.0094,45.16909],[126.041,45.17224],[126.0779,45.16582],[126.0903,45.15069],[126.1316,45.14887],[126.1503,45.141],[126.1742,45.15493],[126.2329,45.15287],[126.252,45.16625],[126.2637,45.16866],[126.2741,45.17962],[126.2854,45.19607],[126.315,45.19],[126.4087,45.23404],[126.5663,45.2558],[126.6411,45.23162],[126.6734,45.1997],[126.729,45.19051],[126.7582,45.17913],[126.7884,45.15226],[126.8334,45.14742],[126.9604,45.14379],[126.969,45.12732],[126.9748,45.09049],[126.9951,45.06212],[127.0177,45.03666],[127.0473,45.00608],[127.0706,44.97524],[127.0936,44.94293],[127.0847,44.91595],[127.0758,44.89966],[127.0191,44.88409],[126.9868,44.82446],[127.005,44.77],[127.0425,44.716],[127.055,44.655],[127.045,44.6],[127.065,44.595],[127.0861,44.61907],[127.1245,44.61393],[127.1726,44.65205],[127.2296,44.6457],[127.2285,44.62395],[127.2481,44.62029],[127.2639,44.64228],[127.3962,44.63391],[127.4156,44.62053],[127.4409,44.61571],[127.4884,44.60813],[127.5057,44.59395],[127.5304,44.57873],[127.5497,44.57855],[127.5556,44.5673],[127.5612,44.56149],[127.5647,44.55494],[127.5667,44.54815],[127.5358,44.51291],[127.4843,44.51781],[127.4668,44.48475],[127.507,44.44751],[127.5035,44.4279],[127.4898,44.40583],[127.52,44.37467],[127.6213,44.29461],[127.6237,44.25184],[127.6004,44.22872],[127.61,44.20953],[127.6326,44.20116],[127.6776,44.17753],[127.6955,44.20313],[127.7277,44.20313],[127.7325,44.1083],[127.7604,44.08684],[127.78,44.095],[127.85,44.07994],[127.8915,44.06884],[127.9708,44.1041],[128.0457,44.11002],[128.0748,44.1322],[128.0433,44.16743],[128.07,44.22],[128.0474,44.25086],[128.06,44.28],[128.0455,44.31003],[128.0487,44.32876],[128.0384,44.34791],[128.0433,44.35651],[128.075,44.385],[128.1,44.365],[128.16,44.365],[128.1876,44.41735],[128.2106,44.44162],[128.2336,44.44616],[128.2494,44.45829],[128.2647,44.46417],[128.2874,44.4954],[128.3485,44.51609],[128.3752,44.51609],[128.4,44.495],[128.45,44.47],[128.49,44.355],[128.459,44.33073],[128.4796,44.3209],[128.47,44.255],[128.4686,44.18565],[128.53,44.135],[128.5761,44.05083],[128.5933,44.00961],[128.6011,43.96786],[128.6375,43.94958],[128.6551,43.91941],[128.7213,43.89542],[128.7649,43.86053],[128.732,43.81892],[128.755,43.77221],[128.7605,43.76074],[128.7606,43.75392],[128.7419,43.74047],[128.7716,43.72645],[128.865,43.575],[128.895,43.56],[128.985,43.555],[129.21,43.61],[129.185,43.69],[129.2,43.715],[129.195,43.795],[129.2487,43.82214],[129.3686,43.80765],[129.3807,43.81867],[129.4066,43.84369],[129.4595,43.87624],[129.6,43.9],[129.655,43.89],[129.7362,43.90433],[129.7657,43.96762],[129.845,44.03],[129.9312,44.03923],[129.9902,44.00961],[130.035,43.96],[130.035,43.87],[130.085,43.865],[130.1475,43.93153],[130.225,43.965],[130.2457,43.97552],[130.2834,44.00171],[130.2965,44.03183],[130.3219,44.04812],[130.3507,44.05404],[130.3706,44.04565],[130.375,43.99],[130.355,43.95],[130.395,43.905],[130.385,43.88],[130.3885,43.79489],[130.4366,43.73439],[130.4105,43.67284],[130.6316,43.62415],[130.6425,43.59332],[130.825,43.52],[130.87,43.46],[131.0284,43.52466],[131.1359,43.4412],[131.18,43.465],[131.243,43.48357],[131.3093,43.4751],[131.3514,43.47293],[131.3457,43.40704],[131.2173,42.93883]]]}}
