{"type":"Feature","properties":{"sourceId":"jihocesky"},"geometry":{"type":"Polygon","coordinates":[[[15.49064,48.93343],[15.41504,48.94827],[15.35902,48.97978],[15.32505,48.97108],[15.29209,48.97675],[15.26914,48.95171],[15.1728,48.93664],[15.14922,48.94136],[15.14619,48.98527],[15.06015,48.99517],[15.05954,49.00745],[15.01138,49.00899],[15.00076,48.98447],[14.98566,48.96267],[14.99502,48.93364],[15.00624,48.89803],[14.99129,48.87003],[14.9958,48.83984],[14.96452,48.79414],[14.9889,48.77942],[14.98922,48.76698],[14.958,48.7506],[14.83023,48.77569],[14.81753,48.72911],[14.74981,48.68974],[14.72408,48.65864],[14.72995,48.63791],[14.72232,48.61847],[14.72752,48.59898],[14.70782,48.57759],[14.66037,48.57736],[14.64847,48.60238],[14.62256,48.59756],[14.60907,48.6215],[14.56537,48.59693],[14.4989,48.61087],[14.47247,48.6391],[14.45483,48.63916],[14.46155,48.62475],[14.4481,48.5943],[14.42838,48.58342],[14.39554,48.58986],[14.39687,48.57238],[14.37843,48.56278],[14.36241,48.56752],[14.35228,48.55069],[14.31861,48.54292],[14.31243,48.55872],[14.29444,48.56294],[14.13257,48.58987],[14.10239,48.58497],[14.06446,48.59115],[14.03492,48.61132],[14.00154,48.6404],[14.02396,48.65793],[14.04931,48.65957],[14.05207,48.67083],[14.02872,48.67367],[13.94008,48.71362],[13.79616,48.77458],[13.7323,48.87122],[13.6632,48.87247],[13.61554,48.92918],[13.57408,48.95797],[13.54987,48.96074],[13.549837516656549,48.96334330795377],[13.55245,48.96656],[13.55271,48.97802],[13.53962,48.98709],[13.547,49.00573],[13.54642,49.01816],[13.57226,49.04865],[13.58337,49.04347],[13.58866,49.04328],[13.60403,49.05385],[13.60755,49.06383],[13.6064,49.07066],[13.59901,49.08861],[13.58245,49.10253],[13.60038,49.10867],[13.59386,49.12276],[13.59048,49.12688],[13.59429,49.12956],[13.60216,49.14256],[13.59152,49.1459],[13.59286,49.14738],[13.60219,49.14709],[13.60498,49.14314],[13.63025,49.13429],[13.63453,49.13741],[13.64357,49.14294],[13.65369,49.14876],[13.66124,49.15449],[13.66124,49.15909],[13.68976,49.15903],[13.69179,49.16248],[13.69213,49.1626],[13.69604,49.16309],[13.69397,49.18636],[13.69853,49.19034],[13.71184,49.19127],[13.7166,49.19197],[13.72072,49.19421],[13.71686,49.20829],[13.71205,49.21199],[13.70544,49.21222],[13.69101,49.22762],[13.71183,49.23551],[13.71049,49.24195],[13.72893,49.24215],[13.722,49.25015],[13.73571,49.25668],[13.73145,49.25937],[13.71002,49.26025],[13.70426,49.2761],[13.72411,49.27674],[13.73278,49.27939],[13.73681,49.29026],[13.72831,49.30262],[13.72568,49.30839],[13.73446,49.30744],[13.73824,49.31582],[13.77129,49.32326],[13.7726,49.33645],[13.77068,49.3428],[13.78583,49.35155],[13.791,49.3635],[13.7917,49.36879],[13.7899,49.37187],[13.78475,49.37544],[13.78192,49.37461],[13.7633,49.39993],[13.76999,49.42483],[13.79276,49.43544],[13.76809,49.45175],[13.77086,49.48352],[13.75152,49.4872],[13.75883,49.49617],[13.76055,49.50164],[13.75557,49.50543],[13.765796100923776,49.51456541996292],[13.78351,49.51124],[13.79061,49.51513],[13.79072,49.51964],[13.80432,49.51824],[13.82141,49.52877],[13.82801,49.52476],[13.83433,49.51752],[13.83457,49.51463],[13.85147,49.51513],[13.85779,49.52411],[13.86456,49.52733],[13.88157,49.52322],[13.9017,49.51409],[13.90037,49.511],[13.93316,49.50414],[13.93556,49.51359],[13.9504,49.51847],[13.96319,49.51303],[13.97624,49.51311],[13.98145,49.52426],[13.98769,49.52912],[13.99495,49.52476],[13.99707,49.5195],[14.0001,49.5234],[13.9978,49.53164],[14.00602,49.53022],[14.00984,49.54209],[14.00863,49.55105],[14.02379,49.55155],[14.02976,49.55284],[14.0388,49.56034],[14.05152,49.55989],[14.06181,49.56294],[14.06189,49.56289],[14.0714,49.55887],[14.07812,49.55722],[14.06879,49.53363],[14.09894,49.52997],[14.09948,49.53591],[14.10675,49.53854],[14.12263,49.52984],[14.12042,49.53766],[14.20721,49.53823],[14.2251,49.56287],[14.2341,49.5654],[14.26603,49.56931],[14.29386,49.5604],[14.29962,49.54707],[14.30691,49.55194],[14.33587,49.54033],[14.33167,49.52936],[14.34201,49.5325],[14.34351,49.5329],[14.35432,49.52916],[14.37509,49.53802],[14.38222,49.54287],[14.39315,49.54399],[14.40244,49.54261],[14.39881,49.55478],[14.40589,49.55926],[14.41531,49.55556],[14.41627,49.55467],[14.41726,49.55363],[14.4175,49.55251],[14.41842,49.55179],[14.41999,49.551],[14.42745,49.54704],[14.44459,49.55012],[14.45678,49.53791],[14.45698,49.53401],[14.46114,49.53285],[14.46262,49.53636],[14.47714,49.54754],[14.5118,49.54455],[14.51268,49.53733],[14.53521,49.53735],[14.55641,49.53298],[14.56783,49.53908],[14.57035,49.53697],[14.58987,49.54561],[14.5916,49.54164],[14.59152,49.53345],[14.5789,49.52301],[14.58431,49.51978],[14.60905,49.52332],[14.62302,49.52],[14.63508,49.51996],[14.64756,49.50476],[14.64907,49.5203],[14.69244,49.54543],[14.71241,49.5437],[14.73516,49.55248],[14.72547,49.55875],[14.71733,49.56918],[14.72191,49.58016],[14.73181,49.58561],[14.72201,49.59295],[14.72916,49.59774],[14.74471,49.59548],[14.74284,49.59947],[14.74039,49.60326],[14.74116,49.60642],[14.75198,49.61068],[14.76022,49.61163],[14.76541,49.62122],[14.7682,49.62119],[14.78035,49.60607],[14.80588,49.60278],[14.81405,49.60293],[14.84634,49.5809],[14.85372,49.58776],[14.86843,49.59229],[14.87828,49.58687],[14.88355,49.57525],[14.90505,49.54529],[14.92571,49.55077],[14.929982177929023,49.55011570247934],[14.92862,49.5478],[14.92652,49.54164],[14.93776,49.52983],[14.94268,49.52672],[14.90497,49.5229],[14.90154,49.51888],[14.90008,49.51459],[14.91746,49.5059],[14.9228,49.50279],[14.92712,49.48706],[14.93042,49.48371],[14.92969,49.48315],[14.92832,49.48299],[14.9257,49.4829],[14.92518,49.48204],[14.91669,49.47448],[14.92252,49.46846],[14.92467,49.46157],[14.92441,49.45771],[14.8987,49.42772],[14.90008,49.42167],[14.90746,49.42077],[14.90089,49.41388],[14.90042,49.401],[14.89244,49.3945],[14.88909,49.38444],[14.88686,49.37542],[14.89128,49.37301],[14.90536,49.36865],[14.90789,49.36785],[14.90893,49.36756],[14.90952,49.3675],[14.90983,49.36711],[14.91033,49.36702],[14.91073,49.3669],[14.91242,49.36648],[14.92322,49.36205],[14.92463,49.35409],[14.92248,49.35205],[14.91175,49.34453],[14.90197,49.33211],[14.92724,49.31679],[14.92325,49.30988],[14.94338,49.30411],[14.95243,49.29342],[14.96733,49.28771],[14.97711,49.27674],[14.99153,49.27455],[15.0069,49.28553],[15.03074,49.29448],[15.04312,49.28326],[15.04698,49.27811],[15.06131,49.27189],[15.06766,49.2715],[15.0826,49.27122],[15.09393,49.27018],[15.10118,49.2694],[15.10328,49.26582],[15.09736,49.25974],[15.09936,49.25053],[15.07655,49.25296],[15.07273,49.25265],[15.08041,49.24604],[15.09882,49.24002],[15.12281,49.24736],[15.13431,49.23074],[15.13822,49.22071],[15.16671,49.21547],[15.17697,49.22118],[15.19195,49.23069],[15.1949,49.23416],[15.20461,49.22547],[15.22383,49.22404],[15.2507,49.21886],[15.25121,49.20714],[15.25237,49.20593],[15.25877,49.2072],[15.26517,49.21286],[15.27151,49.21014],[15.28065,49.20969],[15.28623,49.21409],[15.29297,49.21645],[15.30185,49.21454],[15.3064,49.21252],[15.31391,49.21429],[15.33395,49.21746],[15.34064,49.21677],[15.34305,49.21505],[15.34142,49.20501],[15.34421,49.19929],[15.34777,49.1913],[15.33523,49.16615],[15.35464,49.15157],[15.36404,49.14755],[15.37279,49.1482],[15.37846,49.14244],[15.37653,49.13854],[15.38373,49.13321],[15.39901,49.13144],[15.41017,49.12675],[15.41867,49.12484],[15.41832,49.12082],[15.42433,49.11647],[15.43231,49.12801],[15.4409,49.13121],[15.4515,49.1254],[15.45497,49.12141],[15.46866,49.1186],[15.46978,49.12237],[15.4933,49.11897],[15.50351,49.11784],[15.51641,49.12971],[15.53497,49.12442],[15.53656,49.12447],[15.54003,49.12678],[15.54562,49.13384],[15.55144,49.12403],[15.56456,49.12755],[15.56625,49.12107],[15.54686,49.11585],[15.55518,49.11057],[15.566,49.10557],[15.57383,49.10068],[15.58648,49.10381],[15.58014,49.0975],[15.60157,49.08825],[15.59818,49.08595],[15.58943,49.08477],[15.59329,49.08084],[15.59612,49.07741],[15.59226,49.07493],[15.58385,49.07404],[15.55163,49.07813],[15.55115,49.07117],[15.55348,49.06282],[15.53838,49.06033],[15.54392,49.04374],[15.52566,49.04029],[15.51604,49.02183],[15.50755,49.01772],[15.50334,49.01046],[15.49132,49.00545],[15.48512,48.99647],[15.49253,48.98816],[15.5258,48.99383],[15.52162,48.98134],[15.51922,48.97898],[15.52239,48.9743],[15.54574,48.97199],[15.57793,48.9641],[15.57134,48.95577],[15.579021745792891,48.950714447812636],[15.5673,48.94229],[15.55808,48.92997],[15.55499,48.92509],[15.54934,48.92449],[15.54023,48.90801],[15.540369871039037,48.89926806006015],[15.4963,48.91285],[15.49064,48.93343]]]}}
