{"type":"Feature","properties":{"sourceId":"jihomoravsky"},"geometry":{"type":"Polygon","coordinates":[[[15.54934,48.92449],[15.55499,48.92509],[15.55808,48.92997],[15.5673,48.94229],[15.579021745792893,48.950714447812636],[15.58617,48.94601],[15.60488,48.95379],[15.61099,48.9576],[15.6235,48.9406],[15.64848,48.9362],[15.65826,48.94669],[15.66599,48.95306],[15.66504,48.9632],[15.67766,48.96275],[15.67792,48.96089],[15.68255,48.9601],[15.68942,48.96337],[15.70439,48.96625],[15.7265,48.94832],[15.73149,48.94564],[15.7392,48.95035],[15.74727,48.96692],[15.75637,48.96585],[15.75989,48.9787],[15.78057,48.9792],[15.79323,48.98292],[15.80667,48.99402],[15.81915,49.00883],[15.82769,49.00607],[15.84752,49.01074],[15.86632,49.00618],[15.87682,49.00743],[15.88203,49.01423],[15.88571,49.02909],[15.88915,49.03202],[15.88642,49.03719],[15.90022,49.03111],[15.90915,49.02796],[15.91817,49.02757],[15.96078,49.05469],[15.96711,49.03817],[15.9939,49.02754],[16.01021,49.02647],[16.02266,49.02858],[16.02472,49.03323],[16.0339,49.03536],[16.03634,49.04121],[16.08694,49.02939],[16.08862,49.03131],[16.08749,49.03746],[16.09973,49.03556],[16.10364,49.03896],[16.10857,49.03939],[16.1175,49.03517],[16.14874,49.04743],[16.1396,49.05461],[16.13295,49.05792],[16.1396,49.06708],[16.17943,49.06872],[16.2114,49.07117],[16.22758,49.08286],[16.22797,49.08716],[16.21835,49.09306],[16.22214,49.09623],[16.23857,49.09767],[16.24702,49.09925],[16.24972,49.1011],[16.25633,49.10579],[16.25659,49.10945],[16.24462,49.1147],[16.20654,49.13441],[16.21033,49.13753],[16.2184,49.13416],[16.23462,49.13542],[16.24766,49.14497],[16.23865,49.15811],[16.2305,49.1638],[16.23512,49.17303],[16.25736,49.17393],[16.27212,49.17685],[16.2765,49.1844],[16.26942,49.18574],[16.27285,49.195],[16.27517,49.20148],[16.25959,49.20978],[16.24646,49.2121],[16.2373,49.21304],[16.23839,49.22494],[16.24462,49.23517],[16.25555,49.25226],[16.27109,49.25136],[16.29041,49.25655],[16.28918,49.26411],[16.28314,49.26743],[16.27805,49.26836],[16.27817,49.27033],[16.27552,49.27071],[16.27122,49.2717],[16.25766,49.27751],[16.25755,49.2829],[16.26049,49.29094],[16.27268,49.29344],[16.28073,49.29671],[16.28491,49.30229],[16.29058,49.30796],[16.29629,49.31229],[16.29296,49.31915],[16.2874,49.3224],[16.27826,49.32153],[16.27026,49.31907],[16.2562,49.32256],[16.24339,49.32466],[16.2408,49.32771],[16.24814,49.33006],[16.26695,49.33114],[16.26899,49.33053],[16.27296,49.33149],[16.27348,49.33286],[16.272,49.3348],[16.26796,49.33634],[16.25801,49.33752],[16.25352,49.34036],[16.24666,49.34277],[16.23947,49.34593],[16.23713,49.34958],[16.23526,49.35065],[16.22992,49.35004],[16.22852,49.35026],[16.22696,49.34903],[16.21902,49.35342],[16.22286,49.35936],[16.22382,49.36041],[16.22492,49.35985],[16.22706,49.36033],[16.23305,49.36767],[16.23804,49.37669],[16.23607,49.37786],[16.23601,49.37943],[16.2364,49.38116],[16.23497,49.38258],[16.23348,49.38399],[16.23342,49.38596],[16.23003,49.39177],[16.23494,49.39194],[16.24204,49.40188],[16.2549,49.40371],[16.26009,49.40528],[16.25886,49.41121],[16.25614,49.41432],[16.26127,49.41719],[16.26243,49.42186],[16.26588,49.42677],[16.27558,49.42954],[16.28667,49.43187],[16.2927,49.42711],[16.32186,49.42906],[16.3297,49.43106],[16.33673,49.4397],[16.33455,49.44686],[16.3285,49.44839],[16.32572,49.44985],[16.32247,49.45011],[16.32124,49.44992],[16.32025,49.44991],[16.31875,49.44907],[16.31722,49.44884],[16.31483,49.44863],[16.31412,49.44949],[16.31324,49.45012],[16.31149,49.45043],[16.31084,49.44987],[16.30902,49.44918],[16.30845,49.44932],[16.30781,49.44934],[16.30676,49.44916],[16.30591,49.44925],[16.30443,49.44934],[16.30094,49.44925],[16.30057,49.4504],[16.31397,49.45811],[16.31689,49.46436],[16.32895,49.46712],[16.33272,49.47044],[16.33658,49.4674],[16.35023,49.46734],[16.34478,49.46003],[16.35095,49.44716],[16.35602,49.44807],[16.35847,49.45114],[16.36246,49.45183],[16.36765,49.44837],[16.38019,49.45069],[16.38615,49.45632],[16.37675,49.46377],[16.39121,49.47055],[16.39006,49.47602],[16.3822,49.48486],[16.37212,49.48441],[16.3625,49.49074],[16.38576,49.49213],[16.39688,49.50119],[16.41053,49.51013],[16.41962,49.52462],[16.41563,49.5334],[16.40996,49.54049],[16.38925,49.54028],[16.38302,49.54362],[16.378,49.5478],[16.37537,49.55234],[16.38319,49.55498],[16.39155,49.55927],[16.394609769770458,49.576927618737244],[16.39791,49.57446],[16.40645,49.57176],[16.41031,49.57928],[16.41799,49.58275],[16.42029,49.58469],[16.42063,49.5859],[16.42044,49.58691],[16.41844,49.59413],[16.42782,49.59241],[16.4431,49.59686],[16.44568,49.58651],[16.45872,49.58913],[16.46464,49.59163],[16.47117,49.59063],[16.48859,49.59781],[16.50447,49.58974],[16.51829,49.58952],[16.53726,49.59052],[16.54117,49.58845],[16.54438,49.59235],[16.54953,49.6141],[16.54953,49.62128],[16.55651,49.62906],[16.56395,49.626],[16.58652,49.6225],[16.60335,49.621],[16.61708,49.62361],[16.62384,49.63109],[16.6509,49.618],[16.6927,49.62367],[16.78226,49.59522],[16.797599427400492,49.597617784608246],[16.79698,49.5963],[16.78616,49.59155],[16.78911,49.58675],[16.79989,49.57811],[16.78384,49.57446],[16.77943,49.57551],[16.7781,49.57861],[16.77014,49.57885],[16.76835,49.58003],[16.76597,49.58188],[16.76506,49.58351],[16.76476,49.58361],[16.76027,49.58118],[16.74769,49.58703],[16.74503,49.58778],[16.74531,49.57905],[16.74025,49.57427],[16.74522,49.5697],[16.74445,49.5638],[16.75063,49.56108],[16.73947,49.54994],[16.73553,49.54278],[16.7393,49.54186],[16.75492,49.54315],[16.76436,49.54069],[16.77569,49.54036],[16.78574,49.53585],[16.79423,49.5334],[16.80676,49.5324],[16.80024,49.52437],[16.8035,49.51501],[16.79531,49.51161],[16.79272,49.51275],[16.79161,49.51239],[16.79047,49.51171],[16.78765,49.50989],[16.78329,49.49692],[16.79719,49.45613],[16.81681,49.44358],[16.81809,49.43917],[16.82671,49.43591],[16.8199,49.4313],[16.81677,49.43132],[16.81538,49.43188],[16.81466,49.43176],[16.8145,49.43153],[16.81435,49.43134],[16.81412,49.43114],[16.81371,49.43096],[16.81345,49.43085],[16.81306,49.43074],[16.81211,49.43009],[16.81107,49.42925],[16.81084,49.4292],[16.80946,49.42945],[16.80887,49.42954],[16.80733,49.42958],[16.80457,49.42983],[16.80394,49.42982],[16.80251,49.42943],[16.80196,49.42919],[16.80032,49.4289],[16.80019,49.42858],[16.80003,49.4284],[16.79979,49.42782],[16.799,49.4265],[16.79769,49.4249],[16.7976,49.42021],[16.79245,49.41442],[16.79595,49.41137],[16.80011,49.4098],[16.8041,49.41209],[16.80676,49.41058],[16.80376,49.40776],[16.80449,49.40586],[16.80663,49.4046],[16.8111,49.40313],[16.81736,49.40204],[16.82393,49.40008],[16.83564,49.3913],[16.84979,49.38691],[16.85972,49.38085],[16.87013,49.39052],[16.87213,49.39475],[16.87373,49.39507],[16.87721,49.397],[16.88218,49.39939],[16.88693,49.39824],[16.89388,49.4026],[16.89311,49.4071],[16.89603,49.41527],[16.90728,49.41547],[16.91795,49.42868],[16.90779,49.4369],[16.91036,49.44067],[16.90264,49.4563],[16.8974,49.46121],[16.89036,49.46121],[16.87244,49.47447],[16.87174,49.47832],[16.90596,49.49724],[16.93595,49.48649],[16.93993,49.49312],[16.95573,49.46817],[16.97203,49.45722],[16.98532,49.45289],[16.98091,49.44112],[16.98581,49.42537],[16.99545,49.41945],[17.01185,49.41674],[17.01087,49.40444],[17.02229,49.39751],[17.0246,49.39012],[17.02078,49.37082],[17.04706,49.36468],[17.03374,49.35903],[17.04505,49.35318],[17.07248,49.34363],[17.11717,49.33325],[17.14053,49.30796],[17.14288,49.29507],[17.15249,49.28639],[17.15382,49.27564],[17.155823994543564,49.27452394659474],[17.12687,49.2462],[17.1453,49.23009],[17.13356,49.21467],[17.15052,49.19337],[17.15884,49.19032],[17.14485,49.17531],[17.15292,49.17119],[17.18312,49.17089],[17.19563,49.18229],[17.20029,49.17571],[17.18417,49.14048],[17.14873,49.13581],[17.13513,49.10397],[17.11119,49.10412],[17.10807,49.07636],[17.12424,49.07434],[17.12435,49.07429],[17.12455,49.07431],[17.14532,49.07171],[17.21183,49.09073],[17.21654,49.07597],[17.22746,49.07215],[17.22691,49.06819],[17.22975,49.06417],[17.21752,49.03809],[17.22201,49.03193],[17.24965,49.03685],[17.25064,49.02943],[17.26573,49.03287],[17.27449,49.01237],[17.32355,49.0104],[17.34973,49.00475],[17.35816,49.00512],[17.35026,48.97809],[17.37575,48.97303],[17.39214,48.98019],[17.39768,48.97399],[17.4125,48.96205],[17.43369,48.94898],[17.49502,48.95777],[17.49997,48.96248],[17.50778,48.95143],[17.53509,48.95097],[17.55058,48.94322],[17.53634,48.92232],[17.5474,48.91483],[17.55907,48.919],[17.58288,48.90968],[17.60096,48.90888],[17.62204,48.88013],[17.64412,48.85385],[17.649275202585947,48.8481084236602],[17.64952,48.83412],[17.64096,48.83111],[17.55484,48.80034],[17.45136,48.82172],[17.37727,48.79653],[17.19832,48.85843],[16.9609,48.61008],[16.92492,48.61558],[16.91347,48.62207],[16.91742,48.66793],[16.90471,48.67749],[16.90834,48.69411],[16.89244,48.71144],[16.79672,48.70338],[16.76101,48.71197],[16.71957,48.73374],[16.68346,48.72352],[16.6666,48.73576],[16.67631,48.75515],[16.64499,48.78115],[16.6246,48.77448],[16.57208,48.78334],[16.54063,48.80778],[16.51931,48.79467],[16.4661,48.80013],[16.43378,48.75402],[16.37994,48.71983],[16.06377,48.7448],[15.93955,48.80063],[15.93769,48.81266],[15.82807,48.86026],[15.78996,48.86661],[15.7606,48.84521],[15.67978,48.85078],[15.60913,48.88645],[15.56876,48.89051],[15.54037,48.89926],[15.54023,48.90801],[15.54934,48.92449]]]}}
