{"type":"Feature","properties":{"sourceId":"jordan"},"geometry":{"type":"Polygon","coordinates":[[[35.80329,32.75155],[35.79888,32.74484],[35.80309,32.73921],[35.80977,32.74441],[35.81214,32.73853],[35.8269,32.7365],[35.83627,32.72977],[35.84373,32.73455],[35.8513,32.73103],[35.8699,32.73553],[35.87916,32.73096],[35.88433,32.717],[35.89853,32.72052],[35.90423,32.72678],[35.91649,32.72244],[35.93443,32.7237],[35.94239,32.70909],[35.94076,32.70184],[35.94936,32.69625],[35.95013,32.68389],[35.96546,32.66726],[36.02637,32.65966],[36.03118,32.63973],[36.02843,32.60397],[36.06389,32.58062],[36.07153,32.56983],[36.08242,32.5442],[36.08134,32.517],[36.12229,32.52772],[36.15683,32.52676],[36.164,32.5182],[36.20123,32.53259],[36.20841,32.52713],[36.20854,32.50845],[36.21409,32.49759],[36.24112,32.5018],[36.307,32.46189],[36.37463,32.40139],[36.40761,32.38009],[36.4749,32.3743],[36.51204,32.36027],[36.66573,32.34256],[36.69045,32.33729],[36.69604,32.32812],[36.72036,32.317],[36.75132,32.32523],[36.78708,32.32402],[36.83787,32.31448],[36.88938,32.35646],[36.96087,32.44264],[36.98141,32.44416],[36.98966,32.44279],[37.00915,32.42782],[37.07458,32.43568],[37.15947,32.5179],[37.2055,32.56015],[37.25506,32.57489],[37.33072,32.56764],[37.3776,32.59468],[37.44208,32.64502],[37.48353,32.69193],[37.51909,32.72013],[37.56607,32.73613],[37.70699,32.76078],[37.75932,32.78898],[37.76642,32.87946],[37.78388,32.89599],[37.81815,32.90838],[37.90707,32.9011],[38.43003,33.18547],[38.7953,33.37922],[39.08891,32.50296],[39.08677,32.49909],[38.98945,32.47551],[39.04513,32.30724],[39.26087,32.35807],[39.31022,32.23586],[38.99552,31.99214],[37.02476,31.49546],[38.01611,30.49865],[37.66777,30.33044],[37.50132,29.99701],[36.7553,29.86576],[36.50674,29.49791],[36.07086,29.18213],[35.17965,29.324],[34.957,29.35456],[34.86886,29.37572],[34.91332110822005,29.44640835591937],[34.91627,29.4396],[34.95438,29.46411],[35.02336,29.64569],[35.07514,29.83713],[35.17202,30.11204],[35.20709,30.53307],[35.3321,30.77107],[35.42771,30.95172],[35.47936,31.1783],[35.4209,31.25116],[35.48771,31.41951],[35.57225,31.75415],[35.55452,32.02901],[35.59461,32.21856],[35.5729,32.36541],[35.59491,32.62828],[35.77835,32.72446],[35.798122551521274,32.75580335109441],[35.80329,32.75155]]]}}
