{"type":"Feature","properties":{"sourceId":"jiangsu"},"geometry":{"type":"Polygon","coordinates":[[[116.3729,34.68827],[116.3778,34.70916],[116.3553,34.71297],[116.3538,34.72694],[116.3564,34.74994],[116.3622,34.75233],[116.3866,34.75346],[116.3936,34.80704],[116.4013,34.86199],[116.4408,34.90128],[116.5402,34.91367],[116.5979,34.92464],[116.6154,34.9416],[116.6277,34.94217],[116.6477,34.93154],[116.6511,34.93478],[116.6679,34.93506],[116.6713,34.94104],[116.6776,34.94072],[116.6912,34.93464],[116.7003,34.93819],[116.7015,34.93615],[116.7075,34.93242],[116.7162,34.92795],[116.7243,34.92982],[116.7303,34.92704],[116.7742,34.91986],[116.7715,34.96137],[116.7771,34.9798],[116.802,34.97178],[116.8288,34.95546],[116.8427,34.94927],[116.911,34.91099],[116.925,34.9],[116.9204,34.87706],[116.935,34.87868],[116.9462,34.86988],[116.9635,34.87157],[116.9636,34.86537],[116.9301,34.86171],[116.9265,34.84558],[116.9628,34.84558],[116.9793,34.80415],[116.9512,34.80056],[116.9673,34.78279],[116.9736,34.78018],[116.9761,34.77433],[116.9761,34.76679],[116.9875,34.76651],[117.008,34.77193],[117.0761,34.69561],[117.0847,34.65976],[117.1043,34.64818],[117.1187,34.62275],[117.1537,34.56425],[117.1407,34.52975],[117.1661,34.44089],[117.231,34.47486],[117.265,34.56],[117.2972,34.57796],[117.3402,34.58559],[117.3649,34.58842],[117.3999,34.57174],[117.4033,34.54559],[117.4217,34.54347],[117.4257,34.52806],[117.4384,34.53117],[117.4622,34.49425],[117.4808,34.48831],[117.4874,34.47727],[117.5525,34.47911],[117.5697,34.46821],[117.5906,34.476],[117.5973,34.48703],[117.6066,34.49609],[117.6492,34.50231],[117.6643,34.519],[117.6754,34.5504],[117.6984,34.54955],[117.7441,34.53767],[117.7875,34.52622],[117.7832,34.57938],[117.7867,34.61795],[117.782,34.65552],[117.7934,34.65877],[117.867,34.65538],[117.8969,34.64846],[117.9006,34.67458],[117.9171,34.67261],[117.9238,34.66286],[117.9429,34.68065],[117.9557,34.68206],[117.9858,34.67811],[117.9933,34.66258],[118.0914,34.66188],[118.115,34.61809],[118.0829,34.57401],[118.1341,34.56496],[118.178,34.54955],[118.188,34.54488],[118.1722,34.52777],[118.1607,34.50146],[118.1341,34.48788],[118.178,34.45604],[118.183,34.43325],[118.1724,34.41399],[118.1717,34.39232],[118.2098,34.38623],[118.2132,34.4096],[118.2283,34.40549],[118.2699,34.41201],[118.279,34.42999],[118.304,34.43268],[118.3468,34.42702],[118.3633,34.41866],[118.3736,34.42659],[118.39,34.43155],[118.4052,34.49298],[118.4237,34.51561],[118.413,34.59634],[118.4211,34.61498],[118.4332,34.62784],[118.4495,34.61979],[118.4572,34.62742],[118.4673,34.62812],[118.4654,34.63872],[118.4566,34.64098],[118.4537,34.65771],[118.4538,34.67169],[118.4653,34.67705],[118.476,34.67818],[118.4933,34.66639],[118.5006,34.6887],[118.5251,34.71438],[118.5752,34.71833],[118.6004,34.71989],[118.6023,34.6959],[118.6548,34.70232],[118.6726,34.70246],[118.6772,34.68326],[118.7491,34.71029],[118.7658,34.7287],[118.7656,34.73315],[118.7593,34.73844],[118.7298,34.73491],[118.7039,34.74838],[118.7036,34.76298],[118.724,34.77144],[118.7278,34.79026],[118.7302,34.79569],[118.755,34.7916],[118.7665,34.80055],[118.7715,34.82994],[118.7574,34.83128],[118.7577,34.84882],[118.7826,34.85037],[118.7944,34.8484],[118.7936,34.861],[118.7979,34.86136],[118.7987,34.86755],[118.7911,34.87305],[118.7962,34.88255],[118.8465,34.93999],[118.8571,34.99246],[118.8502,35.02283],[118.8615,35.03464],[118.9124,35.05122],[118.9406,35.04665],[118.9982,35.05747],[119.0291,35.05796],[119.0485,35.05537],[119.065,35.05824],[119.0694,35.0619],[119.082,35.06042],[119.105,35.05347],[119.1148,35.0567],[119.1133,35.07187],[119.1267,35.09618],[119.1389,35.10207],[119.1864,35.11324],[119.2124,35.1124],[119.2319,35.12637],[119.2421,35.12847],[119.2508,35.12279],[119.269,35.1171],[119.2833,35.11675],[119.2868,35.11198],[119.2938,35.09849],[119.298,35.08782],[119.3005,35.07827],[119.314,35.02165],[121.0801,35.55507],[122.93879468091752,31.710087207463328],[122.0324,31.7051],[121.9232,31.68874],[121.8689,31.63818],[121.7683,31.66186],[121.7213,31.67822],[121.6341,31.7086],[121.5754,31.71882],[121.5445,31.73663],[121.5102,31.75445],[121.4868,31.76057],[121.4525,31.76495],[121.426,31.77663],[121.4178,31.80173],[121.3969,31.82711],[121.3601,31.85511],[121.3152,31.88426],[121.2819,31.88455],[121.2355,31.8621],[121.1754,31.83819],[121.1411,31.80289],[121.102,31.77663],[121.0841,31.76145],[121.155,31.715],[121.3608,31.54343],[121.3241,31.50817],[121.3017,31.5089],[121.2949,31.50282],[121.2904,31.49433],[121.2741,31.49404],[121.2706,31.49009],[121.2637,31.49053],[121.2545,31.48292],[121.2516,31.4865],[121.2427,31.48533],[121.2384,31.4969],[121.2299,31.49631],[121.2205,31.4816],[121.2086,31.48189],[121.2007,31.47714],[121.1828,31.46469],[121.1579,31.45297],[121.1421,31.44726],[121.1391,31.43892],[121.1464,31.43408],[121.1567,31.4313],[121.1394,31.42471],[121.1435,31.41672],[121.1496,31.41218],[121.1428,31.40193],[121.1395,31.38815],[121.1095,31.37767],[121.1009,31.36925],[121.102,31.3529],[121.1143,31.34447],[121.1235,31.34396],[121.1248,31.32769],[121.1209,31.32334],[121.1225,31.31586],[121.1246,31.30369],[121.1347,31.30428],[121.1349,31.30778],[121.1389,31.31055],[121.1442,31.30426],[121.1409,31.29841],[121.1514,31.289],[121.1543,31.28904],[121.1555,31.28589],[121.1512,31.28297],[121.1451,31.27798],[121.137,31.28],[121.1155,31.28926],[121.1099,31.2886],[121.0975,31.27936],[121.0886,31.29315],[121.0819,31.29505],[121.0795,31.29029],[121.0759,31.27914],[121.0762,31.27371],[121.0624,31.27158],[121.0571,31.27099],[121.0516,31.24788],[121.0547,31.24466],[121.0586,31.21589],[121.0596,31.19973],[121.0656,31.17337],[121.0669,31.15957],[121.0503,31.15575],[121.0438,31.15993],[121.0365,31.15523],[121.0351,31.14223],[121.0216,31.14723],[121.0062,31.14025],[120.9821,31.13672],[120.9509,31.14319],[120.9286,31.14701],[120.8944,31.13937],[120.876,31.13764],[120.868,31.12963],[120.8653,31.12567],[120.8652,31.12229],[120.861,31.11777],[120.8579,31.11582],[120.8554,31.11262],[120.8506,31.11045],[120.847,31.10454],[120.8577,31.09792],[120.8929,31.0869],[120.8893,31.05176],[120.8929,31.04205],[120.89371168339416,31.023064725410777],[120.8909,31.02374],[120.8829,31.01168],[120.855,30.99652],[120.8317,31.00498],[120.812,31.013],[120.7675,31.00601],[120.7524,30.98099],[120.6968,30.97599],[120.673,30.96135],[120.68,30.94935],[120.7034,30.92815],[120.7022,30.91114],[120.691,30.87807],[120.6795,30.88963],[120.6385,30.86127],[120.5794,30.86304],[120.495,30.785],[120.47,30.82],[120.4524,30.86304],[120.4328,30.9305],[120.415,30.93256],[120.4053,30.92314],[120.4122,30.90546],[120.3597,30.89162],[120.3765,30.95583],[120.295,30.955],[119.935,31.19],[119.9017,31.17697],[119.8595,31.17756],[119.8207,31.18167],[119.7984,31.1664],[119.7743,31.19078],[119.7125,31.17873],[119.6943,31.16199],[119.6617,31.17433],[119.6322,31.15318],[119.61485914074748,31.135396587568643],[119.5872,31.12173],[119.5237,31.16875],[119.4698,31.16434],[119.4252,31.19548],[119.4169,31.18872],[119.3936,31.20869],[119.3682,31.2037],[119.3785,31.25273],[119.3781,31.27386],[119.3709,31.30202],[119.3428,31.31082],[119.3325,31.26769],[119.3077,31.27943],[119.269,31.26271],[119.2556,31.27239],[119.2353,31.26271],[119.189,31.30759],[119.1464,31.30349],[119.1354,31.28031],[119.1021,31.26329],[119.0777,31.2448],[119.0132,31.24979],[118.9775,31.2448],[118.914,31.25214],[118.847,31.24568],[118.7886,31.24275],[118.7859,31.26828],[118.7533,31.28559],[118.7176,31.2897],[118.7409,31.35188],[118.8511,31.38735],[118.88,31.445],[118.8851,31.54021],[118.8803,31.58234],[118.8635,31.62532],[118.8371,31.64111],[118.7993,31.63146],[118.7983,31.67676],[118.768,31.68961],[118.7433,31.68932],[118.7354,31.67705],[118.7262,31.64607],[118.6592,31.64958],[118.6479,31.66858],[118.6956,31.70831],[118.6826,31.73109],[118.6578,31.73751],[118.6359,31.76787],[118.595,31.76437],[118.537,31.74539],[118.5473,31.76846],[118.5133,31.77604],[118.4786,31.78626],[118.4886,31.80231],[118.5033,31.82915],[118.5037,31.84811],[118.4786,31.8519],[118.4742,31.89068],[118.435,31.90292],[118.4003,31.92186],[118.3821,31.92186],[118.3667,31.93789],[118.3694,31.95741],[118.4045,31.97663],[118.3986,32.02118],[118.3907,32.06046],[118.4065,32.07588],[118.4323,32.08752],[118.5057,32.12474],[118.5102,32.18578],[118.5466,32.19305],[118.5892,32.18985],[118.6472,32.21222],[118.6729,32.24533],[118.676,32.26014],[118.664,32.27291],[118.6736,32.29671],[118.6949,32.31586],[118.7107,32.33443],[118.7032,32.35299],[118.7049,32.3759],[118.6877,32.39504],[118.6959,32.47212],[118.6843,32.48051],[118.6417,32.48254],[118.6146,32.47849],[118.5988,32.48862],[118.6163,32.50831],[118.6084,32.54247],[118.5768,32.55752],[118.5706,32.58125],[118.5923,32.59571],[118.6173,32.58096],[118.6355,32.5798],[118.652,32.59137],[118.6935,32.58183],[118.7038,32.60554],[118.7183,32.59195],[118.7323,32.58877],[118.7547,32.60034],[118.778,32.58269],[118.802,32.5824],[118.8189,32.56794],[118.8367,32.5662],[118.8631,32.57257],[118.8885,32.54681],[118.926,32.55318],[118.9785,32.49818],[119.0286,32.51439],[119.0527,32.46198],[119.0702,32.44981],[119.0836,32.4501],[119.0994,32.46951],[119.1412,32.49094],[119.1522,32.50252],[119.1512,32.52626],[119.1666,32.53205],[119.1563,32.55781],[119.1807,32.58588],[119.2013,32.56533],[119.2147,32.56967],[119.2295,32.61075],[119.2116,32.72144],[119.1917,32.83777],[119.1021,32.83662],[119.0557,32.87699],[119.0458,32.91591],[119.029,32.91418],[119.0224,32.95827],[118.9998,32.97008],[118.8971,32.94962],[118.8882,32.96777],[118.8346,32.96086],[118.8309,32.93003],[118.802,32.9234],[118.7928,32.86344],[118.7437,32.86373],[118.7286,32.8545],[118.7292,32.81498],[118.7227,32.76851],[118.7409,32.74195],[118.7011,32.72982],[118.63,32.75436],[118.6043,32.7431],[118.5463,32.73877],[118.4769,32.72924],[118.4433,32.75061],[118.4216,32.72809],[118.3722,32.72549],[118.364,32.77746],[118.3087,32.78497],[118.2987,32.8545],[118.2781,32.86402],[118.2476,32.86257],[118.2472,32.92628],[118.3149,32.95538],[118.308,32.97152],[118.252,32.99398],[118.2352,33.07428],[118.235,33.125],[118.2231,33.16414],[118.2133,33.19338],[118.2049,33.2035],[118.1951,33.2114],[118.1708,33.2211],[118.1507,33.21341],[118.1453,33.17721],[118.0371,33.15767],[117.998,33.18584],[117.987,33.21973],[117.9448,33.24874],[117.9774,33.28118],[117.9904,33.33827],[118.0321,33.37799],[118.0169,33.40637],[118.049,33.49087],[118.1051,33.47269],[118.1144,33.59546],[118.1142,33.61676],[118.1451,33.63392],[118.1669,33.66207],[118.1792,33.72962],[118.1899,33.74675],[118.1738,33.75403],[118.1332,33.75789],[118.108,33.77358],[118.0579,33.77044],[117.9842,33.75574],[117.9684,33.76445],[117.953,33.76631],[117.9298,33.73362],[117.9118,33.74518],[117.884,33.73348],[117.8074,33.74461],[117.7736,33.73391],[117.7424,33.71435],[117.7302,33.73847],[117.7496,33.79028],[117.7575,33.88837],[117.7353,33.89764],[117.7128,33.89065],[117.6792,33.93624],[117.6701,33.95048],[117.6677,33.9566],[117.6701,33.99419],[117.6486,34.01354],[117.6188,34.0373],[117.5982,34.03701],[117.5983,34.02506],[117.603,34.01382],[117.5731,33.99105],[117.5456,34.01169],[117.5463,34.04996],[117.5051,34.0656],[117.49,34.05522],[117.4698,34.05152],[117.4097,34.0272],[117.3769,34.0784],[117.3534,34.0966],[117.3136,34.08778],[117.2701,34.08124],[117.2097,34.07925],[117.1841,34.07328],[117.173,34.08309],[117.1549,34.08465],[117.1519,34.10157],[117.1361,34.11522],[117.1273,34.12829],[117.1029,34.13468],[117.0995,34.14591],[117.0707,34.15259],[117.0257,34.16977],[117.0437,34.20414],[117.0518,34.24076],[117.0387,34.25126],[117.0101,34.26559],[116.9802,34.28204],[116.9766,34.3148],[116.9816,34.35463],[116.9704,34.39289],[116.9541,34.40011],[116.8873,34.4164],[116.8379,34.40337],[116.7448,34.47585],[116.6043,34.49128],[116.5982,34.51999],[116.5148,34.56185],[116.4865,34.61032],[116.4542,34.626],[116.4288,34.65496],[116.4165,34.65496],[116.3916,34.65016],[116.36649962850389,34.63646035798717],[116.3643,34.63858],[116.3588,34.65213],[116.3718,34.66555],[116.366,34.67571],[116.3729,34.68827]]]}}
