{"type":"Feature","properties":{"sourceId":"kazakhstan"},"geometry":{"type":"Polygon","coordinates":[[[60.23552,52.02254],[60.49862,52.18128],[60.60051,52.1828],[60.95085,52.31974],[60.95762,52.48482],[60.81185,52.50331],[60.80789,52.60727],[60.68157,52.64712],[60.67907,52.77736],[60.9646,52.91281],[60.96184,52.98887],[61.25563,53.05812],[61.46477,53.06198],[61.68131,53.01555],[61.86079,53.02716],[62.00679,52.97525],[62.0924,53.00146],[62.09267,53.10433],[61.82419,53.1513],[61.69239,53.2037],[61.51206,53.18967],[61.36759,53.25288],[61.15297,53.28099],[61.11399,53.40834],[61.21933,53.52025],[61.10666,53.59094],[60.87156,53.60628],[60.87111,53.68852],[61.01526,53.68997],[61.0343,53.74183],[61.1091,53.74606],[61.19454,53.83362],[61.11893,53.88031],[60.96722,53.88861],[60.96031,53.95113],[61.13477,54.00013],[61.21596,53.99208],[61.19958,54.04501],[61.37189,54.10532],[61.48871,54.0892],[61.50527,54.03471],[61.57851,54.02814],[61.59272,54.01294],[61.6623,54.03505],[61.73154,54.04244],[61.77965,54.00478],[61.82552,54.04689],[61.91905,54.04521],[62.07825,54.07647],[62.55644,54.08519],[63.13636,54.2081],[63.81671,54.29456],[64.04475,54.33994],[64.6216,54.42263],[64.98131,54.44835],[65.15539,54.37584],[65.18139,54.55771],[65.39204,54.60417],[65.4425,54.68833],[65.73474,54.66001],[65.78035,54.72387],[66.0346,54.75228],[66.07329,54.66129],[67.32153,54.89333],[67.67562,54.88768],[67.79238,54.98877],[67.92334,55.00604],[68.15773,54.9812],[68.14483,55.2072],[68.59769,55.26617],[68.73729,55.40088],[68.91258,55.46187],[69.71771,55.50799],[69.75553,55.38143],[70.20396,55.173],[70.44258,55.30312],[70.84129,55.30917],[71.06639,55.09177],[71.02939,54.88182],[71.34585,54.67851],[71.25765,54.21843],[71.63417,54.16139],[71.70521,54.29203],[71.96939,54.26529],[71.97748,54.38561],[72.22049,54.37691],[72.3758,54.25993],[72.34961,54.20066],[73.03226,54.11368],[73.14441,53.99819],[73.33432,53.96912],[73.60252,54.09431],[73.81749,54.07372],[73.72341,53.83947],[73.4828,53.85422],[73.4838,53.79152],[73.41393,53.76064],[73.28805,53.57786],[73.50096,53.5187],[73.64645,53.63137],[73.80133,53.6063],[73.8925,53.67522],[74.38092,53.60443],[74.44044,53.71094],[74.76683,53.84533],[75.01417,53.84809],[75.37153,54.01375],[75.3147,54.08076],[76.24551,54.38342],[76.96341,54.49444],[77.0283,54.41545],[76.86109,54.14803],[76.59825,54.04828],[77.94492,53.30733],[79.21974,51.94381],[80.02815,50.87736],[80.44591,50.98836],[80.38823,51.11772],[80.42507,51.22675],[80.56385,51.22839],[80.65711,51.34231],[81.17196,51.23352],[81.22087,51.14714],[81.13301,50.994],[81.44616,50.99356],[81.54258,50.77413],[81.67055,50.77903],[81.7614,50.856],[82.16879,50.75992],[82.35801,50.80627],[82.55066,50.7679],[82.6879,50.85316],[82.69884,50.94705],[83.09279,51.03182],[83.45785,51.03545],[83.8466,50.9002],[84.01422,50.79933],[84.28774,50.5248],[84.32061,50.29085],[84.677,50.22706],[85.07166,50.06604],[85.02996,49.92122],[85.11319,49.88938],[85.24649,49.7497],[85.2886,49.64444],[85.38264,49.66397],[85.60608,49.64742],[86.12941,49.55538],[86.3743,49.63073],[86.53848,49.73819],[86.56874,49.84005],[86.81562,49.82832],[86.82844,49.63133],[87.0633,49.27301],[87.35264094387466,49.247722943104826],[86.88711,49.2344],[86.63984,49.03985],[86.50327,48.61684],[85.75339,48.50885],[85.50767,48.25252],[85.42691,48.01515],[85.58785,47.37434],[85.47971,47.16149],[84.93988,47.00556],[82.96855,47.30111],[82.16033,45.63846],[82.48469,45.28478],[81.72638,45.47457],[79.80926,44.97931],[79.93427,44.71292],[80.287,44.58868],[80.30102,44.0759],[80.63966,43.46165],[80.6234,43.24699],[80.34051,43.13067],[80.08456,42.71187],[80.05494741960175,42.38414696744386],[79.97841,42.44829],[79.70169,42.48982],[79.21005,42.69001],[79.20799,42.81203],[78.50212,42.91017],[77.5724,42.94587],[77.09656,42.98958],[76.84044,42.99109],[76.52801,42.93179],[75.93956,42.96346],[75.81528,42.95391],[75.71091,42.80573],[75.49461,42.84728],[75.29549,42.86514],[75.10597,42.90917],[74.87251,42.99862],[74.59717,43.13907],[74.23324,43.2812],[73.96683,43.2362],[73.53424,43.04481],[73.37494,42.53487],[72.2866,42.77474],[71.86638,42.83947],[71.53782,42.80699],[71.3792,42.80472],[71.36478,42.77373],[71.25732,42.77877],[71.26556,42.74752],[71.17458,42.67613],[70.99571,42.59707],[70.86233,42.32149],[70.85941,42.30131],[70.88111672329832,42.26394668785019],[70.34271,42.08294],[69.60663,41.66188],[69.53831,41.60158],[69.44389,41.57102],[69.39222,41.51051],[69.37901,41.46743],[69.35223,41.47515],[69.28202,41.4507],[69.25043,41.4709],[69.18228,41.45315],[69.14572,41.43205],[69.15413,41.39793],[69.11585,41.39471],[69.03311,41.36534],[69.01611,41.35375],[68.99963,41.24219],[68.79501,41.12566],[68.67073,41.01695],[68.59932,41.03819],[68.51555,41.02498],[68.48774,40.98612],[68.50868,40.93841],[68.55915,40.92674],[68.55572,40.80809],[68.57735,40.70589],[68.61854,40.62933],[68.48568,40.59075],[68.07609,40.7951],[67.9858,40.83511],[68.10768,40.93634],[68.13618,41.03379],[68.11661,41.12695],[67.73835,41.21688],[66.78039,41.18899],[66.57028,41.90534],[66.02366,41.95208],[66.11937,42.34055],[66.14456,42.97652],[65.85754,42.88804],[65.66722,43.3153],[65.0473,43.78894],[62.15515,43.68774],[60.78735,44.73503],[58.59009,45.61884],[55.97708,45.01186],[55.982790434336266,41.36133953550283],[55.50033,41.31608],[55.07817,41.94715],[54.42309,42.33574],[54.23401,42.41535],[53.04015,42.22804],[52.16059114221913,41.76508713885924],[50.70189,43.1491],[49.31762,44.30814],[49.61425,45.18205],[49.631095674073514,45.90042849224779],[49.93666,46.04634],[49.71829,46.23479],[49.52308,46.24281],[49.19315,46.4275],[48.62393,46.65237],[48.92563,46.6427],[49.04755,46.75114],[48.56782,47.43402],[48.46943,47.47112],[48.23329,47.7388],[48.04813,47.81218],[47.66885,47.80996],[47.41085,47.8885],[47.35203,47.76545],[47.23594,47.80066],[47.22767,47.87353],[47.14475,47.95903],[47.26121,48.07877],[47.17553,48.15345],[47.15755,48.3071],[46.59034,48.46934],[46.80537,48.89006],[47.0122,48.9948],[47.09872,49.14378],[47.0187,49.27955],[46.85039,49.38503],[46.94498,49.81672],[47.19074,49.88336],[47.38377,50.05208],[47.36594,50.27447],[47.46418,50.34623],[47.46417655754249,50.34623456427694],[47.51007,50.37976],[47.59166,50.40748],[47.89502,50.20414],[48.05998,50.05301],[48.20312,49.82278],[48.4479,49.75097],[48.76092,49.87291],[48.95297,50.02451],[48.77469,50.29923],[48.71294,50.54935],[48.83899,50.54948],[49.14368,50.73163],[49.45624,50.81043],[49.49517,50.88162],[49.43494,51.00972],[49.46337,51.05153],[49.77528,51.05602],[50.02016,51.19171],[50.38884,51.28291],[50.43973,51.36955],[50.59199,51.43686],[50.62893,51.56545],[50.76797,51.52409],[50.84618,51.54813],[50.87969,51.63323],[51.23949,51.62827],[51.19473,51.52671],[51.26264,51.44307],[51.58176,51.45817],[51.63571,51.40443],[51.85604,51.46959],[51.84275,51.56811],[51.90648,51.62539],[52.09789,51.60852],[52.31873,51.68726],[52.54097,51.40815],[52.78196,51.44728],[52.94984,51.40401],[53.22514,51.45484],[53.53716,51.3739],[53.55134,51.28157],[53.63629,51.18537],[53.99397,51.1117],[54.08016,51.06506],[54.17041,50.92215],[54.42749,50.80938],[54.36506,50.61075],[54.54151,50.47668],[54.64616,50.49797],[54.78157,50.61327],[54.72781,50.8079],[54.74457,50.91284],[54.65958,50.97017],[55.02412,50.85762],[55.02561,50.77932],[55.36266,50.60933],[55.47464,50.61864],[55.71887,50.49804],[56.08227,50.65105],[56.17464,50.72225],[56.2094,50.861],[56.37383,50.8525],[56.49571,50.9305],[56.51267,51.00062],[56.71622,50.92326],[56.79957,50.96934],[56.77757,51.03494],[57.16343,51.04051],[57.2991,50.89787],[57.50648,50.82501],[57.57432,50.88038],[57.79196,50.87955],[57.81701,51.06097],[58.16644,51.01243],[58.29841,51.09797],[58.36807,51.02613],[58.5548,51.00639],[58.55671,50.83518],[58.61717,50.82102],[58.63651,50.76234],[58.75108,50.75904],[58.87397,50.64752],[59.40752,50.5865],[59.41208,50.5204],[59.50366,50.44446],[59.83658,50.49067],[60.03802,50.64431],[60.04013,50.76267],[60.14419,50.78129],[60.30811,50.62164],[60.82497,50.60673],[61.4775,50.76372],[61.6091,51.18039],[61.71087,51.2122],[61.73371,51.27975],[61.505,51.45935],[61.02821,51.52042],[60.97324,51.56357],[60.9563,51.66168],[60.48638,51.69575],[60.55666,51.7417],[60.55461,51.83352],[60.19803,51.9389],[60.28105,51.98053],[60.0667,52.0135],[60.06138000536826,52.019396201718514],[60.23552,52.02254]]]}}
