{"type":"Feature","properties":{"sourceId":"kansai"},"geometry":{"type":"Polygon","coordinates":[[[134.3567,34.70907],[134.3317,34.7251],[134.3234,34.71718],[134.3199,34.71845],[134.3193,34.73236],[134.3118,34.73832],[134.3153,34.74528],[134.3172,34.75656],[134.3269,34.76895],[134.3262,34.77153],[134.3191,34.77525],[134.3146,34.78063],[134.3174,34.78677],[134.3148,34.79179],[134.3144,34.79991],[134.3098,34.80189],[134.3036,34.81179],[134.2977,34.8124],[134.2871,34.82068],[134.2845,34.82744],[134.2666,34.8244],[134.2634,34.8255],[134.2605,34.83041],[134.262,34.84096],[134.2601,34.84441],[134.2516,34.85123],[134.2526,34.85684],[134.2578,34.86532],[134.2579,34.87096],[134.2632,34.87453],[134.2611,34.88235],[134.262,34.88526],[134.2665,34.88716],[134.2752,34.89513],[134.2861,34.8991],[134.2923,34.90514],[134.2919,34.90779],[134.2869,34.91135],[134.2814,34.91914],[134.2736,34.92386],[134.2742,34.9282],[134.2726,34.93088],[134.2647,34.93486],[134.2586,34.93281],[134.2529,34.93738],[134.2532,34.94662],[134.2592,34.95327],[134.2642,34.95444],[134.2667,34.95858],[134.2724,34.96211],[134.2735,34.97458],[134.2684,34.97927],[134.2696,34.98401],[134.2721,34.98722],[134.2766,34.98888],[134.2801,34.99468],[134.2781,34.99898],[134.2642,35.00465],[134.2622,35.01113],[134.2633,35.01728],[134.2674,35.02309],[134.2752,35.02664],[134.2806,35.03805],[134.2895,35.03872],[134.2969,35.04432],[134.3041,35.0439],[134.3073,35.04704],[134.3123,35.04834],[134.3133,35.06117],[134.3197,35.07053],[134.3181,35.08421],[134.3333,35.08877],[134.3367,35.09249],[134.3409,35.09112],[134.3483,35.09356],[134.3523,35.10057],[134.3516,35.11359],[134.3568,35.1202],[134.3551,35.1251],[134.3587,35.12899],[134.3613,35.14059],[134.3663,35.14761],[134.3742,35.152],[134.3785,35.15169],[134.383,35.15374],[134.3973,35.15352],[134.4051,35.14975],[134.4108,35.15395],[134.4106,35.15956],[134.4049,35.16591],[134.4109,35.17768],[134.4109,35.18396],[134.408,35.18614],[134.3989,35.1866],[134.3929,35.19068],[134.3822,35.19353],[134.3786,35.21046],[134.3816,35.22251],[134.395,35.22915],[134.4028,35.24223],[134.4235,35.23826],[134.4275,35.23434],[134.4355,35.23089],[134.4436,35.23803],[134.4588,35.23994],[134.4611,35.24508],[134.4793,35.25316],[134.4824,35.26078],[134.4854,35.2636],[134.5002,35.26943],[134.5099,35.27576],[134.512,35.28003],[134.508,35.29392],[134.5107,35.30818],[134.5024,35.31777],[134.5006,35.32633],[134.5034,35.33783],[134.5083,35.34432],[134.509,35.35302],[134.5034,35.35873],[134.5004,35.36516],[134.4887,35.36666],[134.481,35.37204],[134.474,35.37377],[134.4716,35.37708],[134.4703,35.38195],[134.4791,35.40787],[134.4754,35.41417],[134.4762,35.41963],[134.4742,35.42692],[134.4624,35.4352],[134.4523,35.43516],[134.4447,35.44046],[134.439,35.44224],[134.4363,35.45976],[134.4325,35.46592],[134.4353,35.47628],[134.4262,35.49614],[134.4277,35.50465],[134.4181,35.51216],[134.4116,35.51424],[134.4121,35.51847],[134.4185,35.5277],[134.4187,35.53327],[134.4221,35.53943],[134.4197,35.54478],[134.4225,35.55189],[134.4206,35.5587],[134.4147,35.5623],[134.4095,35.56168],[134.4067,35.56458],[134.4038,35.57049],[134.4058,35.57698],[134.4049,35.58711],[134.4015,35.59331],[134.3925,35.59706],[134.3861,35.60234],[134.3812,35.6021],[134.3702,35.60806],[134.3682,35.61535],[134.3443,35.65126],[134.3393,35.66689],[133.9644,36.29653],[135.3913,36.4582],[135.9114,35.76269],[135.5145,35.58004],[135.5013,35.56825],[135.4955,35.55835],[135.4665,35.55022],[135.4624,35.5474],[135.4613,35.54321],[135.4567,35.53831],[135.4516,35.52625],[135.4515,35.52367],[135.4546,35.5197],[135.4774,35.50586],[135.4745,35.49992],[135.4774,35.48897],[135.4719,35.48588],[135.463,35.47691],[135.4608,35.47266],[135.4619,35.46563],[135.4785,35.45132],[135.4868,35.4496],[135.4911,35.44104],[135.4985,35.43856],[135.502,35.43315],[135.499,35.42722],[135.5026,35.42324],[135.5113,35.42578],[135.516,35.42378],[135.5215,35.42399],[135.5267,35.42131],[135.5312,35.41031],[135.5277,35.40133],[135.5313,35.3979],[135.5329,35.39327],[135.5286,35.38525],[135.5299,35.38078],[135.5374,35.37797],[135.5646,35.37892],[135.5716,35.37595],[135.5796,35.37628],[135.5884,35.37006],[135.5956,35.37421],[135.6071,35.3729],[135.6102,35.37086],[135.615,35.37226],[135.6238,35.37113],[135.6362,35.36597],[135.642,35.36821],[135.6522,35.36147],[135.6619,35.35822],[135.6683,35.3583],[135.6771,35.35177],[135.7014,35.34587],[135.7094,35.34906],[135.7125,35.35454],[135.7185,35.3567],[135.7328,35.3522],[135.7379,35.35389],[135.7399,35.35961],[135.7452,35.36022],[135.7576,35.35553],[135.7677,35.35865],[135.7771,35.36819],[135.7783,35.37451],[135.789,35.38092],[135.7902,35.38766],[135.7951,35.38871],[135.8046,35.38639],[135.8069,35.38796],[135.8094,35.40925],[135.8129,35.41435],[135.8197,35.41407],[135.8248,35.41599],[135.8346,35.41354],[135.839,35.41563],[135.8493,35.41217],[135.8536,35.41271],[135.8567,35.40966],[135.8566,35.40153],[135.8585,35.39868],[135.8657,35.3959],[135.8746,35.39863],[135.8898,35.40513],[135.8925,35.41451],[135.8918,35.42024],[135.9015,35.43015],[135.9127,35.433],[135.9131,35.43686],[135.9085,35.44721],[135.9132,35.45201],[135.9158,35.46649],[135.9148,35.47145],[135.9214,35.4804],[135.9211,35.48577],[135.9234,35.49041],[135.93,35.49589],[135.939,35.52155],[135.947,35.52218],[135.9544,35.50827],[135.9623,35.50351],[135.968,35.50408],[135.9727,35.50161],[135.9818,35.49044],[135.9897,35.494],[136.004,35.49311],[136.0093,35.49666],[136.0105,35.50473],[136.014,35.51211],[136.0197,35.51464],[136.0252,35.52339],[136.0261,35.53062],[136.0446,35.53292],[136.0488,35.53579],[136.0609,35.53318],[136.0642,35.52989],[136.0697,35.52828],[136.0747,35.53174],[136.0758,35.53537],[136.0826,35.54183],[136.094,35.53859],[136.0979,35.53542],[136.1034,35.53593],[136.1077,35.54369],[136.1042,35.55548],[136.1088,35.56129],[136.1067,35.56858],[136.1098,35.57204],[136.1111,35.58066],[136.1133,35.58403],[136.1171,35.58323],[136.1206,35.57789],[136.132,35.57603],[136.1389,35.57696],[136.1451,35.5732],[136.1508,35.57419],[136.1641,35.57268],[136.1664,35.57405],[136.1653,35.58311],[136.1739,35.59288],[136.1749,35.59844],[136.1688,35.61216],[136.1587,35.62494],[136.1571,35.638],[136.1502,35.64808],[136.1485,35.65923],[136.1456,35.66172],[136.1359,35.66452],[136.1332,35.66903],[136.1478,35.6902],[136.1499,35.69903],[136.1564,35.70162],[136.1636,35.6998],[136.1682,35.70459],[136.1916,35.70363],[136.1947,35.70113],[136.199,35.6921],[136.2035,35.68909],[136.2088,35.68876],[136.2143,35.68529],[136.2196,35.68566],[136.2266,35.68208],[136.2346,35.68373],[136.2435,35.67688],[136.2504,35.67754],[136.2571,35.67337],[136.2704,35.66965],[136.2816,35.66197],[136.2819,35.65842],[136.2785,35.65332],[136.2838,35.64569],[136.2828,35.63636],[136.2885,35.62857],[136.2898,35.62236],[136.2984,35.61927],[136.3068,35.62374],[136.316,35.62466],[136.3249,35.61686],[136.3196,35.60713],[136.3257,35.58384],[136.324,35.56946],[136.3202,35.56498],[136.3179,35.55671],[136.3196,35.55014],[136.3222,35.54897],[136.3295,35.55206],[136.3372,35.55156],[136.3397,35.54954],[136.3437,35.54022],[136.3523,35.53978],[136.3574,35.5458],[136.3621,35.55979],[136.3731,35.56098],[136.3816,35.546],[136.3814,35.5419],[136.3851,35.53505],[136.3982,35.53314],[136.4011,35.53118],[136.4025,35.52102],[136.4069,35.51329],[136.4044,35.51029],[136.3989,35.50863],[136.3936,35.503],[136.39,35.49659],[136.3888,35.48931],[136.3988,35.48196],[136.4053,35.47077],[136.4148,35.46813],[136.4196,35.46857],[136.4216,35.46675],[136.4225,35.45761],[136.4275,35.44814],[136.4243,35.44363],[136.4242,35.43909],[136.4189,35.43218],[136.42,35.42708],[136.4153,35.42334],[136.4146,35.41933],[136.4214,35.41355],[136.4269,35.40401],[136.4418,35.39472],[136.4456,35.38907],[136.4375,35.37793],[136.427,35.37223],[136.4171,35.37194],[136.4143,35.36941],[136.4153,35.35741],[136.4225,35.3547],[136.4235,35.34825],[136.414,35.32995],[136.4133,35.31465],[136.4089,35.30948],[136.4078,35.30431],[136.3942,35.2901],[136.3972,35.28077],[136.3955,35.26232],[136.3982,35.25751],[136.3925,35.25057],[136.3836,35.24577],[136.3834,35.24175],[136.3864,35.23755],[136.3932,35.23483],[136.3957,35.23067],[136.4013,35.22711],[136.414,35.22122],[136.4205,35.22366],[136.429,35.23],[136.4325,35.23031],[136.4344,35.22874],[136.4361,35.22134],[136.4404,35.21919],[136.447,35.22278],[136.4515,35.22937],[136.4604,35.23666],[136.4658,35.2392],[136.4699,35.23758],[136.4785,35.23772],[136.483,35.24101],[136.4894,35.23824],[136.4965,35.23918],[136.501,35.23661],[136.5056,35.23671],[136.5093,35.24021],[136.5125,35.25091],[136.5156,35.25517],[136.5274,35.25881],[136.5341,35.2584],[136.5382,35.24978],[136.5427,35.24591],[136.5417,35.24055],[136.543,35.23763],[136.5515,35.23374],[136.5501,35.22333],[136.5578,35.22162],[136.5633,35.20803],[136.5764,35.20347],[136.5783,35.19966],[136.5861,35.19535],[136.5865,35.1909],[136.5889,35.18834],[136.5936,35.18736],[136.595,35.18218],[136.6036,35.17849],[136.6072,35.17278],[136.6074,35.16773],[136.6136,35.1601],[136.6169,35.15149],[136.6242,35.14852],[136.6301,35.15148],[136.6425,35.1493],[136.6444,35.15255],[136.6433,35.16263],[136.6454,35.16669],[136.6529,35.16423],[136.6567,35.16184],[136.6699,35.13774],[136.6775,35.13038],[136.6961,35.12552],[136.7145,35.10658],[136.7322,35.09817],[136.7519,35.07982],[136.7546,35.05392],[136.7617,35.0389],[136.7739,35.02473],[136.7722,35.02117],[136.7735,35.01131],[136.767,34.98841],[136.7546,34.97115],[136.7468,34.96644],[136.7412,34.95808],[136.7399,34.9528],[136.7444,34.92169],[136.7255,34.89386],[136.7168,34.86357],[136.7067,34.78797],[136.7079,34.76682],[136.6947,34.73061],[136.7044,34.70884],[136.7346,34.68323],[136.7639,34.65494],[136.8105,34.63137],[136.8386,34.62912],[136.9135,34.6292],[137.6573,34.23304],[135.6704,33.07898],[135.09192339009726,33.34759122816269],[134.9598,33.99869],[134.6579,34.24405],[134.6077,34.32977],[134.6051,34.33656],[134.5965,34.46999],[134.34312026067337,34.64160750105435],[134.3567,34.70907]]]}}
