{"type":"Feature","properties":{"sourceId":"kyushu"},"geometry":{"type":"Polygon","coordinates":[[[129.24311843242867,34.71913256594607],[129.67686750875984,35.02198348597752],[130.12329920422724,34.84353053160781],[130.4455,34.18941],[130.48,34.15666],[130.7942,34.03444],[130.8362,33.98311],[130.8488,33.94042],[130.8971,33.89438],[130.9314,33.90012],[130.9671,33.95125],[131.0046,33.96693],[131.071,33.95959],[131.0879,33.89931],[131.2123,33.76428],[131.3305,33.75455],[131.5735,33.83238],[131.7877,33.80186],[131.8389,33.6679],[131.95375267449367,33.554979510562376],[131.7698,33.46623],[132.0682,33.17536],[132.082,33.1727],[132.1901,32.22959],[132.26914438025466,32.24775383958938],[132.8044,30.62166],[130.9945,21.38691],[124.9144,22.93079],[122.72614770002085,23.741614199259203],[122.59656369246379,24.48165615217465],[129.24311843242867,34.71913256594607]]]}}
