{"type":"Feature","properties":{"sourceId":"kalimantan"},"geometry":{"type":"Polygon","coordinates":[[[119.78482064585388,1.8324920052663856],[119.6576,1.834409],[117.7954,-2.454688],[117.3889,-3.897133],[116.4551,-4.423085],[116.40070518286579,-5.266376438686916],[114.5737,-4.882992],[113.9502,-5.069052],[110.2862,-4.532613],[109.0558,-3.951935],[106.842,-4.932249],[106.75333417987943,-4.977110044746882],[106.5646,-4.167005],[106.2927,-3.165883],[106.1678,-2.980755],[105.8697,-2.873093],[105.8148,-2.649504],[105.6363,-2.344923],[105.5154,-2.301014],[105.0183,-2.24887],[104.9744,-2.125364],[104.9606,-1.557118],[104.9716,-1.073848],[106.1719,-0.318591],[108.056,-0.216977],[108.089,0.497128],[108.2153,1.098568],[108.6575,1.867348],[109.0228,2.185752],[109.3249,2.32023],[109.62132494655198,2.3655192016061855],[109.6603,2.169626],[109.6108,1.996018],[109.543,1.971485],[109.5311,1.923963],[109.5433,1.85362],[109.6539,1.617523],[109.8207,1.417779],[110.0555,1.202915],[110.2657,0.989408],[110.473,0.870634],[110.6055,0.830813],[110.8218,0.891917],[111.1967,1.051883],[111.4041,0.999019],[111.5504,0.931738],[111.823,0.97499],[112.1464,1.124654],[112.2796,1.456219],[112.9635,1.400618],[113.6646,1.198796],[114.2249,1.399932],[114.5901,1.416406],[114.8923,1.91264],[115.2534,2.504772],[115.5954,3.165199],[115.6737,3.43803],[115.638,3.89988],[115.8646,4.247814],[116.4365,4.280681],[116.8417,4.316286],[117.0188,4.308754],[117.2018,4.331862],[117.2432,4.364555],[117.2959,4.303276],[117.3642,4.273148],[117.4574,4.175053],[117.5283,4.158446],[117.5638,4.159302],[117.6193,4.130025],[117.6484,4.163154],[117.9005,4.163754],[117.9595,4.163583],[118.33858504905285,4.0516501774537845],[119.78482064585388,1.8324920052663856]]]}}
