{"type":"Feature","properties":{"sourceId":"kivalliq"},"geometry":{"type":"Polygon","coordinates":[[[-102.0015,64.23337],[-102.9801,64.33634],[-104.3503,64.46837],[-105.0005,64.52616],[-105.0092,64.93866],[-105.0007,65.49595],[-105.0014,65.49629],[-105.0014,65.49672],[-105.0007,65.4975],[-104.9989,65.6136],[-104.9957,65.83734],[-104.995,65.8694],[-104.9929,66.00723],[-104.9894,66.90922],[-104.9921,67.00034],[-85.057,67.00034],[-84.88382,66.89252],[-84.86525,66.88223],[-84.84405,66.87098],[-84.52349,66.69275],[-84.13655,66.47821],[-83.39388,66.04812],[-83.18854,65.9249],[-82.45522,65.48717],[-82.10068,65.2721],[-81.99926,65.21124],[-81.54556,64.92318],[-80.31211,64.10859],[-80.01994,63.91496],[-80.03082,62.9163],[-88.42022,58.28247],[-88.84434,57.99163],[-88.88990764423491,57.953233266082],[-92.84573,60.00528],[-94.79738,60.00845],[-102.00829151607901,60.00448270054979],[-102.0015,64.23337]]]}}
