{"type":"Feature","properties":{"sourceId":"kyrgyzstan"},"geometry":{"type":"Polygon","coordinates":[[[70.85941,42.30131],[70.86233,42.32149],[70.99571,42.59707],[71.17458,42.67613],[71.26556,42.74752],[71.25732,42.77877],[71.36478,42.77373],[71.3792,42.80472],[71.53782,42.80699],[71.86638,42.83947],[72.2866,42.77474],[73.37494,42.53487],[73.53424,43.04481],[73.96683,43.2362],[74.23324,43.2812],[74.59717,43.13907],[74.87251,42.99862],[75.10597,42.90917],[75.29549,42.86514],[75.49461,42.84728],[75.71091,42.80573],[75.81528,42.95391],[75.93956,42.96346],[76.52801,42.93179],[76.84044,42.99109],[77.09656,42.98958],[77.5724,42.94587],[78.50212,42.91017],[79.20799,42.81203],[79.21005,42.69001],[79.70169,42.48982],[79.97841,42.44829],[80.16243,42.29407],[80.18302,42.21835],[80.2771,42.0442],[79.82666,41.88183],[78.33389,41.36341],[77.85049,40.98094],[76.90704,40.98508],[76.59393,40.4668],[76.36322,40.32456],[75.94162,40.27848],[75.66421,40.268],[75.58868,40.59727],[75.38921,40.54603],[75.26184,40.44642],[74.93225,40.34131],[74.36096,40.08175],[74.1172,40.07702],[73.94005,39.88867],[73.93009,39.70573],[73.96271,39.60357],[73.90709,39.46429],[73.66848826911769,39.45436513374056],[73.64685,39.50192],[73.4436,39.4998],[72.59765,39.43195],[71.87118,39.3635],[71.75995,39.48073],[71.51275,39.63108],[70.5336,39.63742],[70.24246,39.58294],[70.11886,39.60198],[69.69795,39.61204],[69.41437,39.58135],[69.36218,39.68764],[69.27773,39.81434],[69.33678,39.87865],[69.36802,39.98343],[69.42844,39.91737],[69.46346,39.91132],[69.49814,39.91474],[69.55101,39.93133],[69.53123,39.96984],[69.53588,39.99514],[69.55753,40.06625],[69.57436,40.10092],[69.67838,40.12035],[69.78825,40.17205],[69.99355,40.22633],[70.16624,40.13663],[70.3458,40.07571],[70.59025,40.01289],[70.47146,39.94765],[70.47661,39.87286],[70.62286,39.76685],[70.76637,39.85916],[70.64621,40.0192],[70.65479,40.09882],[70.78491,40.11694],[70.80414,40.14476],[70.80983,40.17498],[70.82299,40.1797],[70.83134,40.15569],[70.8728,40.16943],[70.89203,40.18648],[70.91228,40.24756],[70.8800423891414,40.236142643970474],[70.89065,40.31933],[71.00326,40.33032],[71.2793,40.35073],[71.37817,40.32194],[71.6748,40.27848],[71.70914,40.2439],[71.72905,40.16891],[71.83617,40.26224],[71.88217,40.26957],[72.02431,40.28267],[71.94878,40.31618],[72.0813,40.45531],[72.174,40.50284],[72.25227,40.49083],[72.40265,40.42291],[72.37106,40.51067],[72.33398,40.60926],[72.41569,40.62803],[72.48093,40.56233],[72.69173,40.60249],[72.75627,40.6848],[72.84897,40.71864],[72.87231,40.7133],[72.89703,40.72202],[72.94304,40.7401],[72.99265,40.76962],[73.0711,40.77378],[73.13805,40.83381],[73.00793,40.83511],[72.98269,40.82394],[72.97342,40.81602],[72.96209,40.80147],[72.93703,40.79757],[72.8912,40.81329],[72.81704,40.84394],[72.68623,40.84239],[72.55852,40.86939],[72.54822,40.94412],[72.47543,40.96849],[72.37415,41.03171],[72.34754,41.05256],[72.33038,41.03197],[72.29313,41.02394],[72.26154,41.00154],[72.16833,40.98495],[72.1479,41.01812],[72.19906,41.03715],[72.18224,41.09876],[72.14447,41.12359],[72.13589,41.15384],[72.06894,41.11299],[72.01023,41.13885],[71.93882,41.14221],[71.84578,41.17555],[71.89522,41.30102],[71.83136,41.35723],[71.78879,41.41338],[71.69163,41.41441],[71.693,41.44839],[71.70982,41.49469],[71.72012,41.53146],[71.693,41.52143],[71.66828,41.48955],[71.60854,41.47669],[71.67103,41.45199],[71.68407,41.43012],[71.68236,41.41158],[71.65318,41.35903],[71.63635,41.33712],[71.5694,41.28942],[71.464,41.28503],[71.46572,41.20733],[71.45954,41.15462],[71.39774,41.09953],[71.26659,41.0954],[71.2587,41.17271],[71.11931,41.13807],[70.94627,41.16444],[70.77599,41.18434],[70.69427,41.4314],[70.48691,41.38763],[70.14633,41.51423],[70.19852,41.6252],[70.47386,41.74417],[70.53429,41.82762],[70.86113,42.06459],[71.22986,42.17664],[71.06644,42.27223],[71.00326,42.24377],[70.94022,42.2592],[70.88413,42.25876],[70.85941,42.30131]]]}}
