{"type":"Feature","properties":{"sourceId":"kitikmeot"},"geometry":{"type":"Polygon","coordinates":[[[-109.3442,64.82383],[-110.6735,65.4862],[-112.511,65.48905],[-114.2908,66.11829],[-116.5155,66.81139],[-119.6246,67.70528],[-120.6999,67.99857],[-120.737,69.57386],[-116.7242,69.66091],[-117.1912,69.88879],[-117.1472,70.02622],[-112.8653,70.00932],[-112.8543,69.88595],[-112.5192,69.88501],[-112.5247,70.01214],[-110.0501,70.02059],[-110.0346,73.93262],[-110.0023,73.93962],[-109.8323,73.93416],[-109.1341,73.9025],[-107.9998,73.84696],[-107.7893,73.83599],[-106.3086,73.75301],[-105.7332,73.71335],[-104.9575,73.65746],[-103.9998,73.58491],[-103.7996,73.56916],[-102.4301,73.45276],[-102.0321,73.42512],[-101.5075,73.3632],[-100.8592,73.28702],[-100.7638,73.27542],[-100.6855,73.26619],[-100.1338,73.19628],[-99.5169,73.1158],[-98.74553,73.01364],[-98.04442,72.9147],[-97.32786,72.81009],[-96.87957,72.74287],[-96.05397,72.61529],[-95.07641,72.45879],[-94.47988,72.35928],[-94.41887,72.34914],[-94.36953,72.34087],[-93.88224,72.25958],[-93.18857,72.14007],[-92.42107,72.00024],[-91.99922,71.77638],[-91.55162,71.53199],[-90.56233,70.96353],[-89.57196,70.33938],[-88.9963,69.95875],[-89.01903,68.77402],[-89.01554,68.25814],[-88.98891,67.08876],[-88.98447956297045,67.00034],[-104.9921,67.00034],[-104.9894,66.90922],[-104.9929,66.00723],[-104.995,65.8694],[-104.9957,65.83734],[-104.9989,65.6136],[-105.0007,65.4975],[-105.0014,65.49672],[-105.0014,65.49629],[-105.0007,65.49595],[-105.0092,64.93866],[-105.0005,64.52616],[-104.99981333645376,64.52609896910745],[-105.1042,64.51803],[-107.471,64.70615],[-109.3442,64.82383]]]}}
