{"type":"Feature","properties":{"sourceId":"kenya"},"geometry":{"type":"Polygon","coordinates":[[[39.18247,-4.666283],[37.80575,-3.697491],[37.73255,-3.54436],[37.67749,-3.514591],[37.60113,-3.526851],[37.59481,-3.50489],[37.61706,-3.466309],[37.58902,-3.466014],[37.58274,-3.435823],[37.70528,-3.294827],[37.65588,-3.061349],[37.47617,-2.945053],[34.13159,-1.059321],[34.08105,-1.033564],[34.03811,-1.055757],[33.8679,-1.05264],[33.86937656623296,-1.0010806292358954],[33.93398,-1.000635],[33.93535,-0.902215],[33.93351,-0.461764],[33.98766,-0.133123],[33.9211,0.105027],[34.01024,0.232601],[34.04423,0.274486],[34.06878,0.317915],[34.08268,0.327872],[34.10139,0.344522],[34.11221,0.372503],[34.10294,0.416619],[34.09246,0.45507],[34.12182,0.482363],[34.12474,0.518239],[34.14053,0.576773],[34.18774,0.602864],[34.2025,0.617969],[34.23683,0.623634],[34.27958,0.636164],[34.28696,0.676159],[34.31717,0.694353],[34.31751,0.757691],[34.36386,0.771938],[34.41708,0.803349],[34.45158,0.859305],[34.58359,1.090671],[34.79894,1.213853],[34.8391,1.263673],[34.83856,1.312896],[34.85294,1.452184],[34.95491,1.575435],[35.00035,1.660233],[35.01031,1.758687],[35.01,1.964455],[34.96362,2.476295],[34.90193,2.59876],[34.78631,2.701368],[34.78491,2.790833],[34.55351,3.14292],[34.46071,3.51324],[34.4723,3.67369],[34.37691,3.741163],[34.25114,3.792202],[34.23445,3.825652],[34.2203,3.889673],[34.14436,3.963709],[34.10138,4.063438],[34.07562,4.145161],[34.05624,4.183782],[33.99256496886543,4.245704252095183],[34.38182,4.618229],[35.93478,4.629931],[35.95347,4.622969],[35.96528,4.538585],[36.04455,4.457186],[36.84761,4.45683],[37.00668,4.386769],[37.05432,4.381288],[37.13302,4.301996],[37.92514,3.779325],[38.01457,3.734548],[38.13043,3.61947],[38.19129,3.62986],[38.44727,3.612015],[38.50862,3.655135],[38.54018,3.664185],[38.69054,3.633228],[38.7235,3.579578],[38.90843,3.522163],[38.96855,3.541054],[39.05256,3.530968],[39.08943,3.549083],[39.19904,3.486865],[39.32809,3.510046],[39.49843,3.473596],[39.58162,3.491503],[39.76499,3.6708],[39.86359,3.88274],[40.18868,4.053372],[40.38423,4.115362],[40.77223,4.291551],[40.84972,4.254533],[40.8903,4.218941],[40.91231,4.161597],[40.97195,4.139333],[41.11009,3.997382],[41.1752,3.951409],[41.23587,3.968869],[41.54413,3.992087],[41.71928,4.002374],[41.89197,3.991308],[41.90774,3.983222],[41.86827,3.906646],[41.32019,3.135424],[40.99919,2.824157],[41.00874,-0.221328],[40.99651,-0.501965],[41.01146,-0.827049],[41.56696,-1.592643],[41.97685,-2.038167],[40.02914,-4.806093],[40.01893,-4.816276],[39.30991,-4.809815],[39.18247,-4.666283]]]}}
