{"type":"Feature","properties":{"sourceId":"kootenay-admreg"},"geometry":{"type":"Polygon","coordinates":[[[-116.3782,51.55146],[-116.2824,51.46278],[-116.269,51.35334],[-116.1485,51.29885],[-116.0009,51.22538],[-115.9882,51.14209],[-115.7492,51.07549],[-115.6905,51.03384],[-115.629,50.98761],[-115.5518,50.89221],[-115.6153,50.86708],[-115.4364,50.76296],[-115.3156,50.73233],[-115.2095,50.55969],[-115.1477,50.58934],[-115.0172,50.59457],[-114.9101,50.47149],[-114.7515,50.3586],[-114.7179,50.19536],[-114.654,50.07169],[-114.6389,49.96226],[-114.6825,49.92249],[-114.63,49.82337],[-114.6224,49.73158],[-114.6554,49.64007],[-114.7161,49.5958],[-114.5668,49.56887],[-114.5881,49.45206],[-114.5757,49.3998],[-114.5215,49.38371],[-114.4679,49.34392],[-114.3923,49.26202],[-114.2218,49.19382],[-114.2089,49.17725],[-114.159,49.15943],[-114.1451,49.14515],[-114.0776,49.06448],[-114.049,49.0233],[-114.0679,48.99482],[-114.1499,48.99487],[-119.29509996547486,48.99463055844417],[-119.2943,49.00757],[-119.3003,49.00793],[-119.2995,49.08084],[-119.2868,49.08848],[-119.2875,49.09748],[-119.2645,49.11119],[-119.2779,49.1341],[-119.2583,49.14534],[-119.2504,49.1624],[-119.2113,49.19427],[-119.1804,49.2019],[-119.1704,49.21827],[-119.2085,49.22388],[-119.2329,49.24405],[-119.2106,49.27968],[-119.1742,49.29737],[-119.1684,49.3099],[-119.2023,49.32333],[-119.1979,49.34548],[-119.2508,49.34727],[-119.236,49.37053],[-119.2408,49.38126],[-119.2847,49.39086],[-119.2981,49.38707],[-119.2978,49.50158],[-119.2995,49.52298],[-119.3091,49.53323],[-119.3301,49.55528],[-119.3393,49.60248],[-119.3462,49.63273],[-119.3668,49.6598],[-119.3713,49.67724],[-119.3255,49.6949],[-119.3,49.70672],[-119.2905,49.71782],[-119.2579,49.7368],[-119.211,49.74467],[-119.1984,49.75283],[-119.1974,49.7572],[-119.1646,49.75709],[-119.1514,49.7633],[-119.1512,49.78686],[-119.1514,49.82314],[-119.1272,49.82337],[-119.1193,49.80127],[-119.1118,49.79628],[-119.0701,49.79113],[-119.0414,49.81107],[-118.2816,49.80875],[-118.3712,49.83931],[-118.3482,49.89729],[-118.4014,49.93133],[-118.4072,49.97397],[-118.4309,50.03024],[-118.3966,50.032],[-118.39,50.07212],[-118.2925,50.09394],[-118.2452,50.16634],[-118.2266,50.20679],[-118.2671,50.27267],[-118.239,50.30074],[-118.2531,50.3402],[-118.2908,50.3448],[-118.2843,50.37963],[-118.2517,50.39911],[-118.263,50.43324],[-118.2033,50.4316],[-118.2013,50.4622],[-118.2162,50.47127],[-118.2097,50.47723],[-118.1892,50.47521],[-118.1645,50.49727],[-118.1899,50.50819],[-118.2036,50.54376],[-118.1789,50.55053],[-118.1593,50.59021],[-118.1598,50.61266],[-118.1885,50.64783],[-118.1693,50.6703],[-118.2112,50.67976],[-118.2064,50.68417],[-118.1229,50.67829],[-118.0792,50.687],[-118.0768,50.66589],[-118.0436,50.64772],[-117.9889,50.52674],[-117.8481,50.52554],[-117.7734,50.54398],[-117.6785,50.53023],[-117.637,50.53231],[-117.5561,50.48253],[-117.5108,50.45849],[-117.4526,50.47619],[-117.3355,50.48263],[-117.2748,50.50349],[-117.2178,50.51517],[-117.2749,50.56874],[-117.2145,50.64717],[-117.267,50.66894],[-117.2403,50.73939],[-117.2634,50.74992],[-117.3113,50.73841],[-117.3551,50.72418],[-117.3771,50.71059],[-117.3827,50.76643],[-117.4471,50.82448],[-117.4557,50.84898],[-117.4808,50.87932],[-117.4919,50.88268],[-117.4809,51.74489],[-116.9769,51.75679],[-116.8259,51.77209],[-116.86212979876159,51.804899450592636],[-116.7401,51.85325],[-116.6679,51.82899],[-116.3782,51.55146]]]}}
