{"type":"Feature","properties":{"sourceId":"koeln-regbez"},"geometry":{"type":"Polygon","coordinates":[[[7.761841,50.90152],[7.767508,50.85714],[7.765274,50.8441],[7.757635,50.84242],[7.731972,50.84627],[7.702103,50.82491],[7.680387,50.81911],[7.669315,50.81738],[7.680302,50.81006],[7.677812,50.80349],[7.684336,50.79411],[7.678671,50.78065],[7.67292,50.78038],[7.669873,50.78404],[7.660861,50.78125],[7.660818,50.77829],[7.663994,50.77259],[7.655883,50.76746],[7.641892,50.76811],[7.617044,50.76882],[7.599449,50.76328],[7.596574,50.75028],[7.595372,50.74205],[7.582197,50.73703],[7.561595,50.74014],[7.437903,50.7075],[7.388467,50.71191],[7.370077,50.70694],[7.373692,50.67853],[7.360635,50.64851],[7.347663,50.63835],[7.257242,50.62349],[7.237244,50.62698],[7.218704,50.62616],[7.216473,50.62246],[7.21055,50.62235],[7.208576,50.64848],[7.201281,50.64788],[7.196903,50.64396],[7.192612,50.62333],[7.152822,50.59965],[7.099322,50.58343],[7.071425,50.58628],[7.050641,50.60038],[7.009857,50.56847],[6.977052,50.55437],[6.931005,50.55471],[6.933425,50.53289],[6.898372,50.52132],[6.916494,50.47739],[6.876765,50.45304],[6.84856,50.45295],[6.783472,50.48556],[6.761488,50.47508],[6.769221,50.45187],[6.747505,50.44119],[6.770454,50.43623],[6.786554,50.41969],[6.776287,50.39235],[6.81458,50.3617],[6.697962,50.33496],[6.672748,50.36469],[6.643647,50.34209],[6.618295,50.35203],[6.620609,50.37182],[6.571805,50.37275],[6.519055,50.35537],[6.485823,50.3373],[6.450691,50.33297],[6.446915,50.33878],[6.455498,50.35871],[6.42889,50.36156],[6.414127,50.36616],[6.404514,50.35849],[6.42786,50.33461],[6.430778,50.32431],[6.427049,50.32088],[6.40254,50.32185],[6.394689,50.32397],[6.402186,50.32711],[6.399327,50.33692],[6.396627,50.34639],[6.362936,50.35697],[6.337723,50.38013],[6.363654,50.40931],[6.360779,50.4186],[6.374302,50.43625],[6.373652,50.44904],[6.34972,50.45055],[6.339886,50.45454],[6.334259,50.47205],[6.338218,50.483],[6.339727,50.48684],[6.322428,50.49096],[6.308874,50.49872],[6.299009,50.49495],[6.281974,50.49713],[6.270893,50.50049],[6.265073,50.49642],[6.252165,50.4975],[6.250108,50.50007],[6.235855,50.49586],[6.229808,50.49148],[6.221242,50.4934],[6.192473,50.51962],[6.184153,50.52774],[6.194955,50.53408],[6.174865,50.53959],[6.174841,50.55248],[6.168355,50.55667],[6.18861,50.56833],[6.197883,50.57016],[6.203311,50.57832],[6.217025,50.58289],[6.222743,50.59348],[6.239362,50.58977],[6.24372,50.59864],[6.242704,50.60384],[6.253477,50.61014],[6.264146,50.61852],[6.26347,50.62508],[6.238735,50.6219],[6.216819,50.62796],[6.195948,50.63047],[6.1841,50.62119],[6.173729,50.62284],[6.171396,50.62769],[6.178642,50.63119],[6.161982,50.6443],[6.178072,50.6474],[6.178174,50.65128],[6.16186,50.66052],[6.118795,50.70633],[6.120466,50.71143],[6.112047,50.72004],[6.094494,50.7183],[6.066684,50.72084],[6.045546,50.72501],[6.043208,50.71714],[6.037657,50.7169],[6.030778,50.72465],[6.03197,50.73467],[6.03764,50.74453],[6.031166,50.74752],[6.027889,50.74607],[6.025009,50.7471],[6.025047,50.74938],[6.019201,50.75195],[6.019160500137302,50.75208620977536],[6.023293,50.75234],[6.02171,50.7626],[6.029923,50.77613],[5.978653,50.8011],[5.985312,50.8073],[6.004115,50.7985],[6.027036,50.8119],[6.028167,50.8286],[6.019818,50.83384],[6.02101,50.84336],[6.05388,50.85307],[6.05545,50.84833],[6.076394,50.84452],[6.079903,50.85881],[6.091101,50.87233],[6.08925,50.881],[6.079201,50.89081],[6.080364,50.89836],[6.097096,50.92128],[6.05837,50.92471],[6.051754,50.93277],[6.020674,50.93729],[6.019548,50.95396],[6.012523,50.9573],[6.029409,50.97982],[6.027451,50.98612],[5.981279,50.98622],[5.967899,50.98238],[5.955096,50.99142],[5.89949,50.97778],[5.906599,50.98633],[5.9083,51.00329],[5.898569,51.00687],[5.897435,51.01349],[5.8819,51.01923],[5.878007,51.0284],[5.880831,51.03865],[5.86979,51.04862],[5.893022,51.05031],[5.913405,51.06338],[5.93646,51.03263],[5.958617,51.03185],[5.971765,51.04522],[5.973847,51.05961],[5.999214,51.08158],[6.038192,51.094],[6.061897,51.11335],[6.088709,51.12214],[6.093797,51.13176],[6.126782,51.14171],[6.164554,51.14595],[6.177587,51.15639],[6.177047,51.16098],[6.147734,51.17298],[6.176796009852886,51.182422827484],[6.207316,51.16613],[6.20854,51.1675],[6.211346,51.16597],[6.218312,51.1685],[6.222924,51.17257],[6.225008,51.17199],[6.23011,51.17508],[6.229976,51.17671],[6.240748,51.1855],[6.248738,51.1865],[6.250954,51.18899],[6.259887,51.18631],[6.262104,51.18547],[6.267063,51.17934],[6.269813,51.17994],[6.277884,51.178],[6.281551,51.17465],[6.292336,51.17395],[6.293662,51.16682],[6.304941,51.16445],[6.304914,51.16188],[6.300954,51.15534],[6.301488,51.15129],[6.308403,51.15167],[6.31819,51.14958],[6.318642,51.14729],[6.322569,51.14386],[6.331158,51.1418],[6.331159,51.13587],[6.333028,51.13369],[6.345672,51.13047],[6.343263,51.12799],[6.343653,51.12667],[6.354133,51.12569],[6.349315,51.12023],[6.350654,51.11678],[6.348438,51.11472],[6.348613,51.11211],[6.353409,51.1098],[6.350575,51.10782],[6.351308,51.10631],[6.349933,51.10476],[6.352751,51.10267],[6.351313,51.10067],[6.357386,51.09762],[6.363672,51.09155],[6.372802,51.09775],[6.38682,51.09676],[6.391324,51.09783],[6.390185,51.09423],[6.385867,51.09331],[6.384806,51.08943],[6.396847,51.09069],[6.397357,51.08905],[6.405413,51.08539],[6.408247,51.08747],[6.416015,51.0884],[6.417987,51.0853],[6.42338,51.08496],[6.449716,51.08917],[6.450659,51.08047],[6.453553,51.07959],[6.449873,51.07756],[6.449437,51.07473],[6.450681,51.07384],[6.446998,51.06918],[6.443403,51.06817],[6.446517,51.06192],[6.449796,51.06221],[6.451894,51.05895],[6.45987,51.06045],[6.47129,51.05696],[6.473191,51.05801],[6.475735,51.05609],[6.458608,51.04375],[6.458803,51.04221],[6.480581,51.03337],[6.485255,51.04175],[6.492458,51.04662],[6.518551,51.05732],[6.52237,51.05514],[6.526701,51.05754],[6.534142,51.05842],[6.537298,51.0513],[6.543706,51.05111],[6.545518,51.05284],[6.548642,51.05302],[6.555683,51.05125],[6.550124,51.04837],[6.552343,51.04117],[6.552006,51.03872],[6.550019,51.03759],[6.550143,51.03382],[6.555607,51.03274],[6.556017,51.03118],[6.562229,51.02984],[6.563604,51.03075],[6.568606,51.02871],[6.572069,51.02098],[6.576879,51.02217],[6.577754,51.02035],[6.579826,51.02137],[6.581152,51.0207],[6.581345,51.01756],[6.585236,51.01893],[6.592283,51.02172],[6.60809,51.02047],[6.621949,51.02387],[6.634107,51.02388],[6.637303,51.02568],[6.640687,51.02415],[6.638894,51.02348],[6.63914,51.02211],[6.645849,51.01997],[6.650381,51.021],[6.657524,51.01882],[6.659398,51.02031],[6.673539,51.01499],[6.677581,51.01907],[6.704088,51.01687],[6.715787,51.01422],[6.718617,51.01546],[6.730039,51.03102],[6.734934,51.03195],[6.743899,51.03649],[6.743778,51.03786],[6.741057,51.03857],[6.744435,51.04315],[6.743739,51.0452],[6.75104,51.03905],[6.762689,51.042],[6.758521,51.05774],[6.753241,51.06083],[6.754035,51.06477],[6.765351,51.06354],[6.77293,51.06452],[6.773871,51.0632],[6.786849,51.06777],[6.789958,51.06691],[6.791518,51.06379],[6.79809,51.05878],[6.799974,51.05878],[6.800333,51.05495],[6.805576,51.0464],[6.813924,51.04506],[6.813879,51.04879],[6.817704,51.053],[6.83454,51.05941],[6.832308,51.06665],[6.826475,51.07403],[6.838901,51.07718],[6.838712,51.07961],[6.844588,51.08093],[6.844472,51.08316],[6.847868,51.0839],[6.852161,51.08333],[6.853527,51.07772],[6.85944,51.07315],[6.886012,51.06795],[6.897652,51.06386],[6.902573,51.0677],[6.905164,51.06727],[6.916909,51.07798],[6.923936,51.07232],[6.930226,51.07958],[6.933021,51.07927],[6.942033,51.07067],[6.947369,51.07093],[6.951265,51.0691],[6.952422,51.07107],[6.957591,51.06991],[6.958873,51.07131],[6.959657,51.06945],[6.962294,51.06985],[6.964509,51.06793],[6.969028,51.06955],[6.974644,51.06664],[6.989119,51.07358],[6.989154,51.1067],[6.990524,51.10847],[6.995877,51.10892],[6.99617,51.11234],[7.001474,51.11472],[6.9991,51.1191],[7.004065,51.12218],[7.012543,51.12297],[7.02555,51.12929],[7.04331,51.13132],[7.055893,51.12424],[7.059354,51.12394],[7.062413,51.12651],[7.074025,51.12514],[7.078226,51.12753],[7.075522,51.13355],[7.076502,51.13535],[7.082757,51.13732],[7.086284,51.13476],[7.095683,51.13258],[7.097557,51.13393],[7.097139,51.13772],[7.102791,51.13602],[7.108771,51.13695],[7.111059,51.13308],[7.117037,51.13144],[7.117193,51.12749],[7.115675,51.12456],[7.119781,51.12159],[7.127756,51.12057],[7.130608,51.11717],[7.135693,51.11599],[7.13942,51.11927],[7.140536,51.11735],[7.144224,51.11807],[7.143579,51.11477],[7.148231,51.11333],[7.155032,51.1183],[7.177949,51.12484],[7.175811,51.12908],[7.169853,51.12776],[7.168658,51.12987],[7.165456,51.12933],[7.166509,51.13249],[7.161137,51.1336],[7.170521,51.13876],[7.168282,51.1413],[7.168091,51.14537],[7.164027,51.14649],[7.16596,51.15276],[7.170335,51.15135],[7.177245,51.15308],[7.179293,51.15193],[7.182647,51.15254],[7.185056,51.15476],[7.189938,51.15245],[7.191662,51.15354],[7.198268,51.15019],[7.205247,51.15519],[7.211831,51.15434],[7.213604,51.15685],[7.21966,51.16011],[7.223418,51.15775],[7.226891,51.15835],[7.233596,51.15646],[7.250114,51.1577],[7.25436,51.15623],[7.254312,51.15434],[7.256764,51.15283],[7.256117,51.15099],[7.259633,51.14836],[7.260154,51.1462],[7.268317,51.14442],[7.270511,51.14543],[7.279869,51.1427],[7.287429,51.14296],[7.296044,51.14765],[7.297831,51.15151],[7.296262,51.1533],[7.296741,51.15589],[7.294952,51.15767],[7.29579,51.15884],[7.294533,51.16114],[7.301928,51.16438],[7.301837,51.16621],[7.300169,51.16722],[7.303583,51.17089],[7.303075,51.17272],[7.306265,51.1778],[7.306144,51.18011],[7.309963,51.1826],[7.308134,51.18718],[7.309875,51.18855],[7.308793,51.19021],[7.306416,51.19011],[7.302961,51.18648],[7.299747,51.18667],[7.306695,51.19453],[7.305238,51.19666],[7.299475,51.19686],[7.299741,51.19886],[7.297949,51.20086],[7.299837,51.20463],[7.296864,51.20497],[7.302322,51.2102],[7.299312,51.21535],[7.29999,51.21761],[7.297472,51.21964],[7.300899,51.22081],[7.300202,51.22371],[7.301254,51.22538],[7.310921,51.23007],[7.314306,51.23451],[7.310024,51.23673],[7.308795,51.23612],[7.306729,51.24154],[7.305372221342853,51.242343630435386],[7.312882,51.24726],[7.320621,51.24637],[7.327058,51.25196],[7.333714,51.253],[7.340351,51.24898],[7.341102,51.2417],[7.347076,51.24351],[7.353153,51.24157],[7.354464,51.24511],[7.374311,51.24947],[7.380863,51.24419],[7.388924,51.24883],[7.393572,51.24826],[7.40536,51.24156],[7.404899,51.2366],[7.398647,51.23129],[7.408578,51.22238],[7.410255,51.22828],[7.418146,51.23126],[7.43172,51.22632],[7.433166,51.21739],[7.436319,51.21433],[7.432649,51.21184],[7.430766,51.20197],[7.421348,51.19891],[7.423997,51.18923],[7.428415,51.18839],[7.430011,51.18392],[7.43821,51.18234],[7.442524,51.16976],[7.457704,51.16159],[7.477742,51.1676],[7.480962,51.16626],[7.481654,51.1621],[7.474165,51.15454],[7.476006,51.15016],[7.473769,51.14713],[7.477919,51.14286],[7.483385,51.14252],[7.490154,51.13007],[7.492527,51.12881],[7.502627,51.13281],[7.506721,51.1286],[7.506626,51.1164],[7.498832,51.1076],[7.522979,51.10321],[7.583104,51.10898],[7.607371,51.10029],[7.609353,51.09605],[7.603593,51.08798],[7.604575,51.08301],[7.611217,51.08219],[7.626534,51.07138],[7.638769,51.07697],[7.647714,51.07575],[7.684381,51.08458],[7.689437,51.08867],[7.701322,51.08109],[7.709721,51.07899],[7.716153,51.07251],[7.708501,51.06711],[7.70674,51.06243],[7.713083,51.05486],[7.723133,51.05258],[7.72699,51.04556],[7.733322,51.04203],[7.735673,51.03292],[7.73352,51.02889],[7.737963,51.02434],[7.729303,51.01205],[7.72836,50.99937],[7.742936,50.99061],[7.744634,50.98371],[7.749443,50.98042],[7.768339,50.98307],[7.78331,50.98095],[7.78841,50.96705],[7.786921,50.96205],[7.794411,50.95346],[7.787407,50.94805],[7.790868,50.94489],[7.788444,50.93858],[7.78842,50.93324],[7.746949,50.91667],[7.761841,50.90152]]]}}
