{"type":"Feature","properties":{"sourceId":"kaliningrad"},"geometry":{"type":"Polygon","coordinates":[[[22.57373,55.0707],[22.58929,55.07125],[22.59281,55.06052],[22.59191,55.05289],[22.59809,55.04645],[22.59838,55.04519],[22.5982,55.03689],[22.59559,55.0332],[22.59788,55.02428],[22.60285,55.02063],[22.60413,55.01434],[22.61438,55.01369],[22.61633,55.01031],[22.62565,55.00496],[22.62926,54.99805],[22.62865,54.99537],[22.63583,54.99015],[22.63742,54.98546],[22.64381,54.98472],[22.64469,54.98189],[22.64242,54.97825],[22.64292,54.97233],[22.64459,54.97077],[22.65312,54.966],[22.65749,54.9688],[22.66102,54.96553],[22.66329,54.96543],[22.66545,54.96859],[22.66283,54.97068],[22.66353,54.97411],[22.65837,54.97915],[22.65858,54.98249],[22.67052,54.9891],[22.67842,54.98844],[22.68844,54.98135],[22.69059,54.97244],[22.69529,54.9716],[22.701,54.97458],[22.70741,54.9745],[22.7075,54.97447],[22.71399,54.9687],[22.72669,54.96402],[22.73063,54.95978],[22.72909,54.95506],[22.73421,54.94809],[22.74122,54.9454],[22.74313,54.93999],[22.76279,54.93865],[22.76708,54.93616],[22.7675,54.93202],[22.7553,54.92842],[22.75045,54.92474],[22.75504,54.91945],[22.76158,54.91789],[22.76839,54.92436],[22.7833,54.92579],[22.78951,54.92045],[22.78868,54.91391],[22.79011,54.91144],[22.78888,54.90859],[22.79373,54.9046],[22.79921,54.90348],[22.8021,54.90699],[22.80934,54.91085],[22.8205,54.91298],[22.8266,54.90732],[22.83639,54.90473],[22.83715,54.89974],[22.84199,54.90005],[22.84701,54.8981],[22.8484,54.89162],[22.853,54.89053],[22.85639,54.88665],[22.85519,54.8843],[22.84887,54.88039],[22.84509,54.87508],[22.84112,54.86409],[22.84402,54.86213],[22.84841,54.86233],[22.85967,54.85909],[22.86963,54.85399],[22.87006,54.85016],[22.86547,54.84835],[22.86497,54.84539],[22.86061,54.8424],[22.86019,54.8394],[22.87594,54.83501],[22.87761,54.833],[22.88099,54.82537],[22.87724,54.82053],[22.88121,54.81696],[22.88555,54.81656],[22.88747,54.81468],[22.88615,54.81067],[22.87879,54.8107],[22.87457,54.80523],[22.87579,54.79988],[22.87311,54.79697],[22.87886,54.79367],[22.87875,54.79026],[22.87204,54.78758],[22.8607,54.78733],[22.85481,54.78878],[22.85202,54.78472],[22.85931,54.77928],[22.86024,54.77678],[22.85033,54.77415],[22.85041,54.77084],[22.8445,54.76593],[22.8317,54.76818],[22.82625,54.76303],[22.82126,54.76574],[22.81399,54.7655],[22.81334,54.76185],[22.80999,54.76036],[22.80854,54.7573],[22.81477,54.75772],[22.81674,54.75533],[22.81252,54.75096],[22.8082,54.75108],[22.80766,54.74715],[22.79928,54.74658],[22.79494,54.75189],[22.78728,54.751],[22.78608,54.749],[22.78259,54.74807],[22.77853,54.74927],[22.77471,54.74704],[22.77123,54.74033],[22.76747,54.73715],[22.75025,54.72966],[22.74682,54.73053],[22.74451,54.72874],[22.7468,54.72517],[22.74117,54.71842],[22.74413,54.71393],[22.74894,54.71283],[22.74985,54.70597],[22.74107,54.70175],[22.74013,54.69814],[22.73629,54.69684],[22.73337,54.69762],[22.73077,54.69582],[22.73056,54.6921],[22.72773,54.68974],[22.727,54.68542],[22.73084,54.68037],[22.73841,54.68038],[22.73832,54.67689],[22.74131,54.67466],[22.73936,54.66974],[22.73279,54.6687],[22.73273,54.6668],[22.73756,54.66532],[22.74128,54.66009],[22.75612,54.65535],[22.75816,54.65291],[22.75511,54.6467],[22.7461,54.64611],[22.74396,54.6437],[22.75131,54.63899],[22.7496,54.63036],[22.74592,54.62589],[22.72859,54.62227],[22.72628,54.61809],[22.72278,54.61667],[22.72293,54.61088],[22.7207,54.60588],[22.70611,54.6019],[22.69833,54.59378],[22.68656,54.58984],[22.68488,54.58593],[22.68595,54.58169],[22.69999,54.5771],[22.70252,54.56938],[22.71474,54.56366],[22.70756,54.55937],[22.7037,54.55321],[22.69512,54.54971],[22.69256,54.54147],[22.68622,54.53838],[22.68174,54.53337],[22.6847,54.52987],[22.68315,54.52433],[22.68537,54.51921],[22.69174,54.51605],[22.6948,54.51038],[22.70016,54.50736],[22.69743,54.50435],[22.69889,54.49305],[22.6978,54.48992],[22.70323,54.47641],[22.70508,54.46718],[22.70296,54.45406],[22.73706,54.44368],[22.76799,54.38564],[22.78947,54.36986],[22.78999,54.36904],[22.79234,54.36241],[22.68078,54.35924],[22.66079,54.35462],[22.64432,54.35303],[22.64042,54.35287],[22.61644,54.35466],[22.59651,54.35259],[22.57153,54.35287],[22.52981,54.34834],[22.52506,54.34814],[22.44713,54.34768],[22.43415,54.34532],[22.4216,54.34742],[22.3826,54.34368],[22.33089,54.34231],[22.32853,54.34346],[22.32097,54.34224],[22.31866,54.33968],[22.31617,54.33958],[22.23854,54.34071],[22.23182,54.3393],[22.22889,54.3396],[22.22489,54.34267],[22.17963,54.33624],[22.01005,54.33521],[21.96982,54.33168],[21.91361,54.3327],[21.85088,54.33028],[21.7967,54.33078],[21.67714,54.32586],[21.63531,54.32641],[21.57929,54.32462],[21.57408,54.32432],[21.57022,54.32104],[21.55335,54.32186],[21.55115,54.3241],[21.53041,54.32447],[21.49571,54.32301],[21.44632,54.31723],[21.43673,54.32514],[21.43377,54.32585],[21.41422,54.32522],[21.39351,54.32691],[21.37934,54.33005],[21.32359,54.32834],[21.30276,54.33252],[21.27463,54.32744],[21.26129,54.32814],[21.19675,54.33678],[21.16386,54.33633],[21.14291,54.34155],[21.09871,54.34575],[21.03805,54.3476],[21.00708,54.35256],[20.958,54.35369],[20.951,54.35611],[20.92585,54.35543],[20.8484,54.35969],[20.81841,54.35901],[20.74066,54.36829],[20.71735,54.36815],[20.69266,54.37112],[20.64841,54.37019],[20.63116,54.36532],[20.61685,54.37153],[20.58423,54.37691],[20.48952,54.38191],[20.40402,54.3918],[20.36127,54.39483],[20.33225,54.40006],[20.22098,54.40776],[20.06933,54.42113],[20.00725,54.42375],[19.81214,54.44127],[19.72929,54.44566],[19.647,54.45231],[19.62365,54.46356],[19.40837,54.61169],[19.50858,54.68355],[19.58461,54.77262],[19.57351,54.86918],[19.58918,54.95461],[19.63488,55.02533],[19.72775,55.10661],[19.82198,55.14569],[19.9205,55.16401],[20.20131,55.16615],[20.39793,55.18633],[20.65365,55.3899],[20.92965,55.29541],[20.95382,55.28185],[20.98373,55.27865],[21.09855,55.25738],[21.27156,55.24625],[21.2995,55.25509],[21.30583,55.26189],[21.31961,55.26711],[21.33206,55.27622],[21.34464,55.27909],[21.35656,55.28588],[21.37403,55.28849],[21.37782,55.2942],[21.3845,55.29469],[21.40741,55.27867],[21.41721,55.26343],[21.43205,55.25288],[21.43745,55.23821],[21.44997,55.22232],[21.48878,55.20172],[21.49557,55.19176],[21.50181,55.18778],[21.51488,55.18626],[21.53986,55.1972],[21.57019,55.19913],[21.57771,55.19743],[21.59493,55.18888],[21.61371,55.18806],[21.64952,55.18176],[21.65582,55.17907],[21.67047,55.16877],[21.68638,55.16457],[21.7104,55.15212],[21.71625,55.14741],[21.71796,55.13756],[21.72288,55.13402],[21.74331,55.13065],[21.76107,55.12416],[21.7781,55.1204],[21.8052,55.12115],[21.81647,55.11966],[21.82394,55.11617],[21.84893,55.09837],[21.87968,55.0946],[21.91659,55.08197],[21.96538,55.07487],[21.97029,55.07644],[21.98312,55.08482],[21.99758,55.08772],[22.01218,55.0879],[22.03276,55.08503],[22.03998,55.08138],[22.04147,55.07695],[22.0405,55.06841],[22.03357,55.05982],[22.03182,55.05517],[22.03765,55.04323],[22.04817,55.0348],[22.07595,55.02599],[22.10021,55.02515],[22.12008,55.02866],[22.12682,55.03495],[22.12987,55.0434],[22.13294,55.04711],[22.1585,55.05664],[22.18572,55.05468],[22.21803,55.06134],[22.29144,55.06576],[22.31577,55.06287],[22.34843,55.06262],[22.39458,55.0543],[22.42558,55.05495],[22.45718,55.04606],[22.47051,55.04552],[22.49101,55.04867],[22.54393,55.06591],[22.54731,55.06661],[22.57373,55.0707]]]}}
