{"type":"Feature","properties":{"sourceId":"karlovarsky"},"geometry":{"type":"Polygon","coordinates":[[[12.94632,50.40463],[12.94855,50.40494],[12.9646,50.40111],[12.97009,50.39763],[12.97461,50.39017],[12.98678,50.39366],[13.02146,50.39605],[13.04212,50.38617],[13.04629,50.38941],[13.07,50.3899],[13.08283,50.38228],[13.09936,50.38331],[13.10907,50.37264],[13.10847,50.36965],[13.10542,50.36961],[13.10323,50.36961],[13.10141,50.36903],[13.10029,50.36769],[13.09984,50.36656],[13.09911,50.36541],[13.09862,50.3624],[13.09789,50.36023],[13.09671,50.35881],[13.09553,50.35811],[13.09334,50.35774],[13.09403,50.35619],[13.09774,50.35724],[13.09965,50.35704],[13.11145,50.35399],[13.11608,50.3486],[13.11703,50.35055],[13.1207,50.3515],[13.11919,50.35354],[13.13312,50.36026],[13.14881,50.35775],[13.16805,50.35263],[13.20891,50.36191],[13.22293,50.35246],[13.23084,50.33828],[13.23535,50.33812],[13.23799,50.3363],[13.23967,50.3252],[13.23628,50.32112],[13.22303,50.31268],[13.22814,50.30659],[13.22816,50.30659],[13.22816,50.30657],[13.235,50.30248],[13.23515,50.29615],[13.22149,50.28353],[13.22095,50.2779],[13.21656,50.27465],[13.23103,50.27371],[13.23559,50.27291],[13.24012,50.24782],[13.22821,50.23604],[13.24452,50.2333],[13.25773,50.22913],[13.25172,50.2192],[13.22221,50.21777],[13.23169,50.21528],[13.24751,50.20904],[13.27327,50.18734],[13.28118,50.17629],[13.27758,50.16923],[13.28829,50.16809],[13.28476,50.15595],[13.26909,50.15735],[13.27869,50.15001],[13.28479,50.14448],[13.2844,50.13632],[13.27831,50.13684],[13.2528,50.14326],[13.2426,50.13689],[13.24217,50.12792],[13.2749,50.1294],[13.29829,50.1134],[13.30049,50.10054],[13.30247,50.09977],[13.3023,50.09597],[13.29166,50.09597],[13.292,50.0919],[13.28204,50.07951],[13.29758,50.07626],[13.30032,50.06987],[13.29515,50.06054],[13.28144,50.0511],[13.25227,50.04506],[13.23512,50.04475],[13.24122,50.03754],[13.24467,50.02561],[13.23346,50.01585],[13.23655,50.00057],[13.23441,49.99384],[13.20582,49.99847],[13.18009,50.00909],[13.15465,50.02202],[13.1056,50.02209],[13.09675,50.03237],[13.08504,50.02172],[13.08524,50.02157],[13.08418,50.01825],[13.08151,50.01825],[13.06855,50.00863],[13.01839,49.98506],[13.00243,49.988],[13.00146,49.97662],[12.9616,49.9746],[12.97025,49.95838],[12.96918,49.95242],[12.96507,49.9521],[12.96881,49.94318],[12.92916,49.91953],[12.92096,49.92062],[12.8939,49.93292],[12.87756,49.92467],[12.85288,49.92252],[12.84834,49.92417],[12.83862,49.93257],[12.82225,49.93022],[12.79444,49.93778],[12.77813,49.93178],[12.77547,49.92647],[12.76792,49.93067],[12.75212,49.92879],[12.7432,49.93078],[12.73685,49.92393],[12.7262,49.92161],[12.71925,49.92106],[12.71067,49.92288],[12.71433,49.91135],[12.68011,49.90768],[12.68612,49.88988],[12.66881,49.89064],[12.66071,49.90978],[12.64519,49.91488],[12.61436,49.90635],[12.61213,49.89718],[12.59406,49.89142],[12.58136,49.90237],[12.56486,49.90101],[12.54914,49.90425],[12.52541,49.90422],[12.53694,49.9183],[12.49085,49.92351],[12.45654,49.94621],[12.48371,49.97104],[12.46131,49.98943],[12.43319,49.97687],[12.24924,50.05312],[12.1892,50.10537],[12.18123,50.18968],[12.08477,50.24345],[12.08955,50.26664],[12.12747,50.2782],[12.08863,50.32711],[12.18156,50.33076],[12.21445,50.30763],[12.21111,50.28023],[12.26544,50.27414],[12.27592,50.25434],[12.2621,50.24185],[12.28879,50.23118],[12.30071,50.2202],[12.29213,50.19519],[12.30928,50.18024],[12.32406,50.19092],[12.3157,50.20974],[12.32739,50.25007],[12.3615,50.29587],[12.39631,50.33519],[12.51087,50.40463],[12.61667,50.42072],[12.69625,50.42224],[12.82302,50.47322],[12.93418,50.42273],[12.93922,50.42439],[12.93897,50.40712],[12.94632,50.40463]]]}}
