{"type":"Feature","properties":{"sourceId":"kralovehradecky"},"geometry":{"type":"Polygon","coordinates":[[[15.70003,50.75204],[15.83346,50.76591],[15.8754,50.68657],[15.96833,50.70408],[16.00758,50.68557],[16.03219,50.63068],[16.0991,50.67376],[16.19358,50.64289],[16.22787,50.68232],[16.3561,50.67419],[16.45814,50.58681],[16.41344,50.52021],[16.33481,50.47656],[16.22853,50.43287],[16.28524,50.38215],[16.31214,50.39023],[16.37055,50.38488],[16.37791,50.34705],[16.4001,50.32924],[16.43489,50.33441],[16.51924,50.26927],[16.57309,50.23148],[16.56495,50.19737],[16.57627,50.1821],[16.59925,50.15201],[16.599249514220553,50.1520097354202],[16.59831,50.15324],[16.57495,50.14108],[16.57167,50.14182],[16.56864,50.13953],[16.52258,50.15936],[16.49775,50.16824],[16.48008,50.16584],[16.47722,50.16168],[16.47692,50.15018],[16.47215,50.13745],[16.43497,50.13092],[16.4228,50.12688],[16.41881,50.12256],[16.3926,50.11933],[16.38611,50.10927],[16.37298,50.10101],[16.3662,50.10142],[16.36044,50.10206],[16.35062,50.10071],[16.33791,50.09118],[16.33856,50.08521],[16.34843,50.07898],[16.35095,50.07736],[16.32478,50.07058],[16.31543,50.06827],[16.31593,50.0648],[16.31064,50.06156],[16.32986,50.04235],[16.2818,50.05208],[16.24991,50.0442],[16.24672,50.04893],[16.25067,50.05031],[16.25249,50.05396],[16.24223,50.0571],[16.23565,50.04717],[16.22329,50.04673],[16.21204,50.04521],[16.20271,50.04065],[16.19801,50.04085],[16.19604,50.03889],[16.19003,50.048],[16.18744,50.04996],[16.17997,50.05302],[16.17973,50.05344],[16.1755,50.05962],[16.16833,50.06184],[16.16213,50.06199],[16.15668,50.06073],[16.15095,50.066],[16.14662,50.06804],[16.14372,50.06608],[16.14286,50.065],[16.14379,50.06399],[16.14226,50.06288],[16.14089,50.06323],[16.13997,50.06372],[16.13874,50.06404],[16.12913,50.0702],[16.12528,50.074],[16.12334,50.07868],[16.11287,50.08515],[16.07644,50.0879],[16.06403,50.11318],[16.01073,50.11331],[16.01099,50.1466],[15.99356,50.14707],[15.9931,50.1587],[15.9655,50.15834],[15.9503,50.16417],[15.91666,50.17118],[15.91545,50.16495],[15.88713,50.16299],[15.88653,50.14734],[15.85138,50.14887],[15.83799,50.13436],[15.80714,50.14192],[15.80718,50.15565],[15.81018,50.15988],[15.80401,50.16249],[15.80491,50.16862],[15.79585,50.16854],[15.78903,50.16918],[15.78474,50.17066],[15.78134,50.17484],[15.77564,50.17602],[15.73856,50.16193],[15.7367,50.14295],[15.73118,50.1419],[15.72568,50.13794],[15.70306,50.14014],[15.69195,50.13274],[15.68846,50.12811],[15.66766,50.13307],[15.64814,50.14113],[15.64432,50.13513],[15.63522,50.1362],[15.63204,50.13791],[15.62161,50.13824],[15.59981,50.14055],[15.58685,50.13752],[15.58127,50.14809],[15.569,50.15155],[15.56608,50.15051],[15.55621,50.14],[15.55084,50.13681],[15.54789,50.14044],[15.53836,50.14204],[15.53149,50.1405],[15.52076,50.13565],[15.51733,50.1236],[15.50737,50.11574],[15.4879,50.11566],[15.46883,50.10086],[15.45301,50.09712],[15.43914,50.10969],[15.436779324965894,50.1104584750643],[15.43268,50.11502],[15.4462,50.12387],[15.44023,50.12564],[15.42485,50.1296],[15.41927,50.13299],[15.41326,50.13603],[15.40998,50.13889],[15.40663,50.13933],[15.405,50.1374],[15.40511,50.13603],[15.40416,50.13471],[15.39914,50.13505],[15.3885,50.13835],[15.38112,50.14374],[15.36301,50.14325],[15.34652,50.14446],[15.34859,50.14544],[15.34854,50.14577],[15.34906,50.14577],[15.34931,50.14578],[15.37203,50.15656],[15.35629,50.16284],[15.3552,50.16647],[15.37425,50.17695],[15.3952,50.19816],[15.39021,50.20542],[15.38984,50.21747],[15.38004,50.21886],[15.37903,50.22208],[15.37702,50.22413],[15.37783,50.2247],[15.37176,50.22621],[15.37053,50.22673],[15.3715,50.22802],[15.37313,50.23156],[15.36524,50.24775],[15.37485,50.25423],[15.37365,50.26981],[15.37382,50.28298],[15.35356,50.28934],[15.35047,50.29631],[15.30713,50.27979],[15.27364,50.28872],[15.26422,50.29285],[15.23672,50.2858],[15.23197,50.287],[15.23174,50.28745],[15.23231,50.28837],[15.22985,50.28944],[15.22921,50.28885],[15.20405,50.29537],[15.20525,50.30513],[15.19907,50.30798],[15.20302,50.31291],[15.21315,50.31763],[15.19564,50.32508],[15.17957,50.32711],[15.18152,50.33049],[15.18152,50.33061],[15.18155,50.33078],[15.18169,50.33104],[15.18189,50.33132],[15.18196,50.33152],[15.18215,50.33234],[15.1821,50.33263],[15.18205,50.33288],[15.18202,50.33319],[15.18196,50.33358],[15.18199,50.33358],[15.18199,50.33367],[15.18191,50.33395],[15.18191,50.33438],[15.18202,50.3349],[15.18208,50.3351],[15.18234,50.33537],[15.18352,50.33541],[15.18369,50.33548],[15.18374,50.33535],[15.18406,50.33518],[15.18422,50.33516],[15.18604,50.33831],[15.17559,50.34181],[15.17559,50.34171],[15.17552,50.34161],[15.17531,50.34162],[15.17508,50.3416],[15.17475,50.3417],[15.17479,50.34186],[15.17446,50.34201],[15.17399,50.34193],[15.1737,50.34202],[15.17369,50.3422],[15.17327,50.34218],[15.17291,50.34237],[15.17243,50.34252],[15.17229,50.3426],[15.17207,50.34266],[15.17177,50.34268],[15.17123,50.34293],[15.17064,50.34313],[15.16977,50.34348],[15.16887,50.34388],[15.16865,50.34412],[15.16648,50.34485],[15.15423,50.33764],[15.12508,50.34601],[15.117,50.36622],[15.10268,50.37612],[15.11682,50.39016],[15.14031,50.38907],[15.13598,50.39533],[15.13504,50.40589],[15.15349,50.40901],[15.16113,50.42629],[15.14757,50.42908],[15.15066,50.43805],[15.14783,50.44226],[15.14045,50.44597],[15.13487,50.44641],[15.12775,50.45034],[15.13418,50.45906],[15.13483,50.4669],[15.13414,50.4707],[15.1351,50.47258],[15.141,50.4728],[15.1433,50.47492],[15.12738,50.47974],[15.1279,50.48067],[15.13435,50.48468],[15.13197,50.48912],[15.12392,50.49549],[15.11706,50.49694],[15.11277,50.50338],[15.11242,50.50608],[15.1141,50.50786],[15.11877,50.51004],[15.12167,50.50975],[15.14089471294264,50.52153937100315],[15.14701,50.51662],[15.19113,50.50379],[15.22287,50.49396],[15.2419,50.49558],[15.24688,50.50628],[15.26143,50.51725],[15.26442,50.52017],[15.27501,50.52057],[15.28328,50.52189],[15.28839,50.52052],[15.29045,50.52133],[15.29429,50.51953],[15.29839,50.51882],[15.30235,50.51748],[15.29965,50.51441],[15.31198,50.50941],[15.33504,50.51199],[15.34402,50.50303],[15.34949,50.50322],[15.36764,50.49337],[15.37155,50.49591],[15.37167,50.49974],[15.37135,50.50332],[15.37232,50.5042],[15.3738,50.50472],[15.37854,50.50703],[15.37968,50.50819],[15.38337,50.50476],[15.38236,50.50299],[15.38387,50.49952],[15.38193,50.49773],[15.38494,50.49104],[15.37829,50.49159],[15.38644,50.48476],[15.39022,50.47901],[15.42845,50.48073],[15.42905,50.48418],[15.42641,50.48879],[15.4412,50.4855],[15.45536,50.50068],[15.45279,50.50232],[15.446,50.503],[15.44296,50.50368],[15.44334,50.5072],[15.43939,50.52162],[15.46534,50.52494],[15.48153,50.5315],[15.48012,50.54172],[15.47862,50.54641],[15.49634,50.54052],[15.49557,50.53722],[15.49424,50.53468],[15.49476,50.53247],[15.49798,50.53032],[15.51209,50.51652],[15.53608,50.51167],[15.54473,50.51414],[15.56104,50.52152],[15.56424,50.52528],[15.58299,50.51218],[15.63443,50.52243],[15.62891,50.53542],[15.62367,50.53978],[15.61329,50.54845],[15.60222,50.56007],[15.58814,50.56754],[15.59522,50.57429],[15.57427,50.58163],[15.58466,50.59626],[15.58162,50.59918],[15.60273,50.61435],[15.59483,50.61791],[15.59093,50.62276],[15.58144,50.63239],[15.56773,50.63809],[15.58604,50.65248],[15.56641,50.68601],[15.56956,50.72773],[15.57475,50.73461],[15.57104,50.74461],[15.54116,50.75829],[15.53679,50.7805],[15.537980008070605,50.78267205356577],[15.54692,50.78739],[15.61996,50.77977],[15.70003,50.75204]]]}}
