{"type":"Feature","properties":{"sourceId":"lorraine"},"geometry":{"type":"Polygon","coordinates":[[[5.464153,49.55985],[5.473374,49.50552],[5.5573,49.53101],[5.60362,49.52331],[5.648722,49.55716],[5.699646,49.54849],[5.771656,49.56579],[5.8195596045157,49.550008570013716],[5.806789,49.54298],[5.807176,49.54008],[5.816274,49.53504],[5.823827,49.53749],[5.835622,49.54114],[5.84308,49.53081],[5.831868,49.52639],[5.83641,49.51817],[5.848031,49.51376],[5.848503,49.50863],[5.863321,49.50006],[5.87348,49.49748],[5.893693,49.49514],[5.915279,49.50005],[5.9616,49.49026],[5.968912,49.48202],[5.968237,49.47526],[5.971842,49.46182],[5.977725,49.45955],[5.976569,49.44885],[5.994123,49.45301],[6.01574,49.44885],[6.021545,49.45127],[6.025294,49.44703],[6.044213,49.44553],[6.052222,49.46028],[6.059167,49.46306],[6.077222,49.46139],[6.081667,49.45417],[6.104826,49.45076],[6.101403,49.46726],[6.125479,49.47175],[6.129367,49.48803],[6.140714,49.48586],[6.164617,49.4923],[6.158266,49.50164],[6.171527,49.50648],[6.194358,49.50476],[6.213841,49.50565],[6.236243,49.50768],[6.254697,49.50849],[6.262894,49.50339],[6.278558,49.50267],[6.277657,49.49461],[6.287098,49.48511],[6.293964,49.48039],[6.304693,49.47674],[6.3204,49.47551],[6.333489,49.46648],[6.364217,49.45886],[6.370482,49.45931],[6.3700954699109085,49.466845460377634],[6.37486,49.46394],[6.391253,49.46349],[6.403699,49.4648],[6.420964,49.47048],[6.451398,49.46152],[6.487768,49.4473],[6.511263,49.43726],[6.530124,49.42861],[6.541456,49.41677],[6.531645,49.4123],[6.53144,49.40175],[6.560683,49.3843],[6.570802,49.3836],[6.57924,49.37976],[6.581299,49.36554],[6.592044,49.36233],[6.586514,49.35588],[6.566592,49.36292],[6.560413,49.35139],[6.571419,49.33001],[6.5849,49.32915],[6.584067,49.32024],[6.641347,49.28073],[6.651868,49.27468],[6.65282,49.25277],[6.680878,49.24711],[6.688064,49.21271],[6.698235,49.21139],[6.721701,49.2173],[6.727024,49.20666],[6.708149,49.1878],[6.726357,49.16318],[6.760603,49.16003],[6.774948,49.16321],[6.798846,49.15552],[6.833576,49.14948],[6.847965,49.15579],[6.850242,49.16463],[6.863842,49.17149],[6.864997,49.1833],[6.855206,49.20132],[6.84286,49.21255],[6.865337,49.21683],[6.866181,49.2134],[6.897201,49.20408],[6.920875,49.22013],[6.932826,49.21972],[6.932871,49.21531],[6.956622,49.19881],[6.973817,49.20704],[6.988869,49.19956],[6.988966,49.19292],[7.010128,49.18512],[7.029338,49.18621],[7.022706,49.16934],[7.025973,49.15671],[7.041478,49.13698],[7.039357,49.12288],[7.041378,49.11436],[7.054931,49.10866],[7.071724,49.11339],[7.072475,49.11924],[7.077468,49.12316],[7.088926,49.1214],[7.095975,49.12837],[7.089427,49.14399],[7.101526,49.14713],[7.10163,49.13641],[7.109755,49.13279],[7.122547,49.13624],[7.139894,49.12235],[7.160057,49.11927],[7.169506,49.12444],[7.180678,49.12254],[7.191055,49.11168],[7.202197,49.11106],[7.208013,49.11712],[7.224662,49.11982],[7.243661,49.12435],[7.264063,49.11612],[7.278241,49.11538],[7.287249,49.10807],[7.295092,49.11109],[7.313781,49.13159],[7.334032,49.13869],[7.365149,49.14247],[7.36497,49.15347],[7.371786,49.15885],[7.3704479304182,49.16200989651698],[7.370448,49.16201],[7.367616,49.16871],[7.415105,49.17414],[7.430451,49.17322],[7.426129,49.16247],[7.457976,49.15856],[7.48491,49.16175],[7.489537,49.15329],[7.49376,49.14777],[7.484419,49.1412],[7.483102,49.1335],[7.495797,49.13018],[7.500473,49.12124],[7.510832,49.11763],[7.524042,49.0962],[7.548047,49.07928],[7.574998,49.07389],[7.598006,49.07856],[7.625067,49.066],[7.629054,49.05089],[7.6326086324547635,49.049927406154964],[7.632963,49.04592],[7.604756,49.02229],[7.603677,49.01021],[7.585825,48.99239],[7.577309,48.96983],[7.57551,48.95963],[7.566373,48.95638],[7.537943,48.93499],[7.525985,48.94704],[7.480302,48.96362],[7.451675,48.97052],[7.407414,48.9619],[7.38687,48.95432],[7.372481,48.9544],[7.358315,48.95947],[7.344136,48.95163],[7.334653,48.95112],[7.326002,48.94726],[7.312943,48.95254],[7.307418,48.95888],[7.296227,48.95998],[7.296508,48.97273],[7.292973,48.97625],[7.276909,48.9783],[7.239304,48.99033],[7.213726,48.98309],[7.175789,49.00781],[7.132606,49.00856],[7.12223,49.03517],[7.109184,49.057],[7.121286,49.0697],[7.113562,49.07387],[7.099657,49.07898],[7.074423,49.07533],[7.05039,49.02898],[7.045035,49.01511],[7.046147,49.00711],[7.031127,48.99501],[7.028051,48.98643],[7.024838,48.96057],[6.988537,48.96248],[6.983289,48.9482],[6.975756,48.94035],[6.967261,48.92972],[6.959752,48.92909],[6.947803,48.93736],[6.942103,48.93556],[6.938684,48.92265],[6.952368,48.91922],[6.960795,48.90644],[6.952847,48.89551],[6.953282,48.89189],[6.974662,48.88745],[7.025188,48.87622],[7.047789,48.86298],[7.04776,48.85842],[7.054621,48.85302],[7.048843,48.84514],[7.051366,48.83404],[7.044736,48.82009],[7.053845,48.81136],[7.077095,48.81123],[7.077206,48.80582],[7.064749,48.79936],[7.065533,48.79181],[7.077144,48.78337],[7.096358,48.7923],[7.128253,48.79946],[7.127879,48.81121],[7.149859,48.8208],[7.145556,48.83417],[7.149387,48.84057],[7.176662,48.83942],[7.180729,48.84525],[7.185337,48.84632],[7.188982,48.84147],[7.18463,48.83646],[7.185035,48.8314],[7.197182,48.82558],[7.209971,48.82364],[7.218998,48.81643],[7.226474,48.82286],[7.230614,48.82264],[7.240928,48.81593],[7.243597,48.80833],[7.25661,48.80046],[7.260009,48.795],[7.271106,48.79859],[7.285289,48.79484],[7.288164,48.79185],[7.288479,48.78404],[7.296228,48.7791],[7.306406,48.76532],[7.303949,48.76036],[7.293415,48.75457],[7.284945,48.73497],[7.271707,48.71885],[7.264081,48.71527],[7.260907,48.70017],[7.25737,48.69757],[7.246595,48.69777],[7.239891,48.69281],[7.253393,48.6711],[7.263303,48.66076],[7.288875,48.65764],[7.292175,48.65396],[7.290117,48.64886],[7.280864,48.6449],[7.275714,48.63694],[7.257791,48.63237],[7.271941,48.62381],[7.253973,48.60248],[7.254444,48.59063],[7.216372,48.55543],[7.192931,48.55226],[7.185277,48.54064],[7.15021,48.53483],[7.145269,48.53042],[7.138201,48.53016],[7.125159,48.5378],[7.115569,48.5398],[7.079761,48.5389],[7.072173,48.53555],[7.062227,48.52439],[7.080048,48.51002],[7.085216,48.51267],[7.105579,48.51524],[7.117596,48.50506],[7.088241,48.50671],[7.091681,48.48786],[7.110854,48.48333],[7.114229,48.4785],[7.099329,48.45198],[7.102756,48.44091],[7.094032,48.42883],[7.093988,48.41694],[7.082965,48.39849],[7.086196,48.394],[7.101714,48.38596],[7.103565,48.37888],[7.074067,48.3542],[7.074165,48.35102],[7.105753,48.3417],[7.110914,48.33327],[7.11896,48.33072],[7.145297,48.32948],[7.173514,48.33985],[7.178235,48.33814],[7.175317,48.32524],[7.18539,48.32114],[7.190724,48.30498],[7.170888,48.29904],[7.169654,48.28929],[7.157892,48.27757],[7.14601,48.26614],[7.131314,48.24916],[7.12489,48.22494],[7.113554,48.2138],[7.082915,48.18467],[7.057346,48.1463],[7.057265,48.1352],[7.079654,48.12424],[7.074914,48.11208],[7.069875,48.10978],[7.048393,48.08445],[7.030806,48.07728],[7.007791,48.04457],[7.001256,48.02555],[6.952134,48.00552],[6.940888,47.99978],[6.917063,47.94535],[6.920625,47.9297],[6.909612,47.91877],[6.923883,47.91023],[6.915171,47.90234],[6.89396,47.89123],[6.895865,47.88279],[6.904777,47.86326],[6.914354,47.85677],[6.915191,47.85002],[6.905681,47.84797],[6.892578,47.8361],[6.849493,47.82735],[6.845575924307861,47.82459707979639],[6.845068,47.82521],[6.839125,47.82592],[6.832639,47.81935],[6.825106,47.81641],[6.81273,47.82084],[6.792426,47.83243],[6.793025,47.84535],[6.785099,47.85204],[6.762783,47.85939],[6.74133,47.8631],[6.730116,47.86984],[6.711772,47.87669],[6.704176,47.88288],[6.68335,47.89166],[6.675638,47.89205],[6.655307,47.90212],[6.648994,47.90353],[6.641151,47.91054],[6.642645,47.91688],[6.641263,47.92],[6.632102,47.92885],[6.628761,47.93114],[6.618572,47.93295],[6.607289,47.94539],[6.591519,47.94407],[6.566467,47.93492],[6.560021,47.92963],[6.54948,47.91257],[6.543289,47.90985],[6.540983,47.90454],[6.502934,47.89757],[6.481065,47.89035],[6.478507,47.89442],[6.463439,47.90052],[6.459482,47.90863],[6.464469,47.91347],[6.463644,47.91778],[6.458281,47.92173],[6.450406,47.92243],[6.446441,47.92971],[6.438691,47.93647],[6.435665,47.94431],[6.410901,47.9449],[6.405726,47.95411],[6.391147,47.9618],[6.380564,47.95994],[6.365408,47.9644],[6.335336,47.957],[6.330412,47.95555],[6.308047,47.9517],[6.296515,47.95698],[6.279603,47.956],[6.250924,47.94089],[6.23919,47.93909],[6.234978,47.9349],[6.209889,47.93941],[6.208568,47.94815],[6.197316,47.95346],[6.182207,47.95841],[6.174151,47.95375],[6.162123,47.96035],[6.160827,47.96826],[6.165842,47.97281],[6.166745,47.97765],[6.160626,47.98301],[6.161067,47.99285],[6.155198,47.99567],[6.158346,48.00596],[6.14928,48.01557],[6.139723,48.01834],[6.131281,48.02537],[6.116911,48.02148],[6.107777,48.01458],[6.097677,48.01642],[6.082212,48.01433],[6.075783,48.01544],[6.04232,48.00526],[6.03313,48.00006],[6.018211,47.98863],[6.017036,47.98393],[6.012006,47.97343],[6.008878,47.97038],[6.005425,47.96536],[5.996086,47.95987],[5.970472,47.95869],[5.967404,47.94892],[5.960303,47.94529],[5.952369,47.93806],[5.937533,47.93827],[5.934503,47.94376],[5.940102,47.95008],[5.960294,47.96469],[5.961501,47.96827],[5.958973,47.97139],[5.952859,47.97361],[5.946889,47.98115],[5.940069,47.98139],[5.93199,47.97856],[5.92182,47.97278],[5.916249,47.96704],[5.917985,47.95814],[5.915526,47.94963],[5.898781,47.94542],[5.89167,47.93815],[5.893234,47.93095],[5.883076,47.92606],[5.883066090187876,47.925749454143336],[5.866486,47.942],[5.854861,47.94364],[5.844133,47.96309],[5.830577,47.95484],[5.815988,47.9543],[5.811145,47.94693],[5.806048,47.94473],[5.78677,47.94989],[5.77602,47.97832],[5.787516,47.98687],[5.791246,47.99558],[5.784761,48.00092],[5.783033,48.01155],[5.772373,48.02563],[5.763134,48.02782],[5.757232,48.03592],[5.741503,48.04667],[5.719383,48.04231],[5.716942,48.05235],[5.712328,48.05878],[5.69742,48.06466],[5.693113,48.07191],[5.679981,48.07772],[5.672552,48.07645],[5.663304,48.07956],[5.663421,48.07064],[5.657146,48.06642],[5.645988,48.07018],[5.641277,48.07639],[5.632488,48.07859],[5.626578,48.08405],[5.636546,48.10014],[5.657979,48.11042],[5.654097,48.12168],[5.660714,48.13116],[5.671628,48.13717],[5.683035,48.16248],[5.678069,48.1809],[5.687153,48.18379],[5.696162,48.19173],[5.717197,48.1923],[5.724276,48.19554],[5.715429,48.21294],[5.689136,48.23],[5.676224,48.22662],[5.640702,48.23945],[5.638889,48.24382],[5.64907,48.25927],[5.648899,48.2674],[5.615243,48.28673],[5.601708,48.28247],[5.587481,48.2716],[5.582654,48.27954],[5.535406,48.31699],[5.522189,48.33286],[5.518476,48.34625],[5.495844,48.35273],[5.48034,48.35334],[5.469606,48.34665],[5.461292,48.34713],[5.44405,48.3341],[5.424032,48.3294],[5.414669,48.34183],[5.416968,48.35097],[5.415068,48.35845],[5.421422,48.36798],[5.430719,48.3736],[5.431281,48.37775],[5.427425,48.37999],[5.405175,48.38113],[5.39127,48.39238],[5.400105,48.3959],[5.410689,48.39576],[5.42761,48.40452],[5.44092,48.41313],[5.445775,48.42105],[5.439398,48.43024],[5.431365,48.42994],[5.406072,48.44503],[5.400999,48.45384],[5.401403,48.46572],[5.397597,48.46993],[5.380092,48.46876],[5.355896,48.47569],[5.346171,48.48129],[5.342001,48.48908],[5.324757,48.50455],[5.31514,48.50628],[5.306912,48.51164],[5.294613,48.50622],[5.284347,48.51186],[5.270221,48.51171],[5.259652,48.51852],[5.228012,48.52759],[5.222237,48.52419],[5.211467,48.52611],[5.204236,48.53482],[5.192929,48.53582],[5.190444,48.54587],[5.172439,48.55365],[5.166608,48.56132],[5.159597,48.56104],[5.153599,48.55731],[5.144151,48.55862],[5.116541,48.58242],[5.112915,48.59112],[5.089211,48.59043],[5.069098,48.59397],[5.056825,48.61329],[5.053277,48.62784],[5.043221,48.62214],[5.032594,48.61069],[5.012913,48.60766],[4.996939,48.61372],[4.991866,48.62199],[4.999976,48.63576],[4.992462,48.64508],[4.990145,48.6565],[4.992731,48.66314],[5.003357,48.66895],[5.004854,48.67595],[5.002471,48.67915],[4.988682,48.68138],[4.985892,48.68456],[4.988043,48.69443],[5.00095,48.69852],[4.994538,48.70932],[5.002562,48.71633],[5.005859,48.72727],[5.003725,48.73566],[4.998596,48.73929],[4.979358,48.74253],[4.975157,48.7512],[4.948119,48.76698],[4.939911,48.7771],[4.932178,48.7814],[4.929189,48.78738],[4.919836,48.78758],[4.887743,48.79613],[4.886022,48.80097],[4.889534,48.81012],[4.886321,48.81763],[4.913272,48.83738],[4.928324,48.84248],[4.917785,48.86278],[4.90927,48.86807],[4.917512,48.88129],[4.918839,48.8908],[4.90996,48.89741],[4.916378,48.90691],[4.928574,48.91382],[4.934794,48.92448],[4.948605,48.93293],[4.970335,48.93106],[4.999943,48.94092],[5.009948,48.94023],[5.011735,48.94755],[5.026925,48.95639],[5.033705,48.97143],[5.030466,48.9762],[5.006989,48.97645],[5.002645,48.97992],[4.995032,48.98031],[4.991465,48.98443],[5.004943,48.99584],[5.027082,48.99805],[5.028974,49.00702],[5.033875,49.01302],[5.028758,49.02469],[5.010079,49.03243],[4.972697,49.01921],[4.963119,49.02085],[4.995905,49.05174],[5.001335,49.06629],[4.996378,49.07716],[4.99494,49.10259],[4.991395,49.11113],[4.970318,49.13461],[4.949247,49.17345],[4.937215,49.18516],[4.949775,49.19595],[4.965161,49.20183],[4.975716,49.20207],[4.984599,49.20983],[4.975416,49.21803],[4.967931,49.23214],[4.950312,49.23445],[4.949188,49.23881],[4.958204,49.24223],[4.964502,49.2503],[4.991569,49.25922],[4.994505,49.26539],[4.999507,49.26793],[5.026391,49.27695],[5.035758,49.27398],[5.047096,49.2766],[5.046983,49.29015],[5.038347,49.29325],[5.035764,49.30221],[5.023204,49.30948],[5.03154,49.31809],[5.024749,49.32658],[5.024597,49.33837],[5.035204,49.34391],[5.051714,49.35887],[5.051262,49.36699],[5.058047,49.3732],[5.087602,49.37376],[5.09624,49.38021],[5.09709,49.39052],[5.078042,49.39955],[5.074621,49.40366],[5.091263,49.41067],[5.09622,49.41686],[5.104118,49.41856],[5.10324,49.43088],[5.097707,49.44301],[5.098985,49.44672],[5.104553,49.44951],[5.104509,49.45504],[5.094415,49.45717],[5.081517,49.46849],[5.079518,49.48223],[5.072018,49.48492],[5.066924,49.49294],[5.056162,49.50167],[5.057014,49.50698],[5.060737,49.50986],[5.07669,49.51221],[5.089463,49.52784],[5.089996,49.53152],[5.085735,49.53712],[5.086219,49.54595],[5.095648,49.55972],[5.103421,49.56004],[5.107117,49.56408],[5.107245,49.5696],[5.102517,49.57748],[5.111643,49.59418],[5.119279,49.59569],[5.146183,49.59272],[5.152674,49.58754],[5.157234,49.57636],[5.167162,49.5667],[5.184021,49.57201],[5.198984,49.57084],[5.208133,49.57723],[5.23577,49.57184],[5.241019,49.56265],[5.255802,49.55777],[5.265506,49.54646],[5.276296,49.54743],[5.283325,49.55512],[5.303898,49.55991],[5.314521,49.56987],[5.316366,49.57552],[5.328028,49.58298],[5.339232,49.59705],[5.344208,49.59682],[5.352277,49.59148],[5.375145,49.59553],[5.379389,49.60675],[5.386988,49.61627],[5.395055,49.61946],[5.418881,49.61136],[5.464153,49.55985]]]}}
