{"type":"Feature","properties":{"sourceId":"limburg"},"geometry":{"type":"Polygon","coordinates":[[[5.566167,51.22225],[5.5937,51.22728],[5.59824,51.22633],[5.6167,51.23057],[5.622119,51.24895],[5.625381,51.27484],[5.672287,51.31645],[5.873532,51.35445],[5.870649,51.44935],[5.85968,51.49082],[5.851209,51.50422],[5.837487,51.56739],[5.891275,51.56154],[5.95353,51.70908],[5.942633,51.71319],[5.907157,51.71724],[5.88973,51.72255],[5.884355,51.72752],[5.878747,51.74855],[5.863389,51.75712],[5.867032,51.76364],[5.865781,51.77099],[5.866999,51.77637],[5.887187,51.77992],[5.894684,51.77844],[5.912456,51.76274],[5.916299,51.75368],[5.93338,51.74943],[5.936131,51.74347],[5.945978,51.74369],[5.953377,51.74925],[5.959971,51.74969],[5.956302,51.74809],[5.956064,51.74222],[5.994732,51.74126],[6.046624,51.7194],[6.043521,51.71075],[6.029834,51.70829],[6.034777,51.69268],[6.033234,51.67912],[6.037929,51.67553],[6.119859,51.65839],[6.120054,51.64966],[6.110479,51.64002],[6.095011,51.6075],[6.123231,51.59519],[6.132643,51.5833],[6.158656,51.5691],[6.178861,51.54098],[6.201415,51.52999],[6.214704,51.51474],[6.2158,51.49233],[6.226676,51.46874],[6.209491,51.40357],[6.229287,51.40173],[6.218449,51.38669],[6.22939,51.36029],[6.194644,51.33874],[6.195852,51.33235],[6.172269,51.33015],[6.15602,51.3054],[6.131365,51.28373],[6.126709,51.2727],[6.077269,51.24114],[6.088301,51.22072],[6.071111,51.21887],[6.076,51.18415],[6.083935,51.17443],[6.105466,51.17517],[6.165647,51.19733],[6.182602,51.1887],[6.183035,51.18445],[6.147734,51.17298],[6.177047,51.16098],[6.177587,51.15639],[6.164554,51.14595],[6.126782,51.14171],[6.093797,51.13176],[6.088709,51.12214],[6.061897,51.11335],[6.038192,51.094],[5.999214,51.08158],[5.973847,51.05961],[5.971765,51.04522],[5.958617,51.03185],[5.93646,51.03263],[5.913405,51.06338],[5.893022,51.05031],[5.86979,51.04862],[5.880831,51.03865],[5.878007,51.0284],[5.8819,51.01923],[5.897435,51.01349],[5.898569,51.00687],[5.9083,51.00329],[5.906599,50.98633],[5.89949,50.97778],[5.955096,50.99142],[5.967899,50.98238],[5.981279,50.98622],[6.027451,50.98612],[6.029409,50.97982],[6.012523,50.9573],[6.019548,50.95396],[6.020674,50.93729],[6.051754,50.93277],[6.05837,50.92471],[6.097096,50.92128],[6.080364,50.89836],[6.079201,50.89081],[6.08925,50.881],[6.091101,50.87233],[6.079903,50.85881],[6.076394,50.84452],[6.05545,50.84833],[6.05388,50.85307],[6.02101,50.84336],[6.019818,50.83384],[6.028167,50.8286],[6.027036,50.8119],[6.004115,50.7985],[5.985312,50.8073],[5.978653,50.8011],[6.029923,50.77613],[6.02171,50.7626],[6.023293,50.75234],[5.982748,50.74985],[5.958986,50.75926],[5.920645,50.74848],[5.914113,50.74753],[5.911786,50.75229],[5.900865,50.74848],[5.888615,50.75349],[5.885185,50.76631],[5.864401,50.7606],[5.849655,50.7505],[5.84299,50.76171],[5.831393,50.75563],[5.806889,50.75315],[5.792512,50.76668],[5.782796,50.7647],[5.773869,50.78021],[5.749096,50.7682],[5.740229,50.75426],[5.720635,50.7603],[5.699182,50.75228],[5.681583,50.75474],[5.680362,50.76391],[5.698492,50.78262],[5.688232,50.79559],[5.696357,50.80536],[5.652121,50.81774],[5.635965,50.84691],[5.642047,50.87348],[5.676125,50.8839],[5.693287,50.89948],[5.698111,50.91344],[5.721419,50.9119],[5.725882,50.92762],[5.738869,50.93755],[5.744784,50.9497],[5.756042,50.95314],[5.7461,50.95863],[5.725894,50.95235],[5.716823,50.96198],[5.735358,50.98098],[5.748154,50.98499],[5.764667,51.00065],[5.764155,51.01341],[5.773253,51.02276],[5.757832,51.0283],[5.755501,51.03584],[5.767694,51.04987],[5.772074,51.06496],[5.797835,51.06284],[5.793751,51.0727],[5.801836,51.07913],[5.793118,51.08655],[5.793639,51.0933],[5.806251,51.09913],[5.823016,51.09533],[5.82987,51.09896],[5.828523,51.10386],[5.811779,51.10514],[5.804669,51.11301],[5.819013,51.12923],[5.839765,51.13404],[5.847521,51.14496],[5.834189,51.15161],[5.829746,51.16062],[5.82463,51.16433],[5.816153,51.15606],[5.805567,51.15941],[5.777226,51.14833],[5.771871,51.15387],[5.774877,51.16027],[5.767215,51.16382],[5.772426,51.17741],[5.766246,51.18077],[5.745984,51.18629],[5.740733,51.18192],[5.70928,51.17742],[5.688692,51.18217],[5.657367,51.18182],[5.647189,51.19204],[5.648135,51.19614],[5.563304,51.21852],[5.564832,51.22071],[5.566167,51.22225]]]}}
