{"type":"Feature","properties":{"sourceId":"liberia"},"geometry":{"type":"Polygon","coordinates":[[[-14.95454,3.374408],[-12.599278538428585,5.77550850082837],[-12.30061,5.391619],[-11.50107,6.918249],[-11.46939,6.91764],[-11.41003,6.933603],[-11.41552,6.961049],[-11.36048,7.017537],[-11.36452,7.069235],[-11.32414,7.073569],[-11.33745,7.134035],[-11.26802,7.222596],[-11.17868,7.25503],[-11.09583,7.379504],[-11.05073,7.39768],[-10.94142,7.494876],[-10.91873,7.487731],[-10.83896,7.540369],[-10.78191,7.594809],[-10.7792,7.618104],[-10.69568,7.724867],[-10.59654,7.767449],[-10.59501,8.030947],[-10.56852,8.040415],[-10.49285,8.127657],[-10.35285,8.136688],[-10.2939,8.184453],[-10.2858,8.211625],[-10.30964,8.268161],[-10.28069,8.320583],[-10.258169442601194,8.477089563878826],[-10.20699,8.471354],[-10.15034,8.518892],[-10.0573,8.4975],[-10.07172,8.417697],[-9.983139,8.434338],[-9.841004,8.479843],[-9.767533,8.511082],[-9.720154,8.434338],[-9.65561,8.392904],[-9.529954,8.358259],[-9.527894,8.193821],[-9.443436,7.847738],[-9.376832,7.746374],[-9.507294,7.352253],[-9.340612,7.364621],[-9.251492,7.348599],[-9.110413,7.183332],[-9.006043,7.241236],[-8.966561,7.250431],[-8.867684,7.252134],[-8.841248,7.26167],[-8.830948,7.275293],[-8.824768,7.360424],[-8.77327,7.411836],[-8.700142,7.515662],[-8.67199,7.687857],[-8.5635,7.69296],[-8.576546,7.632394],[-8.479561949105578,7.553330618504201],[-8.380509,7.243279],[-8.314591,7.172433],[-8.355103,6.813263],[-8.633881,6.51318],[-8.407288,6.335091],[-8.180009,6.273666],[-7.891618,6.238856],[-7.849674,5.972823],[-7.493363,5.770403],[-7.416613,5.592297],[-7.592927,5.02118],[-7.6149,4.880259],[-7.575074,4.36079],[-7.531648,4.141916],[-7.494428629685363,4.148131301500522],[-7.469571,3.84299],[-7.24572,-0.681003],[-14.95454,3.374408]]]}}
