{"type":"Feature","properties":{"sourceId":"lithuania"},"geometry":{"type":"Polygon","coordinates":[[[22.32302,56.41398],[22.34339,56.40005],[22.42759,56.41186],[22.58789,56.39453],[22.62119,56.38502],[22.67853,56.35764],[22.72591,56.37647],[22.83521,56.3709],[22.89551,56.38046],[22.93121,56.41808],[23.00616,56.41515],[23.04959,56.3285],[23.16742,56.33614],[23.16021,56.37134],[23.32705,56.38717],[23.3971,56.38635],[23.46302,56.3546],[23.56739,56.34718],[23.63941,56.36596],[23.76749,56.37472],[23.78581,56.368],[23.81407,56.34443],[24.02247,56.33633],[24.10005,56.27826],[24.15095,56.2583],[24.28872,56.30267],[24.33713,56.3024],[24.3884,56.28242],[24.42579,56.26253],[24.57694,56.29649],[24.56749,56.32073],[24.61727,56.34946],[24.62208,56.37647],[24.64788,56.37887],[24.692,56.37859],[24.69349,56.40611],[24.78069,56.40687],[24.80239,56.42314],[24.81869,56.42237],[24.83187,56.41428],[24.85059,56.41701],[24.85017,56.43767],[24.87185,56.45329],[24.91996,56.44662],[24.92565,56.40449],[24.97677,56.36448],[24.97651,56.31263],[25.01861,56.29289],[25.06168,56.26492],[25.09414,56.18875],[25.23628,56.19425],[25.31428,56.14763],[25.33717,56.1569],[25.54017,56.16781],[25.68867,56.14897],[25.70444,56.12012],[25.70212,56.08706],[25.82477,56.05775],[25.8906,56.00348],[25.97822,55.98323],[26.04825,55.95529],[26.09951,55.89964],[26.22284,55.85664],[26.2726,55.76851],[26.31625,55.74447],[26.35264,55.74475],[26.39343,55.71443],[26.47551,55.70736],[26.53437,55.67942],[26.63364,55.68473],[26.64042,55.65507],[26.64042,55.59874],[26.63136,55.56404],[26.58307,55.53513],[26.53074,55.51437],[26.56646,55.45662],[26.55947,55.38998],[26.44916,55.34658],[26.55838,55.3291],[26.57104,55.32597],[26.61411,55.33393],[26.66647,55.34137],[26.73296,55.32524],[26.80119,55.32495],[26.83565,55.30775],[26.83873,55.27842],[26.728,55.23839],[26.73199,55.21608],[26.70855,55.16857],[26.67071,55.15589],[26.61713,55.14518],[26.59146,55.15318],[26.57541,55.14769],[26.53945,55.14195],[26.5167,55.15946],[26.46272,55.12688],[26.3961,55.13352],[26.35912,55.14729],[26.30779,55.12394],[26.2623,55.11952],[26.23415,55.10735],[26.27596,55.07674],[26.26522,55.06362],[26.21046,54.99601],[26.11106,54.97212],[26.05494,54.93247],[25.97752,54.95189],[25.91023,54.92961],[25.86261,54.92178],[25.8581,54.89927],[25.77599,54.82205],[25.73858,54.80394],[25.75273,54.76622],[25.75169,54.72186],[25.74035,54.69913],[25.75971,54.62071],[25.76692,54.56986],[25.68535,54.53423],[25.64106,54.46874],[25.63646,54.4227],[25.59681,54.37527],[25.56738,54.36348],[25.55582,54.33255],[25.59382,54.324],[25.68293,54.32541],[25.71429,54.30077],[25.7175,54.27956],[25.75384,54.27152],[25.79162,54.23506],[25.75901,54.22235],[25.78551,54.19583],[25.79648,54.15115],[25.73686,54.1556],[25.63728,54.12241],[25.55145,54.14213],[25.49927,54.17731],[25.52205,54.19248],[25.55111,54.1986],[25.50785,54.2991],[25.47146,54.28788],[25.3937,54.27164],[25.35353,54.26262],[25.22049,54.24457],[25.20624,54.21868],[25.16345,54.18833],[25.07286,54.13046],[24.99956,54.13649],[24.95047,54.16696],[24.83288,54.13086],[24.7855,54.10893],[24.81794,54.07923],[24.8379,54.04084],[24.87957,54.04014],[24.8695,54.02841],[24.82069,53.99536],[24.74207,53.96356],[24.67924,53.95851],[24.69836,54.01324],[24.44858,53.90079],[24.35015,53.89221],[24.17542,53.95871],[24.10469,53.93729],[23.97285,53.91809],[23.9356,53.95437],[23.87963,53.9386],[23.84308,53.95457],[23.80184,53.93168],[23.82019,53.9193],[23.82094,53.90864],[23.79707,53.89726],[23.77235,53.89706],[23.76138,53.92237],[23.71531,53.93399],[23.60619,53.92234],[23.53424,53.93995],[23.533609133990407,53.94036223080803],[23.5315,53.9621],[23.50303,53.98965],[23.53874,54.0239],[23.5437,54.06985],[23.49772,54.16353],[23.39263,54.24002],[23.33759,54.26779],[23.24557,54.27476],[23.15167,54.32963],[23.06567,54.32456],[23.07678,54.34848],[23.02443,54.3707],[23.01785,54.39647],[22.88181,54.4254],[22.82824,54.41991],[22.78781,54.3797],[22.777058307565635,54.37897808690011],[22.76799,54.38564],[22.73706,54.44368],[22.70296,54.45406],[22.70508,54.46718],[22.70323,54.47641],[22.6978,54.48992],[22.69889,54.49305],[22.69743,54.50435],[22.70016,54.50736],[22.6948,54.51038],[22.69174,54.51605],[22.68537,54.51921],[22.68315,54.52433],[22.6847,54.52987],[22.68174,54.53337],[22.68622,54.53838],[22.69256,54.54147],[22.69512,54.54971],[22.7037,54.55321],[22.70756,54.55937],[22.71474,54.56366],[22.70252,54.56938],[22.69999,54.5771],[22.68595,54.58169],[22.68488,54.58593],[22.68656,54.58984],[22.69833,54.59378],[22.70611,54.6019],[22.7207,54.60588],[22.72293,54.61088],[22.72278,54.61667],[22.72628,54.61809],[22.72859,54.62227],[22.74592,54.62589],[22.7496,54.63036],[22.75131,54.63899],[22.74396,54.6437],[22.7461,54.64611],[22.75511,54.6467],[22.75816,54.65291],[22.75612,54.65535],[22.74128,54.66009],[22.73756,54.66532],[22.73273,54.6668],[22.73279,54.6687],[22.73936,54.66974],[22.74131,54.67466],[22.73832,54.67689],[22.73841,54.68038],[22.73084,54.68037],[22.727,54.68542],[22.72773,54.68974],[22.73056,54.6921],[22.73077,54.69582],[22.73337,54.69762],[22.73629,54.69684],[22.74013,54.69814],[22.74107,54.70175],[22.74985,54.70597],[22.74894,54.71283],[22.74413,54.71393],[22.74117,54.71842],[22.7468,54.72517],[22.74451,54.72874],[22.74682,54.73053],[22.75025,54.72966],[22.76747,54.73715],[22.77123,54.74033],[22.77471,54.74704],[22.77853,54.74927],[22.78259,54.74807],[22.78608,54.749],[22.78728,54.751],[22.79494,54.75189],[22.79928,54.74658],[22.80766,54.74715],[22.8082,54.75108],[22.81252,54.75096],[22.81674,54.75533],[22.81477,54.75772],[22.80854,54.7573],[22.80999,54.76036],[22.81334,54.76185],[22.81399,54.7655],[22.82126,54.76574],[22.82625,54.76303],[22.8317,54.76818],[22.8445,54.76593],[22.85041,54.77084],[22.85033,54.77415],[22.86024,54.77678],[22.85931,54.77928],[22.85202,54.78472],[22.85481,54.78878],[22.8607,54.78733],[22.87204,54.78758],[22.87875,54.79026],[22.87886,54.79367],[22.87311,54.79697],[22.87579,54.79988],[22.87457,54.80523],[22.87879,54.8107],[22.88615,54.81067],[22.88747,54.81468],[22.88555,54.81656],[22.88121,54.81696],[22.87724,54.82053],[22.88099,54.82537],[22.87761,54.833],[22.87594,54.83501],[22.86019,54.8394],[22.86061,54.8424],[22.86497,54.84539],[22.86547,54.84835],[22.87006,54.85016],[22.86963,54.85399],[22.85967,54.85909],[22.84841,54.86233],[22.84402,54.86213],[22.84112,54.86409],[22.84509,54.87508],[22.84887,54.88039],[22.85519,54.8843],[22.85639,54.88665],[22.853,54.89053],[22.8484,54.89162],[22.84701,54.8981],[22.84199,54.90005],[22.83715,54.89974],[22.83639,54.90473],[22.8266,54.90732],[22.8205,54.91298],[22.80934,54.91085],[22.8021,54.90699],[22.79921,54.90348],[22.79373,54.9046],[22.78888,54.90859],[22.79011,54.91144],[22.78868,54.91391],[22.78951,54.92045],[22.7833,54.92579],[22.76839,54.92436],[22.76158,54.91789],[22.75504,54.91945],[22.75045,54.92474],[22.7553,54.92842],[22.7675,54.93202],[22.76708,54.93616],[22.76279,54.93865],[22.74313,54.93999],[22.74122,54.9454],[22.73421,54.94809],[22.72909,54.95506],[22.73063,54.95978],[22.72669,54.96402],[22.71399,54.9687],[22.7075,54.97447],[22.70741,54.9745],[22.701,54.97458],[22.69529,54.9716],[22.69059,54.97244],[22.68844,54.98135],[22.67842,54.98844],[22.67052,54.9891],[22.65858,54.98249],[22.65837,54.97915],[22.66353,54.97411],[22.66283,54.97068],[22.66545,54.96859],[22.66329,54.96543],[22.66102,54.96553],[22.65749,54.9688],[22.65312,54.966],[22.64459,54.97077],[22.64292,54.97233],[22.64242,54.97825],[22.64469,54.98189],[22.64381,54.98472],[22.63742,54.98546],[22.63583,54.99015],[22.62865,54.99537],[22.62926,54.99805],[22.62565,55.00496],[22.61633,55.01031],[22.61438,55.01369],[22.60413,55.01434],[22.60285,55.02063],[22.59788,55.02428],[22.59559,55.0332],[22.5982,55.03689],[22.59838,55.04519],[22.59809,55.04645],[22.59191,55.05289],[22.59281,55.06052],[22.58929,55.07125],[22.57373,55.0707],[22.54731,55.06661],[22.54393,55.06591],[22.49101,55.04867],[22.47051,55.04552],[22.45718,55.04606],[22.42558,55.05495],[22.39458,55.0543],[22.34843,55.06262],[22.31577,55.06287],[22.29144,55.06576],[22.21803,55.06134],[22.18572,55.05468],[22.1585,55.05664],[22.13294,55.04711],[22.12987,55.0434],[22.12682,55.03495],[22.12008,55.02866],[22.10021,55.02515],[22.07595,55.02599],[22.04817,55.0348],[22.03765,55.04323],[22.03182,55.05517],[22.03357,55.05982],[22.0405,55.06841],[22.04147,55.07695],[22.03998,55.08138],[22.03276,55.08503],[22.01218,55.0879],[21.99758,55.08772],[21.98312,55.08482],[21.97029,55.07644],[21.96538,55.07487],[21.91659,55.08197],[21.87968,55.0946],[21.84893,55.09837],[21.82394,55.11617],[21.81647,55.11966],[21.8052,55.12115],[21.7781,55.1204],[21.76107,55.12416],[21.74331,55.13065],[21.72288,55.13402],[21.71796,55.13756],[21.71625,55.14741],[21.7104,55.15212],[21.68638,55.16457],[21.67047,55.16877],[21.65582,55.17907],[21.64952,55.18176],[21.61371,55.18806],[21.59493,55.18888],[21.57771,55.19743],[21.57019,55.19913],[21.53986,55.1972],[21.51488,55.18626],[21.50181,55.18778],[21.49557,55.19176],[21.48878,55.20172],[21.44997,55.22232],[21.43745,55.23821],[21.43205,55.25288],[21.41721,55.26343],[21.40741,55.27867],[21.3845,55.29469],[21.37782,55.2942],[21.37403,55.28849],[21.35656,55.28588],[21.34464,55.27909],[21.33206,55.27622],[21.31961,55.26711],[21.30583,55.26189],[21.2995,55.25509],[21.27156,55.24625],[21.09855,55.25738],[20.98373,55.27865],[20.95382,55.28185],[20.92965,55.29541],[20.65365,55.3899],[20.63142073949347,55.372204041290026],[20.61859,55.37599],[20.65327,56.05019],[21.05836,56.07245],[21.15687,56.08975],[21.19154,56.07974],[21.21865,56.16322],[21.33457,56.22991],[21.45019,56.25301],[21.49547,56.29998],[21.60084,56.3312],[21.69082,56.32222],[21.83741,56.37445],[21.95892,56.39034],[21.99189,56.42669],[22.13101,56.4341],[22.32302,56.41398]]]}}
