{"type":"Feature","properties":{"sourceId":"lesotho"},"geometry":{"type":"Polygon","coordinates":[[[28.00681,-30.66803],[27.94017,-30.65351],[27.90915,-30.61378],[27.79341,-30.62794],[27.73804,-30.61166],[27.69284,-30.56041],[27.67036,-30.53543],[27.66315,-30.52641],[27.64512,-30.52064],[27.6071,-30.50223],[27.59542,-30.45149],[27.57002,-30.44927],[27.56607,-30.44438],[27.56264,-30.43343],[27.56753,-30.42766],[27.532,-30.38872],[27.50702,-30.38931],[27.48616,-30.37332],[27.47269,-30.35629],[27.4617,-30.31569],[27.39407,-30.34384],[27.37741,-30.33925],[27.36557,-30.27367],[27.36385,-30.25959],[27.3636,-30.21658],[27.36609,-30.19076],[27.40196,-30.14483],[27.323,-30.15196],[27.29261,-30.05676],[27.26824,-30.04606],[27.21605,-30.01173],[27.18035,-29.91239],[27.09538,-29.73338],[27.01006,-29.66359],[27.0092,-29.64853],[27.01298,-29.6151],[27.03597,-29.60502],[27.05521,-29.63092],[27.06396,-29.59376],[27.08737,-29.59883],[27.11718,-29.57585],[27.15597,-29.55703],[27.197,-29.56301],[27.22258,-29.53911],[27.24318,-29.55061],[27.25382,-29.53105],[27.29708,-29.51596],[27.29862,-29.49833],[27.32746,-29.47741],[27.35682,-29.48204],[27.35167,-29.4532],[27.39235,-29.4091],[27.41896,-29.40655],[27.40316,-29.37559],[27.39973,-29.36333],[27.41209,-29.36108],[27.4308,-29.36991],[27.43183,-29.33325],[27.44608,-29.32592],[27.46651,-29.31993],[27.45449,-29.30721],[27.45037,-29.29748],[27.51732,-29.27307],[27.52401,-29.26304],[27.53981,-29.25675],[27.54049,-29.24612],[27.52006,-29.24147],[27.51011,-29.22425],[27.57963,-29.16236],[27.6095,-29.16146],[27.59766,-29.13687],[27.64624,-29.10253],[27.63542,-29.08588],[27.63679,-29.04356],[27.6646,-29.03531],[27.6828,-29.00138],[27.69877,-29.00379],[27.7161,-28.94442],[27.75311,-28.92281],[27.74941,-28.89017],[27.80988,-28.90898],[27.82914,-28.9027],[27.85171,-28.90097],[27.85695,-28.90803],[27.87274,-28.91622],[27.88613,-28.91329],[27.89283,-28.90743],[27.89583,-28.89421],[27.88424,-28.88917],[27.89403,-28.8776],[27.91781,-28.85858],[27.93823,-28.84528],[27.96372,-28.85866],[27.98338,-28.87437],[28.02295,-28.85806],[28.04964,-28.81625],[28.11676,-28.73937],[28.18354,-28.69059],[28.23469,-28.69285],[28.25872,-28.69827],[28.28482,-28.70836],[28.30404,-28.68953],[28.35039,-28.69254],[28.36378,-28.66483],[28.3976,-28.62295],[28.47296,-28.60246],[28.59552,-28.59854],[28.62007,-28.57864],[28.65149,-28.56734],[28.66779,-28.57683],[28.68513,-28.5895],[28.70659,-28.61843],[28.71071,-28.6686],[28.75311,-28.6814],[28.813,-28.70479],[28.81625,-28.75976],[28.85794,-28.7473],[28.88264,-28.76237],[28.90878,-28.75061],[28.95055,-28.77709],[28.96098,-28.8583],[28.98544,-28.89919],[29.00694,-28.87671],[29.0258,-28.87555],[29.04821,-28.90424],[29.08342,-28.91159],[29.16417,-28.99128],[29.21868,-29.0172],[29.25588,-29.07444],[29.31905,-29.07364],[29.3645,-29.12466],[29.35537,-29.18333],[29.41296,-29.20471],[29.44703,-29.26464],[29.46393,-29.33355],[29.45663,-29.37493],[29.40473,-29.45473],[29.3133,-29.49779],[29.33453,-29.58092],[29.30122,-29.59631],[29.28823,-29.64896],[29.23605,-29.65227],[29.17293,-29.68895],[29.13934,-29.77723],[29.13988,-29.82799],[29.12542,-29.84528],[29.16927,-29.8781],[29.17816,-29.91736],[29.11865,-29.94551],[29.10866,-29.97396],[29.08493,-29.9679],[28.99062,-30.03805],[28.79306,-30.11756],[28.75584,-30.11605],[28.66974,-30.14901],[28.55188,-30.13226],[28.47382,-30.1642],[28.40637,-30.15572],[28.37051,-30.18034],[28.35122,-30.23896],[28.30566,-30.26418],[28.26405,-30.26366],[28.22897,-30.28216],[28.22287,-30.29647],[28.26336,-30.3194],[28.27946,-30.35493],[28.26617,-30.41844],[28.18912,-30.44543],[28.17106,-30.46546],[28.18899,-30.49298],[28.18549,-30.5272],[28.16949,-30.54551],[28.16783,-30.57707],[28.12342,-30.60901],[28.13227,-30.66109],[28.11075,-30.68472],[28.08164,-30.6651],[28.00681,-30.66803]]]}}
