{"type":"Feature","properties":{"sourceId":"libya"},"geometry":{"type":"Polygon","coordinates":[[[11.562,24.11972],[10.35516,24.51512],[10.18087,24.65477],[9.374405,26.18864],[9.742343,27.3032],[9.858723,28.78537],[9.6405,29.61884],[9.399669,30.05313],[9.377517,30.17837],[9.54598380107639,30.24059279205582],[9.554672,30.20864],[9.890441,30.32962],[10.10399,30.49957],[10.34294,30.86569],[10.31891,31.09058],[10.28869,31.51534],[10.54001,31.72642],[10.64541,31.8761],[10.63133,31.91254],[10.66424,31.97069],[10.72139,31.96235],[10.79956,31.99643],[11.59744,32.42576],[11.60877,32.52047],[11.53152,32.63938],[11.56494,33.13808],[11.56749,33.16578],[11.67125,33.34739],[11.677473891546846,33.37017081464088],[21.68181,33.57972],[25.27817,32.11399],[25.377658249903124,31.8004351586251],[25.18177,31.78286],[25.03277,31.54558],[24.79244,31.36077],[24.62628,30.12385],[24.89501,29.16176],[24.97695706034788,22.02412231895815],[24.97561,22.02412],[23.94275,20.03694],[23.944937849821223,19.55995253876937],[19.36615,22.00418],[16.00874,23.53793],[14.92914,23.01763],[14.931922287259392,22.983840372739383],[14.2307,22.64942],[13.56139,23.22669],[11.9659,23.56864],[11.944043719167672,23.555761045774194],[11.562,24.11972]]]}}
