{"type":"Feature","properties":{"sourceId":"liaoning"},"geometry":{"type":"Polygon","coordinates":[[[121.8191,38.26191],[120.7499,38.59848],[120.005,39.415],[119.8351,40.00605],[119.8387,40.02104],[119.8401,40.02656],[119.8378,40.03498],[119.8232,40.04588],[119.81,40.04483],[119.8009,40.03957],[119.7906,40.03629],[119.7704,40.03944],[119.752,40.056],[119.751,40.08122],[119.7235,40.10696],[119.7338,40.11642],[119.7427,40.13427],[119.7369,40.18937],[119.7043,40.18989],[119.6631,40.22922],[119.6195,40.21506],[119.6109,40.22712],[119.6384,40.2701],[119.5886,40.3298],[119.5762,40.37375],[119.5876,40.40461],[119.5827,40.45687],[119.5385,40.49683],[119.5347,40.50936],[119.5556,40.52763],[119.5364,40.54042],[119.4756,40.5258],[119.4221,40.52972],[119.304,40.52293],[119.2545,40.53024],[119.2102,40.55737],[119.2102,40.56833],[119.2216,40.59075],[119.1872,40.59884],[119.1484,40.59336],[119.1268,40.63219],[119.1708,40.66345],[119.1581,40.68246],[119.1155,40.65434],[119.076,40.66501],[119.0461,40.65616],[119.043,40.67126],[118.983,40.68663],[118.9133,40.74023],[118.88,40.75],[118.8861,40.7691],[118.8381,40.79692],[118.8305,40.81641],[118.8607,40.86082],[118.8858,40.95527],[118.9088,40.97238],[118.9414,40.96072],[118.9651,40.96227],[118.9929,40.97005],[118.9984,40.99959],[118.9311,41.0141],[118.9201,41.04466],[118.9545,41.08142],[119.05,41.1],[119.0733,41.1404],[119.16,41.19],[119.14,41.21],[119.2278,41.27007],[119.2223,41.31444],[119.2401,41.32887],[119.306,41.35362],[119.28,41.39],[119.2928,41.40166],[119.3464,41.41698],[119.3663,41.45958],[119.3888,41.49804],[119.3532,41.54032],[119.3507,41.56447],[119.381,41.56807],[119.4008,41.5673],[119.4003,41.57834],[119.4087,41.58245],[119.3531,41.60569],[119.3309,41.61403],[119.3232,41.62763],[119.3053,41.6352],[119.2978,41.64778],[119.3002,41.67189],[119.2902,41.69624],[119.2871,41.73622],[119.3033,41.7562],[119.281,41.76978],[119.2779,41.78923],[119.2995,41.80408],[119.3053,41.83222],[119.3122,41.85729],[119.3114,41.97008],[119.3417,41.98948],[119.3592,42.02277],[119.3711,42.05681],[119.3694,42.07631],[119.3484,42.1009],[119.3021,42.11924],[119.2726,42.15895],[119.2252,42.19699],[119.2544,42.23017],[119.271,42.2627],[119.293,42.2721],[119.3417,42.3022],[119.3998,42.31197],[119.4403,42.33317],[119.4765,42.34903],[119.4931,42.39735],[119.5031,42.39773],[119.5137,42.38721],[119.5182,42.37478],[119.5331,42.36539],[119.5615,42.36514],[119.5762,42.34332],[119.556,42.30702],[119.6174,42.26689],[119.7465,42.21784],[119.8203,42.21835],[119.8516,42.21682],[119.8577,42.16875],[119.8447,42.11605],[119.9137,42.0164],[119.957,41.96945],[119.9573,41.92731],[119.9916,41.9056],[120.0131,41.83146],[120.0392,41.81572],[120.0474,41.77144],[120.0431,41.75543],[120.0377,41.71265],[120.0806,41.70547],[120.1139,41.72495],[120.1221,41.77208],[120.1829,41.84859],[120.2625,41.92834],[120.289,41.94264],[120.3295,41.98808],[120.395,42.0],[120.4383,42.0572],[120.4798,42.07019],[120.451,42.09822],[120.465,42.13],[120.7377,42.22292],[120.8675,42.27096],[120.9293,42.28163],[121.0264,42.2552],[121.1486,42.31972],[121.1854,42.36336],[121.2678,42.38949],[121.3004,42.4417],[121.3543,42.46273],[121.4037,42.48552],[121.4721,42.49767],[121.5514,42.49412],[121.6066,42.51665],[121.6156,42.49235],[121.6447,42.47286],[121.6602,42.44322],[121.6973,42.44651],[121.7419,42.49033],[121.8078,42.51615],[121.8171,42.53613],[121.8404,42.54221],[121.8761,42.57735],[121.91,42.68],[121.9682,42.70767],[122.0543,42.72432],[122.1,42.72],[122.1175,42.70565],[122.1827,42.69253],[122.1923,42.73062],[122.2723,42.70061],[122.3698,42.69026],[122.3853,42.71625],[122.4327,42.7571],[122.355,42.755],[122.3372,42.83368],[122.4241,42.84501],[122.5659,42.82789],[122.6215,42.77726],[122.7262,42.79238],[122.7945,42.74701],[122.8447,42.72255],[122.8756,42.77172],[122.9226,42.77625],[122.9446,42.7634],[122.9803,42.78331],[123.0386,42.7765],[123.1004,42.80069],[123.1924,42.83041],[123.1581,42.85004],[123.1688,42.923],[123.2343,42.99059],[123.4087,43.03477],[123.4819,43.04556],[123.5522,43.0044],[123.5797,43.04205],[123.625,43.155],[123.6491,43.1819],[123.6319,43.20793],[123.6491,43.26246],[123.692,43.31419],[123.68,43.35539],[123.6951,43.40929],[123.725,43.455],[123.7339,43.46787],[123.7874,43.49303],[123.87,43.47],[123.87,43.415],[123.9598,43.34815],[124.025,43.28845],[124.0837,43.29495],[124.1125,43.28645],[124.1167,43.2502],[124.155,43.26],[124.2076,43.25758],[124.2876,43.22694],[124.2758,43.18065],[124.278,43.17238],[124.2803,43.16425],[124.3021,43.15473],[124.3225,43.14396],[124.3407,43.12467],[124.3592,43.12016],[124.3946,43.08995],[124.4167,43.08017],[124.4217,43.07428],[124.4147,43.0635],[124.3409,42.99712],[124.3676,42.97803],[124.435,42.98],[124.45,42.935],[124.4164,42.91696],[124.3724,42.89307],[124.4384,42.87697],[124.4542,42.85558],[124.5149,42.87672],[124.57,42.925],[124.63,42.985],[124.6842,43.06751],[124.7415,43.06952],[124.7779,43.12103],[124.8806,43.13607],[124.8974,43.12605],[124.8816,43.10073],[124.8871,43.07039],[124.8668,43.05183],[124.8682,43.03276],[124.8483,43.02573],[124.8685,42.9828],[124.8642,42.97288],[124.8664,42.97018],[124.8697,42.96697],[124.8679,42.95875],[124.8652,42.93424],[124.8631,42.91866],[124.8552,42.87143],[124.875,42.81],[124.9245,42.82235],[124.975,42.8],[124.9932,42.76541],[124.995,42.755],[124.9894,42.7228],[124.9856,42.68092],[125.0172,42.66148],[125.033,42.62335],[125.0756,42.62638],[125.0958,42.62057],[125.0867,42.56256],[125.085,42.54],[125.0898,42.51703],[125.0826,42.49982],[125.1434,42.47007],[125.1463,42.44284],[125.1779,42.4341],[125.1971,42.40495],[125.1823,42.38771],[125.1956,42.37757],[125.2012,42.36235],[125.1717,42.34979],[125.1781,42.3253],[125.1698,42.31223],[125.1917,42.30337],[125.1986,42.30055],[125.207,42.2989],[125.2096,42.30106],[125.2136,42.29909],[125.218,42.30023],[125.2204,42.30455],[125.2286,42.30651],[125.2346,42.3114],[125.258,42.31223],[125.2915,42.29382],[125.2963,42.2801],[125.2792,42.26308],[125.318,42.20436],[125.3259,42.14482],[125.345,42.195],[125.3684,42.18503],[125.4113,42.16035],[125.4501,42.16442],[125.4903,42.14202],[125.4845,42.11962],[125.433,42.08778],[125.4096,42.03782],[125.3097,41.9503],[125.35,41.94],[125.3492,41.92272],[125.3162,41.9194],[125.305,41.875],[125.2929,41.83683],[125.3238,41.76465],[125.3351,41.73597],[125.3304,41.71797],[125.3241,41.68163],[125.3629,41.68573],[125.4048,41.69394],[125.4436,41.67701],[125.4642,41.65881],[125.47,41.615],[125.46,41.6],[125.4814,41.54251],[125.5054,41.53428],[125.4955,41.5132],[125.5068,41.49726],[125.55,41.475],[125.54,41.43],[125.5782,41.40128],[125.6132,41.36238],[125.6424,41.34176],[125.6431,41.28297],[125.6795,41.28116],[125.6973,41.25252],[125.7447,41.24916],[125.7584,41.2298],[125.7457,41.18408],[125.7959,41.17374],[125.7564,41.12307],[125.75,41.07],[125.71,41.04408],[125.6877,41.01307],[125.6819,40.97083],[125.6609,40.96305],[125.5888,40.90417],[125.6493,40.91974],[125.6815,40.90858],[125.71935276339293,40.88048046810987],[125.701,40.87762],[125.6679,40.84535],[125.6305,40.82441],[125.6183,40.79471],[125.6353,40.77681],[125.6054,40.77085],[125.5813,40.78803],[125.5558,40.78421],[125.5358,40.76535],[125.5263,40.7346],[125.4708,40.72916],[125.4429,40.7052],[125.4374,40.6814],[125.4043,40.67962],[125.3988,40.64455],[125.3733,40.66269],[125.3257,40.65275],[125.2959,40.66574],[125.271,40.66453],[125.2559,40.65378],[125.2452,40.62374],[125.1777,40.61832],[125.0986,40.57213],[125.0055,40.5377],[124.9875,40.50904],[124.9991,40.48098],[124.9284,40.46802],[124.9136,40.49015],[124.8871,40.48928],[124.8206,40.4227],[124.7374,40.38486],[124.706,40.3286],[124.6052,40.29577],[124.5417,40.25046],[124.5319,40.2303],[124.4733,40.1895],[124.4539,40.18499],[124.4269,40.15501],[124.3975,40.14476],[124.3238,40.06175],[124.3277,40.03886],[124.3556,40.02436],[124.3504,40.0033],[124.284,39.97684],[124.2725,39.96649],[124.2698,39.94752],[124.2324,39.93786],[124.2154,39.92256],[124.2005,39.87022],[124.159,39.82938],[123.697,39.18478],[123.71362980155833,38.72137847807836],[121.8191,38.26191]]]}}
