{"type":"Feature","properties":{"sourceId":"laos"},"geometry":{"type":"Polygon","coordinates":[[[105.4052,14.43867],[105.5045,14.53673],[105.5048,14.8021],[105.5419,14.92953],[105.569,14.99752],[105.478,15.09931],[105.4647,15.13014],[105.4778,15.14612],[105.4627,15.16228],[105.4924,15.20891],[105.579,15.31616],[105.5025,15.31689],[105.4938,15.32086],[105.4643,15.337],[105.4627,15.35372],[105.4881,15.38848],[105.5857,15.42141],[105.5905,15.51009],[105.6061,15.69213],[105.4303,15.75294],[105.3901,15.80167],[105.337,15.91254],[105.3624,16.0195],[105.3131,16.02602],[105.3017,16.03327],[105.2169,16.04433],[105.0829,16.08276],[105.0404,16.09785],[104.9863,16.23479],[104.9548,16.28554],[104.8872,16.34189],[104.7358,16.5314],[104.7301,16.55978],[104.7397,16.63348],[104.7544,16.71439],[104.7325,16.80841],[104.7325,16.90968],[104.7261,17.00393],[104.7296,17.02429],[104.7846,17.13489],[104.8012,17.2178],[104.7994,17.37207],[104.7925,17.40012],[104.7763,17.42305],[104.7513,17.44376],[104.6907,17.52717],[104.5422,17.61009],[104.4673,17.6473],[104.2685,17.8595],[104.2164,17.98461],[104.0993,18.11616],[104.0547,18.21827],[103.9697,18.33149],[103.9253,18.32422],[103.8859,18.28641],[103.8527,18.28021],[103.8203,18.33318],[103.6966,18.33857],[103.6341,18.38581],[103.6001,18.40079],[103.5686,18.40217],[103.4765,18.42392],[103.458,18.42164],[103.4082,18.44574],[103.3156,18.40294],[103.2803,18.36032],[103.303,18.30817],[103.2975,18.29891],[103.2705,18.28674],[103.1759,18.25895],[103.1536,18.16983],[103.0942,18.12954],[103.0765,18.08255],[103.084,18.04256],[103.0736,18.01906],[103.0418,17.97743],[103.0294,17.97003],[103.015,17.96877],[102.9879,17.99131],[102.9599,18.00273],[102.9022,17.97955],[102.8612,17.97073],[102.8234,17.93971],[102.7865,17.93138],[102.7688,17.89814],[102.7408,17.88221],[102.7251,17.87951],[102.6993,17.87507],[102.6816,17.85603],[102.6832,17.83773],[102.7009,17.82089],[102.6959,17.81125],[102.6876,17.80316],[102.6705,17.80116],[102.6361,17.82335],[102.596,17.83221],[102.5866,17.84087],[102.5862,17.85427],[102.6058,17.89348],[102.6117,17.93803],[102.6046,17.95224],[102.5941,17.9591],[102.5591,17.96534],[102.5356,17.96028],[102.4489,17.96371],[102.3473,18.03554],[102.2978,18.04207],[102.1415,18.17925],[102.0888,18.18933],[101.9166,18.00697],[101.7902,18.03631],[101.74,17.89117],[101.6377,17.86698],[101.5891,17.82266],[101.5928,17.76563],[101.3365,17.62848],[101.1712,17.44275],[101.0959,17.45768],[100.9446,17.5588],[100.9759,17.71131],[100.9518,17.76866],[101.0027,17.85343],[100.9917,17.89388],[101.0858,17.96531],[101.1496,18.06369],[101.1539,18.19315],[101.1179,18.26021],[101.1344,18.32436],[101.0642,18.36457],[101.0279,18.44617],[101.0874,18.54196],[101.1526,18.58214],[101.1622,18.62988],[101.2314,18.67988],[101.1977,18.72737],[101.2196,18.89257],[101.3211,19.04292],[101.2327,19.11353],[101.2277,19.2277],[101.1609,19.39145],[101.1896,19.48912],[101.2413,19.50475],[101.25,19.56334],[101.1192,19.54605],[101.0347,19.598],[100.9101,19.59655],[100.7741,19.46119],[100.6412,19.52735],[100.5873,19.47375],[100.4988,19.50156],[100.4615,19.53305],[100.3774,19.74715],[100.4239,19.85689],[100.4877,19.90816],[100.5667,20.10802],[100.5152,20.14077],[100.4518,20.20115],[100.4489,20.232],[100.4154,20.25004],[100.4089,20.26075],[100.407,20.27303],[100.4052,20.281],[100.3933,20.29227],[100.3787,20.31368],[100.3773,20.32455],[100.3748,20.34],[100.3725,20.35014],[100.358,20.35296],[100.3565,20.35948],[100.3553,20.37243],[100.3415,20.38659],[100.3234,20.39568],[100.2762,20.3705],[100.1824,20.26695],[100.1736,20.24372],[100.1562,20.243],[100.1364,20.24565],[100.1092,20.24899],[100.0965,20.25869],[100.0886,20.27045],[100.0906,20.28635],[100.0968,20.30604],[100.0843,20.34497],[100.0828,20.35911],[100.0932,20.3767],[100.1229,20.41073],[100.1151,20.43526],[100.1676,20.64343],[100.2513,20.76161],[100.3712,20.83511],[100.5754,20.83993],[100.5463,20.86752],[100.5239,20.87104],[100.4944,20.8959],[100.5344,21.02623],[100.624,21.06788],[100.7153,21.32044],[100.8183,21.31405],[100.9883,21.4155],[101.1262,21.53553],[101.1358,21.58632],[101.229,21.56267],[101.229,21.48794],[101.1726,21.37672],[101.2557,21.29997],[101.2475,21.23023],[101.2914,21.1995],[101.3903,21.23278],[101.5476,21.26286],[101.6251,21.23727],[101.6739,21.2091],[101.728,21.17436],[101.7575,21.18435],[101.7939,21.2367],[101.7095,21.3125],[101.7091,21.48969],[101.7346,21.5209],[101.7265,21.59423],[101.7911,21.60991],[101.7201,21.7233],[101.7426,21.81259],[101.6713,21.90555],[101.5782,21.95716],[101.5941,22.01122],[101.5239,22.23436],[101.5503,22.29693],[101.5982,22.30078],[101.6211,22.33858],[101.6609,22.499],[101.7845,22.52825],[101.883,22.41453],[101.9128,22.46603],[102.0457,22.4842],[102.139,22.45534],[102.266,22.26491],[102.4521,22.13667],[102.5421,22.04269],[102.5271,21.99401],[102.638,21.92996],[102.6952,21.69116],[102.7358,21.69166],[102.794,21.74718],[102.7849,21.8309],[102.82,21.86946],[102.8758,21.85151],[102.8852,21.74038],[102.9931,21.76311],[103.0184,21.58322],[102.9394,21.48473],[102.968,21.45613],[102.8938,21.27495],[102.9326,21.24604],[102.9941,21.09332],[103.0539,21.07618],[103.1316,20.93699],[103.234,20.91686],[103.2606,20.8551],[103.3946,20.81556],[103.4773,20.85071],[103.5282,20.77922],[103.611,20.76742],[103.7041,20.69382],[103.7974,20.88467],[103.8955,20.9292],[104.0222,20.93135],[104.0355,20.96921],[104.1089,21.00307],[104.3054,20.94579],[104.3781,20.8554],[104.5028,20.78466],[104.5181,20.73729],[104.5692,20.74232],[104.655,20.69146],[104.6451,20.60835],[104.4139,20.46187],[104.4341,20.40667],[104.4717,20.39898],[104.6778,20.49551],[104.7461,20.40547],[104.6491,20.34628],[104.6392,20.26287],[104.8641,20.17203],[104.9356,20.1837],[105.0148,20.11079],[104.996,20.05091],[104.8742,19.91539],[104.854,19.77935],[104.7291,19.72392],[104.6445,19.59714],[104.5178,19.5911],[104.3926,19.66969],[104.3231,19.64046],[104.236,19.67931],[104.0931,19.63651],[104.1442,19.49158],[104.0854,19.3959],[103.9906,19.37235],[103.9433,19.30582],[104.0022,19.26445],[104.0747,19.2738],[104.1956,19.2179],[104.25,19.14393],[104.4069,19.08028],[104.4553,19.01463],[104.5412,19.009],[104.6015,18.92614],[104.7621,18.82443],[104.9236,18.81084],[104.9674,18.76764],[105.1539,18.73404],[105.2246,18.63911],[105.2089,18.58599],[105.1649,18.57932],[105.1076,18.44953],[105.1851,18.3909],[105.2075,18.32557],[105.2865,18.27211],[105.3332,18.27341],[105.5049,18.20754],[105.6051,18.032],[105.6525,17.99804],[105.6285,17.88503],[105.7006,17.83209],[105.7672,17.6915],[105.8715,17.63131],[106.173,17.30775],[106.2485,17.26185],[106.2618,17.31679],[106.3241,17.31208],[106.3531,17.19462],[106.4379,17.09333],[106.4528,17.02889],[106.5101,17.00404],[106.5689,17.02247],[106.5535,16.90089],[106.5582,16.86078],[106.563,16.6859],[106.5844,16.62875],[106.5915,16.62398],[106.5917,16.61806],[106.5905,16.61526],[106.5846,16.6128],[106.5838,16.60687],[106.5877,16.60367],[106.595,16.60679],[106.6053,16.60844],[106.6158,16.60712],[106.672,16.58845],[106.6916,16.46008],[106.7489,16.44164],[106.82,16.55456],[106.8697,16.54797],[106.8993,16.51473],[106.9185,16.39422],[106.9703,16.35305],[106.9727,16.30659],[107.0036,16.31746],[107.0926,16.31483],[107.153,16.27496],[107.1605,16.25353],[107.1526,16.19189],[107.1705,16.17046],[107.2659,16.14803],[107.341,16.06512],[107.4525,16.09908],[107.4637,16.07481],[107.4695,16.0141],[107.4149,15.89262],[107.2511,15.82839],[107.2894,15.71063],[107.4063,15.52319],[107.5304,15.49268],[107.6503,15.41895],[107.6468,15.02007],[107.4822,15.01274],[107.4912,14.95768],[107.6024,14.88437],[107.5483,14.79295],[107.56157772207149,14.717070836025496],[107.5115,14.71875],[107.4133,14.57801],[107.3459,14.62487],[107.2581,14.60288],[107.1494,14.46064],[107.0128,14.4753],[106.9342,14.36585],[106.8319,14.35266],[106.7658,14.45745],[106.6496,14.46194],[106.5389,14.6308],[106.4422,14.58473],[106.3921,14.46644],[106.2376,14.52226],[106.1772,14.39908],[105.9869,14.40666],[105.9582,14.32694],[106.1254,14.05393],[106.0634,13.93621],[105.9007,13.9582],[105.7924,14.09478],[105.5538,14.17126],[105.3842,14.14537],[105.22562743132225,14.360279207713358],[105.4052,14.43867]]]}}
