{"type":"Feature","properties":{"sourceId":"lodzkie"},"geometry":{"type":"Polygon","coordinates":[[[18.16248,51.22723],[18.15456,51.25001],[18.09833,51.25389],[18.09699,51.30471],[18.06227,51.35305],[18.0966,51.37464],[18.12145,51.37202],[18.14455,51.40323],[18.1876,51.40361],[18.19241,51.42219],[18.17699,51.44721],[18.20846,51.46623],[18.32341,51.43544],[18.34184,51.4776],[18.36627,51.4843],[18.36631,51.51031],[18.34565,51.5352],[18.35804,51.58593],[18.33683,51.59772],[18.33769,51.62794],[18.35463,51.6461],[18.34512,51.67279],[18.3903,51.71423],[18.39167,51.75632],[18.41322,51.76785],[18.39723,51.79521],[18.42846,51.81394],[18.43158,51.83527],[18.46827,51.86297],[18.50453,51.86652],[18.52463,51.84972],[18.59691,51.86082],[18.67624,51.83879],[18.68724,51.87402],[18.74117,51.91975],[18.70282,51.96426],[18.70968,52.07503],[18.75353,52.0891],[18.78641,52.07452],[18.82643,52.07992],[18.86405,52.10028],[18.91452,52.09365],[18.9208,52.11275],[18.89988,52.12771],[18.89622,52.15466],[18.9161,52.20619],[18.99106,52.22716],[19.05866,52.22412],[19.08542,52.25427],[19.01863,52.26618],[19.02829,52.2918],[19.01913,52.32194],[19.03862,52.34201],[19.09558,52.36014],[19.16425,52.35654],[19.27126,52.40624],[19.31442,52.39841],[19.34143,52.36161],[19.36237,52.35477],[19.42599,52.35097],[19.4504,52.36386],[19.50484,52.34574],[19.52194,52.31894],[19.61995,52.30009],[19.64929,52.26705],[19.69809,52.29124],[19.74394,52.27358],[19.81566,52.29675],[19.84591,52.28624],[19.89173,52.32361],[19.94087,52.3115],[19.97657,52.27863],[20.04797,52.26884],[20.09171,52.23879],[20.07717,52.19547],[20.10111,52.16438],[20.16389,52.16342],[20.20105,52.13005],[20.25574,52.12938],[20.27913,52.10822],[20.28093,52.07104],[20.22701,52.02122],[20.26917,52.01121],[20.30546,51.97279],[20.2934,51.95231],[20.34481,51.93334],[20.37543,51.95372],[20.40539,51.94429],[20.41591,51.95949],[20.44315,51.9557],[20.48314,51.941],[20.50343,51.90625],[20.57693,51.89914],[20.61619,51.85633],[20.63208,51.81975],[20.59385,51.7964],[20.6052,51.76055],[20.6691,51.7309],[20.66273,51.66881],[20.62366,51.64533],[20.51993,51.65332],[20.46362,51.68017],[20.40681,51.65621],[20.42944,51.63683],[20.44906,51.58791],[20.46779,51.58478],[20.48027,51.56271],[20.46503,51.5159],[20.52733,51.52015],[20.54478,51.45636],[20.50805,51.43618],[20.49335,51.40172],[20.45674,51.39416],[20.43867,51.36025],[20.439694221480732,51.34719583167286],[20.43461,51.34824],[20.42748,51.34018],[20.4198,51.3375],[20.41735,51.33278],[20.40584,51.33049],[20.40398,51.32501],[20.38436,51.3246],[20.37538,51.31924],[20.35909,51.31462],[20.36007,51.30345],[20.38059,51.27429],[20.3784,51.26841],[20.37016,51.26478],[20.37242,51.24907],[20.36961,51.24523],[20.36401,51.24639],[20.35762,51.25508],[20.33182,51.26354],[20.324,51.25701],[20.30729,51.24926],[20.27827,51.25076],[20.26889,51.25583],[20.26705,51.26084],[20.2619,51.26449],[20.24209,51.26308],[20.23537,51.25656],[20.23778,51.25077],[20.23604,51.24268],[20.24799,51.23391],[20.24569,51.22],[20.24976,51.21487],[20.23326,51.21441],[20.22787,51.20686],[20.22281,51.2069],[20.21543,51.21538],[20.20288,51.2093],[20.19723,51.212],[20.17753,51.21281],[20.17056,51.20315],[20.1574,51.2037],[20.15284,51.20004],[20.1214,51.19584],[20.11064,51.19907],[20.09866,51.19745],[20.0784,51.19931],[20.06534,51.20214],[20.05529,51.20812],[20.04664,51.20836],[20.02422,51.206],[20.00846,51.20065],[20.00525,51.19604],[19.99319,51.19111],[19.98864,51.18618],[19.98955,51.18044],[20.01357,51.16134],[19.98558,51.14484],[19.98046,51.13761],[19.98623,51.10083],[19.97595,51.07212],[20.01554,51.06406],[20.03665,51.06294],[20.04277,51.05459],[20.04357,51.01721],[20.03762,51.00635],[20.02698,50.99678],[20.03155,50.98468],[20.03059,50.97979],[20.0133,50.97096],[19.96429,50.99432],[19.96345,51.0055],[19.94989,51.01846],[19.94223,51.01815],[19.93931,51.03001],[19.9033,51.03366],[19.88917,51.05259],[19.87249,51.05277],[19.86054,51.03737],[19.85824,51.02435],[19.85489,51.0193],[19.85513,51.00659],[19.84229,50.99779],[19.82269,50.96933],[19.82208,50.96062],[19.82787,50.94726],[19.83725,50.94299],[19.84088,50.93677],[19.83627,50.9273],[19.83227,50.92323],[19.82002,50.92048],[19.80879,50.9139],[19.79194,50.91302],[19.78586,50.90711],[19.77971,50.89257],[19.77251,50.8895],[19.76976,50.88294],[19.73854,50.86924],[19.75643907689182,50.87709449562517],[19.75061,50.87904],[19.7186,50.85854],[19.68869,50.85952],[19.66978,50.88509],[19.61857,50.89417],[19.57788,50.92124],[19.49055,50.89571],[19.44059,50.97583],[19.39904,51.01284],[19.34079,51.02629],[19.34338,51.04411],[19.32265,51.06011],[19.24211,51.05202],[19.22929,51.03809],[19.2342,51.00581],[19.2101,50.999],[19.12818,51.01647],[19.11101,51.03798],[19.0688,51.04409],[19.0008,51.08774],[18.92311,51.1129],[18.88373,51.07889],[18.85692,51.09002],[18.66514,51.06818],[18.665280319831695,51.065977867993446],[18.58735,51.08939],[18.55663,51.14502],[18.51709,51.14607],[18.50886,51.13522],[18.51009,51.11164],[18.48877,51.09936],[18.46601,51.12685],[18.4371,51.12159],[18.36815,51.14563],[18.31156,51.1417],[18.26235,51.16409],[18.18819,51.16495],[18.16127,51.18146],[18.152245323558567,51.178644221771975],[18.16248,51.22723]]]}}
