{"type":"Feature","properties":{"sourceId":"leicestershire"},"geometry":{"type":"Polygon","coordinates":[[[-1.522283172608627,52.57308473629924],[-1.524379,52.57523],[-1.524238,52.58056],[-1.526751,52.58363],[-1.537212,52.59051],[-1.548686,52.59375],[-1.555523,52.59509],[-1.557898,52.598],[-1.553469,52.61482],[-1.560708,52.62066],[-1.5653929883475681,52.62864854324185],[-1.5652689202631407,52.62919450415726],[-1.563611,52.63143],[-1.566843,52.63451],[-1.5465,52.6414],[-1.541973,52.64709],[-1.54156,52.65405],[-1.545698,52.66048],[-1.552324,52.66932],[-1.565682,52.67819],[-1.568448,52.6804],[-1.575052873155914,52.67971536227681],[-1.580261734405935,52.6823662133351],[-1.584138,52.68604],[-1.5893235217376747,52.688095437575655],[-1.587034,52.69437],[-1.596388,52.70206],[-1.59074,52.70433],[-1.59176,52.70492],[-1.550532,52.72047],[-1.551118,52.72532],[-1.545745,52.73153],[-1.556767,52.73984],[-1.561302,52.7508],[-1.556975,52.75782],[-1.553886,52.75888],[-1.554468,52.76241],[-1.537546,52.76015],[-1.525386,52.7639],[-1.52534,52.76549],[-1.505069,52.76792],[-1.49301,52.75792],[-1.462686,52.77265],[-1.467787,52.77875],[-1.468807,52.77841],[-1.470439,52.78064],[-1.442308,52.79475],[-1.443602,52.79669],[-1.441398,52.80112],[-1.44365,52.80251],[-1.418293,52.80169],[-1.387865,52.83511],[-1.390247,52.83953],[-1.36037,52.85639],[-1.351334,52.85414],[-1.353756,52.85741],[-1.344231,52.86234],[-1.346849,52.86378],[-1.345391,52.86769],[-1.339889,52.86478],[-1.322261,52.8686],[-1.318082,52.86675],[-1.314145,52.87319],[-1.308099,52.87373],[-1.30749,52.87592],[-1.312567,52.87813],[-1.309019,52.87971],[-1.284195,52.87344],[-1.274914,52.87548],[-1.268405,52.87298],[-1.271522,52.86786],[-1.269761,52.86754],[-1.275204,52.8603],[-1.26438,52.85857],[-1.272017,52.85022],[-1.266491,52.8422],[-1.270978,52.83981],[-1.266955,52.83791],[-1.273829,52.8361],[-1.270591,52.82334],[-1.261287,52.82027],[-1.260425,52.81843],[-1.263437,52.81507],[-1.257224,52.80493],[-1.241437,52.80496],[-1.231684,52.79993],[-1.229379,52.79314],[-1.19952,52.79307],[-1.200225,52.79089],[-1.199105,52.78959],[-1.190273,52.7939],[-1.190605,52.79496],[-1.170452,52.80373],[-1.129367,52.80634],[-1.12029,52.8128],[-1.121166,52.81688],[-1.094578,52.82182],[-1.092296,52.82016],[-1.072323,52.82374],[-1.070015,52.82246],[-1.072697,52.81387],[-1.048767,52.80123],[-1.051926,52.79373],[-1.047253,52.78766],[-1.048358,52.78427],[-1.047423,52.78332],[-1.048231,52.78262],[-1.046674,52.78153],[-1.037345,52.8201],[-0.997956,52.8218],[-0.98843,52.81776],[-0.977025,52.82649],[-0.973966,52.83376],[-0.97731,52.8363],[-0.977212,52.84082],[-0.968688,52.84462],[-0.961091,52.84365],[-0.957448,52.8457],[-0.957633,52.84663],[-0.939218,52.85704],[-0.938998,52.85871],[-0.94119,52.86062],[-0.928478,52.86662],[-0.941102,52.87731],[-0.91765,52.87988],[-0.912784,52.88337],[-0.913135,52.88469],[-0.905931,52.88486],[-0.906303,52.88583],[-0.859344,52.90639],[-0.862147,52.90876],[-0.861097,52.90999],[-0.863897,52.91134],[-0.841916,52.92864],[-0.842756,52.9291],[-0.841286,52.93058],[-0.842406,52.931],[-0.836316,52.93915],[-0.822433,52.94402],[-0.833669,52.94569],[-0.830741,52.94846],[-0.832561,52.9496],[-0.819822,52.96094],[-0.813651,52.95727],[-0.809141,52.9659],[-0.80452,52.9672],[-0.803204,52.97151],[-0.777432,52.9776],[-0.777993,52.96117],[-0.776788,52.96107],[-0.777046,52.95951],[-0.755437,52.95142],[-0.767866,52.9274],[-0.765359,52.92516],[-0.777977,52.90504],[-0.775106,52.90281],[-0.780244,52.90112],[-0.776768,52.89825],[-0.777599,52.89784],[-0.775786,52.89584],[-0.776995,52.89041],[-0.764781,52.88607],[-0.762413,52.88758],[-0.744036,52.88352],[-0.681638,52.80703],[-0.681724,52.79108],[-0.677513,52.78968],[-0.6643082206095802,52.75779566813856],[-0.675148,52.75915],[-0.684017,52.75779],[-0.687285,52.75409],[-0.701224,52.74757],[-0.718712,52.74591],[-0.722937,52.74186],[-0.749961,52.7385],[-0.7590834213507006,52.74030714154084],[-0.759124,52.74033],[-0.7591308677363727,52.74031654061716],[-0.76248,52.74098],[-0.767919,52.74498],[-0.776842,52.74513],[-0.7808831343764824,52.74265023135403],[-0.7830724401468657,52.741983753588556],[-0.791504,52.74146],[-0.80172,52.7379],[-0.805675,52.73337],[-0.813915,52.73032],[-0.818457,52.72593],[-0.822934,52.71525],[-0.805648,52.70784],[-0.803627,52.70278],[-0.798641,52.70083],[-0.796728,52.69604],[-0.788215,52.6917],[-0.78471,52.67254],[-0.786503,52.66892],[-0.79106,52.66798],[-0.810891,52.64472],[-0.811179,52.64024],[-0.806998,52.63547],[-0.812163,52.62618],[-0.810053,52.62042],[-0.812444,52.61522],[-0.82042,52.61048],[-0.820115,52.60185],[-0.822125,52.59601],[-0.816796,52.59235],[-0.800032,52.59581],[-0.786884,52.59381],[-0.77473,52.58345],[-0.766918,52.58026],[-0.764017,52.57456],[-0.765089,52.57009],[-0.760743,52.56404],[-0.752964,52.5613],[-0.74331,52.55085],[-0.742323,52.54717],[-0.744981,52.5425],[-0.743066,52.53857],[-0.732831,52.53468],[-0.721866,52.52489],[-0.7149606090387918,52.523681376190176],[-0.715886,52.52261],[-0.729811,52.52205],[-0.72966,52.52104],[-0.739549,52.51877],[-0.739482,52.51733],[-0.74771,52.51728],[-0.747393,52.51523],[-0.751714,52.51337],[-0.750821,52.51243],[-0.779474,52.51822],[-0.788768,52.51396],[-0.811437,52.51829],[-0.812129,52.51673],[-0.838802,52.51874],[-0.84109,52.52094],[-0.845703,52.51975],[-0.844932,52.52156],[-0.858599,52.52463],[-0.860904,52.52715],[-0.869086,52.52739],[-0.868762,52.52616],[-0.871367,52.52501],[-0.870936,52.52221],[-0.872472,52.52115],[-0.87173,52.51966],[-0.881472,52.51617],[-0.881166,52.51518],[-0.883343,52.51432],[-0.880549,52.50913],[-0.881447,52.50727],[-0.879939,52.50505],[-0.882837,52.50373],[-0.879226,52.50017],[-0.88225,52.49347],[-0.895609,52.49233],[-0.896809,52.49082],[-0.894518,52.489],[-0.897907,52.48562],[-0.885197,52.4814],[-0.882394,52.47123],[-0.884544,52.47146],[-0.886119,52.46931],[-0.888998,52.47046],[-0.900685,52.45902],[-0.903445,52.46263],[-0.909461,52.46129],[-0.910735,52.46323],[-0.934446,52.4668],[-0.932612,52.47043],[-0.933549,52.47333],[-0.9373,52.47414],[-0.936443,52.47275],[-0.946513,52.47398],[-0.946431,52.47532],[-0.967507,52.47736],[-0.972766,52.47349],[-0.971345,52.47318],[-1.001213,52.47118],[-1.043593,52.44557],[-1.040041,52.44332],[-1.036426,52.44426],[-1.033248,52.43846],[-1.037979,52.43048],[-1.041808,52.43078],[-1.049527,52.42587],[-1.049706,52.42246],[-1.061134,52.42521],[-1.061134,52.42695],[-1.067835,52.4288],[-1.068971,52.43359],[-1.08054,52.43653],[-1.094302,52.4304],[-1.092924,52.42833],[-1.134287,52.41178],[-1.138798,52.40214],[-1.151042,52.39764],[-1.151406,52.39929],[-1.158479,52.40023],[-1.158883,52.39912],[-1.166187,52.39822],[-1.166736,52.39643],[-1.187689,52.3936],[-1.188173,52.39547],[-1.1999036186557872,52.39642298657582],[-1.201764,52.3987],[-1.239972,52.44075],[-1.242837,52.44096],[-1.26482,52.46142],[-1.306545,52.49502],[-1.415802,52.53542],[-1.418786,52.53874],[-1.426547,52.54153],[-1.458806,52.55287],[-1.497825750157704,52.56415622843025],[-1.522283172608627,52.57308473629924]]]}}
