{"type":"Feature","properties":{"sourceId":"lincolnshire"},"geometry":{"type":"Polygon","coordinates":[[[-0.782954,53.38224],[-0.7848268748848978,53.38280115183651],[-0.790842,53.38598],[-0.776939,53.39012],[-0.777581,53.39753],[-0.789883,53.40687],[-0.788427,53.41493],[-0.808526,53.41985],[-0.818127,53.42847],[-0.816452,53.43295],[-0.820202,53.44137],[-0.8169233743094113,53.442478318310584],[-0.810039,53.44446],[-0.8096379721453898,53.44494110161687],[-0.807393,53.4457],[-0.797882,53.4551],[-0.8139058050171735,53.45749196776248],[-0.818478,53.45853],[-0.8339942207754276,53.46049068391271],[-0.871973,53.46616],[-0.873167,53.46148],[-0.916184,53.46049],[-0.920098,53.46606],[-0.901266,53.47504],[-0.9321042855308409,53.499650044466044],[-0.929855,53.50153],[-0.938054,53.52213],[-0.929062,53.52764],[-0.881983,53.52433],[-0.872461,53.53424],[-0.887537,53.56645],[-0.864262,53.58263],[-0.852889,53.60539],[-0.8616756270120474,53.63752089188821],[-0.848008,53.63416],[-0.8460866006419121,53.63484876978852],[-0.844078,53.63436],[-0.829091,53.64291],[-0.8153079929558866,53.64488254501794],[-0.814178,53.6446],[-0.811737497272769,53.64539353390802],[-0.806312,53.64617],[-0.796356,53.65471],[-0.772838,53.66295],[-0.771293,53.65909],[-0.775928,53.65502],[-0.743656,53.66661],[-0.745029,53.66865],[-0.722257,53.67307],[-0.722701,53.67753],[-0.701599,53.67577],[-0.704955355634334,53.68135315963369],[-0.7045782383290158,53.68215344303395],[-0.695432,53.68679],[-0.698705,53.69406],[-0.695787,53.70158],[-0.688718,53.70178],[-0.66301,53.71457],[-0.638162,53.72164],[-0.597966,53.71966],[-0.556574,53.69671],[-0.536281,53.69348],[-0.478955,53.70827],[-0.433169,53.7079],[-0.38825420155830215,53.715798874160576],[-0.274661,53.72434],[-0.2501709173523854,53.709161273721996],[-0.200687,53.65334],[-0.17157,53.64569],[-0.124535,53.62061],[-0.0999892555764984,53.616080071470805],[-0.096133,53.61369],[-0.0021425125527420514,53.59560262673474],[0.058529,53.56982],[0.078259,53.55447],[0.106448,53.57201],[0.11380228636716312,53.57329040224068],[0.395505,53.51908],[0.494382,53.21097],[0.240325,52.97614],[0.273793,52.82478],[0.264824,52.80488],[0.261777,52.79561],[0.252412,52.79154],[0.247408,52.78521],[0.272511,52.77374],[0.272512,52.77183],[0.23367,52.75936],[0.186435,52.73435],[0.17323165689859127,52.73749869911155],[0.173256,52.73758],[0.170431,52.74155],[0.132453,52.74092],[0.112379,52.73161],[0.098223,52.73192],[0.088467,52.72527],[0.062914,52.72892],[0.047063,52.72018],[0.042574,52.71503],[0.042862,52.69232],[0.047536,52.6886],[0.046936,52.68237],[0.021024,52.6665],[-0.028998,52.66272],[-0.03144,52.66851],[-0.063826,52.67857],[-0.107998,52.6743],[-0.207983,52.67171],[-0.277404,52.66711],[-0.290672,52.67171],[-0.319815,52.67616],[-0.334985,52.67525],[-0.387122,52.65687],[-0.42288,52.64987],[-0.460315,52.65562],[-0.482499,52.64867],[-0.49688794202433567,52.64207925313095],[-0.508654,52.65206],[-0.509686,52.6549],[-0.508263,52.65756],[-0.493908,52.65937],[-0.489767,52.66318],[-0.455607,52.66929],[-0.44526,52.67759],[-0.433014,52.68308],[-0.427868,52.69724],[-0.427654,52.70331],[-0.430579,52.70674],[-0.45091,52.71078],[-0.461411,52.70942],[-0.46537,52.71148],[-0.494172,52.71164],[-0.503313,52.71411],[-0.51276,52.721],[-0.536422,52.72379],[-0.539265,52.72722],[-0.537507,52.7346],[-0.539983,52.73974],[-0.559541,52.74665],[-0.566545,52.74687],[-0.572271,52.75427],[-0.589212,52.75504],[-0.6033,52.75236],[-0.607683,52.76047],[-0.61013,52.76109],[-0.660341,52.7573],[-0.6643082206095802,52.75779566813856],[-0.677513,52.78968],[-0.681724,52.79108],[-0.681638,52.80703],[-0.6817507861668574,52.80716825785927],[-0.681738,52.80724],[-0.683507,52.81197],[-0.6906495555126458,52.81807673036255],[-0.7061083064350319,52.83702669443276],[-0.710883,52.84508],[-0.71756788475725,52.85107431047601],[-0.744036,52.88352],[-0.762413,52.88758],[-0.764781,52.88607],[-0.7673624781348707,52.88698727649462],[-0.767664,52.88785],[-0.761542,52.8992],[-0.765467,52.90166],[-0.773969,52.90155],[-0.775510434461973,52.902676972705194],[-0.775106,52.90281],[-0.7775150702900191,52.904681204021855],[-0.7754877982124836,52.90900915041725],[-0.765359,52.92516],[-0.7665669829747362,52.92623933061963],[-0.766908,52.92882],[-0.763016,52.93419],[-0.7605652625060031,52.94150923763825],[-0.755437,52.95142],[-0.777046,52.95951],[-0.776788,52.96107],[-0.777993,52.96117],[-0.777432,52.9776],[-0.7786692098564799,52.97730764364326],[-0.7786005579739343,52.979174618215346],[-0.775901,52.97954],[-0.776448,52.98423],[-0.787212,52.9922],[-0.78651,52.99347],[-0.79174,52.99633],[-0.791433,52.99722],[-0.803942,53.00605],[-0.803816,53.01273],[-0.795648,53.0104],[-0.786446,53.02575],[-0.781258,53.02447],[-0.761655,53.02944],[-0.7612007044512983,53.03041797753256],[-0.761161,53.03043],[-0.7610857311139363,53.03066548455988],[-0.758473,53.03629],[-0.755593,53.0369],[-0.748993,53.05488],[-0.73863,53.05412],[-0.738906,53.05507],[-0.732861674479604,53.05579844475266],[-0.730821,53.05579],[-0.7303319016758577,53.05610332570556],[-0.725215,53.05672],[-0.725479,53.05757],[-0.715721,53.0593],[-0.71278,53.06276],[-0.716012,53.06466],[-0.7017034489485506,53.064872338048254],[-0.701057,53.06475],[-0.7008930954097379,53.06488436364666],[-0.697144,53.06494],[-0.698083,53.07632],[-0.709903,53.07937],[-0.70669,53.08369],[-0.729387,53.09766],[-0.719703,53.10952],[-0.7190784887141992,53.11442584576548],[-0.717753,53.1164],[-0.718216,53.11837],[-0.7185607274793597,53.11849311695691],[-0.718402,53.11974],[-0.730891,53.1238],[-0.732119,53.12752],[-0.715767,53.1368],[-0.723357,53.15469],[-0.716971,53.17063],[-0.719375,53.17727],[-0.729762,53.17804],[-0.730242,53.17995],[-0.764251,53.18172],[-0.76213,53.18807],[-0.754266,53.18818],[-0.7471832766639841,53.1958742952745],[-0.7318568582041566,53.21079251054423],[-0.716111,53.20794],[-0.7124437982073524,53.21061579429796],[-0.6994825047389286,53.21988453072432],[-0.676101,53.21722],[-0.672556170731954,53.226117709019896],[-0.667631,53.23383],[-0.6679627271835135,53.23764749536583],[-0.666651,53.24094],[-0.680476,53.25207],[-0.682838,53.25147],[-0.688781,53.2585],[-0.7021604189560054,53.25711875335441],[-0.712973,53.25711],[-0.7245773074049949,53.254804508462584],[-0.73392,53.25384],[-0.735369,53.24336],[-0.777287,53.24648],[-0.778426,53.2526],[-0.770243,53.25345],[-0.77316,53.2595],[-0.7670675974447573,53.270292384704],[-0.765394,53.27244],[-0.7657436072369883,53.27263776676584],[-0.765048,53.27387],[-0.778355,53.28377],[-0.767325,53.29138],[-0.765333,53.29835],[-0.76085,53.29942],[-0.759,53.298],[-0.758573,53.29316],[-0.751457,53.29323],[-0.747686,53.30497],[-0.754019,53.31194],[-0.750461,53.32468],[-0.760708,53.32482],[-0.766493,53.33069],[-0.7639048245810793,53.333159321217316],[-0.761741,53.33398],[-0.7594571433017144,53.33740275605977],[-0.756672,53.34006],[-0.764951,53.34612],[-0.758668,53.35321],[-0.774412,53.36467],[-0.780695,53.36157],[-0.791044,53.36364],[-0.790674,53.36881],[-0.783061,53.37598],[-0.775004,53.37761],[-0.7813173418423296,53.38094644849225],[-0.782954,53.38224]]]}}
