{"type":"Feature","properties":{"sourceId":"lubelskie"},"geometry":{"type":"Polygon","coordinates":[[[23.21694,52.24308],[23.37004,52.2232],[23.42699,52.19246],[23.50289,52.19466],[23.53134,52.14884],[23.6252,52.12289],[23.66593,52.08244],[23.70452,51.99051],[23.64186,51.91306],[23.65357,51.89163],[23.62924,51.84555],[23.65647,51.79668],[23.64022,51.76752],[23.55861,51.73711],[23.57681,51.70134],[23.55996,51.6098],[23.59125,51.55103],[23.67929,51.49534],[23.71817,51.42267],[23.69945,51.35995],[23.65868,51.31562],[23.70142,51.30577],[23.75838,51.22762],[23.88023,51.16154],[23.87817,51.10977],[23.92402,51.08361],[23.94221,51.02821],[24.01115,50.9397],[24.1508,50.88422],[24.16102,50.86387],[24.10375,50.82078],[24.00293,50.82387],[23.98052,50.79937],[24.03628,50.77575],[24.03779,50.73725],[24.08414,50.73048],[24.11362,50.63976],[24.10563,50.55474],[24.0454,50.43354],[24.00306,50.39743],[23.73125,50.37196],[23.69628,50.31965],[23.55406,50.23654],[23.55359031876828,50.236762378808244],[23.5536,50.25202],[23.54577,50.26356],[23.52006,50.26913],[23.52123,50.30128],[23.49458,50.30569],[23.47129,50.30065],[23.45831,50.3089],[23.42309,50.3105],[23.4414,50.34872],[23.41667,50.35712],[23.40756,50.37015],[23.3852,50.37446],[23.38813,50.38536],[23.37808,50.39341],[23.38814,50.3938],[23.39105,50.41008],[23.35675,50.41625],[23.34875,50.40701],[23.31498,50.3978],[23.3013,50.38527],[23.27687,50.38157],[23.255,50.37008],[23.22046,50.39334],[23.17977,50.40194],[23.08785,50.33622],[23.06393,50.32835],[23.04861,50.30957],[23.01677,50.29328],[22.88945,50.3074],[22.85443,50.30082],[22.82106,50.30797],[22.75089,50.30919],[22.70764,50.29819],[22.61691,50.3146],[22.61514,50.32509],[22.68967,50.34002],[22.69269,50.3604],[22.62464,50.36346],[22.59703,50.35528],[22.56391,50.36469],[22.50949,50.35184],[22.50631,50.3582],[22.48488,50.3595],[22.45863,50.37294],[22.45816,50.39124],[22.44291,50.39724],[22.43979,50.40498],[22.41407,50.40494],[22.4176,50.41563],[22.44825,50.41352],[22.45488,50.42709],[22.46454,50.4312],[22.46232,50.45562],[22.50129,50.44919],[22.51562,50.45362],[22.53154,50.44138],[22.55504,50.45507],[22.5694,50.45465],[22.57292,50.46677],[22.59047,50.47347],[22.59311,50.48171],[22.58796,50.48828],[22.57379,50.48798],[22.58271,50.50343],[22.57352,50.51495],[22.54229,50.51367],[22.53968,50.54016],[22.53203,50.54225],[22.54378,50.5475],[22.54035,50.57637],[22.52141,50.58883],[22.48646,50.58699],[22.46639,50.59772],[22.41839,50.58783],[22.35022,50.62005],[22.29016,50.6288],[22.25423,50.62715],[22.25196,50.63743],[22.22602,50.66497],[22.20586,50.67225],[22.15982,50.67437],[22.17359,50.68487],[22.18284,50.69974],[22.18006,50.70957],[22.21094,50.75643],[22.18757,50.77195],[22.16501,50.7754],[22.16552,50.80261],[22.05272,50.82591],[21.99483,50.79003],[21.97254,50.79347],[21.94642,50.77797],[21.88667,50.78553],[21.87966,50.80229],[21.871715547510423,50.80482510276882],[21.87467,50.80965],[21.8758,50.81663],[21.86622,50.83],[21.84925,50.84174],[21.85255,50.85496],[21.85215,50.86566],[21.83703,50.8873],[21.83655,50.90619],[21.81884,50.93784],[21.81905,50.95281],[21.82574,50.96601],[21.82365,50.97644],[21.82755,50.9874],[21.82675,51.00452],[21.8239,51.01308],[21.80991,51.02627],[21.83115,51.04129],[21.83184,51.04961],[21.82843,51.05932],[21.80541,51.07735],[21.79723,51.07751],[21.787021453541104,51.075178418401364],[21.78662,51.07562],[21.77039,51.18086],[21.80891,51.27125],[21.78141,51.2738],[21.77122,51.29843],[21.8114,51.31507],[21.83044,51.36205],[21.76285,51.37989],[21.74845,51.40013],[21.76027,51.42353],[21.79785,51.43973],[21.83775,51.437],[21.85055,51.46521],[21.83612,51.4812],[21.83999,51.50685],[21.81717,51.54951],[21.75225,51.54781],[21.65427,51.5688],[21.60285,51.61727],[21.64534,51.67249],[21.72711,51.64906],[21.73992,51.62973],[21.76493,51.65828],[21.82193,51.66148],[21.83853,51.68407],[21.8663,51.69202],[21.85741,51.72079],[21.8263,51.73606],[21.82589,51.75686],[21.93618,51.80087],[21.91861,51.82428],[21.85824,51.81669],[21.83333,51.83715],[21.83758,51.85996],[21.87625,51.86894],[21.8899,51.89381],[21.85405,51.94052],[21.87195,51.98055],[22.03048,52.03445],[22.11428,52.01511],[22.15486,52.0408],[22.25337,52.01951],[22.29587,52.04974],[22.32611,52.04838],[22.3446,52.01093],[22.37618,52.02859],[22.4273,52.0299],[22.47661,52.07805],[22.50274,52.08263],[22.62142,52.0369],[22.6505,52.05004],[22.6383,52.0986],[22.69977,52.13048],[22.78711,52.08466],[22.82824,52.0943],[22.88119,52.07886],[22.88584,52.11282],[22.92612,52.12367],[22.9237,52.14444],[22.96578,52.16687],[22.97043,52.18314],[23.01911,52.1887],[23.02275,52.2258],[23.07146,52.24926],[23.11362846392224,52.28802888288262],[23.12953,52.27689],[23.15553,52.27112],[23.17991,52.27431],[23.21239,52.27473],[23.2096,52.29415],[23.21694,52.24308]]]}}
