{"type":"Feature","properties":{"sourceId":"liberecky"},"geometry":{"type":"Polygon","coordinates":[[[15.54116,50.75829],[15.57104,50.74461],[15.57475,50.73461],[15.56956,50.72773],[15.56641,50.68601],[15.58604,50.65248],[15.56773,50.63809],[15.58144,50.63239],[15.59093,50.62276],[15.59483,50.61791],[15.60273,50.61435],[15.58162,50.59918],[15.58466,50.59626],[15.57427,50.58163],[15.59522,50.57429],[15.58814,50.56754],[15.60222,50.56007],[15.61329,50.54845],[15.62367,50.53978],[15.62891,50.53542],[15.63443,50.52243],[15.58299,50.51218],[15.56424,50.52528],[15.56104,50.52152],[15.54473,50.51414],[15.53608,50.51167],[15.51209,50.51652],[15.49798,50.53032],[15.49476,50.53247],[15.49424,50.53468],[15.49557,50.53722],[15.49634,50.54052],[15.47862,50.54641],[15.48012,50.54172],[15.48153,50.5315],[15.46534,50.52494],[15.43939,50.52162],[15.44334,50.5072],[15.44296,50.50368],[15.446,50.503],[15.45279,50.50232],[15.45536,50.50068],[15.4412,50.4855],[15.42641,50.48879],[15.42905,50.48418],[15.42845,50.48073],[15.39022,50.47901],[15.38644,50.48476],[15.37829,50.49159],[15.38494,50.49104],[15.38193,50.49773],[15.38387,50.49952],[15.38236,50.50299],[15.38337,50.50476],[15.37968,50.50819],[15.37854,50.50703],[15.3738,50.50472],[15.37232,50.5042],[15.37135,50.50332],[15.37167,50.49974],[15.37155,50.49591],[15.36764,50.49337],[15.34949,50.50322],[15.34402,50.50303],[15.33504,50.51199],[15.31198,50.50941],[15.29965,50.51441],[15.30235,50.51748],[15.29839,50.51882],[15.29429,50.51953],[15.29045,50.52133],[15.28839,50.52052],[15.28328,50.52189],[15.27501,50.52057],[15.26442,50.52017],[15.26143,50.51725],[15.24688,50.50628],[15.2419,50.49558],[15.22287,50.49396],[15.19113,50.50379],[15.14701,50.51662],[15.13259,50.52822],[15.11831,50.52885],[15.11609,50.52992],[15.11463,50.53232],[15.10957,50.53253],[15.10756,50.53229],[15.10587,50.5316],[15.10432,50.53142],[15.102,50.53274],[15.09953,50.53468],[15.09734,50.53446],[15.09534,50.543],[15.09004,50.55078],[15.0888,50.55589],[15.07435,50.56012],[15.07504,50.56254],[15.07118,50.56337],[15.06818,50.56466],[15.06635,50.56604],[15.06487,50.56995],[15.05837,50.57021],[15.05017,50.56701],[15.03936,50.56502],[15.03608,50.5731],[15.03548,50.57948],[15.03196,50.57768],[15.0297,50.57841],[15.02284,50.5849],[15.01722,50.58614],[15.00533,50.59845],[14.99342,50.59942],[14.98655,50.60096],[14.98488,50.60157],[14.98306,50.6015],[14.97383,50.60206],[14.97555,50.59839],[14.96816,50.5913],[14.96213,50.59399],[14.95774,50.59362],[14.9451,50.59853],[14.93975,50.60404],[14.92962,50.60737],[14.93008,50.6156],[14.91275,50.61737],[14.9194,50.60622],[14.9001,50.60252],[14.9104,50.58557],[14.89524,50.57931],[14.84858,50.57112],[14.86242,50.55696],[14.85276,50.55242],[14.82809,50.5372],[14.75237,50.55513],[14.75344,50.54164],[14.75884,50.53214],[14.75833,50.52418],[14.75215,50.51555],[14.73782,50.51747],[14.72674,50.5191],[14.72069,50.49752],[14.69068,50.49065],[14.69303,50.48429],[14.69353,50.47871],[14.65136,50.48449],[14.65104,50.47886],[14.64151,50.47947],[14.6343,50.48444],[14.63096,50.48012],[14.61791,50.47821],[14.61064,50.47113],[14.58953,50.47232],[14.58624,50.47469],[14.58195,50.47884],[14.57585,50.48995],[14.57448,50.4941],[14.5759,50.50224],[14.57645,50.50835],[14.57817,50.50977],[14.5689,50.50966],[14.56701,50.50614],[14.56006,50.50415],[14.55328,50.50349],[14.55448,50.49585],[14.54744,50.49492],[14.53191,50.49656],[14.518,50.50857],[14.51121,50.50822],[14.50055,50.49055],[14.48702,50.49888],[14.48509,50.5033],[14.48419,50.50789],[14.47874,50.51313],[14.47406,50.51678],[14.46959,50.5241],[14.46942,50.52571],[14.46535,50.52581],[14.45981,50.52551],[14.45788,50.52674],[14.45466,50.52759],[14.44664,50.528],[14.43998,50.52925],[14.43595,50.53534],[14.41707,50.55718],[14.41471,50.56593],[14.40745,50.58067],[14.40287,50.58137],[14.40032,50.58892],[14.3908,50.59057],[14.37939,50.60059],[14.38115,50.60811],[14.37604,50.61557],[14.36621,50.61957],[14.35859,50.6282],[14.35834,50.65495],[14.34892,50.65572],[14.34225,50.6577],[14.34201,50.66834],[14.34651,50.67511],[14.3766,50.69148],[14.36469,50.69993],[14.372,50.71518],[14.37574,50.72102],[14.40282,50.72654],[14.40913,50.73741],[14.41655,50.74295],[14.41805,50.74884],[14.4308,50.77363],[14.45579,50.77845],[14.44724,50.7841],[14.44904,50.78814],[14.45652,50.79156],[14.45451,50.79407],[14.45288,50.79381],[14.44788,50.79594],[14.45269,50.79829],[14.4496,50.8008],[14.45106,50.80438],[14.44569,50.80551],[14.44166,50.81236],[14.44966,50.81418],[14.48443,50.81744],[14.49552,50.8113],[14.527,50.79751],[14.55555,50.80003],[14.56535,50.83885],[14.60367,50.84272],[14.61858,50.85916],[14.66418,50.91306],[14.66589,50.90496],[14.63244,50.86058],[14.78455,50.82856],[14.81618,50.8791],[14.84841,50.877],[14.86366,50.88482],[14.96231,50.87009],[14.98852,50.8743],[14.98375,50.92539],[15.00139,50.94161],[15.00567,50.97853],[14.98614,50.97313],[14.95564,50.99053],[14.98137,51.01602],[15.01258,51.02505],[15.02579,51.03171],[15.06048,51.02921],[15.121,51.01122],[15.17342,51.02621],[15.18248,50.99863],[15.24443,51.00673],[15.28547,50.98199],[15.30377,50.94648],[15.2797,50.92689],[15.30591,50.877],[15.37644,50.85505],[15.38538,50.80404],[15.38098,50.78275],[15.40529,50.79215],[15.42146,50.80756],[15.44691,50.81555],[15.52465,50.78972],[15.54091,50.78802],[15.53679,50.7805],[15.54116,50.75829]]]}}
