{"type":"Feature","properties":{"sourceId":"lancashire"},"geometry":{"type":"Polygon","coordinates":[[[-3.085345,53.68828],[-3.092156,53.69764],[-3.062558,53.87514],[-3.075769,53.94871],[-2.986043,53.97761],[-2.989404,53.99269],[-2.945328,54.01865],[-2.924142,54.04997],[-2.923446,54.06627],[-2.904203,54.07693],[-2.88393,54.11317],[-2.888202,54.13717],[-2.911342,54.16945],[-2.907395,54.17696],[-2.837198,54.18319],[-2.799413,54.20558],[-2.731835,54.19135],[-2.726311,54.17498],[-2.684838,54.17143],[-2.642429,54.20936],[-2.607492,54.20204],[-2.559742,54.20589],[-2.455908,54.24645],[-2.451688,54.22732],[-2.473736,54.19788],[-2.530893,54.15041],[-2.549095,54.14496],[-2.553167,54.12857],[-2.516137,54.10333],[-2.459454,54.08137],[-2.457698,54.04945],[-2.36875,54.05509],[-2.355182,54.04447],[-2.350416,54.02648],[-2.335916,54.01944],[-2.338209,53.99899],[-2.316355,54.00119],[-2.288457,53.98272],[-2.229519,53.98922],[-2.214228,53.98148],[-2.217233,53.97216],[-2.192308,53.97647],[-2.171947,53.94518],[-2.119298,53.92921],[-2.070434,53.87033],[-2.041502279657628,53.855309523220456],[-2.047596,53.85101],[-2.051093,53.83021],[-2.085714,53.81947],[-2.129859,53.79925],[-2.131773,53.79041],[-2.127883,53.78741],[-2.137819,53.78039],[-2.13163,53.76977],[-2.132635,53.75275],[-2.142812,53.74702],[-2.142656,53.7423],[-2.146439,53.73712],[-2.166301,53.73113],[-2.175545,53.7221],[-2.165337,53.70712],[-2.164309,53.69775],[-2.147249,53.69115],[-2.149555,53.68429],[-2.1487125327565337,53.683232374615294],[-2.150215,53.67523],[-2.16555,53.65531],[-2.162755,53.64287],[-2.174923,53.64111],[-2.180651,53.6432],[-2.181544,53.64972],[-2.188587,53.64972],[-2.202086,53.65517],[-2.205909,53.66188],[-2.21709,53.67056],[-2.225794,53.67247],[-2.23351,53.67049],[-2.262329,53.65557],[-2.271246,53.64713],[-2.260942,53.61924],[-2.265422,53.61659],[-2.280829,53.62262],[-2.284485,53.63171],[-2.29377,53.64126],[-2.295793,53.65113],[-2.292153,53.65827],[-2.294292,53.66526],[-2.298238,53.66823],[-2.316813,53.65698],[-2.333344,53.6569],[-2.352837,53.66013],[-2.354754,53.666],[-2.371583,53.66875],[-2.372253,53.66533],[-2.364529,53.65572],[-2.368679,53.64672],[-2.37409,53.64288],[-2.370265,53.636],[-2.371866,53.63365],[-2.397995,53.6339],[-2.402976,53.62608],[-2.421115,53.62546],[-2.4244,53.62727],[-2.424793,53.63604],[-2.439064,53.64771],[-2.451344,53.64286],[-2.450802,53.63182],[-2.459494,53.62584],[-2.459181,53.62206],[-2.463689,53.62401],[-2.473814,53.61833],[-2.478805,53.6187],[-2.51169,53.62864],[-2.539764,53.61238],[-2.552629,53.60933],[-2.560667,53.60054],[-2.573317,53.59638],[-2.586453,53.60931],[-2.595562,53.6125],[-2.615994,53.60433],[-2.619644,53.59685],[-2.623332,53.59548],[-2.626437,53.59658],[-2.630588,53.60813],[-2.634202,53.60994],[-2.660969,53.60508],[-2.689576,53.60597],[-2.695362,53.59157],[-2.703052,53.59166],[-2.720823,53.57669],[-2.712624,53.56372],[-2.706831,53.56008],[-2.712343,53.55083],[-2.720206,53.54414],[-2.717567,53.5391],[-2.719737,53.52836],[-2.732097,53.52124],[-2.732036356951567,53.521137752999735],[-2.753134,53.51697],[-2.77403,53.5246],[-2.782432,53.53239],[-2.809201,53.51819],[-2.817517,53.5128],[-2.823492,53.50551],[-2.820988,53.49629],[-2.827184,53.48389],[-2.842358,53.48505],[-2.843351,53.49101],[-2.849661,53.49411],[-2.872701,53.50076],[-2.887439,53.50499],[-2.890452,53.51013],[-2.884044,53.51825],[-2.880381,53.51947],[-2.880953,53.52118],[-2.889485,53.52325],[-2.906256,53.52272],[-2.922959,53.52656],[-2.926248,53.53072],[-2.935393,53.53912],[-2.947583,53.54529],[-2.965909,53.54888],[-2.973448,53.54884],[-2.978085,53.54685],[-2.979228,53.54231],[-2.965329,53.5197],[-2.975129,53.51635],[-2.983783,53.52208],[-3.000894,53.52922],[-3.025035,53.54],[-3.032992,53.53853],[-3.040152,53.54262],[-3.043056,53.54246],[-3.043779,53.54396],[-3.037812,53.55182],[-3.039778,53.5644],[-3.031963,53.568],[-3.021699,53.56925],[-3.019959,53.58429],[-3.032191,53.58711],[-2.997487,53.62572],[-2.993943,53.62677],[-2.9816,53.62123],[-2.966671,53.63044],[-2.942189,53.65536],[-2.93919,53.65858],[-2.941542,53.66393],[-2.942621,53.67484],[-2.943482,53.67968],[-2.945866,53.68836],[-2.962709,53.70528],[-2.997681,53.70282],[-3.003445,53.69979],[-3.003338,53.69534],[-3.008628,53.69166],[-3.013321,53.69067],[-3.020354,53.68986],[-3.032048,53.69875],[-3.061914,53.69131],[-3.0689733608144185,53.68836266577698],[-3.085345,53.68828]]]}}
