{"type":"Feature","properties":{"sourceId":"lubuskie"},"geometry":{"type":"Polygon","coordinates":[[[14.94035,51.45513],[14.71872,51.52012],[14.69587,51.56371],[14.74512,51.613],[14.73596,51.66095],[14.65454,51.71775],[14.63455,51.78112],[14.5761,51.81439],[14.57771,51.84762],[14.68737,51.92642],[14.70054,52.01112],[14.73403,52.06414],[14.66645,52.11221],[14.68337,52.17113],[14.67047,52.1966],[14.69344,52.23381],[14.56395,52.27811],[14.51916,52.3914],[14.53516,52.44068],[14.60687,52.49136],[14.58814,52.53073],[14.60768,52.57157],[14.49548,52.63082],[14.5529,52.63681],[14.62747,52.67487],[14.71533,52.64781],[14.77557,52.70225],[14.78066,52.76704],[14.83105,52.79089],[14.83793,52.83427],[14.90661,52.90143],[14.99745,52.86485],[15.0419,52.87609],[15.08062,52.84838],[15.29854,52.90516],[15.26974,52.9406],[15.28278,52.97172],[15.35281,52.95906],[15.41543,52.99757],[15.54597,53.02896],[15.63374,52.99351],[15.68108,53.01195],[15.7394,53.00581],[15.84147,53.12806],[15.99025,53.12801],[16.00916,53.07115],[15.96685,52.99552],[15.99399,52.93787],[15.99398,52.87212],[15.92946,52.81679],[15.94646,52.81156],[15.96108,52.72977],[15.90782,52.70016],[15.82257,52.69247],[15.82813,52.66349],[15.80068,52.65132],[15.84937,52.59335],[15.91321,52.45073],[15.86022,52.4186],[15.91514,52.38865],[15.90647,52.30806],[15.8704,52.25532],[15.87551,52.18228],[15.8975,52.1503],[15.86434,52.10409],[15.91384,52.0881],[15.94867,52.10235],[16.01069,52.07],[16.00514,52.02729],[15.9811,52.01869],[16.02154,51.99566],[16.13142,52.00489],[16.14798,51.90897],[16.21137,51.88614],[16.25179,51.91644],[16.35979,51.89278],[16.41331,51.84532],[16.42999,51.77633],[16.36083,51.70049],[16.26885,51.64868],[16.20549,51.6994],[16.15076,51.70086],[16.14701,51.74357],[16.02145,51.77763],[15.96798,51.72],[15.88294,51.70446],[15.83457,51.56304],[15.73013,51.53835],[15.73473,51.50655],[15.69052,51.49665],[15.66363,51.46009],[15.60408,51.43169],[15.4994,51.50417],[15.43963,51.51124],[15.38548,51.4971],[15.39456,51.46462],[15.35575,51.45281],[15.33582,51.39501],[15.18545,51.44442],[15.09672,51.40818],[15.08081,51.38541],[15.02977,51.3774],[15.01115,51.34865],[14.95566,51.3496],[14.95089,51.35531],[14.94035,51.45513]]]}}
