{"type":"Feature","properties":{"sourceId":"la-rioja"},"geometry":{"type":"Polygon","coordinates":[[[-1.904755,41.93012],[-1.982689,41.91403],[-2.026892,41.94443],[-2.034874,41.93676],[-2.117615,41.95438],[-2.129975,41.99471],[-2.125855,42.01818],[-2.27211,42.07835],[-2.309189,42.13515],[-2.435532,42.12904],[-2.507973,42.06714],[-2.574749,41.99216],[-2.670708,41.99458],[-2.747441,42.00479],[-2.790356,42.04164],[-2.883568,42.00517],[-2.917042,42.01448],[-2.943993,42.08001],[-3.036518,42.08026],[-3.068447,42.12713],[-3.08733,42.13082],[-3.136597,42.19775],[-3.097286,42.24631],[-3.110333,42.31007],[-3.114453,42.33736],[-3.108788,42.3848],[-3.106041,42.41573],[-3.091793,42.42612],[-3.079434,42.42232],[-3.051281,42.44613],[-3.091793,42.47628],[-3.126984,42.52943],[-3.140202,42.54195],[-3.073082,42.59467],[-3.072224,42.60465],[-3.08939,42.62524],[-3.086643,42.64305],[-3.023644,42.6428],[-3.007851,42.64621],[-2.948628,42.64292],[-2.907086,42.62777],[-2.859793,42.64027],[-2.852755,42.63882],[-2.839708,42.62878],[-2.838764,42.6116],[-2.817049,42.61615],[-2.815247,42.60061],[-2.817135,42.57148],[-2.80057,42.5742],[-2.781,42.5819],[-2.776022,42.60491],[-2.766581,42.62537],[-2.740231,42.62373],[-2.678776,42.59663],[-2.686501,42.57002],[-2.685471,42.55896],[-2.694225,42.53006],[-2.680042,42.5271],[-2.675729,42.52644],[-2.665386,42.51134],[-2.630196,42.49666],[-2.604103,42.5059],[-2.577689,42.48568],[-2.575071,42.49112],[-2.573032,42.49336],[-2.568569,42.49507],[-2.538614,42.49621],[-2.519131,42.5107],[-2.515268,42.51861],[-2.512693,42.52038],[-2.507114,42.52121],[-2.502737,42.5133],[-2.507887,42.50273],[-2.510376,42.49469],[-2.499561,42.49001],[-2.479305,42.48824],[-2.474842,42.49318],[-2.44832,42.49786],[-2.437506,42.49115],[-2.419224,42.49052],[-2.413988,42.49109],[-2.399912,42.47406],[-2.376909,42.47583],[-2.363691,42.46804],[-2.330732,42.47045],[-2.297516,42.47026],[-2.28713,42.46919],[-2.236061,42.44303],[-2.221041,42.42871],[-2.195377,42.42162],[-2.158213,42.41921],[-2.136498,42.42352],[-2.114096,42.42206],[-2.101221,42.4182],[-2.109289,42.3995],[-2.086887,42.38733],[-2.076759,42.37135],[-2.072125,42.34643],[-2.050753,42.36],[-2.029381,42.36603],[-2.015133,42.37142],[-1.996164,42.36622],[-1.968184,42.35537],[-1.959686,42.34389],[-1.94149,42.3371],[-1.935053,42.32854],[-1.923466,42.33038],[-1.913681,42.32828],[-1.902952,42.30194],[-1.870251,42.29166],[-1.842957,42.2627],[-1.831541,42.25057],[-1.818752,42.25209],[-1.788197,42.23494],[-1.712837,42.21466],[-1.683226,42.19641],[-1.675243,42.18827],[-1.693525,42.18007],[-1.69756,42.17129],[-1.691723,42.16137],[-1.673012,42.15042],[-1.717472,42.13146],[-1.779614,42.13528],[-1.798668,42.13833],[-1.819611,42.14915],[-1.832485,42.1298],[-1.897202,42.07058],[-1.891022,42.04062],[-1.830598,42.0039],[-1.848965,41.96574],[-1.904755,41.93012]]]}}
