{"type":"Feature","properties":{"sourceId":"latvia"},"geometry":{"type":"Polygon","coordinates":[[[19.73348,55.85085],[20.37414,57.53647],[21.61805738927875,57.77781797073038],[21.66951,57.69501],[22.67558,57.82371],[23.23031,57.49764],[24.35716,57.87398],[24.40613,57.86996],[24.40716,57.86211],[24.4635,57.87686],[24.46767,57.9211],[24.6277,57.93692],[24.69322,57.94154],[24.83974,57.96952],[25.02172,58.01303],[25.07879,58.06138],[25.1914,58.07102],[25.21465,58.0241],[25.25458,57.98914],[25.30837,57.98516],[25.30666,58.03992],[25.29453,58.07647],[25.36153,58.02698],[25.45394,58.00727],[25.43678,57.99809],[25.48373,57.97029],[25.58094,57.95361],[25.57549,57.94256],[25.64511,57.91596],[25.67539,57.90299],[25.70766,57.89971],[25.73689,57.91895],[25.81759,57.86064],[25.88673,57.84224],[26.05285,57.84374],[26.02335,57.78399],[26.0249,57.77493],[26.01811,57.77186],[26.02361,57.76788],[26.04996,57.76111],[26.05871,57.75978],[26.07579,57.76312],[26.13363,57.74647],[26.14036,57.72891],[26.19624,57.71501],[26.17494,57.68523],[26.20907,57.66184],[26.22716,57.64596],[26.24342,57.61788],[26.27128,57.59355],[26.32764,57.57453],[26.40182,57.56724],[26.46701,57.57043],[26.4983,57.51976],[26.55831,57.50903],[26.58588,57.51295],[26.61469,57.5047],[26.62174,57.50798],[26.61992,57.52694],[26.64983,57.54875],[26.67447,57.55027],[26.75118,57.55803],[26.77837,57.55529],[26.8034,57.5784],[26.83481,57.57792],[26.86456,57.58796],[26.86818,57.6116],[26.90774,57.62812],[26.9238,57.62829],[26.94011,57.61494],[26.93519,57.60743],[26.9444,57.59793],[26.97226,57.60002],[27.02915,57.5874],[27.03159,57.5806],[27.08362,57.5718],[27.10042,57.561],[27.19381,57.5456],[27.25786,57.54563],[27.27946,57.53256],[27.35206,57.51293],[27.35767,57.52696],[27.352311137345747,57.53647009428783],[27.55274,57.55224],[27.58082,57.50742],[27.54363,57.43753],[27.67456,57.40058],[27.88066,57.30111],[27.88337,57.24445],[27.83117,57.1381],[27.76701,57.11303],[27.78224,57.08453],[27.74171,57.02051],[27.783,57.00441],[27.74922,56.91424],[27.69479,56.89721],[27.6763,56.85544],[27.84622,56.8865],[27.88605,56.88275],[27.91214,56.8347],[27.98059,56.84304],[27.98815,56.80499],[27.92789,56.74977],[28.02068,56.68459],[28.05664,56.60379],[28.15121,56.58357],[28.15521,56.55206],[28.12951,56.52862],[28.20727,56.44774],[28.20783,56.40068],[28.18748,56.37956],[28.25501,56.27762],[28.1895,56.17083],[28.0499,56.1065],[27.99316,56.11953],[27.91255,56.03716],[27.84622,56.03523],[27.80879,55.9701],[27.75421,55.96688],[27.67369,55.92349],[27.64681,55.88978],[27.65257,55.84371],[27.61755,55.77339],[27.36509,55.7956],[27.27893,55.77261],[27.13002,55.83579],[27.0971,55.81412],[27.01126,55.8144],[26.92761,55.77075],[26.87839,55.70273],[26.78843,55.66519],[26.66638,55.69129],[26.635119527892094,55.678257611020726],[26.63364,55.68473],[26.53437,55.67942],[26.47551,55.70736],[26.39343,55.71443],[26.35264,55.74475],[26.31625,55.74447],[26.2726,55.76851],[26.22284,55.85664],[26.09951,55.89964],[26.04825,55.95529],[25.97822,55.98323],[25.8906,56.00348],[25.82477,56.05775],[25.70212,56.08706],[25.70444,56.12012],[25.68867,56.14897],[25.54017,56.16781],[25.33717,56.1569],[25.31428,56.14763],[25.23628,56.19425],[25.09414,56.18875],[25.06168,56.26492],[25.01861,56.29289],[24.97651,56.31263],[24.97677,56.36448],[24.92565,56.40449],[24.91996,56.44662],[24.87185,56.45329],[24.85017,56.43767],[24.85059,56.41701],[24.83187,56.41428],[24.81869,56.42237],[24.80239,56.42314],[24.78069,56.40687],[24.69349,56.40611],[24.692,56.37859],[24.64788,56.37887],[24.62208,56.37647],[24.61727,56.34946],[24.56749,56.32073],[24.57694,56.29649],[24.42579,56.26253],[24.3884,56.28242],[24.33713,56.3024],[24.28872,56.30267],[24.15095,56.2583],[24.10005,56.27826],[24.02247,56.33633],[23.81407,56.34443],[23.78581,56.368],[23.76749,56.37472],[23.63941,56.36596],[23.56739,56.34718],[23.46302,56.3546],[23.3971,56.38635],[23.32705,56.38717],[23.16021,56.37134],[23.16742,56.33614],[23.04959,56.3285],[23.00616,56.41515],[22.93121,56.41808],[22.89551,56.38046],[22.83521,56.3709],[22.72591,56.37647],[22.67853,56.35764],[22.62119,56.38502],[22.58789,56.39453],[22.42759,56.41186],[22.34339,56.40005],[22.32302,56.41398],[22.13101,56.4341],[21.99189,56.42669],[21.95892,56.39034],[21.83741,56.37445],[21.69082,56.32222],[21.60084,56.3312],[21.49547,56.29998],[21.45019,56.25301],[21.33457,56.22991],[21.21865,56.16322],[21.19154,56.07974],[21.15687,56.08975],[21.05836,56.07245],[20.65327,56.05019],[20.650141509244257,55.98937026333558],[19.73348,55.85085]]]}}
