{"type":"Feature","properties":{"sourceId":"lebanon"},"geometry":{"type":"Polygon","coordinates":[[[35.34705,33.05833],[35.33721,33.06717],[35.3329,33.07481],[35.32471,33.07646],[35.32521,33.07959],[35.31908,33.08818],[35.31817,33.09599],[35.318,33.1011],[35.30021,33.09881],[35.29821,33.10397],[35.29371,33.10634],[35.28092,33.09929],[35.23839,33.09055],[35.23106,33.09196],[35.22579,33.09699],[35.21271,33.09816],[35.20772,33.08585],[35.18912,33.08183],[35.18731,33.08783],[35.17573,33.0919],[35.15599,33.08435],[35.14861,33.0855],[35.14493,33.09022],[35.10281,33.0926],[34.76799,33.12833],[35.50095,34.80253],[35.96692,34.6341],[35.97877,34.6503],[35.99173,34.65227],[36.00872,34.64663],[36.04752,34.63095],[36.0609,34.63773],[36.07927,34.63589],[36.12391,34.64451],[36.17094,34.63293],[36.18938,34.6393],[36.2439,34.63801],[36.26621,34.63123],[36.28389,34.63575],[36.3069,34.68503],[36.33625,34.69858],[36.35977,34.68644],[36.35393,34.66145],[36.36955,34.64549],[36.47238,34.63858],[36.45521,34.59125],[36.42208,34.55125],[36.34089,34.52042],[36.34003,34.50557],[36.41487,34.51165],[36.44989,34.51009],[36.46585,34.46906],[36.51117,34.45123],[36.53057,34.4358],[36.57829,34.40691],[36.55555,34.38644],[36.53091,34.3693],[36.55821,34.32947],[36.60378,34.31579],[36.60576,34.29126],[36.58688,34.27537],[36.63666,34.20215],[36.51049,34.06247],[36.29986,33.91573],[36.38844,33.87526],[36.40938,33.8265],[36.36886,33.82251],[36.23578,33.84238],[36.20466,33.82765],[36.17351,33.83747],[36.16242,33.85209],[36.15561,33.85469],[36.13993,33.83866],[36.08885,33.81805],[36.07743,33.82591],[36.03797,33.77196],[35.99019,33.7266],[35.97008,33.71452],[35.97576,33.69221],[35.97044,33.67921],[35.93903,33.64549],[35.97429,33.64307],[36.07498,33.58931],[35.81766,33.36122],[35.77715,33.33196],[35.62557,33.2407],[35.59639,33.25319],[35.58137,33.26596],[35.58214,33.28189],[35.56764,33.28512],[35.56601,33.27335],[35.55729,33.25767],[35.54725,33.24953],[35.54961,33.23801],[35.53893,33.23009],[35.54377,33.19841],[35.53931,33.12785],[35.52155,33.11556],[35.50678,33.11239],[35.50524,33.08759],[35.47623,33.09125],[35.44681,33.08916],[35.43232,33.06398],[35.39131,33.05698],[35.38301,33.05979],[35.37893,33.05299],[35.35726,33.05529],[35.34705,33.05833]]]}}
