{"type":"Feature","properties":{"sourceId":"mongolia"},"geometry":{"type":"Polygon","coordinates":[[[90.36682,50.26182],[92.46502,50.96754],[93.51746,50.67875],[94.3045,50.64701],[94.68421,50.12987],[95.52203,50.10405],[97.26773,49.93358],[98.06502,50.09985],[98.24323,50.38599],[97.96126,50.6586],[97.76458,51.01894],[98.03207,51.48867],[98.87695,52.19582],[100.6365,51.74776],[102.2388,51.39064],[102.1652,51.1465],[102.6354,50.49961],[103.2954,50.33098],[103.3993,50.23852],[105.3507,50.49782],[105.8484,50.44976],[106.0763,50.40306],[106.0968,50.36059],[106.2964,50.32028],[106.4853,50.32756],[106.5121,50.35598],[106.8228,50.30864],[107.9709,49.96447],[109.9127,49.27856],[112.4808,49.54214],[112.8007,49.5564],[113.1976,49.86189],[113.4544,49.97861],[114.3169,50.31741],[115.0165,50.20289],[115.3029,49.97684],[115.7396,49.89021],[116.1677,50.06098],[116.6337,49.93965],[116.65657506571759,49.92025760968217],[115.7014,48.57167],[115.7061,48.32603],[115.4213,48.16679],[115.4953,47.84709],[115.9236,47.58267],[116.2655,47.77329],[116.8179,47.79472],[117.3791,47.54012],[117.8461,47.91941],[118.511,47.89464],[119.6283,47.1212],[119.8045,46.78166],[119.325,46.71636],[118.8966,46.87579],[117.3811,46.67325],[117.2813,46.46364],[116.5415,46.38586],[116.1253,45.77963],[115.6537,45.54833],[114.5213,45.47917],[113.6161,44.84715],[111.939,45.17823],[111.6477,44.99078],[111.3097,44.35399],[111.8625,43.77313],[110.9575,43.4094],[110.3623,42.85504],[109.4418,42.55165],[107.4242,42.55237],[105.0104,41.70616],[104.6211,41.75035],[104.5484,41.97058],[103.4124,41.98471],[102.126,42.31625],[101.8334,42.5945],[100.8779,42.77054],[99.4989,42.6667],[97.1703,42.89497],[97.14328,42.89253],[97.16719874209942,42.80723212643817],[96.42756816890898,42.73790955679104],[96.35333,42.97937],[95.44796,44.10426],[95.44358,44.38743],[94.76315,44.43989],[93.52022,45.066],[90.97423,45.31122],[90.76817,45.54643],[91.11655,45.98977],[91.1476,46.73244],[90.43278,47.73304],[90.07953,47.98288],[89.83385,47.93048],[89.61252,48.12709],[89.11067,48.08566],[88.69322,48.2781],[87.93551,48.8744],[87.85297173848093,49.256858524177],[88.13507,49.49846],[90.36682,50.26182]]]}}
