{"type":"Feature","properties":{"sourceId":"moravskoslezky"},"geometry":{"type":"Polygon","coordinates":[[[17.43345,50.2637],[17.43643,50.256],[17.44606,50.25526],[17.4544,50.27192],[17.46055,50.27426],[17.59198,50.28107],[17.61127,50.26945],[17.64526,50.28092],[17.68293,50.30187],[17.68412,50.3303],[17.7234,50.32284],[17.73229,50.30548],[17.75242,50.3029],[17.75619,50.29562],[17.72799,50.26147],[17.7475,50.24867],[17.77063,50.23592],[17.75902,50.2],[17.72026,50.20035],[17.70842,50.18251],[17.59757,50.15878],[17.64247,50.13233],[17.65215,50.11235],[17.67554,50.10595],[17.68202,50.12116],[17.71143,50.11621],[17.75785,50.07717],[17.78615,50.02689],[17.83882,50.00933],[17.83906,49.99555],[17.88759,49.98357],[17.92019,49.98503],[17.95237,50.00686],[18.00478,50.02095],[18.02633,50.01295],[18.04218,50.03257],[18.0084,50.02852],[18.00184,50.03418],[18.00181,50.05473],[18.03519,50.06914],[18.06546,50.06028],[18.0915,50.04584],[18.0898,50.034],[18.10633,50.02315],[18.09666,50.0143],[18.11814,49.99696],[18.13103,50.00149],[18.15722,49.98776],[18.1686,50.00277],[18.21072,49.99951],[18.22174,49.97353],[18.28167,49.96811],[18.28528,49.93856],[18.32027,49.91942],[18.33123,49.95171],[18.431,49.94174],[18.49842,49.90817],[18.53337,49.90482],[18.53781,49.92656],[18.54454,49.9287],[18.55764,49.92104],[18.57513,49.92391],[18.58516,49.90886],[18.5725,49.88026],[18.60854,49.86359],[18.60722,49.85654],[18.57729,49.83197],[18.63373,49.74714],[18.6295,49.7295],[18.6453,49.71452],[18.7117,49.70708],[18.72342,49.68627],[18.77961,49.68892],[18.8114,49.67858],[18.84356,49.59539],[18.86321,49.54702],[18.8601,49.53731],[18.8459,49.52465],[18.8554,49.51808],[18.85284,49.51524],[18.77897,49.50215],[18.75323,49.48448],[18.67025,49.49945],[18.62547,49.49067],[18.56867,49.50141],[18.55711,49.46917],[18.43941,49.37126],[18.439408085290474,49.37126134634891],[18.45055,49.38053],[18.40392,49.39686],[18.39897,49.39933],[18.39073,49.39995],[18.38317,49.4038],[18.36747,49.4067],[18.37399,49.42091],[18.36828,49.43292],[18.35099,49.44726],[18.32369,49.45301],[18.30238,49.49113],[18.26906,49.49556],[18.25567,49.48486],[18.2325,49.48987],[18.21533,49.49389],[18.20204,49.49049],[18.16483,49.5183],[18.13674,49.51104],[18.12603,49.52198],[18.08816,49.51969],[18.03208,49.51256],[17.9974,49.50513],[17.99445,49.52407],[17.98226,49.53067],[17.97355,49.5383],[17.95661,49.54122],[17.91527,49.53925],[17.91991275337855,49.53947124393217],[17.92035,49.54053],[17.90453,49.5671],[17.88186,49.56921],[17.86081,49.54828],[17.856,49.55463],[17.85562,49.55968],[17.84695,49.56492],[17.8644,49.57021],[17.86879,49.57643],[17.84007,49.60711],[17.82463,49.61388],[17.81596,49.62333],[17.7988,49.62873],[17.78661,49.63779],[17.77837,49.63512],[17.77475,49.65266],[17.76026,49.66146],[17.75236,49.67296],[17.73708,49.68229],[17.73133,49.67457],[17.73005,49.66685],[17.72088,49.66752],[17.71587,49.66897],[17.69175,49.67787],[17.68398,49.7047],[17.69859,49.72458],[17.70064,49.73313],[17.68229,49.7549],[17.66014,49.76031],[17.65439,49.7603],[17.65269,49.75989],[17.65131,49.75928],[17.64912,49.7589],[17.64801,49.75839],[17.64709,49.75718],[17.64426,49.7567],[17.63734,49.75734],[17.6298,49.75654],[17.61649,49.75568],[17.58748,49.7512],[17.58271,49.7536],[17.57231,49.75924],[17.56246,49.75873],[17.55607,49.76422],[17.55508,49.76907],[17.54113,49.77484],[17.53379,49.7727],[17.52161,49.77982],[17.52585,49.79052],[17.52096,49.79307],[17.50225,49.79812],[17.50723,49.81088],[17.50784,49.8173],[17.48362,49.83175],[17.49263,49.83996],[17.49075,49.8433],[17.48757,49.85376],[17.47376,49.85791],[17.47737,49.87473],[17.44947,49.87528],[17.43994,49.86676],[17.45067,49.85785],[17.45204,49.84949],[17.46251,49.83826],[17.45307,49.83676],[17.45085,49.83213],[17.4438,49.82741],[17.43685,49.82553],[17.44114,49.83178],[17.4311,49.83638],[17.42131,49.82813],[17.40875,49.82784],[17.40633,49.82345],[17.41027,49.81531],[17.39075,49.81401],[17.38835,49.79661],[17.38715,49.79193],[17.38533,49.79423],[17.38312,49.79534],[17.37565,49.80153],[17.37259,49.80577],[17.35908,49.81308],[17.38364,49.84842],[17.35955,49.8637],[17.35541,49.86361],[17.33363,49.86074],[17.31466,49.85769],[17.26375,49.83624],[17.25841,49.83034],[17.26198,49.82167],[17.25017,49.8263],[17.24124,49.82769],[17.23188,49.82663],[17.21857,49.82175],[17.22685,49.8603],[17.22201,49.86117],[17.19197,49.8507],[17.18647,49.84684],[17.17366,49.85823],[17.17223,49.86482],[17.16099,49.86892],[17.16047,49.87378],[17.15695,49.87738],[17.14992,49.87926],[17.15198,49.88203],[17.15043,49.88634],[17.15781,49.88944],[17.16622,49.89618],[17.17069,49.90116],[17.17728,49.91049],[17.1642,49.9197],[17.17224,49.92332],[17.19086,49.93211],[17.19123,49.93716],[17.19708,49.93951],[17.20464,49.94931],[17.20085,49.95256],[17.2027,49.95763],[17.19274,49.96734],[17.17249,49.97607],[17.16202,49.98203],[17.17472,49.98666],[17.17146,50.00752],[17.18004,50.01425],[17.19051,50.02936],[17.20098,50.03289],[17.21369,50.04314],[17.22038,50.0459],[17.22897,50.05251],[17.23617,50.06254],[17.2312,50.07796],[17.2336,50.08468],[17.22382,50.10164],[17.24596,50.1148],[17.25171,50.12041],[17.24768,50.1394],[17.29609,50.16909],[17.33814,50.18311],[17.35067,50.18915],[17.36904,50.20811],[17.3826,50.21327],[17.40363,50.20542],[17.42603,50.20926],[17.42991,50.24365],[17.432143477183054,50.26080141912269],[17.43345,50.2637]]]}}
