{"type":"Feature","properties":{"sourceId":"merseyside"},"geometry":{"type":"Polygon","coordinates":[[[-2.614743,53.4664],[-2.613853,53.46391],[-2.612073,53.46265],[-2.599034,53.46205],[-2.595813,53.45742],[-2.58837,53.45705],[-2.582686,53.45422],[-2.582421,53.44941],[-2.575686,53.44627],[-2.585003,53.43876],[-2.594173,53.4466],[-2.596069,53.44164],[-2.610696,53.44129],[-2.627453,53.43339],[-2.630925,53.43463],[-2.634172,53.44147],[-2.645529,53.4434],[-2.65242,53.44715],[-2.658028,53.44647],[-2.662018,53.44834],[-2.67101,53.44897],[-2.676424,53.45176],[-2.678958,53.44108],[-2.668126,53.44182],[-2.667495,53.43973],[-2.671512,53.43392],[-2.664481,53.43222],[-2.662568,53.42869],[-2.666449,53.41937],[-2.665915,53.41596],[-2.670918,53.41386],[-2.6719,53.40936],[-2.670434,53.39989],[-2.675336,53.39404],[-2.675566,53.38697],[-2.690381,53.3844],[-2.705435,53.38584],[-2.713403,53.38983],[-2.718079,53.39863],[-2.729128,53.39867],[-2.743841,53.40119],[-2.745203,53.39916],[-2.742486,53.39492],[-2.747403,53.3878],[-2.756322,53.38414],[-2.75717,53.37988],[-2.76909,53.38285],[-2.77611,53.37939],[-2.779915,53.37186],[-2.780102,53.36553],[-2.786621,53.35556],[-2.80874,53.35399],[-2.817651,53.34703],[-2.818147,53.33902],[-2.821798,53.33887],[-2.82304,53.33649],[-2.829839,53.33649],[-2.829684,53.33502],[-2.817463,53.32619],[-2.817907,53.31768],[-2.827162,53.31892],[-2.85647,53.31284],[-2.860392,53.31078],[-2.87162,53.31075],[-2.882742,53.3123],[-2.889105,53.31586],[-2.909627,53.32255],[-2.931368,53.3051],[-2.939632,53.30903],[-2.949064,53.30222],[-2.968098,53.30027],[-2.992569,53.30595],[-3.012643,53.29799],[-3.02615,53.29675],[-3.030558,53.29784],[-3.036731,53.29988],[-3.059892,53.30804],[-3.073712,53.31506],[-3.128477,53.2854],[-3.166157,53.30981],[-3.217378,53.3374],[-3.217628,53.33899],[-3.274402,53.45041],[-3.342781,53.6702],[-3.073315,53.68655],[-3.061914,53.69131],[-3.032048,53.69875],[-3.020354,53.68986],[-3.013321,53.69067],[-3.008628,53.69166],[-3.003338,53.69534],[-3.003445,53.69979],[-2.997681,53.70282],[-2.962709,53.70528],[-2.945866,53.68836],[-2.943482,53.67968],[-2.942621,53.67484],[-2.941542,53.66393],[-2.93919,53.65858],[-2.942189,53.65536],[-2.966671,53.63044],[-2.9816,53.62123],[-2.993943,53.62677],[-2.997487,53.62572],[-3.032191,53.58711],[-3.019959,53.58429],[-3.021699,53.56925],[-3.031963,53.568],[-3.039778,53.5644],[-3.037812,53.55182],[-3.043779,53.54396],[-3.043056,53.54246],[-3.040152,53.54262],[-3.032992,53.53853],[-3.025035,53.54],[-3.000894,53.52922],[-2.983783,53.52208],[-2.975129,53.51635],[-2.965329,53.5197],[-2.979228,53.54231],[-2.978085,53.54685],[-2.973448,53.54884],[-2.965909,53.54888],[-2.947583,53.54529],[-2.935393,53.53912],[-2.926248,53.53072],[-2.922959,53.52656],[-2.906256,53.52272],[-2.889485,53.52325],[-2.880953,53.52118],[-2.880381,53.51947],[-2.884044,53.51825],[-2.890452,53.51013],[-2.887439,53.50499],[-2.872701,53.50076],[-2.849661,53.49411],[-2.843351,53.49101],[-2.842358,53.48505],[-2.827184,53.48389],[-2.820988,53.49629],[-2.823492,53.50551],[-2.817517,53.5128],[-2.809201,53.51819],[-2.782432,53.53239],[-2.77403,53.5246],[-2.753134,53.51697],[-2.730152,53.52151],[-2.722036,53.51201],[-2.716299,53.51197],[-2.709509,53.51549],[-2.707553,53.51373],[-2.683392,53.50191],[-2.678211,53.49988],[-2.665982,53.50069],[-2.663137,53.49551],[-2.659773,53.49329],[-2.65607,53.49324],[-2.653449,53.48763],[-2.64452,53.48124],[-2.618884,53.48284],[-2.611633,53.48198],[-2.611117,53.47843],[-2.60822,53.47649],[-2.609421,53.47384],[-2.606884,53.47084],[-2.608261,53.47043],[-2.613251,53.46893],[-2.614743,53.4664]]]}}
