{"type":"Feature","properties":{"sourceId":"mazowieckie"},"geometry":{"type":"Polygon","coordinates":[[[21.06386,51.1764],[21.05487,51.16467],[21.04595,51.16253],[21.02062,51.16401],[21.0125,51.15422],[21.00524,51.15229],[21.00614,51.15856],[21.00286,51.16514],[20.97422,51.17675],[20.96963,51.18238],[20.92081,51.20124],[20.90668,51.1931],[20.90347,51.1851],[20.8797,51.1635],[20.86622,51.16941],[20.85565,51.17833],[20.84824,51.1773],[20.82082,51.18428],[20.80346,51.16269],[20.80992,51.15589],[20.8087,51.15363],[20.78741,51.15849],[20.77795,51.15317],[20.7724,51.16289],[20.71782,51.17851],[20.70804,51.17201],[20.69531,51.15784],[20.6911,51.16882],[20.70321,51.17533],[20.70834,51.1856],[20.70524,51.19924],[20.69723,51.20282],[20.6945,51.20998],[20.68531,51.21036],[20.67881,51.21539],[20.63773,51.22829],[20.6229,51.2374],[20.60791,51.25253],[20.57932,51.25066],[20.56562,51.2431],[20.56121,51.23772],[20.54947,51.23732],[20.54283,51.25023],[20.54446,51.25752],[20.5386,51.2623],[20.54261,51.26969],[20.53756,51.28076],[20.52669,51.28627],[20.52,51.28499],[20.51371,51.28813],[20.51552,51.29732],[20.51019,51.30236],[20.51597,51.30308],[20.51803,51.31044],[20.52281,51.31464],[20.52096,51.32346],[20.51305,51.33392],[20.50646,51.33743],[20.47083,51.3377],[20.46587,51.34182],[20.439694221480732,51.34719583167286],[20.43867,51.36025],[20.45674,51.39416],[20.49335,51.40172],[20.50805,51.43618],[20.54478,51.45636],[20.52733,51.52015],[20.46503,51.5159],[20.48027,51.56271],[20.46779,51.58478],[20.44906,51.58791],[20.42944,51.63683],[20.40681,51.65621],[20.46362,51.68017],[20.51993,51.65332],[20.62366,51.64533],[20.66273,51.66881],[20.6691,51.7309],[20.6052,51.76055],[20.59385,51.7964],[20.63208,51.81975],[20.61619,51.85633],[20.57693,51.89914],[20.50343,51.90625],[20.48314,51.941],[20.44315,51.9557],[20.41591,51.95949],[20.40539,51.94429],[20.37543,51.95372],[20.34481,51.93334],[20.2934,51.95231],[20.30546,51.97279],[20.26917,52.01121],[20.22701,52.02122],[20.28093,52.07104],[20.27913,52.10822],[20.25574,52.12938],[20.20105,52.13005],[20.16389,52.16342],[20.10111,52.16438],[20.07717,52.19547],[20.09171,52.23879],[20.04797,52.26884],[19.97657,52.27863],[19.94087,52.3115],[19.89173,52.32361],[19.84591,52.28624],[19.81566,52.29675],[19.74394,52.27358],[19.69809,52.29124],[19.64929,52.26705],[19.61995,52.30009],[19.52194,52.31894],[19.50484,52.34574],[19.4504,52.36386],[19.42599,52.35097],[19.36237,52.35477],[19.34143,52.36161],[19.31442,52.39841],[19.29824179564309,52.40134501714816],[19.30264,52.43551],[19.32421,52.43925],[19.36678,52.47473],[19.37266,52.49461],[19.40579,52.50932],[19.36625,52.53437],[19.35776,52.55501],[19.3971,52.56483],[19.42777,52.59285],[19.43607,52.61431],[19.39878,52.63328],[19.42566,52.66039],[19.45882,52.66488],[19.45526,52.71288],[19.49185,52.69651],[19.53528,52.69801],[19.53429,52.71435],[19.5174,52.72356],[19.53097,52.75578],[19.47264,52.81258],[19.44174,52.82573],[19.4799,52.84164],[19.48313,52.8544],[19.52673,52.85837],[19.4772,52.9069],[19.47155,52.93073],[19.53126,52.92594],[19.58918,52.94852],[19.5954,52.96907],[19.6685,52.94521],[19.69164,52.95337],[19.68427,52.99118],[19.70056,53.02443],[19.6651,53.05171],[19.67152,53.0731],[19.65475,53.09477],[19.71574,53.11193],[19.75656190845749,53.14065305862516],[19.75778,53.13761],[19.84892,53.12857],[19.85128,53.17441],[19.89639,53.19462],[19.898,53.16586],[19.97798,53.12954],[20.09725,53.15207],[20.14223,53.12657],[20.17748,53.13923],[20.3106,53.12575],[20.35997,53.13392],[20.37266,53.1579],[20.45654,53.22566],[20.52335,53.20832],[20.59572,53.21934],[20.76057,53.2991],[20.85622,53.27872],[20.93523,53.30804],[20.94193,53.34173],[21.06215,53.321],[21.26908,53.40895],[21.29541,53.39403],[21.44273,53.41958],[21.46214,53.4524],[21.588003130168822,53.466014115422624],[21.58465,53.45762],[21.59779,53.44788],[21.60072,53.43],[21.61262,53.42269],[21.61355,53.41101],[21.61754,53.40143],[21.62889,53.39864],[21.64138,53.39043],[21.6475,53.38169],[21.64539,53.37571],[21.64766,53.36735],[21.65428,53.36298],[21.6484,53.35697],[21.64469,53.3282],[21.653,53.32314],[21.64826,53.31497],[21.65026,53.3045],[21.64263,53.29835],[21.63633,53.28362],[21.6425,53.27628],[21.6272,53.27501],[21.61552,53.26978],[21.61563,53.26049],[21.63049,53.24928],[21.63536,53.23926],[21.64738,53.23883],[21.65199,53.2361],[21.65535,53.22496],[21.66378,53.21607],[21.66094,53.20335],[21.66692,53.19824],[21.67912,53.17315],[21.69285,53.16249],[21.68476,53.1511],[21.68766,53.14276],[21.68735,53.13296],[21.72069,53.10786],[21.73513,53.10039],[21.75698,53.10452],[21.76716,53.10397],[21.77547,53.10024],[21.79147,53.10497],[21.80528,53.10427],[21.8127,53.09463],[21.82832,53.08176],[21.83586,53.07037],[21.84989,53.06465],[21.85417,53.05653],[21.8697,53.0503],[21.88919,53.04964],[21.88507,53.03481],[21.86979,53.02608],[21.8675,53.01336],[21.8788,52.99965],[21.91733,52.97993],[21.93029,52.97666],[21.95088,52.97691],[21.95837,52.97085],[21.97898,52.96935],[21.98268,52.96684],[21.98159,52.9518],[22.0031,52.94641],[22.00546,52.93317],[21.98332,52.92189],[21.98746,52.90563],[21.99769,52.89948],[21.99696,52.87274],[22.00785,52.86753],[22.02093,52.87174],[22.018,52.86337],[22.02948,52.85434],[22.03308,52.84358],[22.05904,52.84085],[22.08467,52.83297],[22.10037,52.8469],[22.12383,52.83393],[22.14216,52.84083],[22.15422,52.83873],[22.17802,52.84869],[22.21234,52.84609],[22.21945,52.87323],[22.25239,52.86768],[22.27363,52.87578],[22.27778,52.86981],[22.26994,52.85368],[22.25842,52.8527],[22.25129,52.84452],[22.23921,52.84194],[22.23399,52.83034],[22.24193,52.82496],[22.25598,52.80816],[22.26879,52.7868],[22.27009,52.77783],[22.28073,52.77021],[22.28823,52.76854],[22.29204,52.75043],[22.29733,52.74211],[22.31718,52.73745],[22.32223,52.73365],[22.3403,52.73396],[22.34552,52.74622],[22.3548,52.75357],[22.35195,52.76646],[22.3863,52.76969],[22.39762,52.78454],[22.43096,52.78325],[22.44509,52.77938],[22.4478,52.77225],[22.43573,52.74387],[22.43812,52.73112],[22.43029,52.71488],[22.42628,52.6954],[22.43572,52.67723],[22.43539,52.6594],[22.44398,52.64656],[22.43925,52.63192],[22.40504,52.61766],[22.40026,52.60682],[22.4155,52.59068],[22.45013,52.57759],[22.46089,52.56082],[22.47878,52.55206],[22.48355,52.54127],[22.4931,52.53652],[22.51211,52.51998],[22.51081,52.50886],[22.50143,52.49221],[22.50327,52.48018],[22.50965,52.4711],[22.51928,52.46394],[22.52555,52.45395],[22.53628,52.45344],[22.53319,52.442],[22.53385,52.42022],[22.54196,52.41253],[22.55307,52.40733],[22.56132,52.39616],[22.56906,52.39415],[22.57789,52.38474],[22.6015,52.38957],[22.60626,52.38253],[22.61612,52.379],[22.62766,52.38287],[22.64107,52.37978],[22.65435,52.38219],[22.66409,52.3769],[22.68666,52.38355],[22.70187,52.38315],[22.71155,52.37667],[22.7123,52.36896],[22.71822,52.36149],[22.72772,52.35748],[22.73888,52.36144],[22.74334,52.37208],[22.75166,52.37438],[22.76986,52.36248],[22.7951,52.36425],[22.84826,52.34986],[22.86042,52.35438],[22.89012,52.35527],[22.92129,52.36475],[22.95317,52.35978],[22.95998,52.35616],[22.97144,52.33971],[22.97759,52.33736],[22.98905,52.3256],[22.99969,52.32316],[23.00612,52.32627],[23.03284,52.32092],[23.0396,52.31681],[23.04507,52.30817],[23.04666,52.30301],[23.0393,52.28965],[23.04842,52.2767],[23.07317,52.2728],[23.1112,52.28973],[23.11362846392224,52.28802888288262],[23.07146,52.24926],[23.02275,52.2258],[23.01911,52.1887],[22.97043,52.18314],[22.96578,52.16687],[22.9237,52.14444],[22.92612,52.12367],[22.88584,52.11282],[22.88119,52.07886],[22.82824,52.0943],[22.78711,52.08466],[22.69977,52.13048],[22.6383,52.0986],[22.6505,52.05004],[22.62142,52.0369],[22.50274,52.08263],[22.47661,52.07805],[22.4273,52.0299],[22.37618,52.02859],[22.3446,52.01093],[22.32611,52.04838],[22.29587,52.04974],[22.25337,52.01951],[22.15486,52.0408],[22.11428,52.01511],[22.03048,52.03445],[21.87195,51.98055],[21.85405,51.94052],[21.8899,51.89381],[21.87625,51.86894],[21.83758,51.85996],[21.83333,51.83715],[21.85824,51.81669],[21.91861,51.82428],[21.93618,51.80087],[21.82589,51.75686],[21.8263,51.73606],[21.85741,51.72079],[21.8663,51.69202],[21.83853,51.68407],[21.82193,51.66148],[21.76493,51.65828],[21.73992,51.62973],[21.72711,51.64906],[21.64534,51.67249],[21.60285,51.61727],[21.65427,51.5688],[21.75225,51.54781],[21.81717,51.54951],[21.83999,51.50685],[21.83612,51.4812],[21.85055,51.46521],[21.83775,51.437],[21.79785,51.43973],[21.76027,51.42353],[21.74845,51.40013],[21.76285,51.37989],[21.83044,51.36205],[21.8114,51.31507],[21.77122,51.29843],[21.78141,51.2738],[21.80891,51.27125],[21.77039,51.18086],[21.78662,51.07562],[21.787021453541104,51.075178418401364],[21.78265,51.07418],[21.77626,51.05884],[21.76707,51.04962],[21.75141,51.04417],[21.73009,51.05324],[21.71915,51.04814],[21.70845,51.0491],[21.70234,51.0555],[21.69558,51.07018],[21.6781,51.08353],[21.65072,51.0766],[21.64154,51.08202],[21.62621,51.07962],[21.61067,51.0818],[21.60633,51.07565],[21.60848,51.06974],[21.59085,51.06443],[21.58008,51.06646],[21.55031,51.05715],[21.53389,51.06808],[21.51741,51.06304],[21.50906,51.06455],[21.50434,51.0615],[21.49366,51.04584],[21.48798,51.04523],[21.48131,51.0395],[21.48371,51.02982],[21.47987,51.0244],[21.46357,51.0201],[21.43624,51.03062],[21.43282,51.0351],[21.41089,51.03733],[21.4056,51.04139],[21.38992,51.0454],[21.38773,51.06188],[21.37698,51.06471],[21.37296,51.07068],[21.36225,51.07307],[21.35775,51.09069],[21.16194,51.08699],[21.15776,51.09519],[21.16584,51.10142],[21.16256,51.11881],[21.16895,51.1318],[21.14115,51.13445],[21.12984,51.14668],[21.10158,51.15797],[21.10189,51.16086],[21.12233,51.17696],[21.1248,51.19214],[21.12176,51.19645],[21.11513,51.19899],[21.11238,51.20636],[21.07184,51.21715],[21.06258,51.20842],[21.06851,51.19673],[21.06733,51.1864],[21.06386,51.1764]]]}}
