{"type":"Feature","properties":{"sourceId":"micronesia"},"geometry":{"type":"Polygon","coordinates":[[[165.6345,3.186321],[164.4686,2.246064],[164.1321,2.103138],[156.0186,-1.147444],[152.58660314539802,-0.04447893380455997],[152.3145,0.285562],[151.4205,1.621145],[151.0577,1.684365],[150.6884,1.840784],[150.2821,1.956835],[149.8938,2.018475],[149.4994,2.036961],[149.0653,2.001851],[148.6429,1.911005],[148.2325,1.764463],[147.8492,1.567981],[147.5835,1.794534],[147.3039,1.987033],[147.0311,2.137909],[146.6395,2.315395],[146.369,2.420472],[146.0953,2.500363],[145.8211,2.555551],[145.5378,2.587814],[145.0278,2.584313],[144.7694,2.55223],[144.60864799878908,2.5194528526085276],[136.9541,4.979449],[135.3124,11.48818],[138.4669,13.21917],[141.63681689943397,12.71137826091178],[141.6357,12.68326],[156.84942966477345,9.914388099754012],[156.8453,9.842888],[163.0722,8.067902],[165.509,6.292213],[165.6345,3.186321]]]}}
