{"type":"Feature","properties":{"sourceId":"mauritania"},"geometry":{"type":"Polygon","coordinates":[[[-12.233986582768852,14.75627804572663],[-12.2362,14.76658],[-12.26486,14.77405],[-12.33164,14.8328],[-12.37782,14.84127],[-12.39807,14.84807],[-12.45219,14.89842],[-12.44691,14.91319],[-12.44928,14.97452],[-12.48783,15.02307],[-12.60113,15.08986],[-12.66366,15.11782],[-12.69411,15.10361],[-12.74448,15.13643],[-12.78603,15.16062],[-12.78328,15.19591],[-12.79392,15.21164],[-12.82522,15.28698],[-12.91764,15.44137],[-12.93034,15.45477],[-12.95946,15.5076],[-13.08093,15.5879],[-13.18523,15.63541],[-13.2223,15.62147],[-13.24651,15.65106],[-13.25063,15.66577],[-13.21185,15.66901],[-13.19854,15.69656],[-13.25779,15.79501],[-13.30574,15.92961],[-13.35528,15.97145],[-13.37086,16.06257],[-13.4411,16.09271],[-13.45836,16.11785],[-13.47645,16.14593],[-13.48864,16.1517],[-13.51524,16.13191],[-13.57314,16.14256],[-13.67982,16.10489],[-13.70857,16.13824],[-13.69314,16.17002],[-13.71206,16.1911],[-13.7857,16.14461],[-13.802,16.14617],[-13.88466,16.2094],[-13.96465,16.33282],[-13.99246,16.34847],[-14.02353,16.35786],[-14.09168,16.43147],[-14.12945,16.47955],[-14.16515,16.49699],[-14.21803,16.55558],[-14.26746,16.54357],[-14.2642,16.57434],[-14.26884,16.58256],[-14.28497,16.59013],[-14.32789,16.57039],[-14.31718,16.6307],[-14.33287,16.64623],[-14.40282,16.64208],[-14.42103,16.66228],[-14.44685,16.63225],[-14.50263,16.63155],[-14.54641,16.64738],[-14.56106,16.63025],[-14.63036,16.63307],[-14.64272,16.65198],[-14.76631,16.65839],[-14.87755,16.66234],[-14.98971,16.70088],[-15.00677,16.6832],[-15.00934,16.65058],[-15.03623,16.63952],[-15.0777,16.68357],[-15.11341,16.6806],[-15.12798,16.63441],[-15.08776,16.62022],[-15.11947,16.58689],[-15.17143,16.59639],[-15.23117,16.56414],[-15.29812,16.58487],[-15.41176,16.54308],[-15.43682,16.58454],[-15.46497,16.59869],[-15.5254,16.56677],[-15.51864,16.52977],[-15.55596,16.51955],[-15.62357,16.53417],[-15.63956,16.51842],[-15.63538,16.4989],[-15.68333,16.48416],[-15.81568,16.51107],[-15.85222,16.50351],[-15.86357,16.51905],[-15.92331,16.51675],[-15.96428,16.49654],[-16.00639,16.50753],[-16.04991,16.49085],[-16.10115,16.56183],[-16.15585,16.55923],[-16.20293,16.52257],[-16.26732,16.53584],[-16.33202,16.4577],[-16.3995,16.22588],[-16.4455,16.21632],[-16.46336,16.18434],[-16.48018,16.07716],[-16.74855,16.08748],[-16.764521594894163,16.08796202385224],[-17.329143477022022,20.494469666984376],[-16.96495,20.53315],[-17.05044,20.79704],[-17.06228,20.88383],[-17.05941,20.91118],[-17.04958,20.93322],[-17.03774,20.98132],[-17.02709,21.04189],[-16.98624,21.12358],[-16.94401,21.32744],[-12.98378,21.32328],[-13.02215,22.80911],[-11.97936,23.43783],[-11.95862,25.95064],[-8.635395,25.9719],[-8.635472608057555,27.304925164693387],[-6.745226,26.18917],[-4.816056,24.99555],[-6.541551,24.97199],[-5.307419,16.33865],[-5.496426,15.49454],[-9.191437,15.49471],[-9.399834,15.43316],[-9.650116,15.41893],[-9.797058,15.38616],[-10.06863,15.35736],[-10.15308,15.37888],[-10.16441,15.39643],[-10.17325,15.39725],[-10.17694,15.38989],[-10.1869,15.39254],[-10.20904,15.40991],[-10.23608,15.41372],[-10.27505,15.42166],[-10.27539,15.42903],[-10.33582,15.42878],[-10.38843,15.43813],[-10.42002,15.43159],[-10.52181,15.44044],[-10.57314,15.421],[-10.63974,15.41711],[-10.71425,15.43763],[-10.71339,15.37027],[-10.73175,15.33816],[-10.82977,15.21198],[-10.87217,15.15316],[-10.87355,15.13129],[-10.88574,15.10958],[-10.90582,15.10726],[-10.94736,15.15565],[-10.96024,15.16095],[-11.01036,15.23384],[-11.07799,15.28319],[-11.19455,15.3817],[-11.20708,15.39576],[-11.25635,15.4143],[-11.44512,15.61515],[-11.60877,15.52614],[-11.71417,15.48081],[-11.75434,15.36167],[-11.79176,15.21794],[-11.78352,15.033],[-11.79382,14.98658],[-11.79382,14.90398],[-11.80309,14.87644],[-11.87691,14.83363],[-11.93527,14.77787],[-12.05338,14.71578],[-12.16084,14.75496],[-12.233986582768852,14.75627804572663]]]}}
