{"type":"Feature","properties":{"sourceId":"malaysia-singapore-brunei"},"geometry":{"type":"Polygon","coordinates":[[[112.3534,6.253504],[115.0642,6.305465],[116.6501,7.704189],[116.981,7.736849],[117.4191,7.479582],[118.055,6.971414],[118.0014,6.316665],[118.3399,6.035943],[118.85,6.076159],[119.6683,5.263222],[119.0645,4.689801],[118.9927,3.858509],[117.9595,4.163583],[117.9005,4.163754],[117.6484,4.163154],[117.6193,4.130025],[117.5638,4.159302],[117.5283,4.158446],[117.4574,4.175053],[117.3642,4.273148],[117.2959,4.303276],[117.2432,4.364555],[117.2018,4.331862],[117.0188,4.308754],[116.8417,4.316286],[116.4365,4.280681],[115.8646,4.247814],[115.638,3.89988],[115.6737,3.43803],[115.5954,3.165199],[115.2534,2.504772],[114.8923,1.91264],[114.5901,1.416406],[114.2249,1.399932],[113.6646,1.198796],[112.9635,1.400618],[112.2796,1.456219],[112.1464,1.124654],[111.823,0.97499],[111.5504,0.931738],[111.4041,0.999019],[111.1967,1.051883],[110.8218,0.891917],[110.6055,0.830813],[110.473,0.870634],[110.2657,0.989408],[110.0555,1.202915],[109.8207,1.417779],[109.6539,1.617523],[109.5433,1.85362],[109.5311,1.923963],[109.543,1.971485],[109.6108,1.996018],[109.6603,2.169626],[109.0684,5.144585],[107.7759,5.331655],[105.4104,3.620764],[104.6872,1.498012],[104.4964,1.225549],[104.0778,1.256931],[103.7383,1.109964],[103.6528,1.166641],[103.0518,1.283921],[100.9561,2.773085],[99.80529,3.858779],[99.25611,5.695856],[99.39772794302225,6.211796933999963],[99.48158,6.239878],[99.56634,6.454507],[99.90005,6.496124],[100.0793,6.396508],[100.122,6.415954],[100.1375,6.429601],[100.15,6.451094],[100.1622,6.477532],[100.1624,6.51659],[100.1624,6.552235],[100.1878,6.56673],[100.1838,6.65864],[100.1833,6.687966],[100.1922,6.709618],[100.2384,6.684726],[100.2794,6.702798],[100.2909,6.679612],[100.3071,6.66546],[100.3187,6.66335],[100.3215,6.664714],[100.3266,6.664203],[100.3253,6.660878],[100.3186,6.654633],[100.3141,6.637412],[100.3217,6.62181],[100.298,6.609447],[100.356,6.55232],[100.3624,6.538591],[100.3998,6.531343],[100.4092,6.521707],[100.4187,6.517187],[100.4235,6.51642],[100.4384,6.523327],[100.4837,6.518125],[100.5062,6.490836],[100.547,6.482138],[100.6512,6.436766],[100.6897,6.450753],[100.7326,6.485208],[100.7439,6.4528],[100.8047,6.436425],[100.8287,6.295165],[100.848,6.228276],[101.0227,6.238856],[101.0989,6.245553],[101.0505,6.142262],[101.0996,5.989656],[101.021,5.91863],[100.975,5.815148],[100.9822,5.78509],[101.0227,5.734194],[101.0509,5.732144],[101.0917,5.690466],[101.1305,5.597877],[101.2689,5.686367],[101.2737,5.771086],[101.4903,5.861939],[101.5768,5.913508],[101.6845,5.750249],[101.7044,5.748711],[101.7495,5.784236],[101.8225,5.722237],[101.8676,5.790043],[101.8838,5.813013],[101.8782,5.820143],[101.8858,5.833976],[101.8918,5.837263],[101.8939,5.839483],[101.9178,5.839996],[101.9396,5.860061],[101.9453,5.87227],[101.9426,5.889175],[101.9318,5.911715],[101.9366,5.944839],[101.9456,5.953546],[101.9441,5.967461],[101.9541,5.989143],[101.9737,6.004978],[101.9728,6.014709],[101.9718,6.018038],[101.9756,6.022135],[101.9836,6.028366],[101.999,6.03831],[102.021,6.050601],[102.0345,6.067586],[102.0541,6.076803],[102.0622,6.089776],[102.076,6.114526],[102.0953,6.145846],[102.0929,6.154123],[102.0819,6.201568],[102.0835,6.225417],[102.0925,6.235272],[102.0944,6.245511],[102.26220973350291,6.419710844212364],[112.3534,6.253504]]]}}
