{"type":"Feature","properties":{"sourceId":"murcia"},"geometry":{"type":"Polygon","coordinates":[[[-1.709576,37.42178],[-1.738007,37.44239],[-1.78133,37.4457],[-1.808109,37.43125],[-1.848107,37.45442],[-1.877461,37.4942],[-1.95591,37.58431],[-1.982517,37.62402],[-2.01067,37.66385],[-2.014446,37.67947],[-2.015991,37.70243],[-2.009812,37.77465],[-1.998482,37.859],[-2.10474,37.87363],[-2.176838,37.88623],[-2.256832,37.93851],[-2.285671,37.96518],[-2.351246,38.02822],[-2.33923,38.06904],[-2.274685,38.11552],[-2.218723,38.20851],[-2.173748,38.23198],[-2.065602,38.30139],[-2.047577,38.30907],[-2.014446,38.30327],[-1.994877,38.28765],[-1.909561,38.30139],[-1.873512,38.32132],[-1.851883,38.33735],[-1.797123,38.37504],[-1.772232,38.38177],[-1.743908,38.38446],[-1.697045,38.37813],[-1.676789,38.36118],[-1.683483,38.33425],[-1.664601,38.31728],[-1.601257,38.31769],[-1.542721,38.34825],[-1.487961,38.37988],[-1.48161,38.4232],[-1.503754,38.53366],[-1.492253,38.56696],[-1.456375,38.58494],[-1.452599,38.65013],[-1.423073,38.68578],[-1.368485,38.70842],[-1.341019,38.68283],[-1.253815,38.74096],[-1.18618,38.76024],[-1.115456,38.7407],[-1.109963,38.71271],[-1.034088,38.66112],[-1.02396,38.6583],[-1.011429,38.63578],[-0.997524,38.57233],[-1.018982,38.52104],[-1.007996,38.49552],[-1.043873,38.4595],[-1.0746,38.43046],[-1.081295,38.42603],[-1.081639,38.3496],[-1.057091,38.34812],[-1.021557,38.3395],[-0.984135,38.3224],[-0.966625,38.28765],[-0.963364,38.25665],[-0.98731,38.19644],[-1.003747,38.17164],[-1.025505,38.146],[-1.034775,38.13834],[-1.029925,38.11599],[-1.030955,38.10663],[-1.029925,38.09738],[-1.025033,38.09005],[-1.023703,38.08364],[-1.023016,38.07691],[-1.014948,38.06668],[-1.007009,38.05627],[-1.002202,38.05472],[-0.997052,38.05198],[-0.981388,38.0315],[-0.965037,38.01371],[-0.957828,37.99975],[-0.932293,37.96924],[-0.920019,37.94481],[-0.898218,37.92318],[-0.85762,37.88654],[-0.853372,37.88464],[-0.838437,37.8716],[-0.829253,37.86456],[-0.803247,37.85988],[-0.79123,37.85063],[-0.78814,37.84795],[-0.775738,37.84473],[-0.758443,37.84904],[-0.346071,37.88569],[-0.247194,37.36033],[-1.367799,37.11215],[-1.630611,37.37466],[-1.670523,37.40119],[-1.709576,37.42178]]]}}
