{"type":"Feature","properties":{"sourceId":"mozambique"},"geometry":{"type":"Polygon","coordinates":[[[33.10109,-26.93837],[32.87968,-26.89161],[32.1307,-26.87186],[32.12836124354994,-26.841634373921025],[32.13544,-26.84176],[32.13698,-26.52764],[32.08145,-26.40448],[32.08076,-26.30603],[32.1072,-26.16175],[32.08866,-26.00796],[32.0103,-25.99261],[32.00369,-25.99524],[31.97588,-25.9504],[31.956147134781027,-25.958616030745215],[31.9109,-25.90925],[31.96548,-25.46955],[31.95729,-24.31157],[31.74517,-23.88855],[31.53914,-23.48693],[31.29900124324413,-22.440538934181887],[31.30962,-22.44725],[31.59244,-22.19782],[32.42022,-21.33963],[32.49672,-21.34429],[32.3988,-21.13069],[32.54031,-20.91607],[32.51317,-20.63346],[32.57017,-20.58726],[32.68772,-20.56878],[32.88471,-20.29757],[32.8862,-20.13847],[32.93225,-20.13449],[32.94258,-20.06815],[33.03243,-20.02848],[33.08541,-19.78481],[32.99361,-19.71708],[32.97846,-19.63337],[32.88139,-19.54149],[32.863,-19.46173],[32.87405,-19.29381],[32.89981,-19.09233],[32.86101,-19.00827],[32.74215,-19.00037],[32.73011,-18.95893],[32.75848,-18.9304],[32.73358,-18.84804],[32.8277,-18.80275],[32.90248,-18.81704],[32.94646,-18.78115],[32.97802,-18.69359],[33.03368,-18.48748],[33.08395,-18.33986],[33.0352,-18.28608],[33.02095,-18.16856],[33.07754,-17.60471],[33.07576,-17.33957],[33.00796,-17.16842],[32.8756,-16.93852],[32.93487,-16.90231],[33.00189,-16.7403],[32.9943,-16.68927],[32.73271,-16.66828],[32.7168,-16.57703],[32.34715,-16.42531],[31.93717,-16.39367],[31.91479,-16.32457],[31.7161,-16.17487],[31.4558,-16.13293],[31.2863,-15.98346],[30.44859,-15.97401],[30.44915,-15.62983],[30.42702,-15.60064],[30.414600401039532,-15.605344542773024],[30.40707,-15.58385],[30.37308,-15.54863],[30.40827,-15.48114],[30.40089,-15.37756],[30.23197,-15.0078],[30.39059,-14.96435],[31.48235,-14.62179],[32.05956,-14.39145],[32.25294,-14.32477],[32.45173,-14.28751],[32.66819,-14.19783],[32.96637,-14.09479],[33.19965,-14.01511],[33.24140093903379,-14.002957105130582],[33.25802,-14.02668],[33.26746,-14.03018],[33.28239,-14.02702],[33.28686,-14.03484],[33.2963,-14.03618],[33.29784,-14.05583],[33.31638,-14.08347],[33.30316,-14.10262],[33.29252,-14.14207],[33.30883,-14.16704],[33.33939,-14.21896],[33.36033,-14.22362],[33.37715,-14.22761],[33.44616,-14.36402],[33.46779,-14.40259],[33.51242,-14.42604],[33.5574,-14.47773],[33.61679,-14.52244],[33.61473,-14.5472],[33.63104,-14.58807],[33.66194,-14.6193],[33.68666,-14.61764],[33.72082,-14.5801],[33.71515,-14.51363],[33.72253,-14.50283],[33.74176,-14.5128],[33.79841,-14.5565],[33.82828,-14.54803],[33.86107,-14.51463],[33.87566,-14.52526],[33.89042,-14.51646],[33.88544,-14.50266],[33.91685,-14.48222],[33.92355,-14.48538],[33.94072,-14.48222],[34.09006,-14.49236],[34.088,-14.45995],[34.18465,-14.44133],[34.20937,-14.44465],[34.22653,-14.43817],[34.24061,-14.42853],[34.26327,-14.43485],[34.27546,-14.4262],[34.30155,-14.40342],[34.30944,-14.40841],[34.34858,-14.39927],[34.35069,-14.39212],[34.35704,-14.38759],[34.36978,-14.39004],[34.37365,-14.39761],[34.38575,-14.39877],[34.3909,-14.39727],[34.39193,-14.40409],[34.40223,-14.42146],[34.41853,-14.43352],[34.41785,-14.43933],[34.42909,-14.46236],[34.44111,-14.47241],[34.44643,-14.48023],[34.44909,-14.49976],[34.46368,-14.52144],[34.47553,-14.53507],[34.49012,-14.54047],[34.49698,-14.55584],[34.51269,-14.55484],[34.52814,-14.58491],[34.54265,-14.62378],[34.54067,-14.63524],[34.54926,-14.64579],[34.53861,-14.65833],[34.5375,-14.67195],[34.51904,-14.68199],[34.51801,-14.68656],[34.52368,-14.69785],[34.52848,-14.71105],[34.5375,-14.7255],[34.54634,-14.75463],[34.57114,-14.7836],[34.58281,-14.81198],[34.57106,-14.82036],[34.57037,-14.8299],[34.57535,-14.87553],[34.56642,-14.88482],[34.56368,-14.90025],[34.57638,-14.90871],[34.57612,-14.91435],[34.59105,-14.9612],[34.59732,-14.9743],[34.61414,-14.98094],[34.61097,-14.99271],[34.62024,-15.00125],[34.61826,-15.01277],[34.6108,-15.01576],[34.57123,-15.06748],[34.56977,-15.08157],[34.57329,-15.08812],[34.58556,-15.09052],[34.5805,-15.10535],[34.56651,-15.11878],[34.57586,-15.17197],[34.57621,-15.19864],[34.60067,-15.24303],[34.59698,-15.24974],[34.59595,-15.28452],[34.57046,-15.30753],[34.56943,-15.31117],[34.5738,-15.32434],[34.55818,-15.32756],[34.55286,-15.33617],[34.54368,-15.32682],[34.53939,-15.3274],[34.53381,-15.33237],[34.5199,-15.34933],[34.51518,-15.3716],[34.5157,-15.38103],[34.51913,-15.38625],[34.5114,-15.40346],[34.51158,-15.41041],[34.49467,-15.40735],[34.47415,-15.41968],[34.47244,-15.42199],[34.46952,-15.42745],[34.44471,-15.42026],[34.43914,-15.42307],[34.4375,-15.43854],[34.44222,-15.45542],[34.43115,-15.46543],[34.42257,-15.47519],[34.4242,-15.4933],[34.42712,-15.50753],[34.43965,-15.54689],[34.43725,-15.55864],[34.44197,-15.56963],[34.43828,-15.576],[34.43664,-15.58724],[34.44188,-15.59129],[34.44806,-15.59113],[34.45089,-15.60832],[34.43424,-15.61336],[34.42823,-15.62692],[34.42729,-15.65874],[34.41167,-15.66916],[34.39055,-15.68469],[34.38686,-15.69279],[34.38575,-15.70774],[34.37734,-15.71452],[34.36386,-15.73897],[34.33579,-15.74013],[34.32558,-15.74286],[34.29769,-15.7588],[34.28301,-15.7849],[34.2679,-15.7982],[34.25365,-15.82463],[34.24851,-15.84345],[34.24971,-15.87829],[34.24996,-15.89703],[34.25743,-15.92287],[34.32009,-15.94994],[34.32515,-15.96513],[34.35202,-15.96686],[34.38566,-16.028],[34.41982,-16.04532],[34.39768,-16.1456],[34.39201,-16.185],[34.42326,-16.26577],[34.49141,-16.30202],[34.55904,-16.32014],[34.58548,-16.42094],[34.67234,-16.47395],[34.68092,-16.50654],[34.69929,-16.50852],[34.71354,-16.50276],[34.7259,-16.5049],[34.7695,-16.54867],[34.76744,-16.5875],[34.83747,-16.61859],[34.85567,-16.67928],[34.90477,-16.70477],[34.91592,-16.74866],[34.9415,-16.75359],[34.96416,-16.74734],[34.98751,-16.79222],[35.03214,-16.82837],[35.06321,-16.84003],[35.13599,-16.83215],[35.14217,-16.87453],[35.1614,-16.92709],[35.04398,-17.00131],[35.04845,-17.04497],[35.0869,-17.08632],[35.07214,-17.10995],[35.09102,-17.13324],[35.1444,-17.13128],[35.2953,-17.1307],[35.31066,-17.12512],[35.31641,-17.0622],[35.30783,-16.97931],[35.29753,-16.96125],[35.27246,-16.93284],[35.28568,-16.9064],[35.30765,-16.85794],[35.31864,-16.83182],[35.29306,-16.70855],[35.22783,-16.64261],[35.17307,-16.6051],[35.1614,-16.60477],[35.1535,-16.55986],[35.21067,-16.52037],[35.26251,-16.48778],[35.27744,-16.40052],[35.3068,-16.34485],[35.28465,-16.3236],[35.31898,-16.21105],[35.3492,-16.18945],[35.35435,-16.17791],[35.38971,-16.155],[35.40284,-16.14123],[35.40919,-16.12647],[35.42816,-16.11987],[35.43494,-16.11534],[35.46558,-16.12391],[35.48361,-16.12556],[35.48498,-16.14049],[35.49511,-16.15549],[35.51854,-16.16992],[35.52575,-16.16959],[35.53691,-16.16373],[35.54575,-16.155],[35.55751,-16.12977],[35.57047,-16.13603],[35.59484,-16.13504],[35.62823,-16.12441],[35.65072,-16.10726],[35.66892,-16.10025],[35.68162,-16.10701],[35.71381,-16.10305],[35.72951,-16.08656],[35.76153,-16.07501],[35.78273,-16.05406],[35.81388,-16.03773],[35.82195,-16.02321],[35.82144,-15.9964],[35.80899,-15.99038],[35.81612,-15.9331],[35.82281,-15.84197],[35.86896,-15.42161],[35.80797,-15.17159],[35.92941,-14.89137],[35.88868,-14.87374],[35.88623,-14.66905],[35.52395,-14.25207],[35.49408,-14.1692],[35.0972,-13.69636],[34.87306,-13.4687],[34.73345,-13.30053],[34.63238,-12.20636],[34.79325,-12.09688],[34.95174256850241,-11.608670151185416],[35.46661,-11.62533],[35.85388,-11.47195],[36.23016,-11.77595],[36.67236,-11.77595],[36.86462,-11.63878],[37.41668,-11.72216],[37.77649,-11.59036],[37.966,-11.32386],[38.43841,-11.46656],[39.28436,-11.21073],[40.69487,-10.48442],[40.67300764768809,-10.267320417454998],[40.68919,-10.25734],[42.53489,-9.986206],[41.57289,-17.76241],[34.50233,-26.83091],[33.10109,-26.93837]]]}}
