{"type":"Feature","properties":{"sourceId":"macau"},"geometry":{"type":"Polygon","coordinates":[[[113.5343,22.20076],[113.5352,22.2065],[113.5346,22.20707],[113.5334,22.21109],[113.533,22.21239],[113.535,22.21349],[113.536,22.21373],[113.5382,22.21372],[113.5407,22.21315],[113.5414,22.21313],[113.5413,22.21328],[113.5423,22.21454],[113.5432,22.21652],[113.5441,22.21705],[113.5452,22.217],[113.546,22.21687],[113.547,22.21682],[113.5476,22.21674],[113.5483,22.21678],[113.5491,22.21668],[113.55,22.21698],[113.5509,22.21708],[113.551,22.21608],[113.552,22.21611],[113.5669,22.21073],[113.5706,22.209],[113.5711,22.20429],[113.6058,22.20537],[113.6325,22.16579],[113.6316,22.10775],[113.6117,22.07586],[113.5705,22.07546],[113.5697,22.0986],[113.5493,22.10838],[113.5476,22.11908],[113.541,22.12341],[113.5406,22.12395],[113.5401,22.13578],[113.5485,22.13657],[113.549,22.1453],[113.539,22.15692],[113.528,22.1762],[113.5273,22.18128],[113.5272,22.1878],[113.5314,22.1944],[113.5343,22.20076]]]}}
