{"type":"Feature","properties":{"sourceId":"malopolskie"},"geometry":{"type":"MultiPolygon","coordinates":[[[[19.181930559116207,49.396050464418025],[19.19973,49.39744],[19.18193,49.39605],[19.181930559116207,49.396050464418025]]],[[[19.21151,49.42062],[19.19973,49.39744],[19.211505599717746,49.42061634499881],[19.21151,49.42062]]],[[[21.2331,50.30556],[21.20029,50.29256],[21.17011,50.2587],[21.19432,50.24011],[21.17514,50.22351],[21.1737,50.15558],[21.20369,50.12708],[21.21098,50.09494],[21.17557,50.05169],[21.20449,50.02811],[21.16257,49.98334],[21.18606,49.94203],[21.29451,49.93057],[21.29997,49.90778],[21.28768,49.88339],[21.24042,49.87146],[21.24074,49.86035],[21.30196,49.85388],[21.35913,49.82071],[21.33342,49.79288],[21.25825,49.77673],[21.31907,49.75765],[21.35859,49.69881],[21.35589,49.66671],[21.37412,49.63092],[21.34755,49.59432],[21.39001,49.5761],[21.38167,49.55157],[21.43328,49.49446],[21.41881,49.47917],[21.40673,49.44752],[21.40717,49.40472],[21.28139,49.44103],[21.19134,49.38545],[21.12951,49.41724],[21.0823,49.40991],[21.11747,49.38427],[21.10481,49.35371],[21.04459,49.34706],[20.99287,49.29243],[20.92796,49.28049],[20.86358,49.30725],[20.85934,49.32752],[20.78758,49.33112],[20.71652,49.40302],[20.62658,49.39317],[20.57713,49.36066],[20.46606,49.39922],[20.3938,49.37474],[20.34642,49.38431],[20.32065,49.32926],[20.22235,49.33265],[20.14791,49.2906],[20.09263,49.16487],[19.93112,49.21992],[19.872,49.18064],[19.78399,49.18342],[19.74341,49.21654],[19.78619,49.2827],[19.77421,49.39274],[19.71651,49.37083],[19.62482,49.39477],[19.62454,49.42996],[19.57125,49.4437],[19.51158,49.5594],[19.456,49.58854],[19.45606,49.58851],[19.49154,49.61653],[19.4806,49.67605],[19.44438,49.69369],[19.4071,49.69187],[19.45622,49.7264],[19.44643,49.76657],[19.41583,49.78886],[19.39713,49.78021],[19.32694,49.79115],[19.30236,49.82419],[19.30443,49.8585],[19.20992,49.8847],[19.20037,49.93165],[19.20847,49.95788],[19.18409,49.96532],[19.1345,49.95403],[19.135,50.00069],[19.17161,50.04322],[19.24221,50.05792],[19.23635,50.0853],[19.25096,50.10416],[19.28079,50.10641],[19.2918,50.12719],[19.35546,50.13801],[19.38128,50.18147],[19.42118,50.18838],[19.45182,50.21755],[19.44579,50.23957],[19.37993,50.25596],[19.42433,50.28891],[19.42392,50.31216],[19.49328,50.31369],[19.50444,50.38484],[19.5255,50.40206],[19.60588,50.39046],[19.66113,50.39504],[19.70797,50.42858],[19.84823,50.42074],[19.90757,50.44208],[19.91745,50.46018],[19.98406,50.46851],[19.98542,50.48439],[19.966147785298745,50.50661608686107],[19.9771,50.51339],[19.98678,50.5137],[20.02164,50.50408],[20.02311,50.49818],[20.02982,50.49472],[20.04103,50.4947],[20.04603,50.49963],[20.05358,50.50022],[20.05816,50.50484],[20.07135,50.50414],[20.07778,50.5001],[20.0838,50.48461],[20.10438,50.48018],[20.11365,50.47897],[20.13136,50.48323],[20.16574,50.47852],[20.17609,50.48571],[20.20138,50.48938],[20.21603,50.48291],[20.22398,50.47232],[20.24207,50.47297],[20.24953,50.46621],[20.26404,50.46089],[20.25476,50.44218],[20.25924,50.42621],[20.27169,50.41675],[20.28368,50.41324],[20.28807,50.40153],[20.29825,50.39429],[20.3013,50.38527],[20.31457,50.379],[20.31262,50.36749],[20.32275,50.36175],[20.32114,50.35772],[20.30977,50.35532],[20.29696,50.35807],[20.28918,50.35288],[20.28712,50.34362],[20.29456,50.33707],[20.28733,50.3307],[20.28705,50.32024],[20.29676,50.31367],[20.30532,50.31636],[20.3229,50.31278],[20.32852,50.30042],[20.33328,50.29735],[20.33252,50.29216],[20.33666,50.28316],[20.33971,50.28165],[20.33776,50.27848],[20.32904,50.27689],[20.32543,50.2653],[20.33935,50.25775],[20.3498,50.25663],[20.36451,50.24378],[20.37855,50.23726],[20.36883,50.22932],[20.36864,50.21575],[20.37424,50.20729],[20.38381,50.20176],[20.40358,50.20397],[20.40315,50.19614],[20.41478,50.18558],[20.43289,50.18918],[20.43731,50.18687],[20.45237,50.18692],[20.4592,50.19103],[20.46388,50.18687],[20.47432,50.18496],[20.47944,50.1906],[20.50541,50.18434],[20.51262,50.17974],[20.5266,50.18397],[20.53764,50.18326],[20.54465,50.18753],[20.54669,50.19267],[20.55615,50.19496],[20.56374,50.18631],[20.56927,50.18099],[20.57739,50.18112],[20.58689,50.18469],[20.58923,50.19156],[20.59527,50.19481],[20.60737,50.19452],[20.61101,50.19742],[20.62215,50.19498],[20.63155,50.19606],[20.63542,50.20036],[20.64518,50.20147],[20.65454,50.19769],[20.66903,50.19917],[20.67726,50.19588],[20.68679,50.20335],[20.68834,50.21101],[20.70509,50.21226],[20.71202,50.22151],[20.73123,50.22572],[20.73682,50.23285],[20.73426,50.24687],[20.75707,50.25983],[20.77584,50.26663],[20.7838,50.28001],[20.79245,50.28406],[20.80947,50.28175],[20.82363,50.27064],[20.83836,50.26782],[20.85144,50.27396],[20.85744,50.28924],[20.87997,50.28963],[20.89639,50.29983],[20.93332,50.2925],[20.94179,50.29527],[20.94959,50.30755],[20.95477,50.30956],[21.00873,50.30691],[21.03012,50.31299],[21.049,50.30926],[21.0622,50.31105],[21.07685,50.31908],[21.08672,50.3309],[21.11317,50.33243],[21.12074,50.33756],[21.12547,50.34526],[21.13392,50.34829],[21.15054,50.34613],[21.15997,50.3388],[21.16383,50.32799],[21.17207,50.32449],[21.18073,50.32455],[21.19033,50.33153],[21.195,50.34671],[21.219430017836377,50.351797397979546],[21.2331,50.30556]]],[[[19.32556,49.51537],[19.3255647372326,49.51537393576313],[19.36857,49.52163],[19.32556,49.51537]]]]}}
