{"type":"Feature","properties":{"sourceId":"morocco"},"geometry":{"type":"Polygon","coordinates":[[[-2.206259,35.82223],[-2.194004,35.33935],[-2.209727,35.05972],[-2.210888,35.05027],[-2.130994,34.99994],[-2.102084,34.97494],[-2.033288,34.93251],[-1.970487,34.93778],[-1.96564,34.88288],[-1.893268,34.84587],[-1.886644,34.82614],[-1.878685,34.80794],[-1.86342,34.80802],[-1.745389,34.75318],[-1.734724,34.74295],[-1.770501,34.6994],[-1.826908,34.62848],[-1.770172,34.54969],[-1.750646,34.53028],[-1.687365,34.49619],[-1.68251,34.48581],[-1.768113,34.38906],[-1.692238,34.31764],[-1.628072,34.10337],[-1.690865,33.87027],[-1.646061,33.75717],[-1.58535,33.61243],[-1.565366,33.50968],[-1.621257,33.30786],[-1.002846,32.53061],[-0.993576,32.51584],[-0.999155,32.50491],[-1.207393,32.30372],[-1.13863,32.10672],[-1.206265,32.07879],[-1.254758,32.07013],[-1.62236,32.08342],[-2.177348,32.12915],[-2.865696,32.08752],[-2.774789,31.78524],[-3.655204,31.62959],[-3.502093,30.99366],[-3.595826,30.68277],[-3.816235,30.57217],[-4.222689,30.53573],[-5.54556,29.46192],[-6.434593,29.5345],[-6.793394,29.43818],[-7.143002,29.47434],[-8.635544,28.53118],[-8.635395,25.9719],[-11.95862,25.95064],[-11.97936,23.43783],[-13.02215,22.80911],[-12.98378,21.32328],[-16.94401,21.32744],[-16.98624,21.12358],[-17.02709,21.04189],[-17.03774,20.98132],[-17.04958,20.93322],[-17.05941,20.91118],[-17.06228,20.88383],[-17.05044,20.79704],[-16.96495,20.53315],[-18.1835,20.40373],[-17.09474,24.11669],[-14.318728698654455,27.159598905318195],[-14.02816,27.25685],[-13.560348998462963,27.990892474694764],[-13.55714,27.99441],[-9.635021,33.09155],[-6.755431,35.98487],[-6.2459727051449905,35.98556207203204],[-6.19639,35.94341],[-5.817413,35.92465],[-5.646974,35.92465],[-5.163577,36.02689],[-3.175054,35.70638],[-2.845464,35.71976],[-2.6945209904220935,35.860165607253094],[-2.206259,35.82223]],[[-2.964749,35.31337],[-2.970666,35.29861],[-2.972424,35.28546],[-2.972404,35.2854],[-2.952387,35.26424],[-2.949118,35.26393],[-2.929856,35.26917],[-2.921045,35.27847],[-2.908201,35.30511],[-2.947968,35.32393],[-2.95959,35.31872],[-2.964749,35.31337]],[[-5.342838,35.86857],[-5.34154,35.86702],[-5.256615,35.89086],[-5.279274,35.95869],[-5.391024,35.92198],[-5.373401,35.87996],[-5.355773,35.87211],[-5.342838,35.86857]]]}}
