{"type":"Feature","properties":{"sourceId":"myanmar"},"geometry":{"type":"Polygon","coordinates":[[[97.4642,28.33692],[97.47338,28.49927],[97.57188,28.57476],[97.67069,28.56505],[97.73981,28.5167],[97.81522,28.3628],[97.9226,28.3923],[98.12147100927574,28.1677732896896],[98.115,28.165],[98.05284,28.05519],[98.24229,27.45678],[98.58664,27.46956],[98.67111,26.62125],[98.54187,26.14558],[98.31319,25.68849],[98.10454,25.70339],[98.00009,25.40752],[97.62947,25.12518],[97.42864,24.43768],[97.6291,24.17514],[97.42851,23.9213],[97.64862,23.74522],[98.13813,23.99561],[98.5772,23.98438],[98.80597,23.12184],[99.36286,23.00384],[99.09953,22.07647],[99.86099,21.92686],[99.8991,21.66346],[100.2131,21.37188],[100.6062,21.35506],[101.0475,21.61566],[101.08034472467284,21.495616956508208],[100.9883,21.4155],[100.8183,21.31405],[100.7153,21.32044],[100.624,21.06788],[100.5344,21.02623],[100.4944,20.8959],[100.5239,20.87104],[100.5463,20.86752],[100.5754,20.83993],[100.3712,20.83511],[100.2513,20.76161],[100.1676,20.64343],[100.1151,20.43526],[100.1229,20.41073],[100.0932,20.3767],[100.08757745204933,20.367190325148822],[100.079,20.39146],[100.0307,20.40755],[99.99069,20.43562],[99.9676,20.46875],[99.95215,20.4661],[99.92821,20.45685],[99.92177,20.45026],[99.90735,20.45194],[99.88057,20.44656],[99.86383,20.44784],[99.85886,20.44229],[99.85422,20.41824],[99.84152,20.40747],[99.82332,20.35734],[99.81817,20.34962],[99.80195,20.33738],[99.76195,20.34406],[99.72977,20.35235],[99.6829,20.32064],[99.64342,20.34511],[99.47073,20.39725],[99.45494,20.39532],[99.45288,20.36169],[99.50128,20.32628],[99.50111,20.29505],[99.51879,20.23031],[99.5121,20.15539],[99.43571,20.09334],[99.27675,20.12139],[99.21221,20.13364],[99.15848,20.13525],[99.07385,20.10333],[99.04415,20.05674],[99.01823,19.92623],[98.97961,19.74312],[98.95472,19.76929],[98.83678,19.81823],[98.71182,19.77155],[98.3915,19.70643],[98.24524,19.69431],[98.23236,19.73148],[98.13881,19.79207],[98.08422,19.81484],[98.0456,19.81629],[98.02963,19.80709],[98.01813,19.72066],[98.03547,19.64986],[97.98208,19.64259],[97.85797,19.58049],[97.77969,19.40508],[97.7742,19.26707],[97.84115,19.21002],[97.73249,19.04281],[97.65796,18.95003],[97.66125,18.92642],[97.73403,18.87185],[97.73541,18.83092],[97.7512,18.71585],[97.76321,18.6791],[97.75875,18.59191],[97.63721,18.58182],[97.54108,18.53072],[97.50092,18.50956],[97.35878,18.60916],[97.33921,18.57629],[97.34196,18.54602],[97.39002,18.47179],[97.44221,18.33237],[97.45972,18.30531],[97.49748,18.26261],[97.61043,18.22413],[97.64957,18.17423],[97.67189,18.15923],[97.67704,18.07406],[97.68425,17.92615],[97.66777,17.88009],[97.68906,17.83221],[97.76133,17.72531],[97.78931,17.67935],[97.84527,17.62619],[97.90415,17.58193],[97.90896,17.56303],[97.91239,17.5582],[97.91951,17.55509],[97.92114,17.53848],[97.96783,17.50738],[97.99951,17.49583],[98.03495,17.45138],[98.04336,17.42927],[98.10293,17.33818],[98.11048,17.31926],[98.13263,17.29238],[98.16439,17.2614],[98.20447,17.24632],[98.21039,17.22804],[98.22241,17.22304],[98.22601,17.2041],[98.24747,17.18303],[98.27039,17.15063],[98.28463,17.13423],[98.27768,17.11594],[98.29802,17.08911],[98.33613,17.04751],[98.36017,17.04636],[98.38102,17.05596],[98.39364,17.04727],[98.42102,17.03832],[98.42875,17.02068],[98.44608,16.99597],[98.46582,16.97233],[98.48702,16.95657],[98.49921,16.95452],[98.48136,16.94163],[98.48041,16.93604],[98.489,16.92225],[98.51192,16.90496],[98.50668,16.88045],[98.49612,16.86279],[98.48891,16.84135],[98.49973,16.83108],[98.52496,16.82664],[98.53633,16.82894],[98.54024,16.81925],[98.54638,16.81493],[98.54058,16.81292],[98.51707,16.80984],[98.50522,16.79682],[98.48411,16.79123],[98.46025,16.75129],[98.4617,16.73],[98.46934,16.71216],[98.49097,16.70814],[98.49273,16.70847],[98.49621,16.71574],[98.5017,16.71225],[98.49625,16.7051],[98.4938,16.69034],[98.49938,16.68956],[98.5108,16.6995],[98.51475,16.69309],[98.5132,16.6852],[98.51672,16.67624],[98.51234,16.6704],[98.51355,16.65881],[98.5102,16.64877],[98.5108,16.64384],[98.52144,16.6422],[98.5344,16.63331],[98.54101,16.63348],[98.57002,16.60527],[98.58247,16.57812],[98.56977,16.57376],[98.58015,16.5467],[98.63148,16.47642],[98.65122,16.45436],[98.63354,16.42604],[98.63542,16.41196],[98.65208,16.37244],[98.65079,16.35127],[98.66358,16.33727],[98.66083,16.32006],[98.66384,16.29188],[98.67371,16.26741],[98.70306,16.26746],[98.70778,16.28056],[98.70933,16.29308],[98.72014,16.29547],[98.72967,16.31833],[98.73709,16.33513],[98.77842,16.34312],[98.79378,16.36964],[98.8797,16.41238],[98.91403,16.31289],[98.86837,16.24467],[98.8488,16.22489],[98.8476,16.16093],[98.83009,16.12927],[98.78305,16.12779],[98.70821,16.14115],[98.67645,16.13092],[98.58375,16.08012],[98.55148,16.04812],[98.57723,15.92056],[98.59508,15.8489],[98.56316,15.7721],[98.5453,15.68717],[98.54942,15.60055],[98.58169,15.46824],[98.57775,15.37367],[98.47595,15.40172],[98.39561,15.35438],[98.38643,15.33055],[98.39858,15.32152],[98.39746,15.31002],[98.38501,15.30236],[98.38622,15.29956],[98.41029,15.29669],[98.41458,15.27293],[98.40669,15.2615],[98.3751,15.28551],[98.29262,15.31664],[98.24558,15.23086],[98.19477,15.2461],[98.1752,15.11588],[98.20164,14.98226],[98.23082,14.82335],[98.31631,14.70549],[98.3606,14.68399],[98.36197,14.66481],[98.57895,14.32294],[98.96278,14.03468],[99.01703,13.93873],[99.06814,13.89345],[99.08325,13.89212],[99.15882,13.57491],[99.11007,13.18179],[99.08569,13.07413],[99.21547,12.74216],[99.42627,12.34336],[99.46609,12.13265],[99.52995,12.01447],[99.57991,11.87357],[99.6199,11.82804],[99.64497,11.82232],[99.6393,11.79023],[99.62608,11.73595],[99.58103,11.68923],[99.56076,11.64307],[99.49305,11.64165],[99.46438,11.61878],[99.39056,11.46371],[99.39245,11.43813],[99.39897,11.40886],[99.32585,11.33784],[99.30714,11.31814],[99.3207,11.29963],[99.26079,11.22151],[99.15161,11.05662],[99.02183,10.97507],[98.87043,10.79689],[98.7773,10.6811],[98.76889,10.62121],[98.77962,10.6008],[98.80022,10.58553],[98.8064,10.58401],[98.79662,10.56072],[98.81619,10.51068],[98.79601,10.48216],[98.80614,10.47237],[98.78082,10.44413],[98.77769,10.43696],[98.75078,10.39462],[98.73447,10.32303],[98.69568,10.2134],[98.66735,10.1715],[98.65276,10.16762],[98.63903,10.13247],[98.63422,10.09884],[98.58564,10.00993],[98.55938,9.967498],[98.49827,9.963441],[98.32764,9.986435],[98.23425,9.692815],[98.13886926109231,9.535028557413296],[98.0399463017891,9.522551881898165],[97.63999744292278,9.716043930798886],[95.67325,13.94679],[93.40215,13.69881],[92.91535,13.87842],[90.65133,15.05328],[92.03738738479548,19.694726340458345],[92.57904,20.3266],[92.38549,20.72713],[92.31297,20.89185],[92.28413,20.98068],[92.26696,21.07777],[92.20036,21.16408],[92.17941,21.18201],[92.20242,21.19882],[92.2237,21.22922],[92.22733,21.2788],[92.20994,21.3081],[92.35588,21.42623],[92.58179,21.22154],[92.69714,21.27402],[92.63534,21.87297],[92.62826702534896,21.98468027170002],[92.6944,22.02009],[92.82692,22.06019],[92.90726,21.92712],[93.00613,21.98699],[93.17093,22.18295],[93.21144,22.25796],[93.18466,22.91919],[93.39752,23.05194],[93.49777,23.93104],[94.15009,23.82116],[94.19815,23.92413],[94.26613,24.07844],[94.29686,24.23069],[94.30956,24.2407],[94.48654,24.54213],[94.617,24.70754],[94.73236,24.91384],[94.75983,25.00473],[94.75983,25.14031],[94.59572,25.21985],[94.69872,25.44824],[94.86419,25.48667],[95.05783,25.743],[95.20752,26.07344],[95.13954,26.39003],[95.09697,26.45213],[95.12924,26.53448],[95.74928,26.89023],[95.9642,27.04934],[96.04111,27.1667],[96.16007,27.2412],[96.22787,27.2412],[96.74048,27.25755],[96.85684,27.16792],[97.05322,27.08603],[97.15759,27.07013],[97.20978,27.13615],[96.94199,27.59715],[97.3883,27.86215],[97.41989,28.01501],[97.37869,28.22092],[97.3347755034205,28.25521415381712],[97.4642,28.33692]]]}}
