{"type":"Feature","properties":{"sourceId":"maluku"},"geometry":{"type":"Polygon","coordinates":[[[125.3979,-4.872037],[124.8047,-3.732697],[124.8431,-2.844285],[124.3762,-2.619321],[124.2059,-2.284545],[124.0425,-1.833029],[123.8928,-1.439055],[125.4446,0.285646],[125.4666,0.955769],[125.8649,1.82068],[127.738,3.727232],[129.7705,2.855285],[129.76091270984512,1.0944065918338455],[129.5563,0.889862],[129.7211,-0.159299],[128.9603,-1.411598],[128.2819,-2.328458],[129.4794,-2.355898],[131.0339,-2.904633],[132.7588,-4.784463],[135.3625,-5.156593],[135.38804814789705,-5.199554227647914],[135.0384,-7.743646],[128.1885,-9.524903],[128.17629699766033,-9.505029612528327],[127.58583380620705,-8.45272829187688],[127.5911,-8.423469],[127.5293,-8.33244],[127.23429106339043,-8.187670773671735],[127.2079,-8.173428],[127.2044710326159,-8.173037241433937],[127.2025,-8.17207],[127.19724990920847,-8.172214336018992],[126.4444,-8.086421],[125.68617403579883,-8.074907041506318],[125.6685,-8.057869],[125.64395652684264,-8.074265952083405],[125.549,-8.072824],[125.6396,-6.675509],[125.45707676688457,-6.686766405207981],[125.3979,-4.872037]]]}}
