{"type":"Feature","properties":{"sourceId":"madrid"},"geometry":{"type":"Polygon","coordinates":[[[-3.802729,39.88116],[-3.820925,39.88623],[-3.87105,39.90388],[-3.878775,39.91283],[-3.878689,39.92922],[-3.866415,39.93745],[-3.847017,39.94311],[-3.809338,39.95844],[-3.748226,39.98278],[-3.700333,40.02288],[-3.662224,40.04076],[-3.631325,40.05824],[-3.630982,40.07978],[-3.611927,40.1088],[-3.630467,40.11536],[-3.662052,40.12573],[-3.666987,40.13578],[-3.668146,40.14217],[-3.683553,40.13131],[-3.690634,40.13144],[-3.721275,40.14332],[-3.745051,40.13007],[-3.77655,40.13919],[-3.803244,40.1735],[-3.809166,40.1672],[-3.834744,40.16071],[-3.842297,40.16222],[-3.854656,40.16897],[-3.856373,40.18019],[-3.870106,40.18871],[-3.886929,40.18792],[-3.911047,40.18818],[-3.934565,40.20077],[-3.948641,40.18753],[-3.953962,40.19035],[-3.957911,40.19822],[-3.956537,40.2108],[-3.994389,40.20759],[-4.030266,40.23584],[-4.029579,40.24665],[-4.052754,40.2511],[-4.063139,40.25654],[-4.0767,40.2642],[-4.086056,40.25221],[-4.103651,40.23924],[-4.146137,40.24357],[-4.152918,40.24887],[-4.178495,40.28817],[-4.191628,40.29491],[-4.202185,40.26761],[-4.227247,40.26938],[-4.229908,40.27547],[-4.233856,40.2735],[-4.244757,40.27298],[-4.250851,40.26525],[-4.268704,40.22961],[-4.298229,40.2148],[-4.351616,40.23669],[-4.369126,40.29026],[-4.401398,40.27272],[-4.435558,40.23341],[-4.520703,40.19841],[-4.543705,40.19736],[-4.589539,40.20641],[-4.583531,40.22109],[-4.570656,40.26224],[-4.538555,40.29904],[-4.53804,40.30663],[-4.552632,40.34458],[-4.523277,40.34864],[-4.451351,40.3799],[-4.443798,40.38931],[-4.420967,40.41049],[-4.412041,40.41389],[-4.336167,40.41611],[-4.347325,40.43845],[-4.330673,40.46236],[-4.33136,40.53481],[-4.326382,40.55437],[-4.293766,40.56598],[-4.283467,40.60222],[-4.293766,40.60692],[-4.293766,40.63363],[-4.272309,40.63271],[-4.260636,40.60861],[-4.220295,40.60822],[-4.176178,40.62281],[-4.178581,40.68272],[-4.148884,40.70628],[-4.114552,40.74973],[-4.074726,40.80134],[-3.988381,40.79029],[-3.968468,40.83927],[-3.945122,40.9318],[-3.883667,40.98094],[-3.793888,41.00037],[-3.730889,41.07198],[-3.604546,41.1625],[-3.536997,41.16864],[-3.505755,41.13658],[-3.481293,41.09863],[-3.470307,41.09643],[-3.463097,41.09229],[-3.445587,41.08375],[-3.428421,41.08789],[-3.420181,41.08155],[-3.42001,41.02809],[-3.388252,41.00491],[-3.442326,40.9043],[-3.437004,40.89068],[-3.436489,40.87407],[-3.469448,40.86381],[-3.463955,40.85615],[-3.469277,40.83927],[-3.474941,40.82005],[-3.490133,40.79718],[-3.50009,40.79568],[-3.498631,40.79146],[-3.500176,40.78938],[-3.496056,40.78925],[-3.484211,40.786],[-3.463526,40.78542],[-3.444557,40.77144],[-3.439751,40.75961],[-3.431168,40.73152],[-3.437348,40.72072],[-3.45211,40.70771],[-3.45932,40.69821],[-3.450909,40.68767],[-3.437863,40.67856],[-3.426533,40.68506],[-3.41795,40.68142],[-3.414002,40.67387],[-3.408337,40.67374],[-3.402157,40.69457],[-3.392372,40.69587],[-3.378553,40.68396],[-3.371945,40.67979],[-3.33993,40.6406],[-3.336325,40.64261],[-3.317356,40.65649],[-3.312464,40.64926],[-3.322163,40.63467],[-3.320103,40.61115],[-3.309031,40.58091],[-3.293924,40.57589],[-3.281307,40.5727],[-3.282423,40.56266],[-3.286972,40.55835],[-3.279848,40.55222],[-3.29401,40.53735],[-3.289976,40.5335],[-3.28414,40.53813],[-3.24852,40.54577],[-3.231354,40.54042],[-3.225861,40.53552],[-3.221312,40.5262],[-3.208094,40.52065],[-3.199082,40.51504],[-3.197193,40.50192],[-3.193417,40.47803],[-3.196249,40.44499],[-3.173075,40.44113],[-3.155222,40.44068],[-3.150845,40.43251],[-3.12767,40.40559],[-3.136683,40.37395],[-3.138571,40.35008],[-3.150244,40.33091],[-3.191014,40.25359],[-3.178311,40.24717],[-3.145008,40.26839],[-3.125096,40.28254],[-3.110848,40.28778],[-3.102093,40.28267],[-3.090935,40.26407],[-3.076,40.22345],[-3.065958,40.15762],[-3.069134,40.15454],[-3.089047,40.15624],[-3.095484,40.14424],[-3.089175,40.14166],[-3.076623,40.13665],[-3.071065,40.13095],[-3.063512,40.12196],[-3.056259,40.11497],[-3.051281,40.11182],[-3.050423,40.0979],[-3.086643,40.06783],[-3.118057,40.05876],[-3.163204,40.06323],[-3.171787,40.08451],[-3.200455,40.05771],[-3.276501,40.04523],[-3.307915,40.05245],[-3.400612,40.03235],[-3.447132,40.03629],[-3.509102,40.04036],[-3.517857,40.01986],[-3.573539,40.01536],[-3.574526,40.01317],[-3.588667,40.01266],[-3.592615,40.00102],[-3.621969,39.99027],[-3.628922,39.96502],[-3.69381,39.94554],[-3.752775,39.92257],[-3.802729,39.88116]]]}}
