{"type":"Feature","properties":{"sourceId":"malawi"},"geometry":{"type":"Polygon","coordinates":[[[35.04845,-17.04497],[35.04398,-17.00131],[35.1614,-16.92709],[35.14217,-16.87453],[35.13599,-16.83215],[35.06321,-16.84003],[35.03214,-16.82837],[34.98751,-16.79222],[34.96416,-16.74734],[34.9415,-16.75359],[34.91592,-16.74866],[34.90477,-16.70477],[34.85567,-16.67928],[34.83747,-16.61859],[34.76744,-16.5875],[34.7695,-16.54867],[34.7259,-16.5049],[34.71354,-16.50276],[34.69929,-16.50852],[34.68092,-16.50654],[34.67234,-16.47395],[34.58548,-16.42094],[34.55904,-16.32014],[34.49141,-16.30202],[34.42326,-16.26577],[34.39201,-16.185],[34.39768,-16.1456],[34.41982,-16.04532],[34.38566,-16.028],[34.35202,-15.96686],[34.32515,-15.96513],[34.32009,-15.94994],[34.25743,-15.92287],[34.24996,-15.89703],[34.24971,-15.87829],[34.24851,-15.84345],[34.25365,-15.82463],[34.2679,-15.7982],[34.28301,-15.7849],[34.29769,-15.7588],[34.32558,-15.74286],[34.33579,-15.74013],[34.36386,-15.73897],[34.37734,-15.71452],[34.38575,-15.70774],[34.38686,-15.69279],[34.39055,-15.68469],[34.41167,-15.66916],[34.42729,-15.65874],[34.42823,-15.62692],[34.43424,-15.61336],[34.45089,-15.60832],[34.44806,-15.59113],[34.44188,-15.59129],[34.43664,-15.58724],[34.43828,-15.576],[34.44197,-15.56963],[34.43725,-15.55864],[34.43965,-15.54689],[34.42712,-15.50753],[34.4242,-15.4933],[34.42257,-15.47519],[34.43115,-15.46543],[34.44222,-15.45542],[34.4375,-15.43854],[34.43914,-15.42307],[34.44471,-15.42026],[34.46952,-15.42745],[34.47244,-15.42199],[34.47415,-15.41968],[34.49467,-15.40735],[34.51158,-15.41041],[34.5114,-15.40346],[34.51913,-15.38625],[34.5157,-15.38103],[34.51518,-15.3716],[34.5199,-15.34933],[34.53381,-15.33237],[34.53939,-15.3274],[34.54368,-15.32682],[34.55286,-15.33617],[34.55818,-15.32756],[34.5738,-15.32434],[34.56943,-15.31117],[34.57046,-15.30753],[34.59595,-15.28452],[34.59698,-15.24974],[34.60067,-15.24303],[34.57621,-15.19864],[34.57586,-15.17197],[34.56651,-15.11878],[34.5805,-15.10535],[34.58556,-15.09052],[34.57329,-15.08812],[34.56977,-15.08157],[34.57123,-15.06748],[34.6108,-15.01576],[34.61826,-15.01277],[34.62024,-15.00125],[34.61097,-14.99271],[34.61414,-14.98094],[34.59732,-14.9743],[34.59105,-14.9612],[34.57612,-14.91435],[34.57638,-14.90871],[34.56368,-14.90025],[34.56642,-14.88482],[34.57535,-14.87553],[34.57037,-14.8299],[34.57106,-14.82036],[34.58281,-14.81198],[34.57114,-14.7836],[34.54634,-14.75463],[34.5375,-14.7255],[34.52848,-14.71105],[34.52368,-14.69785],[34.51801,-14.68656],[34.51904,-14.68199],[34.5375,-14.67195],[34.53861,-14.65833],[34.54926,-14.64579],[34.54067,-14.63524],[34.54265,-14.62378],[34.52814,-14.58491],[34.51269,-14.55484],[34.49698,-14.55584],[34.49012,-14.54047],[34.47553,-14.53507],[34.46368,-14.52144],[34.44909,-14.49976],[34.44643,-14.48023],[34.44111,-14.47241],[34.42909,-14.46236],[34.41785,-14.43933],[34.41853,-14.43352],[34.40223,-14.42146],[34.39193,-14.40409],[34.3909,-14.39727],[34.38575,-14.39877],[34.37365,-14.39761],[34.36978,-14.39004],[34.35704,-14.38759],[34.35069,-14.39212],[34.34858,-14.39927],[34.30944,-14.40841],[34.30155,-14.40342],[34.27546,-14.4262],[34.26327,-14.43485],[34.24061,-14.42853],[34.22653,-14.43817],[34.20937,-14.44465],[34.18465,-14.44133],[34.088,-14.45995],[34.09006,-14.49236],[33.94072,-14.48222],[33.92355,-14.48538],[33.91685,-14.48222],[33.88544,-14.50266],[33.89042,-14.51646],[33.87566,-14.52526],[33.86107,-14.51463],[33.82828,-14.54803],[33.79841,-14.5565],[33.74176,-14.5128],[33.72253,-14.50283],[33.71515,-14.51363],[33.72082,-14.5801],[33.68666,-14.61764],[33.66194,-14.6193],[33.63104,-14.58807],[33.61473,-14.5472],[33.61679,-14.52244],[33.5574,-14.47773],[33.51242,-14.42604],[33.46779,-14.40259],[33.44616,-14.36402],[33.37715,-14.22761],[33.36033,-14.22362],[33.33939,-14.21896],[33.30883,-14.16704],[33.29252,-14.14207],[33.30316,-14.10262],[33.31638,-14.08347],[33.29784,-14.05583],[33.2963,-14.03618],[33.28686,-14.03484],[33.28239,-14.02702],[33.26746,-14.03018],[33.25802,-14.02668],[33.24017,-14.0012],[33.20171,-14.00453],[33.17562,-13.95989],[33.14953,-13.94773],[33.13511,-13.96339],[33.10764,-13.96572],[33.06816,-13.9947],[33.06988,-14.02002],[33.03966,-14.06032],[32.99332,-14.02702],[32.98988,-14.00603],[32.994,-13.94606],[32.96448,-13.94406],[32.95315,-13.93074],[32.95315,-13.89674],[32.9171,-13.86175],[32.88105,-13.81108],[32.8062,-13.80574],[32.76741,-13.78374],[32.76535,-13.7664],[32.8014,-13.74539],[32.83333,-13.71904],[32.78149,-13.656],[32.71076,-13.657],[32.67334,-13.63131],[32.66441,-13.57558],[32.66991,-13.56123],[32.70149,-13.55489],[32.75127,-13.56724],[32.83951,-13.52418],[32.85564,-13.46208],[32.88448,-13.45808],[32.91298,-13.40198],[32.92946,-13.30243],[32.99053,-13.20313],[32.97066,-13.11593],[33.00774,-12.90117],[32.97031,-12.89213],[32.93804,-12.8503],[32.92637,-12.76995],[33.04962,-12.58573],[33.16086,-12.59042],[33.19485,-12.60449],[33.26866,-12.5435],[33.33664,-12.52641],[33.37301,-12.53266],[33.44621,-12.46333],[33.46229,-12.41814],[33.5392,-12.36348],[33.47397,-12.33564],[33.37406,-12.35744],[33.2973,-12.25542],[33.29506,-12.19976],[33.24155,-12.14378],[33.25945,-12.05896],[33.3315,-11.92958],[33.31261,-11.89268],[33.32668,-11.62399],[33.23193,-11.5991],[33.2393,-11.48946],[33.21991,-11.42248],[33.23604,-11.3996],[33.25733,-11.40297],[33.28068,-11.42316],[33.28171,-11.3683],[33.395,-11.16729],[33.31364,-11.0642],[33.28651,-10.91793],[33.25218,-10.89164],[33.2793,-10.83803],[33.30368,-10.85253],[33.32977,-10.82117],[33.35346,-10.80397],[33.41423,-10.78643],[33.4465,-10.79992],[33.50315,-10.76518],[33.54298,-10.72403],[33.59894,-10.65049],[33.67756,-10.59515],[33.63087,-10.51718],[33.62778,-10.46486],[33.56461,-10.40746],[33.53645,-10.3514],[33.5471,-10.22303],[33.39488,-10.10824],[33.31089,-10.05912],[33.30883,-10.02667],[33.35724,-9.923706],[33.38711,-9.913729],[33.37818,-9.8679],[33.36016,-9.837457],[33.35552,-9.820205],[33.34059,-9.82105],[33.3181,-9.818682],[33.29887,-9.801598],[33.27124,-9.759983],[33.23536,-9.696536],[33.223,-9.630368],[33.18386,-9.606504],[33.12344,-9.597365],[33.10833,-9.66743],[33.08516,-9.666246],[33.07314,-9.655415],[33.05168,-9.61886],[33.02044,-9.638661],[32.98593,-9.623768],[32.99194,-9.559449],[32.99849,-9.513789],[32.94456,-9.488344],[32.93838,-9.418411],[32.95057,-9.399613],[32.99572,-9.362691],[33.01151,-9.373701],[33.02902,-9.398089],[33.06902,-9.433652],[33.11794,-9.462777],[33.14678,-9.488852],[33.18953,-9.493932],[33.20875,-9.501381],[33.22763,-9.491392],[33.25373,-9.48462],[33.27107,-9.492577],[33.30711,-9.481403],[33.32754,-9.481233],[33.39809,-9.532702],[33.42796,-9.576545],[33.44101,-9.607351],[33.51637,-9.616998],[33.55225,-9.584839],[33.5907,-9.576037],[33.70176,-9.609551],[33.71773,-9.5801],[33.74124,-9.579423],[33.77352,-9.583824],[33.80373,-9.604135],[33.84956,-9.645938],[33.90655,-9.689767],[33.9323,-9.707026],[33.95187,-9.628507],[33.94226,-9.563172],[33.96355,-9.526945],[34.01187,-9.498926],[34.04182,-9.486905],[34.18224,-9.613613],[34.32798,-9.753554],[34.41484,-9.878893],[34.49741,-9.978825],[34.54805,-10.0745],[34.53312,-10.11946],[34.57415,-10.20293],[34.59028,-10.30968],[34.56591,-10.41286],[34.592,-10.45591],[34.59921,-10.48157],[34.58118,-10.55971],[34.62788,-10.59397],[34.65774,-10.66702],[34.68796,-10.75675],[34.68298,-10.90984],[34.67783,-10.93951],[34.63697,-10.99495],[34.62152,-11.04095],[34.64075,-11.05039],[34.64281,-11.11507],[34.76091,-11.20703],[34.80709,-11.27926],[34.80211,-11.31208],[34.93942,-11.38821],[34.97961,-11.55174],[34.95794,-11.58958],[34.79325,-12.09688],[34.63238,-12.20636],[34.73345,-13.30053],[34.87306,-13.4687],[35.0972,-13.69636],[35.49408,-14.1692],[35.52395,-14.25207],[35.88623,-14.66905],[35.88868,-14.87374],[35.92941,-14.89137],[35.80797,-15.17159],[35.86896,-15.42161],[35.82281,-15.84197],[35.81612,-15.9331],[35.80899,-15.99038],[35.82144,-15.9964],[35.82195,-16.02321],[35.81388,-16.03773],[35.78273,-16.05406],[35.76153,-16.07501],[35.72951,-16.08656],[35.71381,-16.10305],[35.68162,-16.10701],[35.66892,-16.10025],[35.65072,-16.10726],[35.62823,-16.12441],[35.59484,-16.13504],[35.57047,-16.13603],[35.55751,-16.12977],[35.54575,-16.155],[35.53691,-16.16373],[35.52575,-16.16959],[35.51854,-16.16992],[35.49511,-16.15549],[35.48498,-16.14049],[35.48361,-16.12556],[35.46558,-16.12391],[35.43494,-16.11534],[35.42816,-16.11987],[35.40919,-16.12647],[35.40284,-16.14123],[35.38971,-16.155],[35.35435,-16.17791],[35.3492,-16.18945],[35.31898,-16.21105],[35.28465,-16.3236],[35.3068,-16.34485],[35.27744,-16.40052],[35.26251,-16.48778],[35.21067,-16.52037],[35.1535,-16.55986],[35.1614,-16.60477],[35.17307,-16.6051],[35.22783,-16.64261],[35.29306,-16.70855],[35.31864,-16.83182],[35.30765,-16.85794],[35.28568,-16.9064],[35.27246,-16.93284],[35.29753,-16.96125],[35.30783,-16.97931],[35.31641,-17.0622],[35.31066,-17.12512],[35.2953,-17.1307],[35.1444,-17.13128],[35.09102,-17.13324],[35.07214,-17.10995],[35.0869,-17.08632],[35.04845,-17.04497]]]}}
