{"type":"Feature","properties":{"sourceId":"midi-pyrenees"},"geometry":{"type":"Polygon","coordinates":[[[1.436179,42.59784],[1.333942,42.71582],[1.278561,42.71122],[1.15799,42.70307],[1.063964,42.77432],[0.941806,42.78718],[0.929862,42.78272],[0.851898,42.82326],[0.685407,42.8488],[0.664481,42.75647],[0.68917,42.71239],[0.681699,42.68734],[0.413077,42.68797],[0.355418,42.71399],[0.305323,42.66539],[0.192003,42.72941],[0.009936,42.67894],[-0.064511,42.69136],[-0.110437,42.71887],[-0.204079,42.7902],[-0.29679,42.81936],[-0.314673,42.84847],[-0.311311,42.85608],[-0.311895,42.86225],[-0.308966,42.87027],[-0.31722,42.88186],[-0.31748,42.89378],[-0.326085,42.90354],[-0.324941,42.9077],[-0.327537,42.91666],[-0.312132,42.91909],[-0.308251,42.92669],[-0.296609,42.93214],[-0.287324,42.93098],[-0.282597,42.93431],[-0.280814,42.94057],[-0.284352,42.95365],[-0.292115,42.96037],[-0.289067,42.96788],[-0.292429,42.97642],[-0.291628,42.98072],[-0.294472,42.9932],[-0.290494,42.99756],[-0.290479,43.00265],[-0.288267,43.00664],[-0.268132,43.0096],[-0.261126,43.01476],[-0.260365,43.01995],[-0.257515,43.02391],[-0.258517,43.02952],[-0.262529,43.033],[-0.261465,43.03872],[-0.246982,43.04409],[-0.222848,43.03519],[-0.212866,43.03802],[-0.208776,43.04295],[-0.199657,43.04415],[-0.192572,43.05174],[-0.1923,43.0548],[-0.199091,43.06214],[-0.200488,43.06812],[-0.18889,43.08537],[-0.18983,43.09052],[-0.196309,43.09413],[-0.199086,43.09881],[-0.198985,43.10287],[-0.193021,43.10803],[-0.194824,43.11604],[-0.185116,43.11585],[-0.181696,43.11317],[-0.175366,43.11253],[-0.166988,43.12291],[-0.157811,43.12389],[-0.146359,43.13081],[-0.143232,43.13502],[-0.143627,43.14378],[-0.139186,43.15037],[-0.12874,43.15927],[-0.122647,43.17701],[-0.118417,43.18127],[-0.11127,43.18089],[-0.104167,43.17036],[-0.101297,43.16944],[-0.098694,43.17096],[-0.09527,43.17849],[-0.073586,43.17822],[-0.070369,43.18058],[-0.072576,43.19164],[-0.071224,43.20113],[-0.074224,43.20801],[-0.074189,43.21998],[-0.089878,43.22809],[-0.093575,43.24103],[-0.109192,43.24171],[-0.122306,43.24007],[-0.127343,43.25127],[-0.1374,43.26129],[-0.141993,43.2717],[-0.138493,43.28659],[-0.13069,43.29076],[-0.127883,43.29495],[-0.127324,43.29995],[-0.121457,43.30716],[-0.113524,43.31262],[-0.117072,43.32295],[-0.115815,43.33351],[-0.109927,43.33913],[-0.092543,43.3353],[-0.089319,43.33807],[-0.090452,43.34773],[-0.092949,43.3507],[-0.093471,43.35506],[-0.105064,43.35828],[-0.108177,43.36509],[-0.108223,43.37165],[-0.094611,43.37552],[-0.081144,43.37222],[-0.07841,43.36716],[-0.071113,43.36219],[-0.067355,43.35681],[-0.064133,43.3559],[-0.060602,43.34354],[-0.033336,43.3397],[-0.024299,43.33327],[-0.000951,43.33482],[0.01128,43.329],[0.024862,43.34152],[0.025953,43.34517],[0.01693,43.35192],[0.011888,43.35869],[0.005306,43.36194],[0.003891,43.36657],[-0.007008,43.37277],[-0.005778,43.37869],[-0.002284,43.38325],[-0.003251,43.38976],[-0.005826,43.39313],[-0.005381,43.39862],[-0.002382,43.406],[0.004337,43.41383],[0.006368,43.42077],[0.004491,43.42418],[-0.005883,43.43105],[-0.003476,43.43809],[-0.004536,43.44175],[-0.008368,43.44288],[-0.014944,43.44137],[-0.022844,43.42982],[-0.030155,43.42898],[-0.037142,43.41524],[-0.04344,43.40862],[-0.055317,43.41076],[-0.06474,43.40805],[-0.068357,43.40988],[-0.063394,43.41839],[-0.059014,43.42011],[-0.057479,43.42283],[-0.059335,43.42702],[-0.069485,43.43118],[-0.071919,43.43462],[-0.067701,43.44161],[-0.067471,43.44613],[-0.063034,43.45237],[-0.067305,43.46112],[-0.066506,43.46442],[-0.05724,43.46639],[-0.037271,43.46641],[-0.033742,43.46859],[-0.033466,43.47158],[-0.035922,43.47457],[-0.034948,43.479],[-0.036641,43.48637],[-0.050855,43.49186],[-0.04282,43.51103],[-0.045367,43.51685],[-0.045699,43.52352],[-0.05662,43.53197],[-0.061076,43.53892],[-0.067527,43.53936],[-0.070905,43.54536],[-0.07864,43.54545],[-0.087546,43.5409],[-0.094377,43.54262],[-0.095018,43.54879],[-0.090294,43.55875],[-0.094481,43.56312],[-0.093746,43.5693],[-0.097846,43.57545],[-0.098916,43.58058],[-0.107762,43.58044],[-0.118203,43.58394],[-0.128407,43.57997],[-0.139048,43.57838],[-0.143585,43.58324],[-0.150494,43.58448],[-0.161148,43.5793],[-0.176851,43.59338],[-0.190456,43.5866],[-0.204821,43.58251],[-0.21036,43.59022],[-0.213226,43.59085],[-0.229312,43.58852],[-0.233264,43.58267],[-0.241921,43.58205],[-0.248893,43.58955],[-0.250663,43.59524],[-0.255567,43.59658],[-0.25562,43.60009],[-0.249362,43.60713],[-0.250309,43.61281],[-0.262419,43.61534],[-0.277365,43.61467],[-0.280737,43.61759],[-0.282673,43.62371],[-0.283311,43.64377],[-0.279348,43.64371],[-0.269934,43.63929],[-0.266856,43.63973],[-0.265203,43.64236],[-0.264255,43.6536],[-0.253036,43.65442],[-0.247522,43.65734],[-0.246096,43.66058],[-0.246381,43.66915],[-0.259074,43.6737],[-0.257543,43.67864],[-0.25826,43.68392],[-0.251136,43.68556],[-0.248939,43.68934],[-0.242974,43.69319],[-0.243142,43.6959],[-0.246461,43.69887],[-0.246799,43.70296],[-0.251636,43.70839],[-0.243826,43.71337],[-0.23053,43.71588],[-0.210369,43.72614],[-0.198223,43.73719],[-0.196681,43.74271],[-0.200071,43.74719],[-0.208022,43.7487],[-0.217224,43.74784],[-0.21942,43.75005],[-0.218873,43.7548],[-0.212894,43.75769],[-0.211621,43.76035],[-0.213333,43.76674],[-0.218231,43.76949],[-0.218787,43.77174],[-0.215178,43.77893],[-0.217166,43.78321],[-0.223498,43.78684],[-0.221532,43.79685],[-0.227388,43.80409],[-0.22836,43.8084],[-0.226889,43.81038],[-0.219004,43.81126],[-0.21595,43.81375],[-0.210724,43.81088],[-0.19883,43.8088],[-0.194552,43.81278],[-0.199296,43.82899],[-0.197997,43.83185],[-0.194082,43.83343],[-0.193545,43.83742],[-0.196262,43.84328],[-0.202206,43.85036],[-0.207979,43.85384],[-0.20968,43.85783],[-0.200619,43.86346],[-0.199307,43.86989],[-0.193821,43.87522],[-0.193605,43.8779],[-0.198763,43.88231],[-0.211457,43.88371],[-0.220798,43.89022],[-0.226668,43.88843],[-0.234477,43.88977],[-0.239669,43.8933],[-0.241324,43.89858],[-0.235329,43.90232],[-0.23013,43.9121],[-0.225461,43.91509],[-0.222818,43.91554],[-0.218413,43.91103],[-0.215686,43.91053],[-0.20133,43.91609],[-0.192589,43.92773],[-0.182943,43.93126],[-0.179966,43.94008],[-0.169904,43.9321],[-0.164266,43.93023],[-0.155615,43.93393],[-0.153379,43.94121],[-0.137045,43.93854],[-0.129885,43.94116],[-0.125317,43.94574],[-0.109557,43.93452],[-0.102376,43.93312],[-0.099545,43.93842],[-0.099333,43.94344],[-0.09398,43.94965],[-0.088023,43.95022],[-0.080587,43.94505],[-0.074909,43.94624],[-0.071749,43.94781],[-0.069649,43.9526],[-0.060065,43.96221],[-0.046557,43.96304],[-0.036265,43.98555],[-0.01877,43.97252],[0.003106,43.96052],[0.007422,43.95582],[0.006873,43.94289],[-0.00774,43.93765],[-0.009947,43.93389],[-0.015003,43.93259],[-0.017078,43.92902],[-0.015712,43.92636],[-0.012391,43.92458],[-0.005468,43.92475],[0.004685,43.91813],[0.018399,43.91265],[0.031556,43.90219],[0.041473,43.90533],[0.055754,43.89931],[0.068098,43.90612],[0.072033,43.9171],[0.071016,43.92698],[0.067278,43.93677],[0.061817,43.94039],[0.061127,43.94543],[0.056011,43.94888],[0.05406,43.95358],[0.054537,43.96158],[0.063794,43.96795],[0.065211,43.97373],[0.074092,43.98367],[0.080548,43.98293],[0.088546,43.98693],[0.104023,43.98593],[0.113963,43.98919],[0.119081,43.99666],[0.124083,43.99842],[0.126958,44.00339],[0.138643,43.99935],[0.143184,43.99484],[0.140836,43.97807],[0.154449,43.97417],[0.158403,43.97481],[0.163922,43.97962],[0.164934,43.98532],[0.163189,43.99485],[0.165938,43.99802],[0.180177,44.00384],[0.183054,44.00952],[0.189213,44.01576],[0.201241,44.017],[0.205245,44.02226],[0.209565,44.0216],[0.213852,44.02426],[0.224451,44.02051],[0.230237,44.02386],[0.234319,44.02332],[0.236638,44.02125],[0.235341,44.01113],[0.241245,44.00812],[0.251253,44.00531],[0.257247,44.00936],[0.263088,44.00569],[0.269689,44.00525],[0.273906,44.00033],[0.282016,43.99947],[0.301393,43.9934],[0.314497,43.99791],[0.315518,44.00164],[0.312616,44.00868],[0.31508,44.01112],[0.326771,44.00878],[0.358287,44.01823],[0.366375,44.01551],[0.371249,44.0096],[0.380439,44.00804],[0.389112,44.01655],[0.390506,44.02089],[0.396979,44.02371],[0.410046,44.02315],[0.417155,44.03077],[0.425822,44.02795],[0.438641,44.03081],[0.4439,44.03999],[0.45918,44.05673],[0.480921,44.0557],[0.48562,44.06043],[0.490164,44.05797],[0.504548,44.05856],[0.511513,44.06469],[0.523191,44.05823],[0.531894,44.05891],[0.538458,44.0558],[0.544695,44.05784],[0.553691,44.05676],[0.565926,44.06149],[0.567767,44.06645],[0.573979,44.07215],[0.575082,44.07694],[0.588235,44.07864],[0.591652,44.08128],[0.601718,44.07923],[0.603218,44.07558],[0.608783,44.07167],[0.625322,44.06407],[0.629518,44.06044],[0.633174,44.05248],[0.639298,44.05082],[0.643634,44.04576],[0.650046,44.04579],[0.654808,44.04359],[0.656009,44.03305],[0.661576,44.02625],[0.674726,44.02811],[0.677751,44.03084],[0.677535,44.03708],[0.684752,44.047],[0.695714,44.04812],[0.69932,44.0536],[0.70715,44.05948],[0.718334,44.05906],[0.736323,44.0649],[0.737422,44.07679],[0.745688,44.08769],[0.74675,44.09789],[0.750423,44.10017],[0.75575,44.10834],[0.769318,44.11377],[0.77385,44.11801],[0.784296,44.11367],[0.790003,44.11582],[0.79407,44.12228],[0.794388,44.13174],[0.786922,44.14306],[0.787807,44.14554],[0.795912,44.14697],[0.800114,44.14532],[0.804924,44.14644],[0.819628,44.14514],[0.832555,44.13871],[0.864104,44.12822],[0.875855,44.13159],[0.877115,44.13757],[0.882094,44.14356],[0.886781,44.14622],[0.887465,44.15407],[0.883503,44.16093],[0.887956,44.16602],[0.887974,44.169],[0.881575,44.17274],[0.87071,44.16664],[0.862732,44.17186],[0.85282,44.17381],[0.85125,44.17673],[0.852161,44.18487],[0.858704,44.19382],[0.861723,44.19491],[0.875192,44.19461],[0.887581,44.19195],[0.902832,44.19365],[0.904209,44.19837],[0.912663,44.2072],[0.919213,44.2177],[0.925135,44.22997],[0.923917,44.23362],[0.917622,44.23813],[0.923422,44.24759],[0.93004,44.25166],[0.930821,44.2567],[0.926361,44.26151],[0.926637,44.26769],[0.940583,44.26593],[0.944151,44.26951],[0.93981,44.27878],[0.932991,44.28406],[0.924969,44.28558],[0.917243,44.29951],[0.898979,44.29832],[0.894672,44.29565],[0.888967,44.2987],[0.883437,44.30663],[0.873241,44.30689],[0.867918,44.30897],[0.870002,44.31522],[0.87304,44.3183],[0.871953,44.32439],[0.879582,44.32955],[0.887498,44.33939],[0.893093,44.34327],[0.889553,44.35346],[0.890939,44.35803],[0.885203,44.36527],[0.893327,44.37452],[0.895263,44.38241],[0.919942,44.38578],[0.926657,44.37709],[0.936011,44.37271],[0.940048,44.36147],[0.943329,44.35934],[0.950843,44.36302],[0.95993,44.36103],[0.971899,44.36338],[0.981293,44.35994],[0.996923,44.37036],[1.006533,44.3665],[1.017985,44.36502],[1.048781,44.36395],[1.057241,44.36772],[1.05838,44.37683],[1.061677,44.37994],[1.059359,44.38745],[1.049693,44.39184],[1.05832,44.4025],[1.059073,44.41916],[1.053933,44.42702],[1.048392,44.42818],[1.043749,44.43265],[1.033342,44.43091],[1.027263,44.43326],[1.027382,44.43964],[1.02002,44.44426],[1.021403,44.45261],[1.019977,44.45622],[1.022755,44.46626],[1.020413,44.47324],[1.007979,44.48004],[1.011233,44.48566],[1.010519,44.4962],[1.015081,44.49988],[1.015257,44.50458],[1.005568,44.51302],[1.004876,44.5171],[0.998947,44.52455],[0.991915,44.52693],[0.987127,44.53178],[0.98704,44.539],[0.981558,44.54175],[0.980217,44.54499],[0.994732,44.55121],[1.009545,44.54822],[1.012903,44.54316],[1.015747,44.54219],[1.027055,44.54959],[1.034342,44.5568],[1.041239,44.5589],[1.044522,44.56347],[1.069364,44.56786],[1.074659,44.57844],[1.086415,44.57301],[1.096171,44.57362],[1.100862,44.58448],[1.097518,44.58868],[1.092661,44.58989],[1.09324,44.59325],[1.109784,44.60806],[1.118902,44.61145],[1.122355,44.61564],[1.13091,44.61995],[1.151492,44.63682],[1.149417,44.64602],[1.144835,44.65273],[1.147957,44.6573],[1.145343,44.66588],[1.145529,44.67179],[1.1598,44.67398],[1.168375,44.68133],[1.18127,44.68461],[1.191207,44.68358],[1.197442,44.68547],[1.216783,44.6843],[1.221689,44.68547],[1.22883,44.69271],[1.237492,44.69358],[1.242048,44.69662],[1.242163,44.7042],[1.247053,44.70875],[1.262544,44.71263],[1.270323,44.72404],[1.275883,44.72278],[1.279628,44.71758],[1.28641,44.71747],[1.288527,44.7219],[1.297076,44.72782],[1.297532,44.73235],[1.294138,44.73609],[1.299208,44.74526],[1.313689,44.74352],[1.319014,44.75754],[1.318249,44.76233],[1.312748,44.76407],[1.308506,44.76929],[1.298005,44.77321],[1.295002,44.77658],[1.298324,44.78557],[1.292165,44.79003],[1.297662,44.79727],[1.324703,44.80738],[1.338947,44.8072],[1.360742,44.81317],[1.362844,44.81794],[1.358887,44.82481],[1.358687,44.83537],[1.359995,44.84083],[1.36513,44.8471],[1.371267,44.84866],[1.378214,44.84455],[1.386765,44.85222],[1.399777,44.85087],[1.401939,44.85315],[1.403667,44.86345],[1.409144,44.86699],[1.410934,44.8739],[1.430649,44.87293],[1.439642,44.8767],[1.441133,44.88098],[1.438082,44.88723],[1.42178,44.89459],[1.41719,44.89964],[1.417585,44.90567],[1.409565,44.90872],[1.413805,44.91485],[1.424735,44.92116],[1.433356,44.92076],[1.436097,44.92551],[1.431798,44.93712],[1.433003,44.94195],[1.417253,44.95576],[1.415467,44.96154],[1.416911,44.96631],[1.411239,44.97282],[1.414696,44.9818],[1.41011,44.98828],[1.412813,44.9941],[1.408092,45.0052],[1.408935,45.00808],[1.431183,45.01141],[1.438946,45.01429],[1.4455371871455454,45.01884109197373],[1.454453,45.01252],[1.461781,45.0111],[1.476952,45.01591],[1.485909,45.02829],[1.492647,45.02733],[1.504246,45.03598],[1.525033,45.03779],[1.531806,45.04247],[1.537994,45.04084],[1.541652,45.02879],[1.548789,45.02589],[1.574381,45.0376],[1.592283,45.03238],[1.602428,45.03217],[1.608486,45.02692],[1.612759,45.02972],[1.629947,45.02988],[1.643809,45.02516],[1.662223,45.00678],[1.672163,45.0013],[1.681277,44.99981],[1.687472,44.99253],[1.698186,44.98673],[1.703828,44.98018],[1.704508,44.97207],[1.709806,44.96528],[1.724506,44.96502],[1.732927,44.9569],[1.745668,44.95486],[1.749247,44.9459],[1.746069,44.93923],[1.747605,44.93569],[1.764238,44.93147],[1.774498,44.92134],[1.782775,44.92695],[1.792869,44.92885],[1.796782,44.92616],[1.797981,44.91955],[1.802081,44.91842],[1.809457,44.92494],[1.82555,44.92559],[1.833854,44.93477],[1.844155,44.93506],[1.84924,44.94168],[1.86414,44.94549],[1.868268,44.95023],[1.888242,44.95422],[1.891033,44.96119],[1.910415,44.97494],[1.92818,44.97458],[1.935419,44.97101],[1.938858,44.96446],[1.938342,44.9515],[1.949284,44.95013],[1.958333,44.9571],[1.990049,44.97262],[2.041192,44.98003],[2.060059,44.97228],[2.0625912004697766,44.973065313722536],[2.068763,44.96084],[2.076738,44.95237],[2.073569,44.94174],[2.074214,44.93287],[2.095988,44.92061],[2.101163,44.91318],[2.098829,44.90855],[2.083975,44.90514],[2.081473,44.885],[2.086831,44.88054],[2.090668,44.87026],[2.095954,44.86843],[2.11487,44.84709],[2.122419,44.84331],[2.13316,44.82549],[2.161405,44.81155],[2.162958,44.79916],[2.167762,44.78928],[2.162581,44.7766],[2.146439,44.76994],[2.144817,44.76269],[2.15096,44.74981],[2.148443,44.73357],[2.141982,44.71957],[2.12916,44.71034],[2.127776,44.69745],[2.138114,44.69042],[2.15341,44.69601],[2.157373,44.69504],[2.172388,44.67501],[2.16987,44.66864],[2.159542,44.66433],[2.168824,44.65398],[2.166402,44.63816],[2.203601,44.61473],[2.21043,44.6146],[2.223199,44.62204],[2.215199,44.63213],[2.213633,44.64308],[2.216931,44.6476],[2.233062,44.6526],[2.251384,44.6495],[2.265305,44.65767],[2.291237,44.66406],[2.30622,44.65987],[2.325937,44.66561],[2.332948,44.65984],[2.32999,44.65056],[2.331573,44.64689],[2.353488,44.63747],[2.368076,44.63965],[2.382625,44.64742],[2.388743,44.64147],[2.404387,44.64453],[2.41499,44.64048],[2.42571,44.64106],[2.433791,44.63628],[2.449737,44.64506],[2.468331,44.64036],[2.473206,44.64606],[2.478711,44.64533],[2.484603,44.6482],[2.493533,44.65588],[2.491579,44.668],[2.502655,44.68761],[2.515538,44.69129],[2.531695,44.70763],[2.541745,44.70944],[2.553331,44.71727],[2.56249,44.71932],[2.563724,44.72823],[2.55727,44.73684],[2.556081,44.75212],[2.563248,44.75753],[2.568975,44.77831],[2.575432,44.7824],[2.586918,44.78147],[2.602456,44.79198],[2.604607,44.80757],[2.60256,44.81726],[2.611521,44.82431],[2.613775,44.83044],[2.61048,44.84266],[2.620849,44.85104],[2.625847,44.86426],[2.632687,44.86962],[2.656137,44.86806],[2.659513,44.87162],[2.662646,44.88551],[2.677266,44.90002],[2.683853,44.90236],[2.691186,44.89994],[2.707694,44.90492],[2.717549,44.92131],[2.725106,44.92256],[2.729331,44.93192],[2.733748,44.93467],[2.737478,44.93389],[2.741696,44.92646],[2.754932,44.92932],[2.771535,44.91266],[2.769534,44.89918],[2.773299,44.88721],[2.767938,44.8799],[2.764775,44.86561],[2.771849,44.85279],[2.782101,44.85503],[2.786466,44.86154],[2.805014,44.87106],[2.814306,44.86683],[2.831858,44.86977],[2.851788,44.86795],[2.852547,44.84951],[2.85663,44.84479],[2.859178,44.8352],[2.86707,44.82908],[2.875521,44.80519],[2.88591,44.78747],[2.9051,44.78128],[2.918417,44.79004],[2.929808,44.78195],[2.932956,44.77601],[2.929988,44.76674],[2.915001,44.76981],[2.909317,44.76091],[2.919179,44.75189],[2.927217,44.75203],[2.930824,44.74677],[2.929866,44.73991],[2.920732,44.72803],[2.931704,44.70519],[2.930281,44.6958],[2.937057,44.68682],[2.935521,44.67856],[2.951935,44.66583],[2.954576,44.6576],[2.972844,44.64313],[2.980136,44.64232],[2.98175542384256,44.64279043122187],[3.010415,44.62026],[3.016015,44.61042],[3.030621,44.5956],[3.04983,44.58784],[3.059215,44.57735],[3.072727,44.57143],[3.080108,44.55788],[3.071882,44.53335],[3.073595,44.51677],[3.065771,44.50154],[3.074643,44.49204],[3.080918,44.49036],[3.098856,44.47773],[3.112576,44.47348],[3.123352,44.45905],[3.132254,44.45288],[3.132612,44.4408],[3.137939,44.43631],[3.138409,44.43037],[3.127447,44.42338],[3.123985,44.41395],[3.134224,44.40655],[3.135183,44.39656],[3.12012,44.39097],[3.11564,44.3852],[3.119917,44.37726],[3.117297,44.36253],[3.12586,44.3549],[3.125064,44.34647],[3.131805,44.32883],[3.144076,44.32696],[3.142366,44.31789],[3.146477,44.30789],[3.130463,44.29168],[3.120468,44.28669],[3.122726,44.27934],[3.118262,44.2606],[3.123281,44.25771],[3.13484,44.25982],[3.14949,44.27236],[3.156638,44.25987],[3.154885,44.24976],[3.160243,44.24247],[3.165812,44.24112],[3.18648,44.24468],[3.191941,44.23817],[3.199397,44.23755],[3.221854,44.22773],[3.221124,44.21227],[3.210099,44.19808],[3.201617,44.19444],[3.200117,44.19072],[3.202846,44.18763],[3.237318,44.1877],[3.267819,44.19847],[3.289234,44.19741],[3.295945,44.20395],[3.305903,44.20302],[3.316944,44.19821],[3.335338,44.20137],[3.352755,44.19749],[3.358848,44.1863],[3.367456,44.18247],[3.369944,44.17387],[3.36715,44.17084],[3.355553,44.17004],[3.344027,44.16188],[3.332651,44.16028],[3.32872,44.14478],[3.31807,44.13642],[3.320776,44.12657],[3.320144,44.11232],[3.309199,44.10732],[3.289855,44.1076],[3.277008,44.10001],[3.261656,44.09626],[3.260175,44.09201],[3.293741,44.06512],[3.308078,44.06642],[3.321406,44.07599],[3.328184,44.07455],[3.334592,44.05861],[3.351431,44.04757],[3.364075,44.05145],[3.371398,44.0467],[3.382996,44.05351],[3.386755,44.05323],[3.39974,44.04095],[3.415635,44.03845],[3.443611,44.02229],[3.446116,44.01438],[3.44362,44.00693],[3.438341,44.00099],[3.416124,43.99467],[3.402167,43.9724],[3.37607,43.96973],[3.372305,43.95813],[3.357273,43.95304],[3.348174,43.93483],[3.352766,43.91507],[3.34144,43.9069],[3.335912,43.89626],[3.320196,43.89372],[3.310556,43.89648],[3.284708,43.89647],[3.274468,43.90091],[3.263175,43.89702],[3.25607,43.88202],[3.243091,43.87787],[3.235987,43.87229],[3.232384,43.86211],[3.234014,43.85256],[3.247522,43.84066],[3.247368,43.83525],[3.243807,43.83157],[3.228716,43.8271],[3.219722,43.8192],[3.207274,43.81544],[3.196679,43.81714],[3.180802,43.81544],[3.158415,43.81991],[3.14805,43.81695],[3.128288,43.82015],[3.11211,43.83054],[3.086827,43.83817],[3.066048,43.83799],[3.060191,43.83554],[3.056689,43.83109],[3.055024,43.81899],[3.056826,43.81308],[3.0459,43.80171],[3.053915,43.78963],[3.054933,43.78089],[3.067708,43.76682],[3.063728,43.75845],[3.054294,43.75641],[3.050181,43.74624],[3.05281,43.73797],[3.049521,43.7321],[3.053103,43.72583],[3.051036,43.71554],[3.061444,43.70673],[3.056129,43.69869],[3.045976,43.69992],[3.034121,43.69534],[3.027619,43.69576],[3.017837,43.70008],[3.012891,43.70584],[2.983613,43.71136],[2.956999,43.7018],[2.950959,43.69735],[2.93988,43.69446],[2.932884,43.69726],[2.920803,43.69245],[2.916082,43.68699],[2.917616,43.67879],[2.914933,43.66462],[2.904755,43.65709],[2.87968,43.66017],[2.869543,43.64785],[2.857479,43.64628],[2.845614,43.64823],[2.828459,43.64051],[2.812848,43.64346],[2.795091,43.62821],[2.780535,43.6286],[2.758106,43.617],[2.747609,43.62085],[2.740473,43.63321],[2.728328,43.63922],[2.722317,43.64702],[2.69314,43.65231],[2.684934,43.65618],[2.662427,43.65189],[2.656088,43.65453],[2.651661,43.6613],[2.644129,43.66257],[2.631366,43.62489],[2.623875,43.61864],[2.624128,43.61143],[2.612019,43.60064],[2.614526,43.59367],[2.621656,43.5901],[2.625595,43.58436],[2.613391,43.5665],[2.628541,43.54702],[2.657105,43.52183],[2.657162,43.50483],[2.652175,43.49707],[2.654368,43.48101],[2.659117,43.47148],[2.656151,43.46893],[2.647915,43.47197],[2.637156,43.46936],[2.635625,43.46466],[2.637599,43.45825],[2.615689,43.44143],[2.604075,43.44307],[2.600429,43.43691],[2.579239,43.42605],[2.561783,43.42407],[2.552349,43.42725],[2.521839,43.4264],[2.513459,43.43179],[2.502804,43.43305],[2.498467,43.43899],[2.490634,43.44068],[2.462247,43.43805],[2.452128,43.43478],[2.427506,43.43812],[2.416706,43.43053],[2.401644,43.42685],[2.397355,43.42064],[2.364375,43.42711],[2.350185,43.43483],[2.314945,43.44339],[2.306677,43.44972],[2.281501,43.44543],[2.268938,43.45363],[2.263267,43.4615],[2.257985,43.46245],[2.252989,43.45448],[2.243081,43.44989],[2.236566,43.4403],[2.220464,43.433],[2.21809,43.42649],[2.225262,43.40775],[2.220795,43.39572],[2.21161,43.38758],[2.188739,43.39637],[2.170043,43.41906],[2.156687,43.41877],[2.136561,43.40648],[2.107908,43.39806],[2.085545,43.40126],[2.075148,43.39922],[2.072809,43.40253],[2.073818,43.40805],[2.064218,43.41672],[2.055364,43.43161],[2.04588,43.43654],[2.030282,43.43927],[2.026994,43.43604],[2.030039,43.42786],[2.028072,43.42403],[2.019677,43.42519],[2.011341,43.41811],[1.997648,43.41581],[1.989947,43.41156],[1.979027,43.42062],[1.953798,43.42896],[1.948005,43.4229],[1.934332,43.42765],[1.917946,43.42355],[1.91611,43.41279],[1.90883,43.40915],[1.900868,43.41368],[1.897826,43.41989],[1.879083,43.43055],[1.875337,43.43884],[1.857545,43.44634],[1.842427,43.43727],[1.84017,43.43283],[1.842985,43.42806],[1.841335,43.42339],[1.828533,43.42319],[1.82152,43.4204],[1.814693,43.41138],[1.813253,43.39879],[1.800819,43.39359],[1.801884,43.38153],[1.798919,43.37685],[1.801068,43.37089],[1.799307,43.36593],[1.802041,43.35666],[1.810613,43.34983],[1.809077,43.34465],[1.796099,43.34391],[1.782428,43.34862],[1.768495,43.34322],[1.748518,43.35208],[1.74568,43.34631],[1.737555,43.34123],[1.721646,43.3427],[1.724623,43.33463],[1.722377,43.32805],[1.728303,43.31756],[1.702123,43.30454],[1.701654,43.30091],[1.707849,43.29695],[1.70587,43.28972],[1.694981,43.2782],[1.686256,43.27385],[1.699112,43.25747],[1.692914,43.2459],[1.717284,43.22392],[1.720313,43.21523],[1.719364,43.21097],[1.706465,43.19953],[1.709065,43.18579],[1.738226,43.18185],[1.743201,43.17408],[1.776507,43.1587],[1.782048,43.149],[1.791248,43.15496],[1.800442,43.15469],[1.825516,43.14294],[1.851506,43.144],[1.876775,43.13949],[1.878527,43.12586],[1.885469,43.12208],[1.892321,43.1133],[1.903988,43.12177],[1.905777,43.12822],[1.914163,43.13043],[1.924155,43.12722],[1.927615,43.12157],[1.943772,43.11946],[1.948314,43.114],[1.94719,43.1053],[1.95231,43.08897],[1.947545,43.07968],[1.954373,43.07601],[1.955899,43.07245],[1.952063,43.0686],[1.940429,43.06945],[1.937092,43.06261],[1.938655,43.05277],[1.941934,43.0486],[1.952627,43.04366],[1.961626,43.0463],[1.969565,43.04405],[1.982212,43.03038],[1.981446,43.02288],[1.966978,43.00791],[1.982906,43.00023],[1.979721,42.98809],[1.98395,42.97285],[1.982191,42.96504],[1.965173,42.96332],[1.957288,42.96644],[1.948802,42.95946],[1.934998,42.9558],[1.930905,42.93961],[1.977694,42.92611],[1.97915,42.91981],[1.983916,42.91663],[1.986957,42.90908],[1.981806,42.90319],[1.983538,42.89535],[1.978397,42.87929],[1.979684,42.87353],[1.944129,42.85822],[1.875934,42.85515],[1.872553,42.8489],[1.872835,42.84028],[1.858082,42.82878],[1.858052,42.81888],[1.868432,42.81332],[1.894224,42.80576],[1.918688,42.77769],[1.917261,42.77351],[1.90534,42.7689],[1.911419,42.75677],[1.91691,42.75308],[1.927972,42.75182],[1.942783,42.74316],[1.94848,42.73423],[1.993107,42.73143],[2.012617,42.73268],[2.021173,42.73643],[2.031132,42.73635],[2.037527,42.74238],[2.048891,42.74584],[2.057843,42.7522],[2.075762,42.75044],[2.080997,42.74832],[2.084995,42.73828],[2.09072,42.73257],[2.135341,42.71108],[2.138038,42.70501],[2.144669,42.70031],[2.157696,42.69956],[2.164975,42.69625],[2.171837,42.68315],[2.162349,42.66797],[2.153763,42.66531],[2.142027,42.66709],[2.126238,42.67511],[2.099944,42.66727],[2.085632,42.67001],[2.079461,42.66788],[2.070315,42.6692],[2.059833,42.66422],[2.04716,42.66376],[2.029261,42.65557],[1.998478,42.66401],[1.994867,42.66157],[1.970022,42.61978],[1.949965,42.62018],[1.939784,42.61048],[1.933835,42.60833],[1.927349,42.61203],[1.909846,42.61115],[1.900092,42.61771],[1.890981,42.60638],[1.890062,42.59636],[1.884683,42.59292],[1.877271,42.5927],[1.867471,42.58304],[1.860777,42.58639],[1.838009,42.58718],[1.799256,42.57611],[1.786934771999414,42.57512652007573],[1.780021,42.58293],[1.760873,42.58215],[1.742867,42.58888],[1.729356,42.59084],[1.728643,42.59737],[1.739523,42.61123],[1.736591,42.61909],[1.731209,42.6162],[1.722552,42.61793],[1.714938,42.61601],[1.700822,42.62367],[1.683032,42.62621],[1.662047,42.62125],[1.658233,42.62258],[1.652912,42.62775],[1.637064,42.63202],[1.628088,42.6283],[1.619583,42.62811],[1.614391,42.63019],[1.602546,42.62702],[1.594874,42.63355],[1.58206,42.63725],[1.575817,42.6479],[1.569551,42.64955],[1.563036,42.65447],[1.55644,42.65428],[1.549261,42.65717],[1.535146,42.65175],[1.527601,42.65291],[1.517225,42.64714],[1.500577,42.6472],[1.493215,42.65469],[1.478263,42.65257],[1.475433,42.64138],[1.469093,42.63643],[1.466791,42.63108],[1.473117,42.61968],[1.473946,42.61324],[1.467392,42.60799],[1.460591,42.60737],[1.456099,42.60386],[1.441259,42.60471],[1.441532,42.60058],[1.4402668783270653,42.59795335086956],[1.436179,42.59784]]]}}
