{"type":"Feature","properties":{"sourceId":"mecklenburg-vorpommern"},"geometry":{"type":"Polygon","coordinates":[[[12.26383,54.60534],[12.92131,54.88071],[13.24175,54.9837],[14.0791,54.76026],[14.29761,54.18108],[14.23244,53.92739],[14.21562,53.91587],[14.21692,53.9105],[14.21655,53.91019],[14.21939,53.90032],[14.22724,53.86794],[14.28713,53.76589],[14.27484,53.72688],[14.27935,53.69862],[14.29,53.68061],[14.28143,53.66715],[14.29,53.66118],[14.29149,53.63644],[14.32318,53.62096],[14.3228,53.56289],[14.31647,53.54828],[14.32616,53.53476],[14.33958,53.50662],[14.35896,53.49598],[14.36958,53.46226],[14.38421,53.45521],[14.38502,53.45387],[14.38513,53.45359],[14.38263,53.42718],[14.42177,53.34259],[14.422356535232991,53.334949741052],[14.40617,53.33374],[14.31244,53.31529],[14.23553,53.26624],[14.1267,53.27692],[14.26144,53.3764],[14.24309,53.43838],[14.11984,53.44738],[14.04499,53.43511],[13.92586,53.44124],[13.88603,53.50826],[13.80775,53.56295],[13.77788,53.56009],[13.76621,53.48764],[13.70579,53.48662],[13.6124,53.43367],[13.54031,53.39787],[13.47919,53.3077],[13.29861,53.28595],[13.09673,53.24303],[13.0188,53.19472],[12.78774,53.20747],[12.7256,53.24755],[12.56561,53.27199],[12.45438,53.26295],[12.40082,53.30277],[12.28271,53.33764],[12.22984,53.36387],[12.04411,53.37637],[12.00806,53.33743],[12.01286,53.30298],[11.97201,53.30031],[11.94763,53.2802],[11.88755,53.28102],[11.85802,53.25679],[11.79451,53.25741],[11.79314,53.23378],[11.75056,53.22618],[11.69666,53.24919],[11.62457,53.24447],[11.54835,53.21426],[11.5353,53.13565],[11.45874,53.14389],[11.39454,53.14306],[11.37428,53.11731],[11.26064,53.12453],[11.260705638919797,53.1219615205297],[11.22545,53.13925],[11.18597,53.13174],[11.17584,53.13689],[11.16692,53.15748],[11.18751,53.18012],[11.13533,53.18855],[11.07319,53.2194],[11.00332,53.28112],[10.9877,53.3197],[10.92573,53.33702],[10.83801,53.30134],[10.78806,53.31508],[10.75424,53.32862],[10.73639,53.34082],[10.72317,53.3569],[10.69811,53.36879],[10.6794,53.36582],[10.6279,53.36848],[10.60269226299919,53.36387893929209],[10.6212,53.38282],[10.63786,53.4484],[10.69365,53.45198],[10.8308,53.51276],[10.83921,53.5605],[10.9156,53.56713],[10.93088,53.58639],[10.95852,53.64698],[10.95852,53.66885],[10.93019,53.70148],[10.88539,53.71053],[10.85586,53.70961],[10.81793,53.72658],[10.81364,53.74485],[10.76849,53.75632],[10.77656,53.7757],[10.78016,53.79741],[10.75441,53.84149],[10.88779,53.91728],[10.89998,53.89443],[10.94822,53.89453],[10.97225,53.90666],[10.96899,53.91597],[10.91217,53.93032],[10.9132,53.9578],[11.12778,54.08155],[11.79931,54.30851],[11.73021456486384,54.38185436552725],[11.87346,54.44185],[11.93115,54.42373],[12.26383,54.60534]]]}}
