{"type":"Feature","properties":{"sourceId":"manitoba"},"geometry":{"type":"Polygon","coordinates":[[[-102.0132,60.00448],[-94.79738,60.00845],[-92.84573,60.00528],[-88.12183,57.5548],[-88.98568,56.83803],[-90.38759,55.97299],[-91.44608,55.28203],[-92.57855,54.50444],[-93.65118,53.72939],[-95.14727,52.84011],[-95.1475557264998,49.402864852132126],[-95.18433,49.40714],[-95.18458,49.02067],[-97.24987,49.01667],[-97.24986993695572,49.01666715533255],[-101.3614,49.00870342837259],[-101.3614,49.17818],[-101.3915,49.17841],[-101.3919,49.53287],[-101.4171,49.53341],[-101.4163,49.88739],[-101.4465,49.88736],[-101.4459,50.24122],[-101.476,50.24121],[-101.4753,50.59561],[-101.508,50.59509],[-101.5074,50.94961],[-101.5383,50.9492],[-101.538,51.30262],[-101.5698,51.30258],[-101.5693,51.65573],[-101.5766,51.65563],[-101.5755,51.96963],[-101.6086,51.96928],[-101.6074,52.31905],[-101.6371,52.31885],[-101.6359,52.66842],[-101.6709,52.66796],[-101.6695,53.01752],[-101.7,53.01715],[-101.699,53.36684],[-101.7348,53.36651],[-101.732,53.7119],[-101.7687,53.71225],[-101.7693,54.06543],[-101.8076,54.06563],[-101.8094,54.41439],[-101.8468,54.41426],[-101.8458,54.76351],[-101.8846,54.76327],[-101.8841,55.11255],[-101.9233,55.11225],[-101.9207,55.46241],[-101.9631,55.46112],[-101.9608,55.81045],[-102.0033,55.81008],[-102.0031,56.15945],[-102.0072,59.9998],[-102.01320089196501,59.99980264696576],[-102.0132,60.00448]]]}}
