{"type":"Feature","properties":{"sourceId":"mexico"},"geometry":{"type":"Polygon","coordinates":[[[-132.4952,26.62786],[-117.85944956066243,32.47841831637235],[-117.242,32.52511],[-117.1244,32.53384],[-116.9223,32.55058],[-116.6072,32.57662],[-115.5683,32.65614],[-115.3424,32.67262],[-114.7271,32.71506],[-114.72715938231165,32.71495795039775],[-114.7272,32.71494],[-114.7576,32.66248],[-114.7781,32.63682],[-114.8126,32.6268],[-114.8222,32.55463],[-114.8224,32.49577],[-111.0741,31.32659],[-110.9626,31.33033],[-110.9211,31.33106],[-109.5576,31.3315],[-108.2013,31.33043],[-108.2022,31.7797],[-106.53445849139352,31.78315255232002],[-106.5296,31.78038],[-106.5138,31.76209],[-106.4866,31.74484],[-106.4691,31.75094],[-106.4647,31.75923],[-106.4516,31.76294],[-106.4385,31.75408],[-106.4228,31.75198],[-106.4089,31.74522],[-106.3815,31.72999],[-106.3779,31.71661],[-106.3607,31.70017],[-106.3535,31.6956],[-106.3355,31.65864],[-106.308,31.6224],[-106.3062,31.6113],[-106.2826,31.55929],[-106.2556,31.53992],[-106.2148,31.46469],[-106.1149,31.40171],[-106.0091,31.38002],[-105.9597,31.34836],[-105.9487,31.31874],[-105.7716,31.16111],[-105.6394,31.08793],[-105.58,30.99291],[-105.4363,30.89176],[-105.4049,30.84358],[-105.1244,30.72546],[-104.9222,30.55783],[-104.87,30.38295],[-104.724,30.21437],[-104.7201,29.97058],[-104.6207,29.8192],[-104.5346,29.64151],[-104.4807,29.60152],[-104.4062,29.56987],[-104.3856,29.53314],[-104.2623,29.4812],[-104.1762,29.37554],[-103.8944,29.2527],[-103.4091,28.99972],[-103.1254,28.94289],[-102.8539,29.21441],[-102.646,29.72279],[-101.4632,29.75215],[-101.2716,29.52268],[-101.1525,29.4683],[-101.0794,29.45335],[-101.0516,29.41986],[-101.0162,29.36841],[-100.9632,29.34388],[-100.9487,29.34223],[-100.9427,29.33071],[-100.8991,29.30526],[-100.8826,29.27742],[-100.8432,29.25945],[-100.7872,29.21211],[-100.779,29.16266],[-100.6691,29.07327],[-100.6506,28.91232],[-100.6221,28.89428],[-100.569,28.81072],[-100.5137,28.71393],[-100.5081,28.66137],[-100.354,28.43034],[-100.3612,28.38883],[-100.2921,28.24935],[-100.0051,27.99622],[-99.88306,27.80067],[-99.84993,27.76573],[-99.75758,27.70876],[-99.72599,27.66346],[-99.66951,27.63183],[-99.57999,27.59974],[-99.54549,27.60445],[-99.5321,27.57859],[-99.51748,27.56426],[-99.52892,27.5292],[-99.53073,27.49388],[-99.50249,27.49875],[-99.49004,27.49381],[-99.48197,27.48254],[-99.48644,27.47112],[-99.49554,27.45604],[-99.49957,27.43806],[-99.49099,27.41079],[-99.54746,27.31093],[-99.45168,27.22304],[-99.46129,27.06891],[-99.45236,27.01601],[-99.3346,26.87523],[-99.23607,26.72813],[-99.17633,26.54124],[-99.10011,26.47949],[-99.11917,26.4323],[-99.08638,26.39356],[-99.05565,26.39571],[-99.03694,26.41047],[-99.02389,26.40448],[-99.01686,26.38956],[-98.98321,26.38818],[-98.94733,26.36742],[-98.89687,26.35004],[-98.81433,26.3472],[-98.7283,26.27233],[-98.701,26.26155],[-98.66495,26.23015],[-98.59663,26.24955],[-98.58341,26.23076],[-98.47767,26.19657],[-98.38686,26.1539],[-98.34292,26.14912],[-98.33227,26.12554],[-98.30481,26.09988],[-98.28936,26.10211],[-98.27313,26.09433],[-98.26773,26.08546],[-98.2509,26.07066],[-98.19099,26.04907],[-98.0698,26.03226],[-97.96148,26.04907],[-97.95033,26.05971],[-97.9335,26.04953],[-97.86518,26.04984],[-97.78158,26.02362],[-97.66897,26.01483],[-97.61387,25.96592],[-97.58726,25.92949],[-97.54778,25.91868],[-97.52302,25.8844],[-97.51109,25.88509],[-97.498,25.89513],[-97.50023,25.87946],[-97.48632,25.87637],[-97.475,25.87343],[-97.46264,25.87374],[-97.46092,25.85212],[-97.40788,25.83111],[-97.36839,25.83203],[-97.35054,25.86386],[-97.34196,25.90957],[-97.14489,25.94631],[-96.86662,25.94066],[-95.78507858718888,25.817315031517484],[-89.19655,24.82478],[-86.19429,21.60805],[-85.49087,18.19755],[-86.88189978998382,17.918492673112002],[-86.85983,18.20537],[-87.05974,18.20651],[-87.82125,18.18906],[-87.82265,18.18891],[-87.82447,18.18899],[-87.84459,18.18853],[-87.84627,18.18994],[-87.85252,18.19022],[-87.86792,18.20213],[-87.86848,18.20212],[-87.88491,18.17529],[-87.89718,18.16829],[-87.90053,18.1684],[-87.90985,18.15809],[-87.91406,18.16885],[-88.02406,18.17252],[-88.02481,18.42315],[-88.2428,18.42016],[-88.24487,18.47593],[-88.32291,18.49235],[-88.35189,18.49097],[-88.36703,18.48999],[-88.37985,18.48052],[-88.38593,18.48637],[-88.39874,18.49703],[-88.4118,18.49737],[-88.44325,18.48565],[-88.47662,18.4984],[-88.51653,18.46816],[-88.52118,18.46421],[-88.52484,18.45438],[-88.54191,18.40389],[-88.54647,18.39625],[-88.55535,18.3724],[-88.60205,18.30331],[-88.60319,18.3014],[-88.60432,18.29995],[-88.60679,18.2963],[-88.61184,18.2903],[-88.68095,18.20147],[-88.69581,18.18956],[-88.70507,18.16158],[-88.71477,18.11698],[-88.72288,18.10538],[-88.7273,18.06362],[-88.77184,18.03399],[-88.79499,17.9814],[-88.84943,17.94266],[-88.861,17.92471],[-88.86615,17.89901],[-88.9103,17.92389],[-88.9416,17.96223],[-88.98747,17.96223],[-89.00069,17.98968],[-89.00583,17.99452],[-89.03889,18.00916],[-89.07699,17.99759],[-89.13586,17.97351],[-89.15646,17.94052],[-89.15675828804898,17.833311765925387],[-89.15893,17.83533],[-89.15886,17.82192],[-90.19982,17.82192],[-90.46623,17.82257],[-90.99564,17.81799],[-90.99392,17.25591],[-91.44814,17.25493],[-91.43646,17.20246],[-91.07597,16.89589],[-90.92628,16.81637],[-90.88577,16.82032],[-90.87376,16.80388],[-90.71549,16.68619],[-90.67429,16.58553],[-90.64888,16.51839],[-90.63721,16.47461],[-90.4937,16.42094],[-90.441,16.30498],[-90.46211,16.2483],[-90.46108,16.20231],[-90.45353,16.15417],[-90.46074,16.11113],[-90.46143,16.07584],[-91.34205,16.07683],[-91.73172,16.07815],[-92.01565,15.59989],[-92.21375,15.262],[-92.06783,15.07411],[-92.0735,15.06765],[-92.07916,15.0456],[-92.10234,15.01675],[-92.13392,15.01692],[-92.15384,14.99105],[-92.1516,14.95872],[-92.14611,14.88938],[-92.18233,14.85736],[-92.18697,14.82799],[-92.18439,14.80609],[-92.16911,14.78169],[-92.17272,14.74783],[-92.14834,14.69104],[-92.14972,14.66979],[-92.16156,14.657],[-92.17821,14.63142],[-92.18525,14.61913],[-92.18044,14.60883],[-92.18748,14.57677],[-92.21649,14.55933],[-92.22645,14.54039],[-92.38203,14.40448],[-92.71884,14.17418],[-92.73303,14.04373],[-92.70801514055549,14.02882238808524],[-97.13221,9.456709],[-101.1689,9.83098],[-132.4952,26.62786]]]}}
