{"type":"Feature","properties":{"sourceId":"mali"},"geometry":{"type":"Polygon","coordinates":[[[-4.871857,25.09499],[1.198687,21.20855],[1.281013,20.8367],[1.657937,20.66715],[1.841833,20.40048],[2.268787,20.39638],[2.479818,20.19181],[2.706217,20.18776],[3.296141,19.91195],[3.357131,19.44832],[3.247005,19.17404],[3.354559,19.0889],[4.330257,19.2074],[4.330227020707403,19.20540979244488],[4.225302,19.18682],[4.138516,16.45541],[3.829421,15.74531],[3.016121,15.43579],[2.953327,15.37933],[1.306701,15.30156],[0.953119,15.00615],[0.24178039569737975,15.008247237800347],[0.241699,15.00946],[0.23724131554814956,15.008260620358822],[0.217101,15.00832],[0.21602380884753727,15.002551861506966],[0.22501876043891958,15.004972033219122],[0.166511,14.98923],[0.062816,14.98442],[-0.237766,15.08804],[-0.387255,15.02063],[-0.427964,15.09271],[-0.721483,15.09013],[-1.078035,14.80542],[-1.329347,14.75497],[-1.993333,14.48189],[-2.0155,14.19574],[-2.10632,14.16283],[-2.293544,14.25224],[-2.475358,14.30897],[-2.605395,14.22088],[-2.682832,14.13616],[-2.84134,14.07131],[-2.853013,14.04001],[-2.863889,14.00528],[-2.893543,13.88126],[-2.890487,13.85873],[-2.913889,13.82361],[-2.913979,13.72029],[-2.891107,13.66276],[-2.998925,13.66133],[-3.017307,13.65438],[-3.107071,13.69236],[-3.204918,13.71004],[-3.250237,13.71971],[-3.269839,13.72207],[-3.280697,13.70002],[-3.254511,13.67618],[-3.258333,13.5844],[-3.283196,13.56056],[-3.262541,13.37339],[-3.242536,13.29763],[-3.445026,13.2845],[-3.454159,13.26012],[-3.433056,13.20321],[-3.443871,13.16842],[-3.543091,13.17778],[-3.549271,13.20051],[-3.58223,13.20519],[-3.671151,13.27938],[-3.733635,13.30845],[-3.738442,13.32682],[-3.796807,13.37927],[-3.831482,13.36891],[-3.890877,13.38695],[-3.953705,13.38895],[-3.954049,13.40398],[-3.893967,13.4297],[-3.891938,13.45023],[-3.932419,13.45941],[-3.943773,13.50402],[-3.974991,13.53152],[-4.050522,13.41767],[-4.074555,13.41166],[-4.100304,13.3963],[-4.197808,13.27771],[-4.265442,13.23928],[-4.301285,13.18858],[-4.351101,13.14268],[-4.352131,13.11509],[-4.320374,13.06945],[-4.276429,12.98516],[-4.228364,12.95237],[-4.236603,12.86],[-4.22905,12.8185],[-4.244157,12.74015],[-4.260633,12.72869],[-4.298806,12.72557],[-4.328529,12.75445],[-4.346837,12.75777],[-4.402776,12.74718],[-4.436944,12.72864],[-4.489976,12.7301],[-4.489289,12.64034],[-4.424058,12.59276],[-4.433671,12.49692],[-4.454957,12.40305],[-4.422684,12.35342],[-4.479668,12.34215],[-4.484227,12.28478],[-4.592286,12.20447],[-4.562073,12.14607],[-4.602446,12.1456],[-4.622214,12.13304],[-4.63508,12.11686],[-4.640833,12.07762],[-4.704273,12.07102],[-4.841607,12.03361],[-4.937682,12.01936],[-5.07548,11.99282],[-5.154714,11.95971],[-5.19296,11.91575],[-5.252904,11.87345],[-5.288573,11.86074],[-5.353172,11.83434],[-5.380924,11.84888],[-5.410782,11.83468],[-5.409922,11.81912],[-5.378177,11.80533],[-5.363046,11.78585],[-5.273911,11.75109],[-5.279834,11.67634],[-5.301575,11.62004],[-5.288771,11.6005],[-5.245724,11.59624],[-5.224036,11.57372],[-5.211667,11.53943],[-5.221377,11.45034],[-5.260694,11.39866],[-5.272065,11.25047],[-5.340043,11.21747],[-5.340043,11.14539],[-5.395661,11.11373],[-5.482872,11.09251],[-5.498112,11.07848],[-5.505524,10.97827],[-5.455534,10.89924],[-5.42,10.84768],[-5.478059,10.76248],[-5.476944,10.68472],[-5.487759,10.62477],[-5.470118,10.59753],[-5.468437,10.56157],[-5.51908,10.46466],[-5.521548264902834,10.451994176738246],[-5.559769,10.47465],[-5.659676,10.47465],[-5.783959,10.44494],[-5.869446,10.38449],[-5.97107,10.27844],[-6.179124,10.2379],[-6.150285,10.36423],[-6.146851,10.42096],[-6.170884,10.64509],[-6.212769,10.75034],[-6.646729,10.68018],[-6.950227,10.36356],[-7.05803,10.21222],[-7.458344,10.46013],[-7.631379,10.48106],[-7.9409120033626355,10.223780206048302],[-7.930756,10.24939],[-7.978478,10.35579],[-8.096581,10.4608],[-8.220177,10.46047],[-8.285408,10.63834],[-8.24833,10.90175],[-8.277512,11.01938],[-8.34961,11.07633],[-8.575516,11.07869],[-8.510628,11.21107],[-8.469086,11.22218],[-8.467713,11.28044],[-8.380852,11.26697],[-8.347893,11.27707],[-8.342743,11.38782],[-8.527451,11.50391],[-8.700486,11.65593],[-8.834725,11.66132],[-8.791809,11.82535],[-8.76297,11.95704],[-8.768463,11.98324],[-8.829232,12.05544],[-8.892746,12.06517],[-8.875924,12.1548],[-8.900643,12.19944],[-8.97686,12.23735],[-8.919869,12.32491],[-8.99334,12.42183],[-9.147492,12.49591],[-9.266968,12.51736],[-9.366875,12.51334],[-9.413567,12.46641],[-9.377581,12.31488],[-9.666252,12.17225],[-9.720154,12.03932],[-9.919625,12.11687],[-10.06519,12.16252],[-10.08751,12.1934],[-10.34569,12.24037],[-10.51941,12.12862],[-10.53555,12.05443],[-10.58052,12.02992],[-10.62481,11.96779],[-10.66258,11.908],[-10.75012,11.95201],[-10.78823,12.12292],[-10.92041,12.24071],[-11.04607,12.22997],[-11.14323,12.10345],[-11.23283,12.0091],[-11.30527,12.03261],[-11.36501,12.1162],[-11.47625,12.17628],[-11.41651,12.29237],[-11.42235,12.37119],[-11.36699,12.3885],[-11.35883,12.40707],[-11.365721497630716,12.411231979954847],[-11.35617,12.41893],[-11.36055,12.44751],[-11.34196,12.46194],[-11.3454,12.49694],[-11.38117,12.54519],[-11.41786,12.54488],[-11.42305,12.55566],[-11.39462,12.58535],[-11.3972,12.63519],[-11.41449,12.71947],[-11.36847,12.71925],[-11.35754,12.73285],[-11.37199,12.83039],[-11.39214,12.83842],[-11.38363,12.86213],[-11.39372,12.88007],[-11.38099,12.91694],[-11.34469,12.9254],[-11.33595,12.9425],[-11.35176,12.99081],[-11.38628,13.00225],[-11.42347,13.0611],[-11.42074,13.09254],[-11.46853,13.10673],[-11.49022,13.19613],[-11.51234,13.25982],[-11.53773,13.29507],[-11.57775,13.31551],[-11.58893,13.37406],[-11.61976,13.37215],[-11.62442,13.40422],[-11.68389,13.40015],[-11.70212,13.42345],[-11.73675,13.42555],[-11.75495,13.41418],[-11.77496,13.34713],[-11.82009,13.31817],[-11.83605,13.35429],[-11.87916,13.3917],[-11.85655,13.43731],[-11.86365,13.4731],[-11.9619,13.54156],[-11.99329,13.59193],[-12.03278,13.63164],[-12.03078,13.66589],[-12.05528,13.71055],[-11.94248,13.80241],[-11.93081,13.92907],[-11.98368,13.97105],[-12.00222,14.03035],[-11.97612,14.08264],[-11.96789,14.18584],[-12.02127,14.29266],[-12.08915,14.30894],[-12.08651,14.3562],[-12.09526,14.37482],[-12.12376,14.39528],[-12.16993,14.40392],[-12.19826,14.40924],[-12.19963,14.42238],[-12.18453,14.44249],[-12.20375,14.45829],[-12.19534,14.48322],[-12.21783,14.49452],[-12.20461,14.54952],[-12.17856,14.5486],[-12.16305,14.60742],[-12.14377,14.62337],[-12.14058,14.65627],[-12.15824,14.66876],[-12.15483,14.69287],[-12.20304,14.7062],[-12.20993,14.73803],[-12.23053,14.74019],[-12.233986582768852,14.75627804572663],[-12.16084,14.75496],[-12.05338,14.71578],[-11.93527,14.77787],[-11.87691,14.83363],[-11.80309,14.87644],[-11.79382,14.90398],[-11.79382,14.98658],[-11.78352,15.033],[-11.79176,15.21794],[-11.75434,15.36167],[-11.71417,15.48081],[-11.60877,15.52614],[-11.44512,15.61515],[-11.25635,15.4143],[-11.20708,15.39576],[-11.19455,15.3817],[-11.07799,15.28319],[-11.01036,15.23384],[-10.96024,15.16095],[-10.94736,15.15565],[-10.90582,15.10726],[-10.88574,15.10958],[-10.87355,15.13129],[-10.87217,15.15316],[-10.82977,15.21198],[-10.73175,15.33816],[-10.71339,15.37027],[-10.71425,15.43763],[-10.63974,15.41711],[-10.57314,15.421],[-10.52181,15.44044],[-10.42002,15.43159],[-10.38843,15.43813],[-10.33582,15.42878],[-10.27539,15.42903],[-10.27505,15.42166],[-10.23608,15.41372],[-10.20904,15.40991],[-10.1869,15.39254],[-10.17694,15.38989],[-10.17325,15.39725],[-10.16441,15.39643],[-10.15308,15.37888],[-10.06863,15.35736],[-9.797058,15.38616],[-9.650116,15.41893],[-9.399834,15.43316],[-9.191437,15.49471],[-5.496426,15.49454],[-5.307419,16.33865],[-6.541551,24.97199],[-4.816056,24.99555],[-4.9767734335956355,25.09498941855224],[-4.871857,25.09499]]]}}
