{"type":"Feature","properties":{"sourceId":"muenster-regbez"},"geometry":{"type":"Polygon","coordinates":[[[7.109613,52.25555],[7.1206,52.26275],[7.155962,52.268],[7.296467,52.26532],[7.315779,52.2806],[7.368221,52.30024],[7.385902,52.31047],[7.402382,52.31378],[7.424183,52.3154],[7.436457,52.33466],[7.477999,52.34892],[7.501688,52.36135],[7.531729,52.37251],[7.554388,52.37078],[7.569323,52.38042],[7.580223,52.40394],[7.598591,52.41855],[7.561426,52.43231],[7.588978,52.46464],[7.60211,52.47682],[7.685366,52.45946],[7.69824,52.44455],[7.704849,52.43372],[7.715492,52.40237],[7.726393,52.40132],[7.806473,52.37319],[7.841062,52.37025],[7.868957,52.37817],[7.892303,52.38314],[7.938309,52.36632],[7.955046,52.34719],[7.952299,52.33718],[7.963543,52.32752],[7.978306,52.31357],[7.987833,52.31126],[7.992554,52.30953],[7.990837,52.30271],[7.952213,52.30459],[7.935734,52.30008],[7.937622,52.28717],[7.959595,52.27225],[7.94672,52.26364],[7.934189,52.2607],[7.928524,52.22422],[7.908439,52.20603],[7.919426,52.18762],[7.972641,52.17635],[8.00663,52.17814],[8.017616,52.17362],[8.028087,52.16393],[8.028259,52.15782],[8.00663,52.15729],[8.010406,52.11272],[7.972126,52.11304],[7.950153,52.0987],[7.892475,52.08489],[7.924061,52.05882],[7.923546,52.05344],[7.979679,52.03898],[7.991867,52.05154],[8.031864,52.07117],[8.06551,52.06959],[8.094893042311906,52.06654908831947],[8.095268,52.05847],[8.074053,52.01001],[8.090756,51.99559],[8.11009,51.99907],[8.105646,51.99271],[8.112358,51.97343],[8.107015,51.973],[8.103747,51.96685],[8.111379,51.96243],[8.111785,51.95463],[8.128193,51.95029],[8.167028,51.92673],[8.164155,51.92348],[8.170223,51.91917],[8.167567,51.91066],[8.148803,51.89803],[8.156148,51.89699],[8.158076,51.88949],[8.169629,51.88728],[8.174007,51.88117],[8.173665,51.87395],[8.179393,51.87318],[8.179014,51.86771],[8.183612,51.86109],[8.198544,51.86095],[8.198937,51.85821],[8.203919,51.85687],[8.206121,51.85247],[8.212028,51.85109],[8.212785,51.84742],[8.217031,51.84532],[8.215409,51.83691],[8.205271,51.83779],[8.202575,51.83152],[8.198218,51.82945],[8.198707,51.82675],[8.21425,51.82045],[8.232061,51.82127],[8.239675,51.80773],[8.256036,51.80101],[8.257999,51.7923],[8.252162,51.78876],[8.250246,51.78343],[8.252733,51.7808],[8.251051,51.77617],[8.253266,51.77224],[8.274212,51.7696],[8.279022,51.7644],[8.28747,51.76166],[8.292198,51.75169],[8.300506,51.75235],[8.304018,51.74715],[8.299376,51.74565],[8.299914,51.7406],[8.309502,51.73911],[8.309129,51.7331],[8.319277,51.72405],[8.319999269726866,51.72431387084329],[8.314846,51.71838],[8.31065,51.7186],[8.310981,51.71421],[8.30296,51.7033],[8.301813,51.69816],[8.297971,51.69512],[8.297544,51.68677],[8.295781,51.68528],[8.29777,51.68411],[8.297709,51.67979],[8.29588,51.67575],[8.288534,51.67365],[8.266841,51.66246],[8.264114,51.66362],[8.258406,51.6606],[8.255192,51.66179],[8.24968,51.65873],[8.244592,51.66069],[8.231457,51.66139],[8.228186,51.65919],[8.224342,51.66082],[8.223184,51.65872],[8.218622,51.657],[8.20514,51.65741],[8.203489,51.65932],[8.197027,51.65931],[8.193436,51.66131],[8.195267,51.66579],[8.199805,51.66666],[8.198742,51.66939],[8.203218,51.67112],[8.198642,51.68353],[8.205489,51.68695],[8.205897,51.68987],[8.21023,51.69054],[8.210055,51.69694],[8.183917,51.69272],[8.178124,51.69949],[8.17475,51.69931],[8.169001,51.70387],[8.154892,51.70577],[8.155228,51.70935],[8.153643,51.71059],[8.135365,51.71442],[8.131038,51.71429],[8.130267,51.71129],[8.125843,51.71181],[8.125504,51.71411],[8.119289,51.71688],[8.111009,51.71445],[8.098987,51.70057],[8.091122,51.70229],[8.090852,51.70593],[8.073949,51.70649],[8.070418,51.70766],[8.067974,51.71143],[8.062053,51.71016],[8.053559,51.71567],[8.037982,51.71397],[8.030106,51.71568],[8.029501,51.71406],[8.016531,51.71313],[8.007016,51.70914],[8.003834,51.71171],[8.002884,51.71533],[7.987648,51.71666],[7.981937,51.72027],[7.97928,51.71887],[7.974483,51.72188],[7.970581,51.71969],[7.964792,51.71982],[7.958534,51.71495],[7.961103,51.71149],[7.96148,51.70748],[7.958495,51.70267],[7.951955,51.69967],[7.937992,51.69974],[7.932774,51.70329],[7.928772,51.70234],[7.922224,51.70358],[7.921637,51.70515],[7.91408,51.70505],[7.913564,51.70338],[7.907369,51.70347],[7.905064,51.70172],[7.902356,51.70404],[7.895768,51.70415],[7.889429,51.70149],[7.88745,51.70477],[7.887434,51.71674],[7.879216,51.72007],[7.877232,51.72592],[7.874853,51.72774],[7.872421,51.72919],[7.863901,51.724],[7.858853,51.72338],[7.857153,51.72569],[7.8437,51.72655],[7.834865,51.72935],[7.831466,51.73488],[7.832116,51.74192],[7.830864,51.74341],[7.826049,51.74346],[7.820905,51.73803],[7.81405,51.73848],[7.813572,51.73672],[7.804606,51.73338],[7.804465,51.73075],[7.792253,51.73028],[7.791697,51.7287],[7.786921,51.72742],[7.785431,51.72907],[7.780208,51.72595],[7.773659,51.72575],[7.770173,51.72283],[7.768579,51.726],[7.765109,51.72614],[7.763854,51.72917],[7.759136,51.72884],[7.757047,51.73204],[7.7532,51.7338],[7.751106,51.738],[7.738206,51.73672],[7.737809,51.72946],[7.729508,51.72904],[7.723835,51.72679],[7.723248,51.72199],[7.719178,51.72131],[7.719687,51.7177],[7.716311,51.71809],[7.715772,51.71632],[7.709136,51.71508],[7.702572,51.71136],[7.695727,51.71204],[7.691194,51.71663],[7.691946,51.71864],[7.689778,51.72005],[7.686978,51.72751],[7.671746,51.72254],[7.673014,51.72043],[7.668887,51.71914],[7.669623,51.71631],[7.661786,51.71186],[7.65615,51.7122],[7.657973,51.70689],[7.652042,51.70452],[7.64234,51.71224],[7.635502,51.71158],[7.628393,51.70828],[7.625637,51.71262],[7.615267,51.71392],[7.615299,51.71084],[7.607355,51.7091],[7.605755,51.70537],[7.595153,51.70377],[7.588347,51.69916],[7.568097,51.69726],[7.566614,51.69463],[7.553555,51.69133],[7.551544,51.68748],[7.542047,51.68366],[7.537346,51.68709],[7.541217,51.69067],[7.532871,51.69167],[7.528799,51.69634],[7.527184,51.7009],[7.528719,51.70324],[7.515876,51.70648],[7.515956,51.72037],[7.503359,51.72135],[7.493369,51.71957],[7.484052,51.71314],[7.483007,51.71734],[7.478472,51.71869],[7.475952,51.72277],[7.480767,51.72518],[7.481582,51.72822],[7.4767,51.72748],[7.471722,51.73402],[7.468044,51.73485],[7.460231,51.73012],[7.452294,51.72834],[7.448218,51.72365],[7.437298,51.72226],[7.42571,51.71575],[7.424957,51.71317],[7.426997,51.70985],[7.425328,51.7071],[7.438429,51.70456],[7.443867,51.69982],[7.443022,51.69731],[7.449902,51.69424],[7.452636,51.69039],[7.452537,51.6882],[7.449564,51.68676],[7.452148,51.68285],[7.449372,51.67559],[7.440248,51.67365],[7.435891,51.6682],[7.429817,51.66673],[7.424498,51.66929],[7.410104,51.66893],[7.410807,51.6649],[7.414383,51.66327],[7.432144,51.66357],[7.44462,51.66029],[7.449818,51.6542],[7.443475,51.65129],[7.445382,51.64945],[7.444807,51.64776],[7.449256,51.64778],[7.452378,51.64345],[7.457609,51.64234],[7.457818,51.64021],[7.455201,51.63877],[7.463775,51.6386],[7.463571,51.63584],[7.461254,51.63471],[7.466332,51.62911],[7.463714,51.62464],[7.460031,51.6236],[7.461756,51.6172],[7.458996,51.61275],[7.449362,51.60684],[7.444178,51.60739],[7.441073,51.60455],[7.436529,51.60607],[7.413547,51.59516],[7.401038,51.59234],[7.400267,51.58948],[7.396357,51.58652],[7.380231,51.58695],[7.37287,51.58939],[7.368611,51.58147],[7.363249,51.58254],[7.35826,51.58068],[7.354948,51.58311],[7.340768,51.57662],[7.354873,51.56565],[7.35238,51.56155],[7.357502,51.5556],[7.35368,51.55297],[7.35463,51.5499],[7.349649,51.54455],[7.35135,51.53993],[7.355153,51.53979],[7.358505,51.53489],[7.362269,51.53474],[7.364999,51.53003],[7.364518,51.52713],[7.358628,51.52612],[7.35447,51.52269],[7.346382,51.52118],[7.342505,51.52277],[7.334788,51.51911],[7.323693,51.5224],[7.314309,51.52101],[7.308394,51.5251],[7.303812,51.52448],[7.300689,51.52604],[7.29887,51.52971],[7.295925,51.52888],[7.293485,51.53123],[7.291954,51.53428],[7.294328,51.53567],[7.294976,51.54094],[7.291539,51.54172],[7.289542,51.54458],[7.284643,51.54508],[7.284637,51.54944],[7.281634,51.55488],[7.273737,51.55449],[7.269997,51.55855],[7.262007,51.55931],[7.263931,51.56734],[7.254377,51.56373],[7.249544,51.56366],[7.246781,51.56823],[7.242243,51.56915],[7.241466,51.5719],[7.216261,51.55982],[7.209914,51.55808],[7.206044,51.55906],[7.175351,51.55012],[7.168546,51.55065],[7.162651,51.54894],[7.137452,51.55161],[7.124514,51.55085],[7.12352,51.54875],[7.129131,51.54665],[7.128213,51.54401],[7.131041,51.541],[7.128941,51.53963],[7.129859,51.53697],[7.139156,51.52274],[7.139406,51.51771],[7.145167,51.51373],[7.139201,51.50817],[7.140663,51.50552],[7.138434,51.50453],[7.138893,51.49099],[7.119525,51.48693],[7.104219142992999,51.48113488845525],[7.098305,51.48356],[7.085018,51.48503],[7.074769,51.48375],[7.071938,51.48588],[7.072133,51.48872],[7.075072,51.49218],[7.074439,51.49386],[7.067398,51.49842],[7.061221,51.49769],[7.058311,51.49983],[7.055224,51.50607],[7.052456,51.50636],[7.050994,51.51267],[7.04225,51.51223],[7.040274,51.51474],[7.025495,51.51755],[7.022496,51.52],[7.020267,51.51926],[7.014038,51.52935],[7.014714,51.53302],[7.004673,51.53506],[6.99871,51.5346],[6.994404,51.53154],[6.994201,51.52275],[6.985362,51.51346],[6.98617,51.50905],[6.978438,51.50638],[6.930931,51.4983],[6.930939,51.50053],[6.92899,51.50093],[6.929303,51.50278],[6.926753,51.50474],[6.913445,51.50277],[6.908895,51.50328],[6.908687,51.50618],[6.901495,51.51126],[6.901686,51.51336],[6.895012,51.51626],[6.894931,51.52404],[6.886333,51.52805],[6.885912,51.53715],[6.8802,51.53892],[6.878425,51.5444],[6.869807,51.5528],[6.861424,51.55758],[6.868212,51.56332],[6.869126,51.56793],[6.857035,51.569],[6.849108,51.57205],[6.843668,51.57648],[6.834779,51.5793],[6.860148,51.58903],[6.863505,51.59448],[6.866577,51.59595],[6.866653,51.59783],[6.863028,51.60146],[6.851908,51.60739],[6.854114,51.60761],[6.854039,51.6094],[6.85753,51.60974],[6.857388,51.61168],[6.864433,51.61299],[6.864394,51.61501],[6.872161,51.62158],[6.867598,51.62825],[6.868201,51.63019],[6.902895,51.63527],[6.901673,51.63765],[6.90292,51.64382],[6.901147,51.64629],[6.902014,51.64786],[6.9001,51.64966],[6.900652,51.65373],[6.89493,51.65424],[6.897993,51.6596],[6.899707,51.66014],[6.899589,51.66297],[6.901021,51.66295],[6.902315,51.66512],[6.902626,51.66998],[6.907576,51.67175],[6.902104,51.67469],[6.905741,51.67686],[6.912381,51.67587],[6.914022,51.67741],[6.915096,51.68608],[6.916653,51.68784],[6.915365,51.69253],[6.916267,51.69899],[6.937979,51.70246],[6.937841,51.71364],[6.941444,51.71581],[6.93831,51.71952],[6.931037,51.72099],[6.923823,51.72705],[6.922629,51.72865],[6.925861,51.7307],[6.92628,51.73298],[6.917189,51.74276],[6.911045,51.74678],[6.859106,51.73015],[6.859125,51.73214],[6.855997,51.73617],[6.850182,51.73644],[6.848593,51.73777],[6.840841,51.73722],[6.827704,51.73081],[6.820522,51.73836],[6.818972,51.74377],[6.811296,51.74468],[6.799591,51.74306],[6.787797,51.74971],[6.773584,51.74703],[6.772791,51.75389],[6.77024,51.75905],[6.77018,51.76638],[6.763543,51.77403],[6.758272,51.77726],[6.748809,51.77558],[6.746208,51.7711],[6.72252,51.76943],[6.709467,51.7724],[6.709121,51.77421],[6.713,51.77506],[6.714834,51.77779],[6.714081,51.78136],[6.705975,51.78157],[6.697286,51.77823],[6.668828,51.77812],[6.665963,51.78386],[6.658371,51.79004],[6.639021,51.7991],[6.632066,51.80021],[6.610072,51.79538],[6.609225,51.80081],[6.601744,51.80063],[6.592927,51.80314],[6.591096,51.8027],[6.589612,51.80021],[6.587486,51.80033],[6.583933,51.7944],[6.581661,51.79651],[6.570526,51.79592],[6.569776,51.7948],[6.571116,51.79259],[6.568772,51.79099],[6.565182,51.79407],[6.559891,51.79424],[6.557935,51.7961],[6.554631,51.79646],[6.552198,51.79909],[6.541415,51.8022],[6.527993,51.81052],[6.523558,51.81136],[6.52281,51.8143],[6.517928,51.81746],[6.512196,51.81403],[6.505659,51.81274],[6.491792,51.81136],[6.485113,51.81273],[6.465759,51.80577],[6.433163,51.80375],[6.428888,51.80673],[6.423448,51.80641],[6.422158,51.80832],[6.425633,51.81026],[6.421834,51.81342],[6.42216,51.81534],[6.428116,51.81676],[6.427864,51.81981],[6.419315,51.81942],[6.414572,51.82082],[6.411168,51.82668],[6.4086523631694154,51.82850685231964],[6.41114,51.83598],[6.405673,51.84382],[6.411849,51.85413],[6.390379,51.8648],[6.392888,51.86998],[6.425879,51.86294],[6.431991,51.85642],[6.449746,51.86238],[6.472824,51.85084],[6.501361,51.85947],[6.505764,51.86582],[6.544918,51.88131],[6.561388,51.87932],[6.586462,51.89115],[6.634806,51.89807],[6.681975,51.91416],[6.693687,51.91189],[6.722739,51.89316],[6.771269,51.91346],[6.790685,51.92721],[6.799999,51.9413],[6.801478,51.95626],[6.830667,51.962],[6.835752,51.97306],[6.828034,51.99617],[6.814332,51.99746],[6.753837,52.03128],[6.714943,52.04295],[6.690935,52.04288],[6.690838,52.05374],[6.699834,52.0677],[6.736213,52.07173],[6.750768,52.08066],[6.754072,52.08577],[6.748639,52.09173],[6.758851,52.09534],[6.762697775668316,52.11349002930802],[6.762698,52.11349],[6.763181,52.11577],[6.856423,52.11762],[6.875589,52.12817],[6.884791,52.155],[6.907694,52.16766],[6.910407,52.17356],[6.953173,52.17876],[6.989159,52.22325],[7.026832,52.22275],[7.063317,52.23251],[7.068239685307502,52.24287878530507],[7.104034,52.24567],[7.109613,52.25555]]]}}
