{"type":"Feature","properties":{"sourceId":"nusa-tenggara"},"geometry":{"type":"MultiPolygon","coordinates":[[[[122.6571,-11.51623],[119.2566,-10.89803],[114.8923,-9.115651],[114.549,-8.54775],[114.413,-8.327006],[114.4089,-8.163575],[114.4188,-8.106477],[114.4278,-8.082684],[114.4707,-8.042232],[114.6142,-7.733445],[114.906,-7.400595],[116.3232,-7.455066],[116.8726,-7.874259],[122.1075,-7.743646],[122.102,-6.893696],[125.6396,-6.675509],[125.549,-8.072824],[125.64395652684264,-8.074265952083405],[125.3938,-8.24139],[125.3142,-8.367767],[124.9434,-8.507685],[124.9355,-8.932557],[124.9481,-8.958502],[124.9395,-8.978595],[124.9323,-8.996822],[124.9303,-9.027763],[124.9394,-9.048022],[124.953,-9.060313],[124.9788,-9.07006],[125.0047,-9.068704],[125.0824,-9.02717],[125.1163,-8.984953],[125.1793,-9.029543],[125.1578,-9.165823],[125.0531,-9.165484],[125.0129,-9.166501],[124.9763,-9.190226],[124.9793,-9.2497],[124.9916,-9.293919],[125.045,-9.338131],[125.0464,-9.364893],[125.0709,-9.390637],[125.0751,-9.44449],[125.0843,-9.46972],[125.2386,-9.690103],[126.8921,-9.09667],[127.5581,-8.606819],[127.58583380620705,-8.45272829187688],[128.408,-9.917962],[123.221,-11.60655],[122.6571,-11.51623]],[[124.6866,-8.502251],[123.7912,-8.771079],[124.0343,-9.333897],[124.0839,-9.407403],[124.1424,-9.445336],[124.2212,-9.381322],[124.2686,-9.437039],[124.2724,-9.495963],[124.2755,-9.512555],[124.3584,-9.490715],[124.3664,-9.461592],[124.3862,-9.389452],[124.3787,-9.37514],[124.3903,-9.360701],[124.4385,-9.335082],[124.4641,-9.307471],[124.4869,-9.197851],[124.4859,-9.175482],[124.6866,-8.502251]]],[[[126.4444,-8.086421],[127.19724990920847,-8.172214336018992],[126.4114,-8.193819],[125.8772,-8.259059],[125.68617403579883,-8.074907041506318],[126.4444,-8.086421]]],[[[127.2079,-8.173428],[127.23429106339044,-8.187670773671742],[127.2044710326159,-8.173037241433937],[127.2079,-8.173428]]]]}}
