{"type":"Feature","properties":{"sourceId":"north-eastern-zone"},"geometry":{"type":"MultiPolygon","coordinates":[[[[91.68228,27.84636],[91.83403,27.79535],[91.89651,27.74188],[91.97479,27.78867],[92.22198,27.89796],[92.56599,27.89432],[92.63947,28.16282],[92.93747,28.31043],[93.07068,28.37086],[93.22998,28.58452],[94.23523,28.99493],[94.25308,29.14617],[94.64584,29.34507],[95.20615,29.12817],[95.81451,29.3738],[96.06583,29.42883],[96.16882,29.36542],[96.32812,29.20012],[96.96121,28.38174],[97.06558,28.39744],[97.23312,28.3346],[97.37869,28.22092],[97.41989,28.01501],[97.3883,27.86215],[96.94199,27.59715],[97.20978,27.13615],[97.15759,27.07013],[97.05322,27.08603],[96.85684,27.16792],[96.74048,27.25755],[96.22787,27.2412],[96.16007,27.2412],[96.04111,27.1667],[95.9642,27.04934],[95.74928,26.89023],[95.12924,26.53448],[95.09697,26.45213],[95.13954,26.39003],[95.20752,26.07344],[95.05783,25.743],[94.86419,25.48667],[94.69872,25.44824],[94.59572,25.21985],[94.75983,25.14031],[94.75983,25.00473],[94.73236,24.91384],[94.617,24.70754],[94.48654,24.54213],[94.30956,24.2407],[94.29686,24.23069],[94.26613,24.07844],[94.19815,23.92413],[94.15009,23.82116],[93.49777,23.93104],[93.39752,23.05194],[93.18466,22.91919],[93.21144,22.25796],[93.17093,22.18295],[93.00613,21.98699],[92.90726,21.92712],[92.82692,22.06019],[92.6944,22.02009],[92.62826702534896,21.98468027170002],[92.6168,22.16579],[92.5605,22.51509],[92.53097,22.73186],[92.46712,22.90211],[92.406,22.95017],[92.41218,23.28109],[92.28584,23.78158],[91.90681,23.74261],[91.94904,23.49033],[91.87727,23.44296],[91.83738,23.41675],[91.82694,23.39196],[91.78212,23.33074],[91.75872,23.27565],[91.75841,23.24737],[91.78553,23.19239],[91.80902,23.09107],[91.8015,23.08033],[91.77643,23.07665],[91.76928,23.06121],[91.77167,23.04453],[91.75181,23.03475],[91.71943,23.00312],[91.68741,23.00035],[91.67383,22.99157],[91.64254,22.99523],[91.60892,22.98049],[91.57627,22.98672],[91.55593,23.00703],[91.5604,23.03835],[91.51199,23.18581],[91.46084,23.24592],[91.45775,23.26216],[91.3266,23.3618],[91.27613,23.43332],[91.25175,23.45915],[91.25381,23.47962],[91.2236,23.55644],[91.23562,23.76461],[91.25999,23.84094],[91.23562,23.89494],[91.28162,23.92005],[91.30257,23.96649],[91.31149,23.98186],[91.38256,23.96837],[91.4193,24.09035],[91.54495,24.06794],[91.59353,24.07013],[91.59714,24.0822],[91.64761,24.1032],[91.75816,24.13297],[91.81755,24.18841],[91.88965,24.12482],[91.91677,24.13547],[91.95969,24.30611],[91.99762,24.32113],[92.12517,24.379],[92.17323,24.41589],[92.22885,24.4934],[92.30507,24.73374],[92.26833,24.90107],[92.33811,24.87678],[92.36292,24.87086],[92.37253,24.8725],[92.38086,24.85287],[92.39811,24.84438],[92.48875,24.85965],[92.50523,24.89983],[92.49424,24.95073],[92.43107,25.03335],[92.3473,25.07845],[92.24493,25.10255],[92.19724,25.14908],[92.17563,25.14579],[92.14866,25.15203],[92.11934,25.17997],[92.04219,25.19769],[91.97869,25.18389],[91.93195,25.19327],[91.79101,25.17533],[91.75639,25.18383],[91.74158,25.1734],[91.73861,25.15988],[91.70814,25.16899],[91.68722,25.1426],[91.64727,25.13667],[91.60831,25.14948],[91.6045,25.17444],[91.59259,25.18251],[91.56914,25.17506],[91.55012,25.1586],[91.34514,25.18413],[91.25856,25.21775],[91.22528,25.20417],[91.06533,25.20432],[90.95856,25.17822],[90.88543,25.17139],[90.82022,25.16039],[90.77783,25.18596],[90.75852,25.18349],[90.73807,25.16827],[90.68416,25.16962],[90.65266,25.1911],[90.60389,25.17667],[90.52256,25.18469],[90.46623,25.17187],[90.43769,25.15739],[90.38638,25.16375],[90.33184,25.19414],[90.29159,25.20498],[90.11473,25.23399],[90.07934,25.25664],[89.9195,25.31974],[89.90033,25.31601],[89.86044,25.29173],[89.8502,25.29769],[89.82456,25.37394],[89.85563,25.46707],[89.86314,25.51572],[89.85383,25.53787],[89.86756,25.54384],[89.87786,25.58015],[89.88464,25.61754],[89.88276,25.63595],[89.87228,25.66365],[89.85392,25.71393],[89.8443,25.76063],[89.8395,25.78073],[89.82508,25.82014],[89.83984,25.84779],[89.89391,25.94384],[89.87606,25.97888],[89.84314,26.0116],[89.80946,26.04876],[89.78508,26.04398],[89.80207,26.05971],[89.79847,26.09009],[89.78457,26.10905],[89.76002,26.11321],[89.77049,26.13448],[89.75212,26.16022],[89.7056,26.175],[89.69685,26.204685224514584],[89.69685,26.20874],[89.68929,26.25185],[89.70474,26.32111],[89.76654,26.36849],[89.82765,26.44107],[89.83057,26.61063],[89.83945162155517,26.699000351015762],[89.86428,26.69537],[89.87414,26.72274],[89.96796,26.71427],[90.04813,26.72252],[90.1905,26.75988],[90.20251,26.78132],[90.19312,26.79809],[90.2111,26.83312],[90.24515,26.85009],[90.30756,26.84397],[90.34644,26.86593],[90.36567,26.89398],[90.41529,26.89559],[90.54492,26.80897],[90.62902,26.78657],[90.64491,26.77092],[90.67664,26.77571],[90.70207,26.76149],[90.99446,26.78208],[91.05768,26.77429],[91.10498,26.81316],[91.15137,26.80484],[91.24021,26.80554],[91.34196,26.77531],[91.38501,26.78907],[91.41742,26.82353],[91.50356,26.78473],[91.59254,26.79782],[91.63447,26.81338],[91.70013,26.80263],[91.73012,26.8081],[91.82589,26.85574],[91.86469,26.90489],[91.88833,26.91018],[91.96072,26.88029],[91.98783,26.85263],[92.06214,26.84356],[92.11016,26.8658],[92.12621,26.90425],[92.12873,26.96234],[92.10869,27.00847],[92.0887,27.02566],[92.0873,27.04533],[92.04548,27.06782],[92.03437,27.10986],[92.043,27.13435],[92.03715,27.16544],[92.06264,27.18406],[92.07719,27.21742],[92.07796,27.24099],[92.06292,27.26397],[92.11531,27.26214],[92.12771,27.26869],[92.13159,27.28568],[92.07398,27.33079],[92.05671,27.36455],[92.06296,27.40287],[92.04809,27.44027],[92.03135,27.45082],[92.02075,27.48679],[91.99385,27.48583],[91.95422,27.46825],[91.8489,27.49373],[91.82685,27.47827],[91.73226,27.47853],[91.72239,27.50335],[91.69757,27.51279],[91.65869,27.49504],[91.6284,27.52425],[91.61768,27.54875],[91.59696,27.55322],[91.57739,27.58565],[91.59158,27.61003],[91.57204,27.63612],[91.58087,27.65405],[91.63536,27.69572],[91.65239,27.76984],[91.63297,27.81682],[91.60926,27.83062],[91.5779,27.82357],[91.56941,27.83792],[91.57930911340291,27.848034472959316],[91.68228,27.84636]]],[[[88.08495,27.9471],[88.63616,28.18012],[88.92991,28.05021],[88.8842,27.69265],[88.80833,27.47172],[88.92608698033128,27.340969145976995],[88.91579,27.33365],[88.90446,27.30101],[88.89828,27.27523],[88.8289,27.27124],[88.7964,27.25268],[88.79111,27.21033],[88.75773,27.18055],[88.73917,27.14316],[88.7448,27.1347],[88.76363644891535,27.13241615914152],[88.76301,27.13156],[88.71082,27.12362],[88.65108,27.14898],[88.60474,27.17586],[88.54208,27.17662],[88.5498,27.15326],[88.45462,27.07846],[88.43041,27.07197],[88.32064,27.09688],[88.27721,27.12224],[88.22536,27.11063],[88.20408,27.12133],[88.14674,27.10162],[88.0707,27.1282],[88.05164,27.19968],[88.04879958981063,27.200224104549264],[88.07602,27.33457],[88.08838,27.43029],[88.06915,27.49426],[88.21403,27.78381],[88.22213,27.8714],[88.1597,27.90651],[88.09936909856333,27.920405450117862],[88.08495,27.9471]]]]}}
