{"type":"Feature","properties":{"sourceId":"navarra"},"geometry":{"type":"Polygon","coordinates":[[[-0.807324,42.90011],[-0.804749,42.87282],[-0.842686,42.84186],[-0.840969,42.78709],[-0.853157,42.76667],[-0.940533,42.70502],[-1.022072,42.69177],[-1.030483,42.64469],[-1.054859,42.63964],[-1.149101,42.64393],[-1.15202,42.6183],[-1.155281,42.5972],[-1.199398,42.57495],[-1.198197,42.54891],[-1.225834,42.53904],[-1.264115,42.55321],[-1.267891,42.49729],[-1.273899,42.46475],[-1.336384,42.42282],[-1.320934,42.35296],[-1.381359,42.29369],[-1.391144,42.24784],[-1.407623,42.20767],[-1.384106,42.19279],[-1.390286,42.1298],[-1.360588,42.11007],[-1.344795,42.07618],[-1.305657,42.07758],[-1.295014,42.04305],[-1.349774,41.99548],[-1.379128,41.94238],[-1.39801,41.93498],[-1.402645,41.92476],[-1.414318,41.91109],[-1.442127,41.91084],[-1.491738,41.9185],[-1.51783,41.90611],[-1.565552,41.91199],[-1.595936,41.92412],[-1.655846,41.95898],[-1.685543,41.95119],[-1.712494,41.9526],[-1.791802,41.98578],[-1.8363603957625187,41.991927820422625],[-1.830598,42.0039],[-1.891022,42.04062],[-1.897202,42.07058],[-1.832485,42.1298],[-1.819611,42.14915],[-1.798668,42.13833],[-1.779614,42.13528],[-1.717472,42.13146],[-1.673012,42.15042],[-1.691723,42.16137],[-1.69756,42.17129],[-1.693525,42.18007],[-1.675243,42.18827],[-1.683226,42.19641],[-1.712837,42.21466],[-1.788197,42.23494],[-1.818752,42.25209],[-1.831541,42.25057],[-1.842957,42.2627],[-1.870251,42.29166],[-1.902952,42.30194],[-1.913681,42.32828],[-1.923466,42.33038],[-1.935053,42.32854],[-1.94149,42.3371],[-1.959686,42.34389],[-1.968184,42.35537],[-1.996164,42.36622],[-2.015133,42.37142],[-2.029381,42.36603],[-2.050753,42.36],[-2.072125,42.34643],[-2.076759,42.37135],[-2.086887,42.38733],[-2.109289,42.3995],[-2.101221,42.4182],[-2.114096,42.42206],[-2.136498,42.42352],[-2.158213,42.41921],[-2.195377,42.42162],[-2.221041,42.42871],[-2.236061,42.44303],[-2.28713,42.46919],[-2.297516,42.47026],[-2.330732,42.47045],[-2.363691,42.46804],[-2.376909,42.47583],[-2.399912,42.47406],[-2.413988,42.49109],[-2.419224,42.49052],[-2.4231086909763446,42.49065386693551],[-2.426949,42.50881],[-2.421799,42.51488],[-2.397251,42.51906],[-2.404461,42.54385],[-2.395535,42.55194],[-2.401028,42.58443],[-2.418537,42.5996],[-2.441197,42.57205],[-2.454415,42.56206],[-2.467632,42.58279],[-2.492523,42.58311],[-2.501192,42.60945],[-2.502308,42.61842],[-2.483339,42.61482],[-2.473555,42.62727],[-2.452355,42.64791],[-2.431326,42.65864],[-2.416048,42.66382],[-2.397251,42.66249],[-2.388067,42.65991],[-2.347298,42.63686],[-2.310219,42.66874],[-2.319145,42.68199],[-2.327728,42.72217],[-2.318287,42.74071],[-2.268419,42.75048],[-2.283011,42.78488],[-2.272883,42.80749],[-2.270393,42.81391],[-2.235289,42.84318],[-2.243185,42.86326],[-2.244644,42.88477],[-2.256489,42.89219],[-2.239237,42.93073],[-2.214432,42.95089],[-2.199326,42.95542],[-2.174606,42.94279],[-2.111006,42.94995],[-2.097015,42.97332],[-2.089977,42.97639],[-2.050667,42.98054],[-2.040968,42.98268],[-2.032986,42.99624],[-2.042084,43.01689],[-2.043114,43.03025],[-2.034531,43.03358],[-2.020454,43.0539],[-2.026548,43.06719],[-2.014275,43.07328],[-1.973162,43.0939],[-1.949387,43.1028],[-1.908274,43.14127],[-1.925182,43.14803],[-1.926642,43.18709],[-1.915999,43.20887],[-1.913788,43.21675],[-1.916986,43.22335],[-1.911943,43.22766],[-1.909797,43.22826],[-1.906171,43.22207],[-1.88982,43.21534],[-1.882653,43.217],[-1.883211,43.22813],[-1.878448,43.23445],[-1.865401,43.23141],[-1.862226,43.21778],[-1.853213,43.22619],[-1.850038,43.22898],[-1.839867,43.22629],[-1.820941,43.23945],[-1.804633,43.24495],[-1.797295,43.24655],[-1.796565,43.26386],[-1.794334,43.27105],[-1.795321,43.27655],[-1.788583,43.28055],[-1.784978,43.28739],[-1.739917,43.29645],[-1.728753,43.29809],[-1.72863,43.29782],[-1.722622,43.30126],[-1.713352,43.30182],[-1.7064,43.30907],[-1.698654,43.31224],[-1.692581,43.31269],[-1.683741,43.31119],[-1.667835,43.31655],[-1.654215,43.31338],[-1.645889,43.30832],[-1.635531,43.30935],[-1.621838,43.30707],[-1.621857,43.30063],[-1.629067,43.28608],[-1.623173,43.272],[-1.613853,43.25738],[-1.577177,43.25438],[-1.566324,43.26396],[-1.565981,43.28845],[-1.556797,43.29176],[-1.535339,43.29514],[-1.506071,43.29403],[-1.503518,43.29234],[-1.498261,43.28733],[-1.491802,43.28181],[-1.484227,43.28444],[-1.427708,43.26814],[-1.415777,43.27427],[-1.407194,43.27283],[-1.377843,43.25158],[-1.375143,43.23416],[-1.382132,43.19879],[-1.384449,43.19416],[-1.377754,43.18944],[-1.398439,43.18002],[-1.401346,43.15601],[-1.413043,43.12741],[-1.425645,43.11482],[-1.468428,43.09227],[-1.466093,43.07671],[-1.439523,43.04731],[-1.355446,43.03014],[-1.345825,43.0534],[-1.347241,43.09268],[-1.328052,43.11526],[-1.26689,43.12027],[-1.271153,43.1132],[-1.281109,43.10853],[-1.283169,43.10498],[-1.290185,43.10053],[-1.298103,43.09089],[-1.305566,43.07442],[-1.305657,43.07046],[-1.295528,43.06751],[-1.285315,43.06387],[-1.25296,43.04671],[-1.227127,43.05675],[-1.164062,43.03628],[-1.134337,43.02228],[-1.113169,43.02584],[-1.07975,43.01155],[-1.084175,43.00342],[-1.014347,42.99712],[-0.943623,42.95554],[-0.927226,42.95646],[-0.91444,42.96647],[-0.895558,42.96371],[-0.893669,42.95806],[-0.838738,42.95617],[-0.81419,42.95378],[-0.794277,42.96584],[-0.771521,42.97019],[-0.747595,42.9689],[-0.716515,42.9201],[-0.719401,42.91451],[-0.777626,42.91809],[-0.807324,42.90011]]]}}
