{"type":"Feature","properties":{"sourceId":"nova-scotia"},"geometry":{"type":"Polygon","coordinates":[[[-67.19239,42.96849],[-67.24728,43.36104],[-66.7668553512555,44.23135575515718],[-66.62659,44.24717],[-65.00061,45.20623],[-65.02284,45.25193],[-64.991,45.26425],[-64.92302,45.44231],[-64.78649,45.53849],[-64.48753,45.68858],[-64.45473,45.74644],[-64.33415,45.83711],[-64.27975,45.826],[-64.26564,45.83957],[-64.21711,45.89789],[-64.14196,45.97669],[-64.04171,45.97442],[-64.03313,46.01079],[-63.58942484811851,46.074438338575185],[-63.36639,45.95974],[-62.77725,45.82497],[-62.54654,45.84028],[-62.15927,45.9053],[-61.53443,46.33935],[-61.24878,46.85268],[-61.46587133974975,46.94153916047333],[-61.37513,47.06638],[-60.41382,47.89793],[-59.00757,47.42437],[-58.22593,44.66433],[-59.25128,43.49175],[-65.02339,42.10691],[-67.19239,42.96849]]]}}
