{"type":"Feature","properties":{"sourceId":"nepal"},"geometry":{"type":"Polygon","coordinates":[[[87.89526,26.44783],[87.89766,26.47564],[87.86642,26.46765],[87.86316,26.44829],[87.84874,26.43553],[87.76153,26.40771],[87.73149,26.40617],[87.6915,26.43015],[87.68034,26.41432],[87.65476,26.39295],[87.60756,26.37834],[87.5861,26.37895],[87.55228,26.40386],[87.46594,26.43845],[87.43315,26.42154],[87.3674,26.40417],[87.36105,26.35973],[87.34388,26.3445],[87.2632,26.37357],[87.2608,26.40709],[87.23247,26.41124],[87.21977,26.40156],[87.16141,26.40202],[87.13789,26.40955],[87.08862,26.44967],[87.07129,26.54323],[87.06991,26.58392],[87.04639,26.58438],[87.04519,26.56918],[87.01515,26.52803],[86.99455,26.51881],[86.90254,26.45828],[86.83628,26.43538],[86.73088,26.41924],[86.62617,26.46566],[86.56523,26.49685],[86.49588,26.54078],[86.39408,26.58239],[86.33743,26.60434],[86.33778,26.616],[86.29271,26.61261],[86.25349,26.61217],[86.23615,26.58914],[86.21727,26.58607],[86.13316,26.60495],[86.13144,26.62628],[86.12045,26.62782],[86.07033,26.64838],[86.06604,26.6559],[86.02827,26.66341],[86.00939,26.65298],[85.97231,26.65237],[85.95188,26.61309],[85.89008,26.58208],[85.85541,26.56611],[85.84906,26.56581],[85.81884,26.60019],[85.76975,26.6269],[85.74623,26.63764],[85.72958,26.65191],[85.71671,26.67768],[85.73095,26.78699],[85.71825,26.81994],[85.63911,26.85133],[85.63208,26.86987],[85.59174,26.84552],[85.578,26.85486],[85.56788,26.83985],[85.49681,26.79557],[85.45183,26.77948],[85.41475,26.78255],[85.34248,26.73733],[85.20533,26.75481],[85.17752,26.79527],[85.17288,26.81442],[85.18713,26.86742],[85.06027,26.84674],[85.01993,26.85409],[85.02697,26.88747],[85.00294,26.89207],[84.97169,26.91151],[84.96603,26.91794],[84.96448,26.95406],[84.89119,26.96813],[84.85291,26.98542],[84.79368,26.99307],[84.73652,27.00668],[84.6318,27.04384],[84.67506,27.22044],[84.6167,27.32664],[84.29493,27.35496],[84.11996,27.48018],[84.04862,27.41662],[83.89644,27.41041],[83.86413,27.33884],[83.62106,27.4571],[83.45489,27.4632],[83.3822,27.33384],[83.29559,27.30955],[83.17749,27.43395],[83.03741,27.44126],[82.72293,27.49],[82.69821,27.68718],[82.45102,27.65677],[81.99921,27.91555],[81.90033,27.8245],[81.47598,28.07319],[81.4091,28.13323],[81.30295,28.12407],[81.20544,28.33581],[80.91606,28.41685],[80.54632,28.65033],[80.54027,28.53027],[80.36611,28.61293],[80.05394,28.82362],[80.04913,28.91592],[80.13874,29.10718],[80.1844,29.14137],[80.24551,29.13897],[80.23487,29.19833],[80.24311,29.22709],[80.28156,29.2184],[80.30216,29.30197],[80.23693,29.41268],[80.23487,29.44289],[80.3334,29.52179],[80.33787,29.55405],[80.40138,29.60092],[80.36293,29.72324],[80.35778,29.74709],[80.40138,29.79596],[80.43331,29.81086],[80.54249,29.86804],[80.583,29.95821],[80.72199,30.03386],[80.85479,30.147],[80.77691,30.24227],[80.71882,30.31262],[80.65631,30.34186],[80.64723,30.37311],[80.59985,30.44066],[80.53835,30.40941],[80.50886,30.4331],[80.5691,30.47292],[80.60035,30.47822],[80.6548,30.45049],[80.69714,30.4205],[80.7105,30.42151],[80.76771,30.3832],[80.82392,30.328],[80.93885,30.29725],[81.04043,30.26675],[81.14402,30.03071],[81.26701,30.07507],[81.23257,30.16875],[81.3517,30.19504],[81.39828,30.44943],[81.52088,30.41511],[81.6295,30.47746],[81.99323,30.36697],[82.08568,30.39237],[82.23489,30.1641],[82.21737,30.10248],[82.57134,29.98702],[82.85296,29.7277],[82.94569,29.73361],[83.285,29.60121],[83.55538,29.23855],[83.62474,29.21041],[83.9004,29.35718],[84.10834,29.32062],[84.23132,29.24686],[84.20122,29.16883],[84.27965,29.0412],[84.26041,28.93062],[84.42173,28.8794],[84.48635,28.78162],[84.6502,28.75901],[84.74347,28.65224],[84.85518,28.61444],[84.95797,28.62433],[85.05366,28.71338],[85.20117,28.66846],[85.21743,28.53029],[85.146,28.45407],[85.15478,28.36607],[85.37382,28.32273],[85.50694,28.36487],[85.62141,28.32031],[85.66137,28.40289],[85.72802,28.41155],[85.77914,28.26274],[85.87338,28.20199],[86.00581,27.94872],[86.07589,27.95233],[86.05433,28.10006],[86.18401,28.20462],[86.24964,28.11779],[86.25625,28.01225],[86.42651,27.94691],[86.57899,28.14332],[86.75374,28.13064],[86.79718,28.06069],[87.05061,27.97825],[87.18424,27.85599],[87.56091,27.89847],[87.70949,27.84814],[87.82877,27.98273],[88.1597,27.90651],[88.22213,27.8714],[88.21403,27.78381],[88.06915,27.49426],[88.08838,27.43029],[88.07602,27.33457],[88.03262,27.12037],[88.07739,27.0391],[88.13885,26.98526],[88.12426,26.95207],[88.14039,26.93401],[88.14932,26.91901],[88.14056,26.89896],[88.17661,26.87048],[88.20064,26.74684],[88.16631,26.64178],[88.13353,26.57318],[88.1089,26.53569],[88.1027,26.50811],[88.10548,26.49135],[88.10659,26.48863],[88.10822,26.47533],[88.10599,26.47099],[88.10431,26.46782],[88.10083,26.43674],[88.07293,26.40678],[88.03362,26.36419],[88.00718,26.35834],[87.98658,26.36849],[87.92307,26.41647],[87.89526,26.44783]]]}}
