{"type":"Feature","properties":{"sourceId":"newfoundland-and-labrador"},"geometry":{"type":"Polygon","coordinates":[[[-44.9876,47.81183],[-45.74269,46.73272],[-55.22442,44.45787],[-55.92316,46.60889],[-56.17447,46.8968],[-56.22528,47.22703],[-56.95862,47.14863],[-58.958808906119806,47.2521902630967],[-59.00757,47.42437],[-60.41382,47.89793],[-60.56732839182766,47.765142550348706],[-60.75441,48.86472],[-57.7565,51.02412],[-57.12479,51.38207],[-57.11929,51.99334],[-63.85117,51.99503],[-63.84155,52.29168],[-64.04085,52.37198],[-64.10248,52.44931],[-64.10591,52.49992],[-64.04686,52.58553],[-63.83675,52.64181],[-63.40759,52.67014],[-63.6644,52.77619],[-63.83743,52.75126],[-64.14196,52.66431],[-64.1375,52.46751],[-64.10214,52.4131],[-64.1478,52.14192],[-64.27414,51.69469],[-64.50379,51.55366],[-65.43457,51.83917],[-65.45655,51.97135],[-65.66803,51.98319],[-66.37665,52.11157],[-66.54968,52.2984],[-66.44806,52.67971],[-66.87928,52.6514],[-67.34478,52.8601],[-67.4588,53.14677],[-67.01111,53.25864],[-67.32422,53.53541],[-67.66205,53.7617],[-67.87079,54.01423],[-67.78839,54.45088],[-67.49726,55.08466],[-66.79962,55.39627],[-66.01959,54.96973],[-65.80536,54.93819],[-65.69,54.79119],[-65.0528,55.00125],[-64.60785,54.81018],[-64.30024,54.7991],[-64.0503,54.66748],[-63.84155,54.96816],[-63.61908,55.01543],[-63.81684,55.4664],[-63.8855,55.99531],[-64.06678,56.0613],[-64.22333,56.33481],[-64.19037,56.71958],[-63.79761,57.64981],[-64.11621,57.77013],[-64.45954,58.05027],[-64.49524,58.21703],[-64.07776,58.7169],[-64.91547,58.91457],[-64.98688,59.58163],[-64.93195,60.06176],[-64.87976,60.27524],[-64.56116,60.39215],[-63.99536,60.50864],[-49.20809,56.98072],[-44.17684,48.97052],[-44.9876,47.81183]]]}}
