{"type":"Feature","properties":{"sourceId":"nord-ovest"},"geometry":{"type":"Polygon","coordinates":[[[10.46113,46.51427],[10.48161,46.49924],[10.49391,46.50198],[10.55254,46.4954],[10.57773,46.47779],[10.6032,46.47144],[10.60801,46.46278],[10.62555,46.44906],[10.62181,46.42274],[10.62663,46.41334],[10.63334,46.41003],[10.6359,46.4004],[10.60868,46.37585],[10.56676,46.37231],[10.54941,46.36203],[10.54343,46.35247],[10.53254,46.34798],[10.53478,46.34327],[10.56883,46.32834],[10.56915,46.31601],[10.58326,46.29929],[10.56898,46.28362],[10.5795,46.27647],[10.58949,46.24565],[10.57536,46.23283],[10.57356,46.2196],[10.55447,46.20372],[10.54945,46.19181],[10.56915,46.1669],[10.55347,46.14162],[10.5524,46.11451],[10.54409,46.10036],[10.51899,46.07655],[10.49484,46.0637],[10.48744,46.05434],[10.4886,46.02383],[10.48412,46.0179],[10.47198,46.01644],[10.464,46.00988],[10.45686,45.98608],[10.45938,45.979],[10.49157,45.9742],[10.4937,45.96187],[10.48933,45.94808],[10.49756,45.93478],[10.51264,45.92351],[10.51133,45.90401],[10.4977,45.88629],[10.50793,45.8749],[10.50614,45.86112],[10.51167,45.84096],[10.50795,45.83166],[10.52926,45.83043],[10.54524,45.82163],[10.54752,45.81502],[10.53922,45.80666],[10.53853,45.79507],[10.54333,45.78984],[10.55944,45.78781],[10.5753,45.7916],[10.60096,45.80697],[10.63433,45.81076],[10.64168,45.80835],[10.65065,45.82472],[10.65101,45.83574],[10.67732,45.83533],[10.69846,45.84536],[10.71236,45.84083],[10.73689,45.84616],[10.75518,45.84012],[10.77564,45.84683],[10.7909,45.83878],[10.82397,45.84163],[10.84494,45.83505],[10.83517,45.81475],[10.81402,45.79802],[10.72331,45.69067],[10.63263,45.60531],[10.63457,45.54875],[10.64252,45.51951],[10.64686,45.45902],[10.65174,45.44931],[10.65273,45.434],[10.65683,45.43003],[10.66446,45.43233],[10.71428,45.42189],[10.72269,45.407],[10.72044,45.39501],[10.70806,45.37661],[10.71786,45.36643],[10.69481,45.35085],[10.69407,45.34674],[10.71565,45.33798],[10.71979,45.32451],[10.73464,45.31888],[10.738,45.29405],[10.78382,45.31932],[10.8324,45.28728],[10.84893,45.26227],[10.89962,45.25119],[10.90742,45.24176],[10.9382,45.23622],[10.93743,45.21856],[10.95047,45.21141],[10.96853,45.21032],[10.99458,45.19741],[11.00168,45.18607],[11.00387,45.15534],[11.01164,45.15439],[11.02361,45.16023],[11.05279,45.15459],[11.05499,45.14923],[11.04789,45.13322],[11.03735,45.12486],[11.04417,45.11688],[11.0726,45.10462],[11.08809,45.10241],[11.10194,45.11761],[11.11598,45.11004],[11.12856,45.10905],[11.13678,45.12688],[11.14707,45.13066],[11.18736,45.11561],[11.20592,45.11527],[11.20828,45.10694],[11.18546,45.0948],[11.19256,45.08323],[11.17934,45.07137],[11.18057,45.06603],[11.21068,45.06276],[11.23657,45.04969],[11.26763,45.05801],[11.28248,45.04665],[11.27077,45.03543],[11.27931,45.02219],[11.30599,45.01951],[11.33372,44.99551],[11.39768,44.9735],[11.4174,44.97084],[11.42501,44.96695],[11.43336,44.95413],[11.42841,44.94563],[11.40129,44.94398],[11.39256,44.95124],[11.37748,44.95399],[11.3578,44.94553],[11.32409,44.95727],[11.28682,44.95077],[11.27276,44.93439],[11.24829,44.94485],[11.15341,44.93046],[11.11947,44.95072],[11.10495,44.955],[11.07484,44.95666],[11.05866,44.94441],[11.04705,44.94888],[11.00091,44.95178],[10.94408,44.91956],[10.91605,44.92],[10.89151,44.90968],[10.85903,44.92226],[10.84734,44.92104],[10.83524,44.92917],[10.80694,44.93019],[10.79615,44.93557],[10.74203,44.94546],[10.73898,44.95407],[10.74241,44.96257],[10.73702,44.97773],[10.72393,44.98564],[10.71697,44.98231],[10.71394,44.97106],[10.69728,44.95853],[10.68958,44.9588],[10.6823,44.97295],[10.66944,44.9662],[10.62891,44.91924],[10.56615,44.90656],[10.52,44.90999],[10.46758,44.93324],[10.4427,44.93802],[10.43018,44.94628],[10.42303,44.96595],[10.41075,44.97707],[10.39142,44.9779],[10.37007,44.96264],[10.35867,44.96189],[10.31226,44.97944],[10.30166,44.99585],[10.27534,44.99403],[10.26298,45.00103],[10.25102,45.01505],[10.21377,45.02814],[10.18592,45.02432],[10.17149,45.02907],[10.16811,45.03774],[10.15922,45.03931],[10.14392,45.02934],[10.10909,45.01905],[10.09381,45.01954],[10.08203,45.02988],[10.07732,45.04092],[10.05682,45.03733],[10.04737,45.03947],[10.04364,45.05555],[10.0189,45.07078],[10.02379,45.09423],[9.993951,45.12335],[9.983586,45.12968],[9.973783,45.12877],[9.942967,45.10407],[9.921517,45.09664],[9.914516,45.0981],[9.91073,45.10514],[9.923596,45.12729],[9.922395,45.1323],[9.914644,45.13518],[9.88585,45.12443],[9.881855,45.11965],[9.905312,45.09729],[9.900637,45.07925],[9.881071,45.07199],[9.862298,45.08971],[9.841363,45.09258],[9.83659,45.08583],[9.840311,45.07256],[9.838658,45.06242],[9.825724,45.04991],[9.814434,45.05344],[9.811171,45.07509],[9.779137,45.08656],[9.766652,45.1031],[9.756036,45.10851],[9.752101,45.10502],[9.757887,45.0876],[9.754554,45.07802],[9.722308,45.05621],[9.712581,45.05599],[9.689564,45.06478],[9.665369,45.07808],[9.639683,45.07873],[9.628643,45.08978],[9.636693,45.12019],[9.624322,45.12974],[9.613701,45.10764],[9.588777,45.09688],[9.566015,45.10816],[9.5537,45.1264],[9.545396,45.12891],[9.540976,45.11994],[9.554203,45.09097],[9.546012,45.08116],[9.532789,45.07503],[9.520871,45.07702],[9.509772,45.09297],[9.497097,45.09968],[9.47012,45.09168],[9.446029,45.08961],[9.436826,45.07877],[9.421383,45.07899],[9.416289,45.07189],[9.401945,45.06745],[9.379418,45.04995],[9.380395,45.03985],[9.375253,45.02584],[9.379574,45.01817],[9.374788,45.00833],[9.363713,44.99633],[9.348569,44.99133],[9.339571,44.97176],[9.341595,44.96343],[9.32937,44.95513],[9.32088,44.93744],[9.297725,44.92862],[9.298426,44.92008],[9.288736,44.90087],[9.298767,44.88323],[9.311051,44.88058],[9.323632,44.88463],[9.331782,44.87573],[9.346194,44.87286],[9.351808,44.84316],[9.365864,44.82364],[9.360112,44.81115],[9.328158,44.79676],[9.319942,44.78137],[9.293713,44.77087],[9.289783,44.7657],[9.292607,44.75961],[9.324739,44.74694],[9.337566,44.73707],[9.31657,44.70743],[9.319381,44.70024],[9.328624,44.69611],[9.328938,44.68985],[9.321875,44.68518],[9.307148,44.68362],[9.297147,44.67633],[9.282413,44.6762],[9.274255,44.68045],[9.25974,44.67653],[9.24955,44.68668],[9.225559,44.67966],[9.207058,44.68079],[9.204622,44.67706],[9.210088,44.66199],[9.20334,44.64651],[9.205373,44.62133],[9.243923,44.62308],[9.253921,44.6168],[9.259201,44.60404],[9.273679,44.60028],[9.280478,44.60231],[9.286352,44.61254],[9.302101,44.6112],[9.343335,44.58389],[9.361022,44.5887],[9.378573,44.58385],[9.387005,44.59309],[9.397732,44.5934],[9.40694,44.60435],[9.422077,44.59757],[9.425659,44.58116],[9.437497,44.57387],[9.45173,44.5761],[9.458305,44.56879],[9.472398,44.56962],[9.492403,44.56234],[9.496948,44.55662],[9.494829,44.54675],[9.508325,44.52967],[9.505743,44.51177],[9.499088,44.49967],[9.500221,44.48145],[9.476782,44.47569],[9.475052,44.46711],[9.464745,44.45583],[9.461557,44.44071],[9.446445,44.43255],[9.445269,44.423],[9.469878,44.42865],[9.480308,44.42127],[9.517072,44.43182],[9.544542,44.43163],[9.551523,44.44127],[9.559262,44.44319],[9.585639,44.43477],[9.606796,44.43635],[9.638955,44.41855],[9.658367,44.41564],[9.667978,44.40204],[9.680031,44.3683],[9.710526,44.36975],[9.721178,44.35919],[9.732908,44.3344],[9.75615,44.32683],[9.77137,44.3093],[9.80523,44.28912],[9.817199,44.29049],[9.858386,44.27119],[9.865884,44.25252],[9.865387,44.23909],[9.879995,44.22558],[9.870313,44.20658],[9.8717,44.20165],[9.890831,44.21202],[9.910558,44.21426],[9.915604,44.2059],[9.930167,44.20334],[9.937978,44.19673],[9.923906,44.18934],[9.915033,44.17881],[9.915995,44.17489],[9.92983,44.17078],[9.969324,44.17377],[9.975969,44.17004],[9.982352,44.16101],[9.986709,44.12864],[9.998011,44.12125],[10.00043,44.11435],[10.01651,44.12266],[10.02988,44.12277],[10.04853,44.11901],[10.07195,44.1027],[10.07536,44.09289],[10.06702,44.07981],[10.03433,44.05946],[10.02332,44.0444],[9.949801,43.88412],[7.729716,43.48231],[7.639202096884099,43.48162470158529],[7.70049,43.54537],[7.748528,43.72428],[7.534675,43.77821],[7.503786,43.8704],[7.565829,43.89753],[7.580754,43.94251],[7.651235,43.96522],[7.731295,44.07925],[7.680372,44.1235],[7.689757,44.18558],[7.628561,44.17919],[7.623408,44.16728],[7.360254,44.12652],[7.347362,44.14755],[7.296657,44.14937],[7.188148,44.20436],[7.100105,44.22949],[7.00962,44.24643],[7.001151,44.28406],[6.901817,44.37246],[6.954603,44.4281],[6.859932,44.5298],[6.929081,44.56146],[6.976129,44.62322],[6.954428,44.65258],[6.984578,44.68155],[7.082193,44.67768],[7.069489,44.71579],[7.043637,44.72277],[7.027325,44.83719],[6.930832,44.86853],[6.90921,44.85059],[6.787871,44.89831],[6.753322,45.02224],[6.681253,45.02691],[6.664861,45.07298],[6.639546,45.09804],[6.646699477787177,45.100582599670766],[6.646707,45.10058],[6.78635,45.15017],[6.847371,45.1246],[6.895852,45.13346],[6.951246,45.16805],[6.980034,45.20287],[7.080046,45.20884],[7.144923,45.25531],[7.139578,45.30455],[7.19206,45.40674],[7.110975,45.47131],[7.009821,45.52013],[7.012493,45.64465],[6.829337,45.71123],[6.82003,45.81591],[6.940965,45.83551],[7.05783130876955,45.89950696774211],[7.088965,45.87097],[7.095966,45.85654],[7.118827,45.85658],[7.137706,45.87037],[7.155891,45.87623],[7.165681,45.86152],[7.192356,45.8567],[7.203583,45.86203],[7.21893,45.88623],[7.270316,45.88654],[7.292965,45.91802],[7.323472,45.90724],[7.387613,45.89465],[7.425852,45.91153],[7.446415,45.92959],[7.476746,45.93392],[7.475733,45.94714],[7.501282,45.95596],[7.542351,45.95184],[7.550099,45.9626],[7.549411,45.98323],[7.577377,45.9847],[7.578641,45.96809],[7.640698,45.96828],[7.664172,45.97348],[7.681002,45.95544],[7.707889,45.94787],[7.704959,45.93312],[7.720654,45.92168],[7.736803,45.92079],[7.749536,45.93763],[7.799129,45.91421],[7.863667,45.91372],[7.87983,45.92597],[7.885976,45.9697],[7.917933,45.99383],[7.992566,45.99281],[8.01539,46.01072],[8.020875,46.02554],[8.038624,46.04368],[8.026487,46.07073],[8.036897,46.09853],[8.109054,46.10719],[8.125478,46.13089],[8.145518,46.13486],[8.157028,46.14516],[8.154069,46.16256],[8.168449,46.17613],[8.169682,46.1828],[8.157184,46.19413],[8.142656,46.22856],[8.118654,46.24021],[8.112681,46.25286],[8.085318,46.26056],[8.139924,46.29972],[8.16627,46.29319],[8.205724,46.30257],[8.215202,46.30828],[8.234367,46.3344],[8.264953,46.34402],[8.269609,46.35362],[8.315171,46.3753],[8.322723,46.38665],[8.31921,46.40465],[8.295392,46.4099],[8.339306,46.42978],[8.366422,46.44917],[8.39498,46.45022],[8.409321,46.45664],[8.446124,46.46165],[8.453358,46.42235],[8.463592,46.41407],[8.456898,46.38685],[8.463421,46.3801],[8.460117,46.35435],[8.461189,46.33519],[8.44162,46.32097],[8.423252,46.29642],[8.452715,46.26615],[8.440966,46.25602],[8.442086,46.24898],[8.463768,46.24284],[8.464794,46.23187],[8.526249,46.2156],[8.539598,46.19653],[8.551998,46.18589],[8.572699,46.16316],[8.594055,46.15189],[8.58839,46.14381],[8.605041,46.13262],[8.608646,46.11966],[8.647466,46.121],[8.65551,46.11073],[8.683662,46.10073],[8.715844,46.09596],[8.743103,46.11908],[8.758843,46.099],[8.784613,46.09187],[8.801815,46.09266],[8.850854,46.07359],[8.790281,46.00796],[8.78402,45.98766],[8.830543,45.98497],[8.844852,45.97528],[8.858457,45.96663],[8.867683,45.95995],[8.874378,45.95843],[8.877854,45.95554],[8.893829,45.95609],[8.894119,45.94506],[8.888969,45.93348],[8.904762,45.91641],[8.920555,45.90446],[8.920383,45.89525],[8.927082,45.88968],[8.934444,45.86567],[8.912056,45.84451],[8.910245,45.82821],[8.930597,45.83311],[8.951025,45.84154],[8.968964,45.82988],[8.986645,45.83669],[8.994198,45.83209],[8.99085,45.82114],[9.016428,45.81642],[9.035826,45.82001],[9.038701,45.83565],[9.040675,45.84396],[9.053078,45.85158],[9.05797,45.87334],[9.067583,45.87459],[9.078913,45.88242],[9.091272,45.89736],[9.089899,45.90339],[9.078418,45.91356],[9.06245,45.91818],[9.061309,45.92347],[9.023447,45.93206],[9.024888,45.93935],[9.016799,45.94369],[9.020121,45.94896],[9.016357,45.9622],[8.996138,45.96899],[8.998826,45.97716],[9.009438,45.97767],[9.014172,45.98492],[9.031479,45.99247],[9.0252,46.01803],[9.012167,46.02862],[9.012299,46.0357],[9.021443,46.04873],[9.050129,46.05945],[9.078476,46.06164],[9.081595,46.07398],[9.092628,46.08737],[9.07627,46.11663],[9.122415,46.13204],[9.136728,46.15092],[9.158572,46.15975],[9.162664,46.16803],[9.185391,46.16798],[9.197359,46.17826],[9.204479,46.20606],[9.221,46.21232],[9.224499,46.22661],[9.251019,46.23241],[9.255164,46.26546],[9.262438,46.27683],[9.287026,46.29508],[9.285381,46.30909],[9.297138,46.31558],[9.302878,46.32617],[9.295225,46.33606],[9.302889,46.34309],[9.298813,46.35713],[9.284388,46.3607],[9.280019,46.36952],[9.287417,46.3854],[9.27962,46.39443],[9.285434,46.40438],[9.283557,46.41444],[9.250948,46.4356],[9.252829,46.4464],[9.267423,46.44879],[9.280879,46.46019],[9.276819,46.46671],[9.277932,46.48275],[9.284334,46.49389],[9.311349,46.50104],[9.355661,46.5013],[9.363269,46.50613],[9.370222,46.50165],[9.365526,46.49326],[9.374412,46.48244],[9.382465,46.47981],[9.388385,46.47051],[9.409544,46.46382],[9.426506,46.47422],[9.428244,46.48815],[9.436941,46.49582],[9.45818,46.50447],[9.458001,46.4876],[9.446125,46.48434],[9.448212,46.47736],[9.460635,46.47741],[9.462119,46.46902],[9.456353,46.46422],[9.457177,46.44301],[9.45144,46.42054],[9.463587,46.39664],[9.458488,46.37477],[9.494331,46.36207],[9.516129,46.32519],[9.548402,46.29966],[9.557763,46.30348],[9.578475,46.29228],[9.608367,46.29133],[9.617791,46.28462],[9.634027,46.28322],[9.670548,46.29348],[9.675687,46.29948],[9.688016,46.29064],[9.710104,46.28905],[9.715754,46.29086],[9.727222,46.30883],[9.728976,46.32017],[9.720634,46.32408],[9.729796,46.33139],[9.727196,46.34089],[9.737432,46.34756],[9.777525,46.3319],[9.821065,46.3478],[9.834166,46.35794],[9.869326,46.35955],[9.906541,46.37753],[9.925194,46.363],[9.932814,46.36561],[9.935632,46.37203],[9.952891,46.37625],[9.962863,46.36131],[9.98391,46.34908],[9.992149,46.34932],[9.977296,46.32287],[9.996337,46.3109],[9.996499,46.3025],[9.988696,46.29607],[9.993526,46.283],[10.05323,46.26388],[10.05715,46.24997],[10.05124,46.23772],[10.04199,46.23264],[10.04204,46.22736],[10.07031,46.21418],[10.09469,46.2256],[10.13325,46.2222],[10.14773,46.22838],[10.17941,46.25899],[10.15699,46.29407],[10.14242,46.30096],[10.13999,46.3075],[10.11902,46.3161],[10.10817,46.33705],[10.11175,46.34952],[10.13179,46.35943],[10.13077,46.37618],[10.1428,46.38299],[10.16418,46.38567],[10.16856,46.4087],[10.16197,46.41813],[10.15135,46.41673],[10.14446,46.43101],[10.12922,46.43484],[10.11559,46.42884],[10.10689,46.43118],[10.09853,46.42442],[10.08316,46.42464],[10.07762,46.43119],[10.06339,46.42981],[10.05792,46.44331],[10.04389,46.44501],[10.05715,46.4642],[10.05386,46.47383],[10.04579,46.47977],[10.05178,46.49968],[10.04582,46.50749],[10.05391,46.51153],[10.05679,46.51879],[10.05612,46.53297],[10.04691,46.53911],[10.07015,46.54818],[10.07421,46.55703],[10.08787,46.56562],[10.08425,46.57249],[10.09672,46.57456],[10.10306,46.58087],[10.1003,46.59453],[10.10428,46.60773],[10.12817,46.60229],[10.18916,46.62247],[10.21568,46.61448],[10.22607,46.62663],[10.23711,46.63135],[10.25406,46.61086],[10.23746,46.59292],[10.24398,46.57336],[10.25404,46.56851],[10.26869,46.57435],[10.28514,46.56782],[10.29548,46.54713],[10.31211,46.54387],[10.32572,46.5484],[10.33852,46.5399],[10.35344,46.55247],[10.39682,46.54102],[10.41792,46.54817],[10.45263,46.52713],[10.456206870873238,46.530993280915865],[10.46113,46.51427]]]}}
