{"type":"Feature","properties":{"sourceId":"nord-est"},"geometry":{"type":"Polygon","coordinates":[[[12.75557,43.97086],[12.75787,43.96094],[12.74875,43.94416],[12.73202,43.92309],[12.73165,43.90855],[12.73727,43.89592],[12.72943,43.88784],[12.72733,43.88153],[12.73525,43.87313],[12.73561,43.86833],[12.72494,43.859],[12.70525,43.85627],[12.69811,43.8506],[12.68622,43.84899],[12.68158,43.8385],[12.68533,43.82745],[12.67469,43.82162],[12.64587,43.82407],[12.6306,43.81875],[12.62257,43.81879],[12.60877,43.82964],[12.60749,43.84063],[12.59867,43.84982],[12.59911,43.85887],[12.58727,43.86397],[12.58927,43.8725],[12.58532,43.88048],[12.57214,43.88112],[12.56803,43.87835],[12.56376,43.86764],[12.54107,43.86166],[12.53279,43.86713],[12.52775,43.87672],[12.52879,43.88431],[12.53576,43.88748],[12.53364,43.89439],[12.51933,43.8964],[12.50066,43.91095],[12.49082,43.91418],[12.49149,43.92066],[12.50158,43.92772],[12.51248,43.94294],[12.50403,43.9573],[12.50358,43.97178],[12.50849,43.97776],[12.50671,43.98408],[12.50285,43.98466],[12.47089,43.97519],[12.44823,43.96334],[12.4374,43.95437],[12.42169,43.95442],[12.40872,43.94774],[12.40886,43.94359],[12.41414,43.93908],[12.41779,43.93098],[12.4119,43.92114],[12.41478,43.90454],[12.41999,43.89923],[12.42552,43.88449],[12.43417,43.87708],[12.43375,43.87064],[12.42076,43.86963],[12.4081,43.87309],[12.39969,43.87049],[12.38983,43.88075],[12.35659,43.87066],[12.34971,43.8636],[12.34987,43.84882],[12.3402,43.83396],[12.33758,43.82277],[12.32113,43.81305],[12.31601,43.80236],[12.29182,43.79247],[12.28984,43.76958],[12.28534,43.76304],[12.26067,43.7572],[12.25585,43.75113],[12.24677,43.74872],[12.24071,43.74904],[12.23089,43.75596],[12.2148,43.75467],[12.21053,43.74782],[12.20454,43.74472],[12.20104,43.73553],[12.19372,43.72977],[12.17128,43.74544],[12.16099,43.75829],[12.14311,43.75029],[12.12599,43.7468],[12.10685,43.75047],[12.07671,43.73802],[12.06356,43.74059],[12.05783,43.75058],[12.05116,43.75422],[12.04178,43.75141],[12.02881,43.75814],[12.01864,43.75843],[12.00533,43.76315],[11.98438,43.75999],[11.95217,43.7739],[11.94635,43.7877],[11.91721,43.79166],[11.91058,43.79819],[11.90859,43.80866],[11.89656,43.80528],[11.88538,43.80566],[11.86564,43.81357],[11.85591,43.81248],[11.85005,43.80627],[11.83978,43.80582],[11.81619,43.81502],[11.81154,43.82278],[11.7912,43.83458],[11.78372,43.84488],[11.73115,43.86097],[11.72002,43.87206],[11.70895,43.87532],[11.70568,43.88773],[11.71223,43.90224],[11.71023,43.91197],[11.71246,43.91971],[11.68355,43.93246],[11.67993,43.93852],[11.68756,43.95184],[11.68689,43.95572],[11.6702,43.96442],[11.66327,43.97129],[11.65229,43.97344],[11.64313,43.99039],[11.64819,43.99859],[11.64654,44.00624],[11.65596,44.00969],[11.65456,44.01891],[11.66265,44.02291],[11.68031,44.02519],[11.69068,44.03603],[11.69461,44.05341],[11.70828,44.06901],[11.7325,44.08814],[11.7373,44.09983],[11.74578,44.10655],[11.74754,44.1207],[11.74202,44.12315],[11.70358,44.11723],[11.68259,44.11935],[11.6771,44.11161],[11.64906,44.09665],[11.6372,44.10915],[11.61351,44.11664],[11.60104,44.11583],[11.58411,44.1098],[11.58135,44.11631],[11.58546,44.12462],[11.59748,44.12813],[11.60204,44.14039],[11.61374,44.14603],[11.61074,44.15641],[11.6021,44.15442],[11.58985,44.1589],[11.57395,44.15806],[11.56741,44.16381],[11.5626,44.16453],[11.55719,44.16271],[11.5534,44.1564],[11.5441,44.1501],[11.52863,44.15502],[11.52073,44.15322],[11.51404,44.15595],[11.51042,44.16067],[11.50257,44.16001],[11.48172,44.17456],[11.47787,44.18084],[11.45663,44.1863],[11.44382,44.20135],[11.44977,44.21265],[11.44724,44.21991],[11.42373,44.23308],[11.41668,44.23127],[11.39892,44.21922],[11.39144,44.21062],[11.38907,44.20334],[11.38133,44.19765],[11.34387,44.2022],[11.33257,44.19672],[11.32737,44.19202],[11.32448,44.17918],[11.29023,44.16172],[11.2818,44.15146],[11.27071,44.15632],[11.24044,44.15631],[11.21549,44.14787],[11.20398,44.14784],[11.20349,44.14255],[11.22062,44.13125],[11.22886,44.13051],[11.25186,44.11862],[11.2619,44.11758],[11.26599,44.10331],[11.25513,44.10141],[11.24787,44.09504],[11.22802,44.09929],[11.20876,44.09647],[11.15864,44.10963],[11.13931,44.1053],[11.12761,44.10595],[11.1036,44.09673],[11.08993,44.08753],[11.07321,44.08947],[11.04904,44.08789],[11.04097,44.09355],[11.0225,44.09504],[11.01842,44.09992],[11.01154,44.10142],[11.00041,44.10927],[11.00265,44.12277],[11.01209,44.1278],[11.01088,44.13381],[11.00555,44.13546],[10.99948,44.1337],[10.99585,44.12776],[10.97486,44.11494],[10.97198,44.10565],[10.95664,44.08729],[10.94463,44.07862],[10.92982,44.07314],[10.91909,44.06064],[10.90957,44.06],[10.89721,44.06436],[10.90105,44.0811],[10.88913,44.09099],[10.8749,44.0973],[10.84864,44.09555],[10.8434,44.10064],[10.84242,44.10583],[10.83304,44.11206],[10.81784,44.10986],[10.80249,44.11704],[10.79467,44.12469],[10.77284,44.13204],[10.75579,44.15048],[10.73435,44.15406],[10.70863,44.15228],[10.69055,44.15468],[10.6657,44.14912],[10.65668,44.15333],[10.6404,44.15451],[10.63511,44.14388],[10.62669,44.13794],[10.62605,44.11841],[10.61619,44.11746],[10.60362,44.11181],[10.5939,44.11233],[10.58325,44.11685],[10.57665,44.12837],[10.56638,44.13531],[10.52343,44.15515],[10.51717,44.1663],[10.51994,44.17236],[10.51639,44.17845],[10.48739,44.19598],[10.48296,44.20491],[10.48714,44.2146],[10.48379,44.2199],[10.47303,44.22172],[10.46302,44.22731],[10.44608,44.22652],[10.43796,44.22315],[10.42968,44.2246],[10.4123,44.23344],[10.40482,44.24642],[10.3817,44.25845],[10.37358,44.26637],[10.35987,44.26911],[10.34365,44.26696],[10.3169,44.27325],[10.3048,44.28212],[10.29754,44.28291],[10.27091,44.27155],[10.25367,44.26741],[10.23648,44.28059],[10.22624,44.29731],[10.21913,44.30138],[10.20988,44.3001],[10.19696,44.31225],[10.18809,44.31359],[10.16186,44.33348],[10.16015,44.34248],[10.14775,44.34985],[10.12971,44.35208],[10.10753,44.34831],[10.09958,44.34311],[10.09008,44.35006],[10.06447,44.36157],[10.05512,44.36899],[10.0427,44.3712],[10.03267,44.37749],[10.00766,44.38652],[9.994252,44.39572],[9.98757,44.4041],[9.989261,44.41086],[9.998198,44.42088],[10.00217,44.42966],[9.998804,44.44135],[9.976115,44.44444],[9.969702,44.45009],[9.96572,44.46043],[9.959402,44.46445],[9.924035,44.46982],[9.909483,44.46586],[9.898762,44.46917],[9.876758,44.46672],[9.861298,44.46858],[9.822265,44.46442],[9.819348,44.46121],[9.817678,44.44992],[9.800573,44.44181],[9.77489,44.41505],[9.758245,44.40351],[9.757367,44.39693],[9.762259,44.39124],[9.761683,44.38792],[9.749097,44.38629],[9.743699,44.37802],[9.717282,44.37975],[9.696686250179907,44.369091936801475],[9.680031,44.3683],[9.667978,44.40204],[9.658367,44.41564],[9.638955,44.41855],[9.606796,44.43635],[9.585639,44.43477],[9.559262,44.44319],[9.551523,44.44127],[9.544542,44.43163],[9.517072,44.43182],[9.480308,44.42127],[9.469878,44.42865],[9.445269,44.423],[9.446445,44.43255],[9.461557,44.44071],[9.464745,44.45583],[9.475052,44.46711],[9.476782,44.47569],[9.500221,44.48145],[9.499088,44.49967],[9.505743,44.51177],[9.508325,44.52967],[9.494829,44.54675],[9.496948,44.55662],[9.492403,44.56234],[9.472398,44.56962],[9.458305,44.56879],[9.45173,44.5761],[9.437497,44.57387],[9.425659,44.58116],[9.422077,44.59757],[9.40694,44.60435],[9.397732,44.5934],[9.387005,44.59309],[9.378573,44.58385],[9.361022,44.5887],[9.343335,44.58389],[9.302101,44.6112],[9.286352,44.61254],[9.280478,44.60231],[9.273679,44.60028],[9.259201,44.60404],[9.253921,44.6168],[9.243923,44.62308],[9.205373,44.62133],[9.20334,44.64651],[9.210088,44.66199],[9.204622,44.67706],[9.207058,44.68079],[9.225559,44.67966],[9.24955,44.68668],[9.25974,44.67653],[9.274255,44.68045],[9.282413,44.6762],[9.297147,44.67633],[9.307148,44.68362],[9.321875,44.68518],[9.328938,44.68985],[9.328624,44.69611],[9.319381,44.70024],[9.31657,44.70743],[9.337566,44.73707],[9.324739,44.74694],[9.292607,44.75961],[9.289783,44.7657],[9.293713,44.77087],[9.319942,44.78137],[9.328158,44.79676],[9.360112,44.81115],[9.365864,44.82364],[9.351808,44.84316],[9.346194,44.87286],[9.331782,44.87573],[9.323632,44.88463],[9.311051,44.88058],[9.298767,44.88323],[9.288736,44.90087],[9.298426,44.92008],[9.297725,44.92862],[9.32088,44.93744],[9.32937,44.95513],[9.341595,44.96343],[9.339571,44.97176],[9.348569,44.99133],[9.363713,44.99633],[9.374788,45.00833],[9.379574,45.01817],[9.375253,45.02584],[9.380395,45.03985],[9.379418,45.04995],[9.401945,45.06745],[9.416289,45.07189],[9.421383,45.07899],[9.436826,45.07877],[9.446029,45.08961],[9.47012,45.09168],[9.497097,45.09968],[9.509772,45.09297],[9.520871,45.07702],[9.532789,45.07503],[9.546012,45.08116],[9.554203,45.09097],[9.540976,45.11994],[9.545396,45.12891],[9.5537,45.1264],[9.566015,45.10816],[9.588777,45.09688],[9.613701,45.10764],[9.624322,45.12974],[9.636693,45.12019],[9.628643,45.08978],[9.639683,45.07873],[9.665369,45.07808],[9.689564,45.06478],[9.712581,45.05599],[9.722308,45.05621],[9.754554,45.07802],[9.757887,45.0876],[9.752101,45.10502],[9.756036,45.10851],[9.766652,45.1031],[9.779137,45.08656],[9.811171,45.07509],[9.814434,45.05344],[9.825724,45.04991],[9.838658,45.06242],[9.840311,45.07256],[9.83659,45.08583],[9.841363,45.09258],[9.862298,45.08971],[9.881071,45.07199],[9.900637,45.07925],[9.905312,45.09729],[9.881855,45.11965],[9.88585,45.12443],[9.914644,45.13518],[9.922395,45.1323],[9.923596,45.12729],[9.91073,45.10514],[9.914516,45.0981],[9.921517,45.09664],[9.942967,45.10407],[9.973783,45.12877],[9.983586,45.12968],[9.993951,45.12335],[10.02379,45.09423],[10.0189,45.07078],[10.04364,45.05555],[10.04737,45.03947],[10.05682,45.03733],[10.07732,45.04092],[10.08203,45.02988],[10.09381,45.01954],[10.10909,45.01905],[10.14392,45.02934],[10.15922,45.03931],[10.16811,45.03774],[10.17149,45.02907],[10.18592,45.02432],[10.21377,45.02814],[10.25102,45.01505],[10.26298,45.00103],[10.27534,44.99403],[10.30166,44.99585],[10.31226,44.97944],[10.35867,44.96189],[10.37007,44.96264],[10.39142,44.9779],[10.41075,44.97707],[10.42303,44.96595],[10.43018,44.94628],[10.4427,44.93802],[10.46758,44.93324],[10.52,44.90999],[10.56615,44.90656],[10.62891,44.91924],[10.66944,44.9662],[10.6823,44.97295],[10.68958,44.9588],[10.69728,44.95853],[10.71394,44.97106],[10.71697,44.98231],[10.72393,44.98564],[10.73702,44.97773],[10.74241,44.96257],[10.73898,44.95407],[10.74203,44.94546],[10.79615,44.93557],[10.80694,44.93019],[10.83524,44.92917],[10.84734,44.92104],[10.85903,44.92226],[10.89151,44.90968],[10.91605,44.92],[10.94408,44.91956],[11.00091,44.95178],[11.04705,44.94888],[11.05866,44.94441],[11.07484,44.95666],[11.10495,44.955],[11.11947,44.95072],[11.15341,44.93046],[11.24829,44.94485],[11.27276,44.93439],[11.28682,44.95077],[11.32409,44.95727],[11.3578,44.94553],[11.37748,44.95399],[11.39256,44.95124],[11.40129,44.94398],[11.42841,44.94563],[11.43336,44.95413],[11.42501,44.96695],[11.4174,44.97084],[11.39768,44.9735],[11.33372,44.99551],[11.30599,45.01951],[11.27931,45.02219],[11.27077,45.03543],[11.28248,45.04665],[11.26763,45.05801],[11.23657,45.04969],[11.21068,45.06276],[11.18057,45.06603],[11.17934,45.07137],[11.19256,45.08323],[11.18546,45.0948],[11.20828,45.10694],[11.20592,45.11527],[11.18736,45.11561],[11.14707,45.13066],[11.13678,45.12688],[11.12856,45.10905],[11.11598,45.11004],[11.10194,45.11761],[11.08809,45.10241],[11.0726,45.10462],[11.04417,45.11688],[11.03735,45.12486],[11.04789,45.13322],[11.05499,45.14923],[11.05279,45.15459],[11.02361,45.16023],[11.01164,45.15439],[11.00387,45.15534],[11.00168,45.18607],[10.99458,45.19741],[10.96853,45.21032],[10.95047,45.21141],[10.93743,45.21856],[10.9382,45.23622],[10.90742,45.24176],[10.89962,45.25119],[10.84893,45.26227],[10.8324,45.28728],[10.78382,45.31932],[10.738,45.29405],[10.73464,45.31888],[10.71979,45.32451],[10.71565,45.33798],[10.69407,45.34674],[10.69481,45.35085],[10.71786,45.36643],[10.70806,45.37661],[10.72044,45.39501],[10.72269,45.407],[10.71428,45.42189],[10.66446,45.43233],[10.65683,45.43003],[10.65273,45.434],[10.65174,45.44931],[10.64686,45.45902],[10.64252,45.51951],[10.63457,45.54875],[10.63263,45.60531],[10.72331,45.69067],[10.81402,45.79802],[10.83517,45.81475],[10.84494,45.83505],[10.82397,45.84163],[10.7909,45.83878],[10.77564,45.84683],[10.75518,45.84012],[10.73689,45.84616],[10.71236,45.84083],[10.69846,45.84536],[10.67732,45.83533],[10.65101,45.83574],[10.65065,45.82472],[10.64168,45.80835],[10.63433,45.81076],[10.60096,45.80697],[10.5753,45.7916],[10.55944,45.78781],[10.54333,45.78984],[10.53853,45.79507],[10.53922,45.80666],[10.54752,45.81502],[10.54524,45.82163],[10.52926,45.83043],[10.50795,45.83166],[10.51167,45.84096],[10.50614,45.86112],[10.50793,45.8749],[10.4977,45.88629],[10.51133,45.90401],[10.51264,45.92351],[10.49756,45.93478],[10.48933,45.94808],[10.4937,45.96187],[10.49157,45.9742],[10.45938,45.979],[10.45686,45.98608],[10.464,46.00988],[10.47198,46.01644],[10.48412,46.0179],[10.4886,46.02383],[10.48744,46.05434],[10.49484,46.0637],[10.51899,46.07655],[10.54409,46.10036],[10.5524,46.11451],[10.55347,46.14162],[10.56915,46.1669],[10.54945,46.19181],[10.55447,46.20372],[10.57356,46.2196],[10.57536,46.23283],[10.58949,46.24565],[10.5795,46.27647],[10.56898,46.28362],[10.58326,46.29929],[10.56915,46.31601],[10.56883,46.32834],[10.53478,46.34327],[10.53254,46.34798],[10.54343,46.35247],[10.54941,46.36203],[10.56676,46.37231],[10.60868,46.37585],[10.6359,46.4004],[10.63334,46.41003],[10.62663,46.41334],[10.62181,46.42274],[10.62555,46.44906],[10.60801,46.46278],[10.6032,46.47144],[10.57773,46.47779],[10.55254,46.4954],[10.49391,46.50198],[10.48161,46.49924],[10.46113,46.51427],[10.456206870873238,46.530993280915865],[10.46362,46.539],[10.47478,46.54132],[10.48134,46.55724],[10.47879,46.56629],[10.48952,46.58571],[10.48832,46.60473],[10.49584,46.61746],[10.44758,46.64491],[10.40549,46.6399],[10.39032,46.68178],[10.40559,46.70317],[10.41622,46.70557],[10.42138,46.71411],[10.42164,46.72056],[10.40636,46.73328],[10.44651,46.75394],[10.44563,46.77341],[10.42946,46.7901],[10.43267,46.79491],[10.45114,46.79986],[10.46179,46.81594],[10.46187,46.82918],[10.47255,46.84745],[10.473192922893288,46.85882928561478],[10.55374,46.85327],[10.66549,46.88343],[10.76849,46.8299],[10.81621,46.78372],[11.02135,46.78196],[11.10117,46.93679],[11.15662,46.96877],[11.31884,46.99688],[11.479,47.01584],[11.62577,47.0183],[11.81923,46.99758],[11.92223,47.04088],[12.18109,47.10005],[12.24495,47.08555],[12.24838,47.06895],[12.21233,47.02427],[12.13062,47.00835],[12.17457,46.94604],[12.21542,46.89352],[12.27482,46.89375],[12.31396,46.84329],[12.29542,46.79207],[12.36065,46.77843],[12.3864,46.72127],[12.56046,46.67064],[12.78362,46.65297],[13.09296,46.60818],[13.1702,46.59214],[13.2405,46.56352],[13.28788,46.56287],[13.37156,46.58164],[13.50992,46.56783],[13.62837,46.54481],[13.64811,46.53501],[13.72845,46.53005],[13.726405555240893,46.524102524337145],[13.71197,46.52509],[13.69858,46.49816],[13.68279,46.4459],[13.65154,46.44921],[13.59558,46.44212],[13.57361,46.42934],[13.56331,46.40449],[13.49739,46.37749],[13.43319,46.36233],[13.43253,46.33298],[13.40298,46.30781],[13.37002,46.29927],[13.4033,46.23295],[13.40163,46.21092],[13.42083,46.20146],[13.46889,46.22023],[13.54533,46.20169],[13.56812,46.18197],[13.61446,46.18245],[13.63472,46.18696],[13.65635,46.18197],[13.64948,46.15487],[13.62408,46.1306],[13.56983,46.09823],[13.49499,46.06275],[13.4919,46.04679],[13.50288,46.03678],[13.46815,46.00319],[13.49773,45.97859],[13.53447,45.96141],[13.56674,45.9638],[13.59043,45.98408],[13.63472,45.97621],[13.62923,45.95091],[13.63541,45.93659],[13.6203,45.92345],[13.61,45.90984],[13.58185,45.88356],[13.56949,45.84219],[13.59146,45.80511],[13.62511,45.7941],[13.65738,45.79554],[13.74218,45.75267],[13.78613,45.74333],[13.80501,45.72464],[13.83076,45.70618],[13.82973,45.68604],[13.86166,45.66013],[13.8929,45.64333],[13.9135,45.63253],[13.86612,45.6114],[13.86372,45.60059],[13.84998,45.5929],[13.839,45.58449],[13.80741,45.58377],[13.78235,45.58713],[13.74802,45.60011],[13.71986,45.59819],[13.63399,45.64695],[13.30509,45.57884],[13.427706442249747,45.53607581507988],[13.00979,44.76851],[13.26463,44.55021],[12.90975,44.08114],[12.75557,43.97086]]]}}
