{"type":"Feature","properties":{"sourceId":"northwestern-fed-district"},"geometry":{"type":"Polygon","coordinates":[[[61.16328,70.87062],[64.19994942186743,69.86694725198447],[64.88352,69.52718],[65.00521,69.32176],[64.4891,69.10373],[64.47668,68.82728],[65.25469,68.71328],[65.46517,68.54267],[65.19543,68.27873],[65.23813,67.97666],[65.39363,67.82627],[65.9452,67.85166],[65.94355,67.75909],[65.71293,67.68824],[65.74563,67.47965],[65.12938,67.22408],[64.99953,66.96246],[63.36397,66.53929],[62.69752,65.95179],[61.81558,65.76644],[60.91662,65.11563],[60.64948,65.0188],[60.40207,65.16129],[59.98721,65.10577],[59.56258,64.86911],[59.53366,64.68093],[59.39073,64.55651],[59.41045,64.42355],[59.52665,64.39852],[59.47935,64.19836],[59.66542,64.04733],[59.48606,63.9596],[59.11398,63.04299],[59.34238,62.84608],[59.27839,62.7116],[59.49921,62.4542],[59.31074,62.17285],[59.34774,61.98399],[59.22559,61.80478],[59.2586435588669,61.69603053969465],[59.33542,61.71971],[58.79593,61.55332],[56.63603,61.5783],[56.5222,61.48509],[56.34146,61.48651],[56.24198,61.25898],[55.82489,61.30374],[55.69363,61.16278],[55.25937,61.20319],[55.16828,61.06311],[55.01284,61.05218],[54.93794,60.92664],[53.88794,61.03967],[53.77248,60.90454],[53.66676,60.90523],[53.45876,60.93291],[53.4153,61.0914],[52.88187,61.14731],[52.76616,61.00585],[52.4156,61.03115],[52.31549,60.89611],[51.87459,60.93541],[51.72583,60.5464],[52.07546,60.48974],[52.09452,60.41612],[52.27,60.38416],[52.28935,60.3234],[51.96389,60.33671],[51.47343,59.98205],[51.15817,60.10345],[51.00605,60.07289],[50.80971,59.921],[50.38083,59.89294],[50.20892,59.80794],[49.97205,59.82451],[49.91982,59.70869],[49.80662,59.67549],[49.74173,59.48159],[49.79065,59.31563],[49.71702,59.25965],[49.59645,59.28117],[49.59743,59.44385],[49.13732,59.56326],[49.12808,59.712],[48.57314,59.77696],[48.53782,60.13398],[48.80174,60.26912],[48.84171,60.35287],[48.5821,60.50929],[48.61243,60.57493],[48.45286,60.88279],[48.02657,60.93508],[47.90485,61.07242],[47.15516,61.10864],[46.93041,60.74199],[46.93235,60.59078],[46.71315,60.39904],[46.73609,60.30274],[46.26728,60.30816],[46.21051,60.21544],[46.39716,60.0451],[46.77602,59.98415],[46.94672,60.05646],[46.86967,59.74732],[47.07921,59.67209],[47.070042516855224,59.63304231376728],[46.39563,59.6533],[46.33801,59.39441],[46.00675,59.35853],[45.94067,59.2157],[45.34661,59.25372],[45.04369,59.23333],[44.99089,59.1631],[44.3537,59.18075],[44.18006,59.27266],[43.96861,59.24782],[43.76662,59.30613],[43.5813,59.24909],[43.50895,59.34254],[43.30426,59.27392],[43.14119,59.32937],[43.02427,59.24508],[42.80426,59.21657],[42.64727,59.36383],[42.49983,59.37435],[42.30405,59.3115],[42.24439,59.34567],[42.23191,59.44233],[42.02744,59.46576],[41.85683,59.29122],[42.04715,59.20916],[42.00313,59.14664],[41.72761,59.14801],[41.3604,59.00826],[41.24605,59.02253],[41.13722,58.94522],[41.16727,58.85814],[41.12054,58.80965],[41.16673,58.74187],[41.13013,58.69307],[40.96273,58.62143],[40.67725,58.63151],[40.44114,58.5797],[40.20549,58.59016],[40.03719,58.77385],[39.89076,58.79151],[39.81211,58.86918],[39.61453,58.94009],[39.4865,58.9211],[39.12757,58.98777],[38.92456,58.97147],[38.89185,58.88415],[38.94244,58.85145],[38.87783,58.77423],[38.6958,58.83817],[38.65334,58.79478],[38.54664,58.80813],[38.4831,58.74317],[38.04883,58.76485],[37.87882,58.64994],[37.68887,58.6545],[37.63468,58.52963],[37.43014,58.61988],[37.19276,58.86277],[37.08063,58.89964],[36.85317,58.87408],[36.74418,58.83083],[36.74638,58.75392],[36.64294,58.73229],[36.47492,58.56397],[36.0889,58.5403],[35.85933,58.4584],[35.64605,58.49705],[35.30411,58.44789],[35.21589,58.40257],[35.21705,58.29779],[35.10213,58.25323],[34.79444,58.28278],[34.6769,58.23617],[34.67812,58.1176],[34.17836,58.25005],[33.99496,58.25034],[33.82704,58.18141],[33.69621,58.20612],[33.56599,58.15196],[33.49213,58.06468],[33.63629,57.9169],[33.51722,57.87189],[33.50909,57.76474],[33.28096,57.67498],[33.19063,57.48839],[32.7814,57.50357],[32.35456,57.26789],[32.25023,57.29775],[32.19087,57.22745],[31.93279,57.13626],[31.74684,57.14956],[31.60934,57.02768],[31.39938,56.95495],[30.98942,57.02046],[30.83468,56.85429],[30.69976,56.80453],[30.70329,56.75361],[30.87074,56.61222],[31.00833,56.60721],[30.96972,56.45285],[31.1744,56.3939],[31.21635,56.30532],[31.4274,56.26712],[31.44484,56.05578],[31.31302,55.94746],[31.38226,55.77573],[31.02717,55.79559],[30.89839,55.66412],[30.88131288090358,55.63179647474212],[30.84738,55.6374],[30.77579,55.59396],[30.73391,55.66423],[30.63538,55.73223],[30.58886,55.75591],[30.53015,55.75397],[30.52139,55.7981],[30.48243,55.81488],[30.3408,55.83571],[30.28158,55.87107],[30.15644,55.88301],[30.11352,55.83851],[30.0531,55.85759],[29.99748,55.87156],[29.97422,55.8731],[29.95096,55.85672],[29.89483,55.86568],[29.85981,55.85142],[29.81312,55.79839],[29.74857,55.80611],[29.61296,55.78237],[29.52541,55.7186],[29.36954,55.76653],[29.40319,55.84043],[29.48696,55.92035],[29.45641,55.96323],[29.16698,56.02928],[29.07944,56.04232],[28.73749,55.97418],[28.67672,56.07549],[28.69903,56.10613],[28.54557,56.11934],[28.37253,56.11302],[28.33614,56.06648],[28.171708505881096,56.16263138383475],[28.1895,56.17083],[28.25501,56.27762],[28.18748,56.37956],[28.20783,56.40068],[28.20727,56.44774],[28.12951,56.52862],[28.15521,56.55206],[28.15121,56.58357],[28.05664,56.60379],[28.02068,56.68459],[27.92789,56.74977],[27.98815,56.80499],[27.98059,56.84304],[27.91214,56.8347],[27.88605,56.88275],[27.84622,56.8865],[27.6763,56.85544],[27.69479,56.89721],[27.74922,56.91424],[27.783,57.00441],[27.74171,57.02051],[27.78224,57.08453],[27.76701,57.11303],[27.83117,57.1381],[27.88337,57.24445],[27.88066,57.30111],[27.67456,57.40058],[27.54363,57.43753],[27.58082,57.50742],[27.55274,57.55224],[27.352311137345747,57.53647009428783],[27.32998,57.5761],[27.37956,57.59142],[27.40959,57.61128],[27.40531,57.6354],[27.38986,57.6563],[27.38277,57.66828],[27.46181,57.70223],[27.50035,57.70148],[27.52886,57.70563],[27.55033,57.73447],[27.5299,57.7608],[27.51761,57.77457],[27.53973,57.7906],[27.55843,57.81171],[27.55929,57.8266],[27.6347,57.83578],[27.68648,57.83022],[27.74194,57.82283],[27.79798,57.8368],[27.81957,57.85871],[27.82397,57.89104],[27.81856,57.89986],[27.73664,57.90827],[27.68843,57.95698],[27.68652,57.97598],[27.70118,57.98574],[27.70168,58.00337],[27.66332,58.01974],[27.64933,58.02115],[27.63645,58.01286],[27.62064,58.01336],[27.61076,58.05393],[27.63869,58.09982],[27.60555,58.11942],[27.49466,58.22503],[27.51513,58.30815],[27.57565,58.33422],[27.51016,58.7429],[27.72557,58.96435],[27.75083,58.98401],[27.75455,59.02934],[27.77258,59.03137],[27.8143,59.1051],[27.81233,59.12574],[27.86741,59.15659],[27.89151,59.18068],[27.95935,59.26718],[28.06781,59.28867],[28.13395,59.2868],[28.21426,59.36772],[28.21311,59.38583],[28.19842,59.40175],[28.14163,59.42363],[28.11155,59.45067],[27.82958,59.61906],[26.499445683575043,59.98440812105095],[26.644803748361905,60.05692801791511],[26.93167,60.12657],[27.58456,60.19694],[27.74872,60.403],[27.80365,60.53702],[27.85721,60.55728],[27.88193,60.59236],[28.24585,60.7833],[28.53973,60.93844],[28.67157,60.94311],[28.83774,61.11472],[28.9682,61.14721],[29.19342,61.23721],[29.34723,61.33749],[29.62463,61.49256],[30.08056,61.75883],[30.71777,62.19498],[30.96908,62.30497],[31.19568,62.43997],[31.40854,62.66595],[31.48269,62.77421],[31.6159,62.91023],[31.51153,63.01386],[31.2484,63.22168],[30.82755,63.40467],[30.60933,63.44322],[29.98095,63.75448],[30.27351,63.81765],[30.53993,64.04096],[30.57495,64.12598],[30.47767,64.20281],[30.51318,64.21944],[30.49078,64.26305],[30.22821,64.35039],[30.14401,64.35876],[30.08669,64.38943],[30.01828,64.59172],[30.18763,64.63528],[30.05007,64.74339],[30.1094,64.76476],[30.0634,64.79753],[29.69879,64.81915],[29.71596,64.83726],[29.65416,64.87111],[29.63974,65.05244],[29.92882,65.1025],[29.84436,65.14727],[29.90616,65.19254],[29.88968,65.21817],[29.62257,65.2524],[29.76858,65.3341],[29.74367,65.45104],[29.88122,65.56409],[29.74411,65.63506],[30.15404,65.66195],[30.12108,65.79489],[30.084,65.89885],[29.93294,66.13358],[29.72351,66.28012],[29.48387,66.54772],[29.34036,66.66549],[29.06845,66.8716],[29.07257,66.95023],[29.0966,66.99938],[29.65965,67.33378],[29.95903,67.52222],[30.02734,67.68238],[29.33467,68.07471],[28.65979,68.19511],[28.45037,68.5409],[28.5404,68.6031],[28.53859,68.61127],[28.64422,68.66493],[28.72393,68.71912],[28.82205,68.87493],[28.43475,68.90842],[28.91371425016305,69.04548918947235],[29.04211,69.00085],[29.25018,69.10699],[29.25217,69.13689],[29.29877,69.17493],[29.32367,69.2308],[29.28874,69.25801],[29.29489,69.28772],[29.39243,69.31231],[29.56725,69.30705],[29.69873,69.35414],[29.72755,69.37994],[29.86229,69.41407],[29.94226,69.3952],[29.99423,69.4022],[30.11968,69.45945],[30.12869,69.50883],[30.18402,69.52965],[30.19806,69.56676],[30.14449,69.65098],[30.11004,69.65312],[30.15125,69.65922],[30.2371,69.63883],[30.41386,69.58067],[30.5144,69.53055],[30.79754,69.5203],[30.92425,69.54415],[30.95245,69.57328],[30.96241,69.61267],[30.9612,69.64228],[30.94151,69.6638],[30.95392,69.68765],[30.89892,69.71401],[30.89822,69.74459],[30.83304,69.79287],[31.10877,69.97026],[31.5857,70.13405],[33.49617,70.87468],[33.63965,71.59366],[31.950866096552346,71.64680808707773],[32.916209000477004,73.85070119626002],[33.49617,73.89912],[34.296097824778286,77.00100919453853],[36.21036,81.3713],[67.08447,82.54561],[72.62481,76.85117],[61.16328,70.87062]]]}}
