{"type":"Feature","properties":{"sourceId":"niederbayern"},"geometry":{"type":"Polygon","coordinates":[[[12.90955,48.21974],[12.89859,48.23142],[12.89019,48.23508],[12.89245,48.24713],[12.89979,48.25037],[12.89757,48.25715],[12.89329,48.26307],[12.88437,48.25924],[12.88194,48.26244],[12.87417,48.26422],[12.87533,48.26909],[12.86574,48.27116],[12.85894,48.27657],[12.85267,48.27659],[12.85139,48.27915],[12.85409,48.28511],[12.84355,48.29343],[12.83838,48.29323],[12.82133,48.30061],[12.82384,48.30835],[12.818,48.31343],[12.80871,48.31074],[12.80381,48.31447],[12.80359,48.31972],[12.78331,48.32545],[12.77674,48.32534],[12.76972,48.32014],[12.76219,48.32304],[12.74659,48.31902],[12.7346,48.31944],[12.71845,48.32758],[12.70166,48.32914],[12.69162,48.34058],[12.68371,48.34254],[12.68074,48.33936],[12.67123,48.33849],[12.67126,48.33268],[12.66726,48.32954],[12.65495,48.33541],[12.63883,48.33651],[12.63703,48.34584],[12.62978,48.34444],[12.62002,48.34781],[12.61963,48.34114],[12.61504,48.33935],[12.60547,48.35279],[12.60607,48.35734],[12.60264,48.35988],[12.59852,48.37049],[12.5914,48.3728],[12.58954,48.38446],[12.58203,48.38475],[12.58496,48.37635],[12.58291,48.37351],[12.57846,48.37431],[12.57206,48.38442],[12.57059,48.39212],[12.5652,48.39422],[12.56244,48.39955],[12.55353,48.40419],[12.5514,48.40022],[12.54244,48.39777],[12.53463,48.40532],[12.53358,48.41185],[12.52911,48.41678],[12.52243,48.41412],[12.51568,48.41712],[12.51246,48.42187],[12.48576,48.42661],[12.48362,48.42254],[12.47563,48.41967],[12.47282,48.41391],[12.4585,48.4144],[12.45427,48.40882],[12.43785,48.41061],[12.44272,48.40289],[12.44082,48.3997],[12.44304,48.39667],[12.4395,48.39275],[12.44277,48.38782],[12.43878,48.3836],[12.43169,48.38258],[12.42867,48.37107],[12.41989,48.37012],[12.41471,48.35975],[12.40145,48.36089],[12.39916,48.35737],[12.38695,48.35563],[12.38214,48.34711],[12.37748,48.34653],[12.37662,48.34267],[12.36391,48.34271],[12.36163,48.33081],[12.35657,48.32826],[12.34532,48.32807],[12.3361,48.33188],[12.33287,48.33703],[12.32697,48.33772],[12.33135,48.32937],[12.32679,48.31962],[12.30859,48.31437],[12.30017,48.31737],[12.30032,48.32804],[12.29087,48.32836],[12.28711,48.32022],[12.27767,48.31863],[12.27313,48.32611],[12.26718,48.32695],[12.25764,48.32406],[12.25583,48.32029],[12.2505,48.31994],[12.23262,48.32865],[12.22834,48.34201],[12.23052,48.34467],[12.22944,48.34874],[12.21441,48.34959],[12.20814,48.3592],[12.19646,48.36084],[12.19207,48.36731],[12.18589,48.36986],[12.18559,48.3733],[12.19053,48.37641],[12.18992,48.38071],[12.18401,48.3826],[12.18522,48.38768],[12.17989,48.39341],[12.17326,48.394],[12.16521,48.3997],[12.16508,48.40458],[12.16882,48.40646],[12.16135,48.42],[12.15513,48.4192],[12.14647,48.42317],[12.14186,48.41885],[12.13513,48.42262],[12.13014,48.41372],[12.11583,48.42158],[12.09474,48.4235],[12.08721,48.42188],[12.08174,48.42635],[12.07612,48.42651],[12.06259,48.41993],[12.0582,48.42155],[12.04489,48.41918],[12.04161,48.41385],[12.01979,48.41475],[12.01805,48.41944],[12.01992,48.42555],[12.01537,48.42931],[12.01371,48.43553],[12.00851,48.43761],[12.01,48.44382],[12.00533,48.44975],[11.99639,48.44601],[11.98971,48.4494],[11.998,48.46455],[11.99603,48.46915],[12.00472,48.48356],[12.00407,48.49206],[11.97421,48.48992],[11.95595,48.49903],[11.95589,48.50275],[11.9639,48.50625],[11.96913,48.51203],[11.95916,48.5321],[11.96606,48.54019],[11.96122,48.54381],[11.96119,48.54806],[11.9676,48.55224],[11.96683,48.55463],[11.96032,48.55613],[11.95609,48.56523],[11.96147,48.56936],[11.95912,48.57592],[11.94227,48.57093],[11.9221,48.57954],[11.91537,48.57881],[11.90918,48.58336],[11.90084,48.58437],[11.89602,48.58139],[11.88798,48.58288],[11.88191,48.57913],[11.86577,48.57727],[11.86183,48.58233],[11.85328,48.58377],[11.84989,48.58815],[11.8414,48.59115],[11.83105,48.59216],[11.82098,48.59682],[11.81035,48.59594],[11.80855,48.59858],[11.81126,48.60323],[11.80739,48.60722],[11.8006,48.60728],[11.79768,48.61102],[11.78338,48.60917],[11.78025,48.6022],[11.77516,48.59829],[11.75167,48.59873],[11.74355,48.60348],[11.73316,48.60424],[11.72406,48.60943],[11.71324,48.61006],[11.69097,48.61799],[11.69172,48.63427],[11.70176,48.63659],[11.70305,48.64235],[11.71026,48.64435],[11.71109,48.64682],[11.70378,48.64898],[11.69956,48.65729],[11.68368,48.66253],[11.68841,48.66982],[11.68674,48.67787],[11.68939,48.68343],[11.68097,48.68811],[11.67438,48.68679],[11.65194,48.69958],[11.65274,48.70805],[11.66693,48.72192],[11.65546,48.7286],[11.65347,48.74474],[11.66828,48.75134],[11.71063,48.75694],[11.7096,48.75985],[11.69795,48.76215],[11.70028,48.76733],[11.69673,48.77735],[11.69219,48.78105],[11.69255,48.78522],[11.69609,48.78776],[11.71151,48.7869],[11.71615,48.78068],[11.71878,48.78529],[11.72298,48.78411],[11.73419,48.79199],[11.73514,48.79933],[11.72694,48.80614],[11.72424,48.81311],[11.71434,48.81006],[11.70586,48.81136],[11.70423,48.81832],[11.70012,48.82119],[11.7025,48.82602],[11.70151,48.8331],[11.69723,48.8388],[11.70318,48.84338],[11.71234,48.83849],[11.71639,48.83908],[11.71855,48.84244],[11.71793,48.85137],[11.71413,48.85511],[11.71704,48.86688],[11.72171,48.87154],[11.73094,48.87137],[11.7327,48.87474],[11.7408,48.87694],[11.73503,48.88109],[11.73499,48.88853],[11.72184,48.88977],[11.71503,48.89722],[11.72174,48.92267],[11.71555,48.91719],[11.705,48.91615],[11.68884,48.92302],[11.68767,48.92858],[11.66836,48.92343],[11.65804,48.92861],[11.64831,48.92773],[11.63377,48.93076],[11.62849,48.94234],[11.62058,48.94172],[11.599384128066927,48.949467195371426],[11.60489,48.95131],[11.62609,48.98362],[11.62167,49.00165],[11.6484,49.00165],[11.69044,49.01386],[11.71349,49.00516],[11.7299,48.99016],[11.77119,48.9783],[11.78982,48.98858],[11.81471,49.01604],[11.85656,49.0187],[11.87518,49.006],[11.89085,48.99137],[11.9163,48.94864],[11.92791,48.94235],[11.94856,48.94416],[11.9965,48.94719],[12.01788,48.95312],[12.02858,48.95058],[12.03282,48.94453],[12.04701,48.94307],[12.06029,48.93908],[12.0719,48.9346],[12.07301,48.92527],[12.07688,48.90903],[12.07928,48.89922],[12.12298,48.87497],[12.10011,48.8569],[12.09329,48.84319],[12.10048,48.80252],[12.09053,48.78054],[12.09882,48.76547],[12.11357,48.76243],[12.13736,48.76414],[12.1722,48.78953],[12.1947,48.79123],[12.2395,48.81042],[12.26181,48.83554],[12.29536,48.83773],[12.33888,48.8529],[12.36358,48.84428],[12.37944,48.84525],[12.43493,48.8763],[12.43973,48.9014],[12.45632,48.91655],[12.46001,48.92103],[12.44563,48.94901],[12.45558,48.95591],[12.45503,48.96704],[12.45355,48.97721],[12.47384,48.9737],[12.4908,48.97479],[12.49338,48.9858],[12.49467,49.01991],[12.48287,49.03937],[12.50297,49.05653],[12.52933,49.05484],[12.54002,49.07115],[12.56233,49.08588],[12.59663,49.09071],[12.64844,49.09844],[12.68973,49.10061],[12.70928,49.10267],[12.73325,49.11413],[12.73675,49.11063],[12.76606,49.10882],[12.78579,49.12897],[12.79851,49.11944],[12.82875,49.12258],[12.86581,49.12753],[12.89863,49.12584],[12.91928,49.12885],[12.94693,49.13754],[12.97182,49.15973],[13.0594,49.14622],[13.06641,49.12632],[13.12375,49.10786],[13.13702,49.10906],[13.162722873295948,49.1402284759702],[13.17901,49.12323],[13.23239,49.10701],[13.27927,49.11523],[13.39013,49.02802],[13.39141,48.98191],[13.49259,48.93575],[13.51499,48.93387],[13.52214,48.96392],[13.54791,48.96097],[13.549837516656549,48.96334330795377],[13.54987,48.96074],[13.57408,48.95797],[13.61554,48.92918],[13.6632,48.87247],[13.7323,48.87122],[13.79616,48.77458],[13.836283114525745,48.75758510657664],[13.83021,48.75108],[13.82308,48.73193],[13.80484,48.72046],[13.80951,48.71897],[13.82383,48.71758],[13.82979,48.7064],[13.84709,48.70275],[13.84305,48.69716],[13.83441,48.69057],[13.82239,48.69003],[13.83313,48.63579],[13.82488,48.60994],[13.81222,48.60059],[13.81139,48.58081],[13.77373,48.54915],[13.75224,48.55811],[13.76021,48.54969],[13.75148,48.52823],[13.73748,48.52335],[13.72734,48.50779],[13.65439,48.53349],[13.6475,48.54753],[13.62305,48.55145],[13.59644,48.56559],[13.57749,48.55429],[13.55185,48.56431],[13.51659,48.58697],[13.50935,48.58393],[13.5117,48.57356],[13.49098,48.56128],[13.46677,48.55087],[13.44953,48.55935],[13.44108,48.55482],[13.45935,48.53496],[13.45044,48.52699],[13.46336,48.50848],[13.43183,48.45435],[13.44554,48.43281],[13.42823,48.40494],[13.41784,48.37232],[13.32637,48.31573],[13.26537,48.29023],[13.1827,48.29121],[13.14149,48.27787],[13.08493,48.27246],[13.02157,48.25047],[13.0022,48.23255],[12.95525,48.20247],[12.94426,48.20179],[12.92984,48.20755],[12.90955,48.21974]]]}}
