{"type":"Feature","properties":{"sourceId":"north-caucasus-fed-district"},"geometry":{"type":"Polygon","coordinates":[[[40.71429,43.54352],[40.72257,43.55016],[40.72615,43.57158],[40.72255,43.57574],[40.72337,43.58455],[40.73093,43.5911],[40.73664,43.59255],[40.73524,43.60032],[40.73796,43.60483],[40.72351,43.61548],[40.71944,43.62124],[40.71927,43.62673],[40.71393,43.63086],[40.71231,43.63996],[40.69654,43.6526],[40.70508,43.66137],[40.70405,43.67122],[40.71106,43.67559],[40.71007,43.68295],[40.691,43.69344],[40.69176,43.70428],[40.68632,43.70954],[40.67762,43.71052],[40.67265,43.71623],[40.68772,43.72815],[40.69926,43.7438],[40.71064,43.73928],[40.73089,43.74174],[40.74448,43.75032],[40.7522,43.75202],[40.7495,43.75833],[40.73962,43.77996],[40.7315,43.783],[40.7199,43.7952],[40.75178,43.83043],[40.75001,43.83701],[40.75303,43.84601],[40.76035,43.86278],[40.76563,43.86741],[40.76368,43.8744],[40.76917,43.88063],[40.78307,43.88319],[40.78671,43.89755],[40.7968,43.90484],[40.8015,43.92025],[40.83295,43.92413],[40.83719,43.92788],[40.83905,43.93557],[40.85027,43.94537],[40.85997,43.94966],[40.87652,43.95103],[40.88434,43.94905],[40.88826,43.95679],[40.89719,43.96262],[40.89847,43.96747],[40.90825,43.97814],[40.91292,43.9998],[40.92188,44.01254],[40.92896,44.01622],[40.92258,44.02266],[40.91606,44.03847],[40.91722,44.05788],[40.92047,44.06774],[40.90866,44.07434],[40.90822,44.08521],[40.91479,44.09064],[40.88852,44.10278],[40.88975,44.14547],[40.8981,44.14416],[40.91463,44.14826],[40.95578,44.14389],[41.02757,44.11699],[41.03532,44.12403],[41.06219,44.11556],[41.08551,44.09842],[41.11588,44.10703],[41.11482,44.1136],[41.11871,44.12701],[41.12477,44.12913],[41.15294,44.12071],[41.15783,44.11261],[41.16438,44.11166],[41.17162,44.10664],[41.1731,44.09191],[41.22679,44.09219],[41.22945,44.0993],[41.23372,44.10166],[41.24502,44.09725],[41.26479,44.09779],[41.28384,44.08786],[41.29316,44.08758],[41.3044,44.06166],[41.29378,44.05272],[41.28011,44.06134],[41.28432,44.04962],[41.2755,44.03573],[41.26754,44.03336],[41.26051,44.02608],[41.25899,44.02085],[41.25516,44.01876],[41.25574,44.0159],[41.27437,44.02103],[41.28204,44.01109],[41.28472,44.01636],[41.29135,44.01544],[41.29799,44.02284],[41.3105,44.02461],[41.32052,44.0313],[41.32451,44.02623],[41.31268,44.01073],[41.31601,44.00847],[41.31267,43.99676],[41.31877,43.98287],[41.35151,43.98222],[41.34731,43.9939],[41.35509,44.00075],[41.35155,44.00997],[41.35775,44.01431],[41.37444,44.01228],[41.37533,44.00757],[41.37987,44.00782],[41.38409,44.00161],[41.39067,43.99925],[41.39576,43.98824],[41.40635,43.98442],[41.41414,43.98616],[41.43121,44.00308],[41.4527,44.00703],[41.46208,44.00447],[41.47759,44.00491],[41.47866,44.00836],[41.47428,44.01769],[41.4771,44.03401],[41.47487,44.04243],[41.47725,44.05162],[41.48328,44.05733],[41.48801,44.05606],[41.48881,44.04909],[41.52227,44.05015],[41.54173,44.04685],[41.54304,44.05949],[41.55018,44.06572],[41.54927,44.07696],[41.55304,44.08702],[41.54789,44.09672],[41.55259,44.10079],[41.59906,44.11513],[41.63046,44.11913],[41.62819,44.12751],[41.63436,44.13281],[41.64656,44.12846],[41.64866,44.13491],[41.65978,44.14448],[41.66321,44.15098],[41.67403,44.15833],[41.68081,44.16953],[41.69507,44.17428],[41.69718,44.18448],[41.70765,44.1981],[41.70616,44.20429],[41.70963,44.21576],[41.72511,44.23407],[41.72529,44.25072],[41.73516,44.25746],[41.73496,44.26354],[41.73965,44.26696],[41.6879,44.33108],[41.58909,44.36356],[41.59615,44.37653],[41.62921,44.38131],[41.62687,44.40971],[41.69041,44.41319],[41.69456,44.43321],[41.70356,44.45637],[41.71928,44.45811],[41.72369,44.46223],[41.73145,44.46381],[41.73266,44.48021],[41.7032,44.48667],[41.69714,44.49585],[41.6499,44.48769],[41.63515,44.52128],[41.58825,44.51336],[41.55019,44.61357],[41.53347,44.61157],[41.53448,44.60271],[41.53187,44.59958],[41.49345,44.59313],[41.47392,44.64438],[41.45567,44.64795],[41.44522,44.6557],[41.42417,44.7087],[41.51386,44.72826],[41.51685,44.73321],[41.55477,44.74046],[41.55245,44.7523],[41.56202,44.75617],[41.56205,44.76392],[41.57765,44.76181],[41.58381,44.77383],[41.58754,44.77597],[41.5819,44.79567],[41.61003,44.80297],[41.60308,44.82694],[41.60734,44.82994],[41.60646,44.83552],[41.61085,44.83857],[41.61489,44.85099],[41.62909,44.85471],[41.63548,44.86591],[41.63699,44.90661],[41.6493,44.91035],[41.65074,44.98143],[41.45678,44.98526],[41.44456,44.99277],[41.43595,45.0109],[41.41983,45.02543],[41.40373,45.0618],[41.38655,45.0751],[41.36814,45.08303],[41.35594,45.08477],[41.34913,45.08915],[41.34995,45.17761],[41.36189,45.18179],[41.35046,45.18577],[41.35023,45.21831],[41.29646,45.2208],[41.28783,45.23479],[41.28538,45.24872],[41.27766,45.25899],[41.26867,45.25594],[41.26717,45.24894],[41.26179,45.24693],[41.26031,45.23074],[41.23667,45.22977],[41.2324,45.22099],[41.03327,45.22362],[41.03335,45.22886],[41.02455,45.23985],[41.03339,45.25442],[41.02179,45.25307],[41.01685,45.25566],[41.0142,45.2645],[41.019,45.26867],[41.01162,45.26959],[41.0084,45.27541],[41.00934,45.27869],[41.01787,45.28052],[41.02193,45.28518],[41.01747,45.29084],[41.01796,45.30511],[41.01354,45.3078],[41.01186,45.31547],[41.0022,45.31458],[40.99983,45.31827],[40.99594,45.31804],[40.99069,45.32201],[40.99869,45.33128],[40.99191,45.33753],[40.99185,45.34174],[40.99774,45.34461],[41.00136,45.35151],[40.99628,45.35917],[40.98662,45.3632],[40.99042,45.36971],[40.99708,45.37225],[40.99605,45.37465],[40.98823,45.37642],[40.99109,45.39102],[40.98637,45.39199],[40.97893,45.38753],[40.97129,45.39149],[40.97503,45.4049],[40.97064,45.4145],[40.97613,45.41717],[40.97653,45.42103],[40.93936,45.4332],[40.92968,45.44307],[40.91977,45.44599],[40.91952,45.51279],[40.88207,45.51182],[40.84331,45.51582],[40.84569,45.69601],[40.95777,45.69673],[40.96123,45.70787],[40.9775,45.71618],[40.99941,45.71339],[41.00809,45.71599],[41.01305,45.7103],[41.03438,45.70083],[41.03634,45.6963],[41.05531,45.69524],[41.05775,45.6782],[41.16146,45.67747],[41.16734,45.76178],[41.26838,45.76269],[41.26947,45.79033],[41.25807,45.79279],[41.25369,45.816],[41.23757,45.82034],[41.23056,45.83093],[41.23783,45.84127],[41.23663,45.84878],[41.24901,45.85219],[41.25683,45.8588],[41.25248,45.86325],[41.24643,45.86357],[41.24437,45.87673],[41.15888,45.87809],[41.15976,45.9544],[41.38726,45.95529],[41.39138,45.99977],[41.40408,46.00187],[41.46666,46.0012],[41.47032,46.00872],[41.49592,46.0092],[41.49904,46.00684],[41.49932,45.9973],[41.50559,45.99441],[41.5257,45.99444],[41.54221,45.98884],[41.59841,45.98465],[41.6245,45.97998],[41.643,45.98275],[41.65909,45.98154],[41.66724,45.97821],[41.69273,45.9858],[41.70272,45.98296],[41.71678,45.9857],[41.79432,45.97991],[41.8097,45.98187],[41.82163,45.97835],[41.90203,45.97128],[41.92762,45.97751],[42.0828,45.96936],[42.08591,45.96582],[42.08405,45.93677],[42.10307,45.9381],[42.14874,45.94667],[42.16062,46.03882],[42.17345,46.04398],[42.17649,46.06553],[42.16474,46.06909],[42.16898,46.11229],[42.32218,46.13844],[42.33049,46.13796],[42.33263,46.1346],[42.32256,46.04156],[42.32212,45.97464],[42.44764,45.99316],[42.5562,46.01123],[42.67112,46.09271],[42.73707,46.09422],[42.85294,46.175],[42.85186,46.18361],[42.83663,46.18968],[42.84703,46.20342],[42.85205,46.20524],[42.85629,46.20365],[42.86958,46.21074],[42.88124,46.21206],[42.91361,46.23914],[42.93264,46.23881],[42.96429,46.19838],[42.98054,46.18485],[43.00286,46.17227],[43.03375,46.16665],[43.07088,46.15433],[43.16519,46.13166],[43.19328,46.12057],[43.21916,46.1152],[43.25828,46.11335],[43.29979,46.09995],[43.31277,46.09168],[43.36218,46.03543],[43.40599,46.01977],[43.46967,45.99218],[43.51202,45.9922],[43.56948,45.98221],[43.5862,45.985],[43.58895,45.99067],[43.59381,45.99183],[43.60604,45.98397],[43.61212,45.98553],[43.61765,45.99293],[43.62271,45.99404],[43.62839,45.9885],[43.63676,45.99058],[43.64439,45.98322],[43.67698,45.98621],[43.69226,45.9826],[43.72282,45.98561],[43.73359,45.98141],[43.75,45.98159],[43.76631,45.97482],[43.7766,45.97594],[43.78754,45.97001],[43.78955,45.96612],[43.80916,45.96045],[43.81414,45.96222],[43.81872,45.96014],[43.8244,45.96207],[43.84727,45.96033],[43.89301,45.94786],[43.90369,45.95128],[43.91712,45.94894],[43.92183,45.94558],[43.92329,45.93329],[43.92982,45.92626],[43.93428,45.91127],[43.93121,45.90271],[43.97324,45.89223],[43.98383,45.89283],[44.00345,45.88312],[44.01907,45.87288],[44.03812,45.85083],[44.03609,45.84092],[44.04508,45.821],[44.05673,45.8108],[44.06427,45.81346],[44.07276,45.804],[44.09336,45.79829],[44.09198,45.78669],[44.09644,45.76753],[44.1088,45.74026],[44.12205,45.73604],[44.13404,45.69299],[44.17339,45.65036],[44.17518,45.6449],[44.20777,45.6195],[44.21619,45.61691],[44.23655,45.60173],[44.2762,45.59164],[44.28209,45.57674],[44.29953,45.57139],[44.31781,45.55551],[44.33541,45.55294],[44.3536,45.55603],[44.36422,45.55497],[44.36846,45.55196],[44.36967,45.54603],[44.38331,45.54232],[44.41112,45.5268],[44.45277,45.51003],[44.4715,45.50634],[44.49658,45.50483],[44.5142,45.5134],[44.53438,45.50781],[44.5394,45.50279],[44.54754,45.50615],[44.5544,45.50296],[44.57024,45.50908],[44.57619,45.50879],[44.58847,45.49743],[44.60045,45.48089],[44.63384,45.467],[44.70014,45.45347],[44.71327,45.44821],[44.72512,45.44776],[44.74433,45.43768],[44.76255,45.43387],[44.7884,45.43318],[44.79774,45.4299],[44.80507,45.4342],[44.83147,45.44011],[44.8394,45.43061],[44.87271,45.41438],[44.87895,45.4084],[44.89504,45.40581],[44.89946,45.38912],[45.13748,45.30884],[45.35251,45.22107],[45.59092,45.12866],[45.59291,45.12558],[45.59169,45.12004],[45.71781,44.99822],[45.7106,44.9812],[45.71572,44.97725],[45.73452,44.97584],[45.74967,44.97826],[45.78305,44.97185],[45.7934,44.9783],[45.79198,44.99004],[45.81436,44.99466],[45.84686,44.98888],[45.86883,44.99043],[45.87452,44.98869],[45.88175,44.99099],[45.93054,44.98772],[45.9489,44.98929],[45.96841,44.9841],[45.98306,44.99207],[45.9994,44.99028],[46.01638,44.98269],[46.03264,44.98362],[46.06716,44.97425],[46.07682,44.96855],[46.08304,44.97165],[46.11713,44.97279],[46.15582,44.96187],[46.16204,44.96606],[46.199,44.96156],[46.22675,44.9759],[46.24007,44.97393],[46.25039,44.96848],[46.3258,44.95288],[46.34794,44.9538],[46.35956,44.94502],[46.36889,44.94957],[46.38292,44.9503],[46.42717,44.93756],[46.43449,44.94176],[46.44917,44.94212],[46.47105,44.93877],[46.48507,44.93369],[46.50514,44.93719],[46.57134,44.91026],[46.58732,44.89195],[46.63448,44.86537],[46.64276,44.86701],[46.65861,44.86234],[46.67814,44.86153],[46.69211,44.84912],[46.71331,44.84566],[46.71917,44.84199],[46.74036,44.83861],[46.77162,44.82863],[46.77443,44.82609],[46.77551,44.81836],[46.76419,44.80809],[46.76077,44.80148],[46.79718,44.78592],[46.8004,44.77985],[46.81508,44.77258],[46.81565,44.76561],[46.8189,44.76347],[46.82813,44.76517],[46.8308,44.76859],[46.82075,44.77844],[46.82059,44.78813],[46.80744,44.79356],[46.80485,44.80441],[46.81162,44.80994],[46.82702,44.81112],[46.865,44.80251],[46.88556,44.81308],[46.89843,44.81492],[46.98003,44.76927],[47.29469,44.72149],[47.65491,44.71578],[47.78865,44.65814],[47.89509,44.44452],[47.8084,44.24603],[48.04129,44.20116],[48.1644,44.09189],[48.19536,43.98996],[48.16466,43.87705],[47.89469,43.61146],[47.85146,43.47209],[47.88465,43.29552],[47.84597,43.11901],[47.97945,42.99383],[48.23971,42.57976],[48.60773,42.16834],[48.844785193064546,41.973738733450396],[48.57779,41.8547],[48.52402,41.76519],[48.40157,41.66575],[48.37769,41.61524],[48.25938,41.56051],[48.17999,41.5209],[48.06777,41.50884],[47.8082,41.23139],[47.61647,41.24174],[47.11555,41.60004],[46.75873,41.86845],[46.6482,41.8499],[46.58282,41.81742],[46.54702,41.88584],[46.41975,41.92271],[46.418660807777705,41.92084006164336],[46.4077,41.92765],[46.39973,41.94424],[46.36389,41.93799],[46.33817,41.94971],[46.31887,41.93688],[46.29053,41.94746],[46.26181,41.99677],[46.25941,42.00837],[46.22678,42.01882],[46.1491,42.01391],[46.08634,42.03134],[46.07484,42.04404],[46.02358,42.0444],[46.00452,42.04167],[45.98664,42.04903],[45.9388,42.04159],[45.93186,42.05837],[45.92414,42.08186],[45.91604,42.09784],[45.89845,42.10966],[45.88171,42.10804],[45.85438,42.11961],[45.84625,42.11462],[45.80376,42.11978],[45.77473,42.11787],[45.77086,42.13019],[45.75164,42.14596],[45.74668,42.1525],[45.72227,42.16693],[45.67397,42.18946],[45.62489,42.212],[45.62534,42.24189],[45.66954,42.2794],[45.68923,42.28202],[45.72372,42.28557],[45.74229,42.29213],[45.75561,42.30683],[45.75965,42.32708],[45.74646,42.36235],[45.74088,42.37657],[45.7747,42.42079],[45.78503,42.44595],[45.77858,42.49068],[45.77187,42.49271],[45.68769,42.50946],[45.66664,42.51003],[45.65263,42.50469],[45.63426,42.51416],[45.6148,42.51084],[45.60249,42.51878],[45.60169,42.53628],[45.58257,42.54944],[45.57149,42.55248],[45.52237,42.54879],[45.49604,42.53933],[45.45317,42.5494],[45.41698,42.55545],[45.40249,42.5524],[45.39231,42.54024],[45.34428,42.52666],[45.33513,42.53332],[45.3285,42.56739],[45.28914,42.60903],[45.24096,42.64153],[45.22069,42.66213],[45.19765,42.67214],[45.1596,42.71142],[45.13254,42.71358],[45.08684,42.7159],[45.06988,42.709],[45.06237,42.70029],[45.0421,42.70007],[44.97704,42.75008],[44.94524,42.75472],[44.88805,42.75109],[44.86595,42.72639],[44.83267,42.67569],[44.81992,42.64179],[44.82153,42.62153],[44.80386,42.61935],[44.76971,42.64811],[44.75546,42.71521],[44.74054,42.73129],[44.71303,42.74647],[44.68206,42.75939],[44.65172,42.75087],[44.59813,42.75253],[44.55232,42.76992],[44.53391,42.75781],[44.51149,42.75708],[44.49656,42.73754],[44.51297,42.70788],[44.51149,42.70307],[44.41852,42.72353],[44.40779,42.7138],[44.3955,42.71146],[44.38303,42.7191],[44.36467,42.71963],[44.35147,42.71557],[44.33427,42.72297],[44.31484,42.7257],[44.29793,42.70916],[44.27411,42.69947],[44.24521,42.68114],[44.18965,42.63553],[44.11482,42.62097],[44.04728,42.607],[44.02158,42.60101],[44.007,42.59358],[43.98515,42.56924],[43.91856,42.57117],[43.91071,42.5787],[43.86628,42.59374],[43.84129,42.60182],[43.80953,42.60331],[43.79921,42.60306],[43.77094,42.5935],[43.75861,42.602],[43.75665,42.61916],[43.7623,42.65318],[43.81071,42.71856],[43.81141,42.73903],[43.80814,42.74442],[43.7805,42.76138],[43.70869,42.78129],[43.69601,42.78976],[43.6941,42.79945],[43.68632,42.8054],[43.65207,42.80005],[43.63412,42.81591],[43.61506,42.81735],[43.61231,42.83762],[43.56199,42.87172],[43.47933,42.89314],[43.46191,42.8917],[43.44368,42.89744],[43.41594,42.89561],[43.38771,42.9026],[43.33154,42.90896],[43.3188,42.91825],[43.29151,42.92241],[43.24277,42.92672],[43.23257,42.93447],[43.17569,42.96554],[43.14699,42.9738],[43.13551,42.98816],[43.12129,42.99315],[43.11533,43.00373],[43.08927,43.00408],[43.04372,43.03252],[43.02379,43.06938],[43.02802,43.07547],[43.045,43.08399],[43.04285,43.09428],[42.99531,43.12021],[42.98416,43.12031],[42.96003,43.12888],[42.93058,43.12832],[42.92898,43.13435],[42.93591,43.14541],[42.93415,43.15155],[42.90618,43.15761],[42.89816,43.16292],[42.88351,43.16145],[42.87966,43.1738],[42.8624,43.18178],[42.84956,43.18209],[42.81254,43.17255],[42.80051,43.17788],[42.79146,43.18794],[42.7778,43.19226],[42.74693,43.19097],[42.73788,43.1849],[42.72986,43.1864],[42.70709,43.18315],[42.70069,43.17738],[42.67894,43.17656],[42.67377,43.16611],[42.67554,43.15735],[42.66374,43.14445],[42.6168,43.16749],[42.60378,43.1681],[42.59707,43.17509],[42.54801,43.18019],[42.51245,43.20264],[42.49765,43.20393],[42.46204,43.21615],[42.45064,43.2262],[42.45613,43.2376],[42.44422,43.25449],[42.41592,43.26045],[42.40465,43.2522],[42.38858,43.24816],[42.35696,43.25001],[42.33791,43.22521],[42.31386,43.22394],[42.3057,43.22749],[42.29077,43.21579],[42.26016,43.21619],[42.24832,43.23145],[42.21439,43.23447],[42.19616,43.23054],[42.18219,43.22171],[42.16469,43.22847],[42.12588,43.21472],[42.10769,43.21342],[42.09282,43.21705],[42.04554,43.19286],[42.01939,43.22132],[41.98464,43.21937],[41.95611,43.21138],[41.94386,43.22898],[41.90858,43.23154],[41.90453,43.23949],[41.88934,43.25186],[41.86006,43.24504],[41.85863,43.23447],[41.84688,43.21652],[41.82656,43.21786],[41.80575,43.20743],[41.79718,43.21159],[41.78627,43.22514],[41.77106,43.22436],[41.73095,43.24651],[41.72068,43.24415],[41.6977,43.22317],[41.68602,43.22329],[41.66066,43.24116],[41.63441,43.22684],[41.62253,43.22641],[41.58945,43.24079],[41.5785,43.25581],[41.56059,43.2559],[41.54595,43.27311],[41.51548,43.27819],[41.50712,43.28525],[41.49222,43.28912],[41.46464,43.31134],[41.44134,43.31052],[41.42691,43.31683],[41.41624,43.33535],[41.41853,43.35591],[41.39515,43.36954],[41.36468,43.37349],[41.35523,43.36223],[41.33767,43.35146],[41.3234,43.35139],[41.31505,43.34437],[41.29195,43.34215],[41.28397,43.34844],[41.27672,43.36375],[41.25776,43.36822],[41.24554,43.363],[41.22197,43.38414],[41.1824,43.38978],[41.16844,43.38821],[41.16011,43.39397],[41.15382,43.40679],[41.12404,43.40204],[41.10438,43.40739],[41.0973,43.40148],[41.09346,43.39055],[41.0451,43.40152],[41.00546,43.43572],[40.98386,43.43434],[40.97591,43.42887],[40.95241,43.42386],[40.93334,43.43077],[40.93276,43.44502],[40.92718,43.45032],[40.90239,43.4596],[40.90217,43.47552],[40.89335,43.49243],[40.8784,43.48942],[40.82697,43.49311],[40.77987,43.50878],[40.73927,43.53085],[40.71239217487043,43.536089427342866],[40.71429,43.54352]]]}}
