{"type":"Feature","properties":{"sourceId":"norfolk"},"geometry":{"type":"Polygon","coordinates":[[[1.726574,52.53055],[1.725715,52.5329],[1.707863,52.53958],[1.705631,52.53964],[1.703399,52.54366],[1.701769,52.54454],[1.690525,52.54486],[1.689323,52.54684],[1.6875744712914469,52.54788214348303],[1.686405,52.54908],[1.68486,52.5495],[1.681255,52.54767],[1.669239,52.55013],[1.665119,52.5494],[1.662115,52.54741],[1.661013925672241,52.5458797968427],[1.659883,52.54491],[1.65851,52.5424],[1.633876,52.53729],[1.628812,52.5388],[1.627611,52.54037],[1.624435,52.54125],[1.619919,52.53983],[1.621031,52.53941],[1.621538,52.53534],[1.620321,52.53401],[1.620666,52.53234],[1.628436,52.52701],[1.628386,52.52278],[1.629806,52.52096],[1.636197,52.51763],[1.64558,52.51519],[1.647305,52.5134],[1.645225,52.50815],[1.646443,52.50658],[1.651413,52.50426],[1.653544,52.50136],[1.655775,52.50037],[1.671003,52.50341],[1.674414,52.50173],[1.675228,52.49845],[1.6755296903071122,52.498127510044895],[1.675755,52.4974],[1.6764666887849544,52.49712591141899],[1.676809,52.49676],[1.682558,52.49478],[1.681833,52.48934],[1.676942,52.4864],[1.676144,52.48383],[1.672118,52.48225],[1.670688,52.48026],[1.671586,52.47716],[1.6700647781276239,52.47599980386584],[1.663077,52.47454],[1.661678,52.47006],[1.657901412514333,52.46793984017244],[1.65385,52.46783],[1.650246,52.47094],[1.6494131025072885,52.471106284816585],[1.648907,52.47148],[1.646289,52.47173],[1.644735,52.47108],[1.6423254698860619,52.46854286237224],[1.636358,52.46667],[1.635371,52.46523],[1.635251,52.46304],[1.606252870642758,52.46724262744308],[1.6056012176913996,52.46780322396513],[1.604277,52.4713],[1.5970583571881276,52.47375876035894],[1.5969369048904882,52.47388089408941],[1.596258,52.47504],[1.595484503146846,52.475341444828594],[1.595297,52.47553],[1.593996318230404,52.475921415704],[1.588945,52.47789],[1.5873017156726812,52.477936030373314],[1.586491,52.47818],[1.576305,52.47664],[1.5732943812952087,52.47521658016236],[1.568031,52.47449],[1.565542,52.47166],[1.566254,52.46919],[1.561709,52.46551],[1.562811,52.46193],[1.558493,52.45789],[1.5562249699683948,52.45815696128138],[1.555261,52.45893],[1.5503276810422164,52.45885110897189],[1.5493997252950802,52.45896033515138],[1.547772,52.4598],[1.547813,52.46102],[1.543385,52.46265],[1.541758139992261,52.46195054071493],[1.53827,52.46306],[1.53805,52.46421],[1.536093,52.46514],[1.535868,52.46598],[1.530162,52.46801],[1.524293,52.46745],[1.522422,52.46538],[1.523529,52.46472],[1.521576,52.46165],[1.518485,52.46183],[1.518354,52.46226],[1.514579,52.46322],[1.508689,52.4623],[1.508201,52.46155],[1.50166,52.46302],[1.501399,52.46387],[1.497559,52.46508],[1.498373,52.46579],[1.497787,52.46623],[1.4975141156659832,52.466106708885235],[1.497234,52.46621],[1.496127,52.46548],[1.494793,52.46597],[1.496341,52.46746],[1.49005,52.46869],[1.489227396146765,52.46848174585994],[1.487499,52.46873],[1.487555,52.46928],[1.485250025460072,52.47036411416095],[1.483453,52.47165],[1.479896,52.4713],[1.4749961034743524,52.46903438352645],[1.472751,52.46834],[1.4723624917267224,52.467816652880686],[1.464,52.46395],[1.464135,52.46323],[1.463143,52.46219],[1.463278,52.46139],[1.4608365150372884,52.459773034042215],[1.4551610225438705,52.457977776728946],[1.4394797086847428,52.457960950382194],[1.434123,52.46212],[1.434775,52.46252],[1.434058,52.46327],[1.435167,52.46435],[1.427596,52.46796],[1.427139,52.46904],[1.426356,52.46942],[1.4274,52.46989],[1.422767,52.47113],[1.417839,52.46983],[1.413988,52.4651],[1.41066,52.46377],[1.411704,52.46264],[1.411051,52.462],[1.411051,52.46122],[1.421156,52.4578],[1.431362,52.45716],[1.433763,52.45565],[1.43332,52.45361],[1.435231,52.44928],[1.434934,52.44728],[1.432255,52.44572],[1.432195,52.44467],[1.425886,52.44511],[1.425469,52.44572],[1.421422,52.44605],[1.419338,52.44492],[1.417776,52.44516],[1.416096,52.44419],[1.414464,52.44492],[1.412564,52.44443],[1.412014,52.44363],[1.410333,52.44426],[1.406391,52.44315],[1.407307,52.44156],[1.406151,52.44181],[1.405012,52.44092],[1.402594,52.44098],[1.401903,52.44153],[1.39704,52.43982],[1.396978,52.43877],[1.396166,52.43864],[1.395916,52.43919],[1.39323,52.43813],[1.393074,52.43742],[1.391136,52.43642],[1.392432,52.43567],[1.391517,52.43381],[1.385569,52.43135],[1.382596,52.43191],[1.382214,52.43121],[1.380232,52.43153],[1.375351,52.42935],[1.374818,52.42995],[1.371081,52.42977],[1.371005,52.42861],[1.370242,52.42786],[1.368183,52.42823],[1.368183,52.42721],[1.366811,52.42647],[1.363913,52.42656],[1.357279,52.42326],[1.357335,52.42185],[1.35621,52.42066],[1.356748,52.41857],[1.360908,52.41517],[1.360157,52.41383],[1.361027,52.41324],[1.361152,52.41251],[1.356313,52.4101],[1.355665,52.41064],[1.35328,52.40952],[1.352053,52.40973],[1.3518022390829183,52.40963611531564],[1.351371,52.40967],[1.3509134807035226,52.40930336489786],[1.3497835796733453,52.40888033086683],[1.346259,52.40848],[1.346123,52.40769],[1.346737,52.407],[1.346089,52.40553],[1.347189,52.40514],[1.346572,52.40433],[1.347096,52.40369],[1.3388770975785285,52.4014747557171],[1.335692,52.40137],[1.335257,52.39925],[1.333436,52.39799],[1.33332,52.39654],[1.331095,52.39397],[1.33035,52.39406],[1.330114,52.39337],[1.330634,52.39305],[1.324965,52.3904],[1.324823,52.38956],[1.322131,52.38835],[1.320076,52.38894],[1.316008,52.3878],[1.316971,52.3867],[1.313768,52.38735],[1.312223,52.38683],[1.308962,52.38745],[1.308618,52.38819],[1.305357,52.39007],[1.303468,52.38965],[1.302095,52.3907],[1.297289,52.3907],[1.293512,52.38819],[1.291967,52.38924],[1.291452,52.38903],[1.289907,52.38986],[1.286302,52.38945],[1.2843921573317323,52.38821804037061],[1.282182,52.38756],[1.280981,52.38609],[1.279951,52.38599],[1.27066,52.37936],[1.269973,52.37957],[1.268686,52.37879],[1.2679493732087361,52.37749259327885],[1.25933,52.37051],[1.253837,52.37009],[1.248086,52.36542],[1.233581,52.36458],[1.233152,52.36112],[1.230662,52.35987],[1.225942,52.36002],[1.223367,52.35913],[1.223109,52.35835],[1.221564,52.35882],[1.218866,52.35675],[1.217359,52.35709],[1.214956,52.35552],[1.214956,52.35478],[1.202767,52.35924],[1.201137,52.35871],[1.194614,52.36123],[1.188176,52.36092],[1.186889,52.3595],[1.183026,52.35856],[1.17719,52.36076],[1.170924,52.35971],[1.161397,52.3617],[1.16114,52.36118],[1.1534191883277334,52.36237983626556],[1.150754,52.36401],[1.140712,52.36679],[1.123882,52.36697],[1.121135,52.36933],[1.120400373071006,52.36941248988821],[1.119848,52.3698],[1.116415,52.36986],[1.115728,52.37101],[1.082426,52.37295],[1.082512,52.37389],[1.067491,52.37829],[1.03848,52.37714],[1.037365,52.37861],[1.006895,52.37573],[0.998571,52.3713],[0.98681,52.37159],[0.980631,52.36933],[0.956169,52.37222],[0.941921,52.37918],[0.940118,52.38275],[0.936342,52.38668],[0.933681,52.38778],[0.919262,52.38919],[0.904928,52.38594],[0.894199,52.38814],[0.891624,52.39029],[0.880724,52.39165],[0.864845,52.39034],[0.857034,52.39516],[0.85712,52.39788],[0.854889,52.39961],[0.85343,52.39904],[0.840297,52.40087],[0.835748,52.40014],[0.816437,52.39349],[0.809999,52.38977],[0.795665,52.39071],[0.773435,52.38626],[0.770431,52.38945],[0.76777,52.39024],[0.762792,52.38888],[0.76156,52.38699],[0.748544,52.38322],[0.741249,52.38893],[0.741335,52.3916],[0.737782,52.39483],[0.66989,52.40692],[0.669203,52.40996],[0.683881,52.42242],[0.685511,52.42519],[0.718642,52.44827],[0.718589,52.44965],[0.706316,52.45237],[0.696703,52.45111],[0.6897987331449357,52.4524676246487],[0.67221,52.45859],[0.671867,52.46016],[0.667232,52.4621],[0.66234,52.46152],[0.653328,52.45666],[0.651611,52.45655],[0.646118,52.45373],[0.645088,52.45221],[0.643457,52.45206],[0.642685,52.4508],[0.621146,52.45113],[0.617541,52.44917],[0.609611,52.4505],[0.607418,52.4525],[0.599877,52.4531],[0.598315,52.45407],[0.595311,52.45428],[0.5946893534763191,52.45401176493679],[0.566563,52.45356],[0.56482,52.45325],[0.559683,52.45539],[0.552684,52.45578],[0.534628,52.4513],[0.530998,52.45365],[0.528017,52.45265],[0.527061,52.45016],[0.5236104931256447,52.448282781234155],[0.516131,52.45053],[0.513838,52.44915],[0.507609,52.45053],[0.500539,52.4502],[0.496412,52.44722],[0.483877,52.4475],[0.478107,52.44531],[0.475737,52.44659],[0.473406,52.44571],[0.468705,52.44582],[0.462667,52.44252],[0.455062,52.44277],[0.445814,52.4472],[0.444682,52.44557],[0.439962,52.44395],[0.440477,52.44138],[0.43793000831024265,52.44034],[0.437902,52.44034],[0.4378067785367496,52.440289682221206],[0.431636,52.43777],[0.43077051744409117,52.4368725870197],[0.425387,52.44617],[0.425111,52.45219],[0.429244,52.45283],[0.429877,52.45564],[0.402798,52.46686],[0.392817,52.47693],[0.381833,52.48081],[0.368794,52.49648],[0.367391,52.50282],[0.362126,52.50071],[0.345135,52.50342],[0.331601,52.51067],[0.320053,52.50935],[0.318065,52.51449],[0.3094,52.5153],[0.256193,52.50937],[0.246419,52.50229],[0.239605,52.51065],[0.236098,52.50926],[0.213488,52.5202],[0.223747,52.51977],[0.232209,52.52835],[0.226057,52.53418],[0.22036,52.531],[0.21512,52.53372],[0.2088,52.53312],[0.214633,52.53737],[0.209685,52.543],[0.215463,52.54567],[0.216298,52.54926],[0.206247,52.54921],[0.206353,52.55389],[0.214897,52.55469],[0.218916,52.56045],[0.207437,52.56527],[0.217958,52.56857],[0.220061,52.57291],[0.216238,52.5761],[0.216505,52.58095],[0.20099,52.58368],[0.20072,52.59237],[0.195955,52.59366],[0.194153,52.59988],[0.202561,52.60178],[0.206624,52.61037],[0.218421,52.61317],[0.218596,52.61588],[0.214097,52.61801],[0.220958,52.62209],[0.192847,52.63573],[0.171899,52.651],[0.17894,52.65103],[0.179555,52.65386],[0.185309,52.65481],[0.18582,52.67915],[0.155598,52.68366],[0.157978,52.70736],[0.169127,52.72379],[0.17323165689859127,52.73749869911155],[0.186435,52.73435],[0.19463475492368917,52.738691608354856],[0.195589,52.73851],[0.19593241635778427,52.73937869446614],[0.23367,52.75936],[0.272512,52.77183],[0.27251181053781437,52.772191872774485],[0.273552,52.77251],[0.27251141447227956,52.77294835794603],[0.272511,52.77374],[0.247408,52.78521],[0.252412,52.79154],[0.261777,52.79561],[0.264824,52.80488],[0.273793,52.82478],[0.26805713544791626,52.85072061367884],[0.305138,52.99896],[1.337999,53.35573],[1.992789,52.57773],[1.726574,52.53055]]]}}
