{"type":"Feature","properties":{"sourceId":"niger"},"geometry":{"type":"MultiPolygon","coordinates":[[[[0.217101,15.00832],[0.23724131554815275,15.008260620358822],[0.21602380884753727,15.002551861506966],[0.217101,15.00832]]],[[[0.953119,15.00615],[1.306701,15.30156],[2.953327,15.37933],[3.016121,15.43579],[3.829421,15.74531],[4.138516,16.45541],[4.225302,19.18682],[5.796147,19.46513],[7.430048,20.89586],[11.9659,23.56864],[13.56139,23.22669],[14.2307,22.64942],[15.01028,23.02121],[15.25403,22.01342],[15.26871,21.5319],[16.05605,20.34721],[15.53108,16.8951],[13.88946,15.00846],[13.82561,14.71911],[13.70476,14.53042],[13.48022,14.44366],[13.59009,13.92474],[13.63724243300382,13.718989834259459],[13.36195,13.71671],[13.33551,13.72555],[13.30685,13.69953],[13.24127,13.61879],[13.22411,13.5916],[13.19355,13.5422],[13.14566,13.55689],[13.0709,13.55038],[13.05837,13.55489],[12.95528,13.52852],[12.87014,13.50882],[12.84164,13.48579],[12.7589,13.39263],[12.7438,13.3649],[12.6384,13.31279],[12.61265,13.29274],[12.59651,13.29308],[12.58896,13.29675],[12.57317,13.29074],[12.56252,13.25398],[12.52888,13.22023],[12.48184,13.12763],[12.46605,13.07914],[12.41798,13.0865],[12.36992,13.09653],[12.31705,13.10055],[12.26211,13.12295],[12.20959,13.13198],[12.19002,13.139],[12.14127,13.1166],[12.05166,13.14502],[12.01149,13.18847],[11.90369,13.26601],[11.68259,13.31045],[11.60019,13.35956],[11.45084,13.39931],[10.66429,13.3806],[10.45452,13.29909],[10.19669,13.2874],[9.998588,13.19282],[9.826927,13.03901],[9.646339,12.82553],[9.18045,12.84929],[8.981323,12.8513],[8.669586,12.95304],[8.647613,12.99051],[8.582725,13.05139],[8.499298,13.0962],[8.425827,13.07714],[8.269615,13.21354],[8.160095,13.28706],[8.074951,13.32816],[7.804069,13.35421],[7.393112,13.11225],[7.211837,13.14201],[7.111587,13.03031],[7.041206,13.00991],[6.949539,13.01861],[6.833496,13.15003],[6.714363,13.34386],[6.434555,13.61529],[6.280059,13.68802],[6.24916,13.69002],[6.150627,13.65533],[6.111488,13.67868],[5.881118,13.76073],[5.525436,13.89874],[5.341415,13.85408],[5.267944,13.77107],[5.078087,13.76073],[4.916381,13.75006],[4.875526,13.78941],[4.460106,13.69036],[4.231796,13.48512],[4.129829,13.48412],[4.137039,13.16106],[4.095497,12.99218],[4.014129,12.87808],[3.932075,12.75154],[3.809509,12.66747],[3.646087,12.52742],[3.642997,12.21588],[3.623085,12.12224],[3.672352,11.97854],[3.61433,11.92379],[3.624973,11.82888],[3.659477,11.80939],[3.673897,11.75494],[3.629951,11.71301],[3.6224353912891036,11.707639948993252],[3.582229,11.78469],[3.495712,11.86802],[3.448333,11.87676],[3.351262,11.95432],[2.847518,12.43658],[2.35176,12.26822],[2.403259,11.99164],[2.380922104126998,11.944665934096879],[2.071534,12.35614],[2.257427,12.40379],[2.274083,12.41732],[2.273174,12.47705],[2.230087,12.5974],[2.206842,12.63883],[2.149571,12.70152],[2.098265,12.73532],[1.987423,12.741],[1.920833,12.70747],[1.866378,12.61945],[1.582299,12.63977],[1.334152,12.83691],[1.162147,13.01158],[0.979156,13.01125],[0.997524,13.10205],[1.001529,13.36249],[1.179207,13.30334],[1.196937,13.31401],[1.249444,13.32917],[1.283202,13.33698],[1.29879,13.3629],[1.247983,13.40241],[1.204373,13.39735],[1.17444,13.406],[1.038894,13.47277],[1.026827,13.53259],[1.002414,13.57506],[0.978795,13.58036],[0.907011,13.63156],[0.867468,13.6425],[0.774102,13.69825],[0.625412,13.69558],[0.606944,13.71877],[0.62748,13.76452],[0.625039,13.78353],[0.590118,13.79563],[0.571515,13.82568],[0.523439,13.86037],[0.501515,13.90096],[0.474169,13.91876],[0.479513,13.96098],[0.432569,13.99003],[0.41954,14.02885],[0.38847,14.04683],[0.197821,14.47066],[0.177258,14.52334],[0.251342,14.75125],[0.248222,14.91227],[0.24178039569737975,15.008247237800347],[0.953119,15.00615]]]]}}
