{"type":"Feature","properties":{"sourceId":"northwest-territories"},"geometry":{"type":"Polygon","coordinates":[[[-111.7236,81.65483],[-109.7807,79.19664],[-109.88907844141582,73.93598358994196],[-110.0023,73.93962],[-110.0346,73.93262],[-110.0501,70.02059],[-112.5247,70.01214],[-112.5192,69.88501],[-112.8543,69.88595],[-112.8653,70.00932],[-117.1472,70.02622],[-117.1912,69.88879],[-116.7242,69.66091],[-120.737,69.57386],[-120.6999,67.99857],[-119.6246,67.70528],[-116.5155,66.81139],[-114.2908,66.11829],[-112.511,65.48905],[-110.6735,65.4862],[-109.3442,64.82383],[-107.471,64.70615],[-105.1042,64.51803],[-104.99981333645376,64.52609896910745],[-104.3503,64.46837],[-102.9801,64.33634],[-102.0015,64.23337],[-102.00829151607901,60.00448270054979],[-102.0132,60.00448],[-102.01320089196501,59.99980264696576],[-103.6395,60.00052],[-106.0663,59.99914],[-106.6206,60.00029],[-110.00419957926746,59.99983036682915],[-110.0042,60.00156],[-119.99859924244525,60.00253951969214],[-119.9986,60.00458],[-123.80637806522124,60.00515139916535],[-124.5218,61.00375],[-125.8731,60.93177],[-126.5845,60.84357],[-127.1242,61.46633],[-128.5248,62.15114],[-129.1223,62.48695],[-129.6634,62.85013],[-129.5563,63.07114],[-129.9338,63.26116],[-129.7595,63.44805],[-130.0836,63.86125],[-131.1603,64.4503],[-132.2699,64.86061],[-132.1449,65.61579],[-132.2932,65.9968],[-132.5665,66.03643],[-132.9868,66.04591],[-133.1474,66.03476],[-133.5306,65.97053],[-133.5306,66.19823],[-133.5635,66.5581],[-133.7956,67.00689],[-136.136,67.00779],[-136.069,67.30201],[-136.4328,68.8852],[-136.5647,69.40448],[-136.584269872742,69.4916891790837],[-111.7236,81.65483]]]}}
