{"type":"Feature","properties":{"sourceId":"nordeste"},"geometry":{"type":"Polygon","coordinates":[[[-28.72472,2.031551],[-28.42028,-1.431285],[-38.063492468304496,-18.549416563152075],[-39.41524,-18.33212],[-40.14816,-17.99832],[-40.17838,-17.74345],[-40.54779,-17.37816],[-40.4805,-16.95435],[-40.25253,-16.90837],[-40.22202,-16.64951],[-39.879,-16.274],[-39.84055,-16.1263],[-39.88175,-16.00357],[-40.21683,-15.78961],[-40.69336,-15.64949],[-40.97214,-15.62833],[-41.30722,-15.71956],[-41.33194,-15.50265],[-41.80161,-15.08008],[-42.28363,-15.0814],[-42.95105,-14.68324],[-43.19962,-14.62478],[-43.5347,-14.7284],[-43.84506,-14.63541],[-43.7788,-14.34406],[-43.77468,-14.33757],[-43.85468,-14.28435],[-43.99063,-14.24974],[-44.31885,-14.22445],[-44.58252,-14.31229],[-45.88279,-15.06923],[-45.9755,-14.83382],[-46.00043841254079,-14.835705238247783],[-45.97499,-14.78914],[-45.96738,-14.46738],[-45.87758,-14.37401],[-46.03254,-14.17707],[-46.18134,-14.11907],[-46.22396,-13.92663],[-46.21055,-13.67901],[-46.13041,-13.594],[-46.19779,-13.53523],[-46.18509,-13.43399],[-46.00863,-13.28091],[-46.0664,-13.23005],[-46.25873,-13.30049],[-46.27987,-13.10318],[-46.24092,-13.03836],[-46.10534,-12.98527],[-46.08089,-12.91474],[-46.12046,-12.88603],[-46.322229594415525,-12.942089404695732],[-46.31944,-12.85915],[-46.29467,-12.83197],[-46.29339,-12.72726],[-46.31552,-12.69198],[-46.29867,-12.65592],[-46.31492,-12.63952],[-46.30487,-12.5783],[-46.25749,-12.52018],[-46.28592,-12.44058],[-46.32957,-12.41183],[-46.31773,-12.38274],[-46.36773,-12.34844],[-46.39281,-12.29454],[-46.38709,-12.2249],[-46.41056,-12.19391],[-46.39106,-12.11359],[-46.41622,-12.03605],[-46.33783,-11.94271],[-46.25654,-11.92347],[-46.37593,-11.89991],[-46.39372,-11.83956],[-46.3544,-11.78632],[-46.39211,-11.74594],[-46.31837,-11.68525],[-46.32949,-11.61834],[-46.22798,-11.60617],[-46.25786,-11.57914],[-46.41259,-11.56063],[-46.5184,-11.51224],[-46.57243,-11.39641],[-46.61321,-11.36379],[-46.63678,-11.28881],[-46.62275,-11.24122],[-46.48714,-11.17157],[-46.41677,-10.98543],[-46.31024,-10.89458],[-46.30237,-10.81979],[-46.25594,-10.78908],[-46.27434,-10.75304],[-46.21764,-10.70594],[-46.22241,-10.64743],[-45.86415,-10.47216],[-45.84539,-10.36136],[-45.75447,-10.32277],[-45.72205,-10.2529],[-45.79649,-10.28682],[-45.88886,-10.26332],[-46.01003,-10.28036],[-46.04342,-10.20528],[-46.09427,-10.23246],[-46.16201,-10.23343],[-46.21508,-10.19345],[-46.32748,-10.20275],[-46.38034,-10.18221],[-46.4733,-10.06094],[-46.52046,-9.829851],[-46.58546,-9.822211],[-46.5953,-9.77672],[-46.66345,-9.742164],[-46.67041,-9.684419],[-46.57461,-9.550648],[-46.59519,-9.503784],[-46.65493,-9.468791],[-46.67735,-9.414677],[-46.77323,-9.425371],[-46.78792,-9.376547],[-46.86359,-9.305426],[-46.84733,-9.220488],[-46.87245,-9.171803],[-46.94256,-9.144838],[-46.95213,-9.094497],[-47.01376,-9.100445],[-47.08647,-9.070019],[-47.08569,-9.003576],[-47.00457,-8.913066],[-47.01058,-8.871413],[-46.93645,-8.833213],[-46.92555,-8.789272],[-46.95034,-8.723741],[-46.91766,-8.677909],[-46.93546,-8.65058],[-46.93327,-8.584061],[-46.87331,-8.528918],[-46.86574,-8.462907],[-46.82302,-8.440572],[-46.82202,-8.387901],[-46.78962,-8.34998],[-46.7379,-8.35433],[-46.64403,-8.30096],[-46.55332,-8.294223],[-46.5302,-8.261882],[-46.5179,-8.20483],[-46.53155,-8.156951],[-46.49314,-8.065819],[-46.51291,-7.992207],[-46.61838,-7.919166],[-46.86887,-7.989706],[-46.92986,-8.019833],[-46.9924,-8.085975],[-47.05684,-8.069493],[-47.08482,-8.018406],[-47.1241,-8.0006],[-47.17113,-7.906991],[-47.25964,-7.828718],[-47.28924,-7.759902],[-47.32957,-7.743058],[-47.35844,-7.673498],[-47.40081,-7.661539],[-47.42578,-7.584685],[-47.45838,-7.5491],[-47.49102,-7.545187],[-47.52202,-7.458549],[-47.57247,-7.469275],[-47.60942,-7.447721],[-47.58468,-7.397174],[-47.50543,-7.35507],[-47.50925,-7.318894],[-47.57982,-7.286507],[-47.62276,-7.322447],[-47.65552,-7.324288],[-47.76515,-7.211359],[-47.75484,-7.145662],[-47.71462,-7.119871],[-47.65512,-7.1218],[-47.55412,-6.98382],[-47.52744,-6.887872],[-47.54959,-6.83431],[-47.5182,-6.75271],[-47.51682,-6.666891],[-47.44167,-6.482435],[-47.45145,-6.423921],[-47.40192,-6.263208],[-47.45277,-6.118896],[-47.4678,-5.994569],[-47.45207,-5.881443],[-47.5109,-5.740293],[-47.49677,-5.645488],[-47.51728,-5.540991],[-47.56701,-5.487636],[-47.62039,-5.480167],[-47.74123,-5.404011],[-47.84481,-5.397895],[-47.88597,-5.348333],[-47.90446,-5.274842],[-47.98982,-5.255954],[-48.06603,-5.292662],[-48.17556,-5.281149],[-48.3654,-5.194299],[-48.52384,-5.221927],[-48.59813,-5.35432],[-48.6755,-5.331668],[-48.71919,-5.374482],[-48.77554,-5.347611],[-48.46499,-5.096509],[-48.44107,-5.070494],[-48.40295,-5.049199],[-47.81171,-4.575893],[-47.6902,-4.584526],[-47.62813,-4.540732],[-47.52632,-4.400964],[-47.49163,-4.305252],[-47.39892,-4.230207],[-47.3379,-4.039166],[-47.21919,-3.965317],[-47.1079,-3.841309],[-47.0571,-3.555067],[-46.99804,-3.508542],[-46.96292,-3.372422],[-46.84769,-3.296875],[-46.78762,-3.167487],[-46.75969,-3.148185],[-46.76365,-3.110691],[-46.70018,-3.072423],[-46.68054,-2.972722],[-46.69852,-2.875808],[-46.63511,-2.823017],[-46.6913,-2.741711],[-46.68863,-2.699793],[-46.62436,-2.625687],[-46.53036,-2.599454],[-46.50869,-2.527711],[-46.45741,-2.51428],[-46.45901,-2.405803],[-46.48558,-2.373516],[-46.43979,-2.271533],[-46.44945,-2.229458],[-46.36504,-2.203556],[-46.29233,-2.100756],[-46.24694,-1.915818],[-46.26353,-1.879866],[-46.23725,-1.834258],[-46.32319,-1.821377],[-46.34056,-1.751988],[-46.31218,-1.71185],[-46.22848,-1.704593],[-46.18021,-1.670102],[-46.15782,-1.562373],[-46.1953,-1.472946],[-46.13821,-1.352716],[-46.18021,-1.288648],[-46.17085,-1.225131],[-46.11566,-1.18431],[-45.76328,-0.200778],[-30.9223,2.673015],[-29.3325,2.335959],[-28.72472,2.031551]]]}}
