{"type":"Feature","properties":{"sourceId":"north-yorkshire"},"geometry":{"type":"Polygon","coordinates":[[[-1.2576460414099926,53.64536676046805],[-1.24852,53.64835],[-1.24551,53.65489],[-1.250602,53.66652],[-1.242686,53.67226],[-1.240649,53.67941],[-1.231877,53.68546],[-1.236868,53.6912],[-1.198754,53.69362],[-1.196,53.7012],[-1.213411,53.70713],[-1.215519,53.71598],[-1.225952,53.71342],[-1.229744,53.71653],[-1.249713,53.71358],[-1.267055,53.71634],[-1.271197,53.72653],[-1.286154,53.73676],[-1.300114,53.74335],[-1.308741,53.74058],[-1.308534,53.74525],[-1.312743,53.74517],[-1.310858,53.7537],[-1.294015,53.75373],[-1.293402,53.75785],[-1.287952,53.76325],[-1.294427,53.77301],[-1.301839,53.77381],[-1.301819,53.77657],[-1.312079,53.7823],[-1.309968,53.78752],[-1.313318,53.8077],[-1.31132,53.81205],[-1.302239,53.81221],[-1.299664,53.81521],[-1.308216,53.81986],[-1.30848,53.8237],[-1.330854,53.8332],[-1.324085,53.83388],[-1.325754,53.84124],[-1.340769,53.84644],[-1.339172,53.85221],[-1.349108,53.856],[-1.321659,53.85981],[-1.311868,53.8651],[-1.317096,53.87643],[-1.315044,53.8821],[-1.318892,53.88389],[-1.315633,53.89163],[-1.320177,53.9019],[-1.29983,53.90634],[-1.299275,53.909],[-1.301803,53.90996],[-1.294991,53.92262],[-1.302171,53.92318],[-1.29319,53.92513],[-1.292497,53.92835],[-1.300255,53.93091],[-1.306977,53.92732],[-1.305797,53.93584],[-1.341095,53.94243],[-1.338552,53.9455],[-1.340565,53.94767],[-1.359641,53.94379],[-1.392704,53.94478],[-1.400562,53.94293],[-1.402431,53.93862],[-1.409321,53.93683],[-1.412307,53.92987],[-1.433277,53.92897],[-1.434168,53.91276],[-1.441104,53.91543],[-1.450948,53.90882],[-1.463086,53.90756],[-1.467891,53.91265],[-1.485679,53.91255],[-1.498734,53.91699],[-1.528581,53.91039],[-1.548986,53.9126],[-1.552001,53.90465],[-1.562175,53.90555],[-1.567594,53.9125],[-1.583948,53.91089],[-1.588895,53.90308],[-1.599025,53.90577],[-1.600158,53.91134],[-1.622113,53.90512],[-1.641918,53.909],[-1.651633,53.9074],[-1.650708,53.91149],[-1.653951,53.91386],[-1.682936,53.91218],[-1.686368,53.91353],[-1.686389,53.91796],[-1.704146,53.92093],[-1.717258,53.91916],[-1.719741,53.91174],[-1.722317,53.91358],[-1.728611,53.91192],[-1.741857,53.91649],[-1.74508,53.92457],[-1.755376,53.92267],[-1.765709,53.92631],[-1.770264,53.92284],[-1.775137,53.92301],[-1.781899,53.93109],[-1.796632,53.93113],[-1.796618,53.93812],[-1.804766,53.94054],[-1.847788,53.94213],[-1.851252,53.93686],[-1.847882,53.93366],[-1.860065,53.93389],[-1.860668,53.94136],[-1.872567,53.94602],[-1.878068,53.95625],[-1.877682,53.96363],[-1.881706,53.96491],[-1.88551,53.96462],[-1.895111,53.95689],[-1.906436,53.96005],[-1.923034,53.95756],[-1.928683,53.95208],[-1.94076,53.95435],[-1.944469,53.95778],[-1.96455,53.95686],[-1.966526,53.95384],[-1.964574,53.94593],[-1.968673,53.94643],[-1.971506,53.94356],[-1.966182,53.93488],[-1.978264,53.92621],[-1.96824,53.91712],[-1.955239,53.91092],[-1.954846,53.90625],[-1.971471,53.9061],[-1.982131,53.89844],[-1.97862,53.87895],[-1.982229,53.87056],[-1.993408,53.87095],[-1.996632,53.87437],[-2.00362,53.87558],[-2.005365,53.87298],[-2.027498,53.87241],[-2.034571,53.8602],[-2.041502279657628,53.855309523220456],[-2.070434,53.87033],[-2.119298,53.92921],[-2.171947,53.94518],[-2.192308,53.97647],[-2.217233,53.97216],[-2.214228,53.98148],[-2.229519,53.98922],[-2.288457,53.98272],[-2.316355,54.00119],[-2.338209,53.99899],[-2.335916,54.01944],[-2.350416,54.02648],[-2.355182,54.04447],[-2.36875,54.05509],[-2.457698,54.04945],[-2.459454,54.08137],[-2.516137,54.10333],[-2.553167,54.12857],[-2.549095,54.14496],[-2.530893,54.15041],[-2.473736,54.19788],[-2.451688,54.22732],[-2.4527597145049285,54.22588897337513],[-2.432907,54.22419],[-2.42956,54.22522],[-2.422822,54.22487],[-2.413338,54.2272],[-2.402901,54.22712],[-2.400987,54.23404],[-2.395742,54.24044],[-2.372439,54.24037],[-2.372096,54.24819],[-2.362526,54.2511],[-2.359736,54.24734],[-2.350209,54.2424],[-2.34978,54.23896],[-2.349179,54.23829],[-2.340167,54.23733],[-2.329095,54.24235],[-2.326606,54.24242],[-2.325104,54.24142],[-2.322872,54.24531],[-2.323516,54.24764],[-2.322057,54.24887],[-2.321756,54.25408],[-2.31858,54.25744],[-2.320597,54.2604],[-2.318151,54.26396],[-2.31858,54.26587],[-2.31798,54.26732],[-2.315748,54.26895],[-2.31592,54.27063],[-2.320125,54.27516],[-2.321756,54.27571],[-2.322057,54.27769],[-2.323988,54.27942],[-2.325619,54.27987],[-2.321198,54.28145],[-2.320898,54.28228],[-2.321241,54.28328],[-2.319095,54.28401],[-2.318151,54.28649],[-2.317036,54.28746],[-2.324159,54.2936],[-2.321627,54.29578],[-2.319911,54.29954],[-2.320125,54.30021],[-2.324503,54.30081],[-2.324546,54.30362],[-2.321241,54.30527],[-2.320168,54.30715],[-2.323516,54.31128],[-2.32064,54.31251],[-2.319181,54.31138],[-2.315233,54.31406],[-2.312916,54.31859],[-2.313044,54.31909],[-2.310427,54.32435],[-2.319181,54.3282],[-2.320769,54.33143],[-2.326134,54.33148],[-2.335446,54.33478],[-2.335618,54.33581],[-2.334974,54.33713],[-2.335446,54.33989],[-2.348063,54.34454],[-2.348364,54.34667],[-2.359779,54.35004],[-2.361582,54.35234],[-2.366903,54.35464],[-2.367767,54.35568],[-2.363046,54.35448],[-2.345708,54.35958],[-2.339614,54.36383],[-2.335065,54.36388],[-2.323993,54.37018],[-2.317384,54.37658],[-2.297634,54.37679],[-2.292484,54.38396],[-2.293352,54.38763],[-2.291978,54.38908],[-2.291892,54.39033],[-2.304767,54.39673],[-2.306055,54.39857],[-2.305282,54.40157],[-2.307085,54.40397],[-2.305941,54.40737],[-2.308623,54.41579],[-2.307831,54.41755],[-2.308271,54.42029],[-2.305412,54.42239],[-2.303137,54.42626],[-2.300511,54.42663],[-2.295843,54.42911],[-2.294734,54.43091],[-2.29205,54.43118],[-2.29152,54.4349],[-2.292427,54.43872],[-2.284058,54.43801],[-2.276698,54.43942],[-2.2769,54.44012],[-2.271657,54.44089],[-2.270749,54.44171],[-2.265708,54.44288],[-2.267926,54.44687],[-2.24645,54.45172],[-2.244109,54.45006],[-2.239085,54.44956],[-2.2388,54.44989],[-2.236274,54.44824],[-2.190029,54.44864],[-2.182397,54.45743],[-2.180061,54.45838],[-2.177409,54.46158],[-2.171032,54.46114],[-2.171284,54.46018],[-2.173557,54.45868],[-2.170337,54.45838],[-2.1703047806253966,54.45840371427232],[-2.1666549776698307,54.46211987728162],[-2.1666549776698303,54.46211987728162],[-2.171212,54.45748],[-2.158643,54.45426],[-2.149502,54.45873],[-2.116836,54.46089],[-2.081533,54.46853],[-2.059763,54.47963],[-2.049068,54.48011],[-2.046603,54.47863],[-2.045324,54.4741],[-2.015153,54.47029],[-1.997602,54.46577],[-1.985768,54.45864],[-1.970662,54.45047],[-1.9664,54.45035],[-1.94268,54.45209],[-1.927475,54.4554],[-1.893416,54.46555],[-1.877348,54.47664],[-1.867716,54.4805],[-1.858834,54.48065],[-1.857311,54.4825],[-1.856466,54.49361],[-1.856932,54.50038],[-1.839279,54.50658],[-1.827357,54.49983],[-1.822649,54.49384],[-1.79242,54.48337],[-1.774901,54.5065],[-1.776245,54.51617],[-1.775232,54.53043],[-1.769696,54.53153],[-1.761595,54.52769],[-1.742793,54.52832],[-1.733401,54.5264],[-1.726396,54.5296],[-1.722436,54.53814],[-1.719145,54.53974],[-1.705389,54.5356],[-1.683246,54.53209],[-1.672863,54.53408],[-1.660719,54.53388],[-1.658213,54.53213],[-1.657294,54.52464],[-1.653049,54.52289],[-1.643677,54.52299],[-1.641378,54.52108],[-1.64097,54.51593],[-1.633805,54.51288],[-1.623179,54.5134],[-1.612806,54.51857],[-1.606287,54.51802],[-1.604392,54.51573],[-1.604123,54.50991],[-1.595374,54.51016],[-1.593347,54.50822],[-1.592426,54.50298],[-1.586256,54.50171],[-1.584144,54.49645],[-1.577536,54.49317],[-1.574398,54.4893],[-1.557406,54.48413],[-1.552477,54.47425],[-1.546601,54.47019],[-1.532914,54.46785],[-1.521823,54.46896],[-1.516327,54.4738],[-1.510087,54.47393],[-1.504058,54.478],[-1.495467,54.47282],[-1.48639,54.47166],[-1.478101,54.47344],[-1.471161,54.46265],[-1.473595,54.45688],[-1.472865,54.45447],[-1.463688,54.4502],[-1.458462,54.45026],[-1.45362,54.45322],[-1.456923,54.46006],[-1.452203,54.46567],[-1.453174,54.46796],[-1.457739,54.46987],[-1.460918,54.47577],[-1.456341,54.4811],[-1.459124,54.48775],[-1.45466,54.49585],[-1.450053,54.49489],[-1.434938,54.48574],[-1.432896,54.47838],[-1.41334,54.47583],[-1.407841,54.47903],[-1.406693,54.48345],[-1.407943,54.48921],[-1.405837,54.49253],[-1.401413,54.49232],[-1.3994,54.4868],[-1.396165,54.48455],[-1.384017,54.4856],[-1.381133,54.48723],[-1.380911,54.49139],[-1.376032,54.49538],[-1.375761,54.5002],[-1.373414,54.50203],[-1.360138,54.5021],[-1.35469,54.50564],[-1.348654,54.5022],[-1.344147,54.5024],[-1.335646,54.50852],[-1.334147,54.51696],[-1.33508,54.52782],[-1.333348,54.53028],[-1.320677,54.53336],[-1.313619,54.53258],[-1.306693,54.53818],[-1.308795,54.55261],[-1.304308,54.56327],[-1.286941,54.56309],[-1.263218,54.56826],[-1.260013,54.57161],[-1.256497,54.58771],[-1.251561,54.59013],[-1.214173,54.58025],[-1.20048,54.58081],[-1.157285,54.60694],[-1.153549,54.61165],[-1.152249,54.61772],[-1.156472,54.63027],[-1.151379,54.63753],[-1.150082,54.64449],[-1.101584,54.68259],[-1.112277265303456,54.696944331416454],[-0.040615,54.34265],[-0.1972731337539576,54.16230555395496],[-0.212807,54.15649],[-0.220439,54.13747],[-0.230567,54.13284],[-0.237434,54.13787],[-0.25761171993277254,54.13687919164036],[-0.262709,54.1375],[-0.2840544885382437,54.135580743833884],[-0.303009,54.13465],[-0.313823,54.14561],[-0.321891,54.14531],[-0.324466,54.15135],[-0.345752,54.14763],[-0.373905,54.15466],[-0.373905,54.15627],[-0.371501,54.15697],[-0.373046,54.1618],[-0.387123,54.17436],[-0.39413221626879996,54.17269265806337],[-0.412533,54.17193],[-0.4195597884195159,54.167052907519164],[-0.421798,54.16652],[-0.42197,54.16542],[-0.433471,54.16371],[-0.432956,54.16069],[-0.429008,54.15868],[-0.432613,54.15788],[-0.426605,54.13667],[-0.457504,54.1248],[-0.452697,54.11967],[-0.454242,54.11967],[-0.454414,54.11735],[-0.458534,54.11584],[-0.458019,54.11403],[-0.468318,54.11071],[-0.466087,54.10739],[-0.523593,54.08585],[-0.528057,54.08978],[-0.534236,54.08796],[-0.547626,54.09209],[-0.5606488076337406,54.09045465865107],[-0.561358,54.09059],[-0.5618720543390742,54.09030104923185],[-0.591743,54.08655],[-0.610111,54.07356],[-0.626419,54.07034],[-0.62659,54.06903],[-0.659034,54.06359],[-0.644615,54.05482],[-0.653369,54.04475],[-0.652511,54.04384],[-0.656974,54.04222],[-0.659206,54.03709],[-0.679634,54.03628],[-0.680664,54.03275],[-0.683067,54.03356],[-0.687187,54.02478],[-0.678089,54.01762],[-0.707466,54.0074],[-0.709846,54.01319],[-0.725467,54.01278],[-0.725467,54.0143],[-0.730102,54.0145],[-0.73199,54.03053],[-0.79911,54.01954],[-0.799453,54.02337],[-0.879048,54.0165],[-0.877729,54.01364],[-0.889449,54.00881],[-0.89393,53.99972],[-0.90954,53.99662],[-0.912275,53.9927],[-0.924007,53.99138],[-0.920553,53.99021],[-0.934018,53.96948],[-0.921223,53.96104],[-0.921972,53.95759],[-0.92762,53.95293],[-0.924932,53.9488],[-0.928428,53.94365],[-0.924866,53.94106],[-0.925245,53.93596],[-0.923711,53.93567],[-0.928144,53.93077],[-0.921761,53.92118],[-0.928317,53.92035],[-0.927698,53.91853],[-0.931884,53.91676],[-0.930538,53.91473],[-0.932204,53.90881],[-0.93718,53.90849],[-0.941045,53.90438],[-0.940176,53.89898],[-0.950222,53.89541],[-0.919444,53.8903],[-0.918758,53.88858],[-0.924218,53.88721],[-0.922706,53.87846],[-0.940646,53.87425],[-0.938466,53.86885],[-0.948163,53.86161],[-0.941944,53.85536],[-0.946424,53.85036],[-0.944896,53.84793],[-0.946582,53.84243],[-0.940943,53.83384],[-0.940627,53.82461],[-0.919963,53.81544],[-0.934355,53.80248],[-0.928137,53.79732],[-0.936622,53.78004],[-0.929138,53.77315],[-0.928031,53.76643],[-0.968295,53.75072],[-0.962479,53.74521],[-0.961602,53.73653],[-0.910372,53.73164],[-0.911595,53.72853],[-0.90728,53.72735],[-0.903554,53.72115],[-0.906173,53.71687],[-0.958666,53.71457],[-0.961162,53.70768],[-0.957866,53.7057],[-0.962575,53.70356],[-0.96314,53.70066],[-0.969968,53.70258],[-0.966483,53.70607],[-0.982635,53.70425],[-0.983059,53.70202],[-0.979857,53.69776],[-1.000011,53.69918],[-1.004862,53.69617],[-1.053841,53.69714],[-1.053956,53.7014],[-1.063274,53.70685],[-1.069126,53.70266],[-1.074275,53.70347],[-1.085777,53.68685],[-1.07994,53.68553],[-1.088523,53.6838],[-1.095218,53.67628],[-1.103458,53.67506],[-1.105174,53.66946],[-1.08098115080212,53.66439025774323],[-1.080594017255499,53.66409471115982],[-1.081828,53.66245],[-1.071014,53.6601],[-1.071872,53.65807],[-1.0488739126368078,53.658971751063575],[-1.0485578478871558,53.65849400528398],[-1.049668,53.6584],[-1.125312,53.64743],[-1.162869,53.64398],[-1.207477,53.6435],[-1.210583,53.64313],[-1.21684,53.64203],[-1.228695,53.62293],[-1.2329704261424812,53.621687060773155],[-1.241556,53.6338],[-1.2576948424386603,53.644301686922674],[-1.2576460414099926,53.64536676046805]]]}}
