{"type":"Feature","properties":{"sourceId":"noord-brabant"},"geometry":{"type":"Polygon","coordinates":[[[4.275303,51.64513],[4.332329,51.65503],[4.361059,51.66406],[4.373533,51.67292],[4.377509,51.6784],[4.378951,51.68484],[4.393087,51.69449],[4.423374,51.7107],[4.507045,51.69381],[4.542204,51.6961],[4.589138,51.70463],[4.616964,51.71476],[4.673968,51.72531],[4.703276,51.73815],[4.728642,51.75175],[4.739582,51.75954],[4.754497,51.78269],[4.773279,51.7946],[4.797282,51.80108],[4.835846,51.79915],[4.853784,51.80187],[4.889104,51.82017],[4.922738,51.82937],[4.936007,51.82962],[4.98774,51.82237],[5.00104,51.82209],[5.010435,51.81825],[5.012241,51.81259],[5.016405,51.80947],[5.051552,51.7977],[5.068569,51.78127],[5.079421,51.78114],[5.088163,51.78703],[5.097531,51.78887],[5.105866,51.7867],[5.118343,51.7793],[5.137153,51.77451],[5.14093,51.76984],[5.137166,51.761],[5.14392,51.75494],[5.133554,51.74657],[5.133061,51.74232],[5.135396,51.74051],[5.167085,51.74431],[5.196279,51.74156],[5.220831,51.74479],[5.231228,51.74264],[5.249339,51.73489],[5.263896,51.74011],[5.272677,51.74136],[5.299861,51.73852],[5.321566,51.74773],[5.354891,51.75756],[5.358983,51.76167],[5.360087,51.77627],[5.366094,51.78826],[5.382665,51.80564],[5.404121,51.8233],[5.415161,51.8226],[5.422988,51.81566],[5.429661,51.8126],[5.44811,51.8109],[5.471993,51.81484],[5.476043,51.81822],[5.480832,51.82789],[5.490103,51.83181],[5.503613,51.83002],[5.517906,51.82059],[5.539296,51.81753],[5.546274,51.81947],[5.551076,51.82576],[5.556555,51.82851],[5.590504,51.83089],[5.602344,51.8281],[5.619761,51.82086],[5.633941,51.82095],[5.641661,51.81917],[5.646829,51.81514],[5.65348,51.80346],[5.662439,51.79647],[5.690538,51.79096],[5.706594,51.77742],[5.723617,51.77591],[5.732373,51.77316],[5.745842,51.76033],[5.753967,51.75664],[5.776756,51.75342],[5.846308,51.76049],[5.864426719520332,51.75897724163397],[5.863389,51.75712],[5.878747,51.74855],[5.884355,51.72752],[5.88973,51.72255],[5.907157,51.71724],[5.942633,51.71319],[5.95353,51.70908],[5.891275,51.56154],[5.837487,51.56739],[5.851209,51.50422],[5.85968,51.49082],[5.870649,51.44935],[5.873532,51.35445],[5.672287,51.31645],[5.625381,51.27484],[5.622119,51.24895],[5.6167,51.23057],[5.59824,51.22633],[5.5937,51.22728],[5.566167,51.22225],[5.564832,51.22071],[5.563304,51.21852],[5.564970392226597,51.218080374650405],[5.56497,51.21808],[5.559201,51.2196],[5.551906,51.24401],[5.553776,51.2642],[5.527008,51.27927],[5.51387,51.29247],[5.485651,51.29692],[5.465753,51.28171],[5.444162,51.27934],[5.417866,51.25932],[5.349209,51.27218],[5.337141,51.26014],[5.295677,51.25852],[5.263199,51.26375],[5.236915,51.25852],[5.222979,51.26846],[5.238275,51.3036],[5.200519,51.31929],[5.162749,51.30732],[5.131953,51.3137],[5.128835,51.34524],[5.06835,51.3925],[5.100715,51.43182],[5.077345,51.46836],[5.044581,51.46836],[5.035358,51.47774],[5.036552,51.48414],[5.012929,51.46986],[5.013917,51.45484],[5.006537,51.44165],[4.921044,51.39069],[4.911727,51.39296],[4.913135,51.39849],[4.90576,51.40561],[4.888757,51.41218],[4.876084,51.41217],[4.867381,51.40611],[4.839025,51.41159],[4.789316,51.40599],[4.769536,51.41241],[4.763576,51.4303],[4.766441,51.43365],[4.787077,51.43569],[4.824689,51.4261],[4.820426,51.44923],[4.833136,51.46093],[4.837352,51.47891],[4.819916,51.48033],[4.814349,51.4919],[4.782196,51.49669],[4.778101,51.50142],[4.754141,51.4971],[4.748593,51.4873],[4.731148,51.48153],[4.718609,51.4664],[4.706865,51.46444],[4.694952,51.44937],[4.670006,51.44242],[4.671392,51.42389],[4.64147,51.41902],[4.574917,51.42981],[4.534364,51.42022],[4.52697,51.45018],[4.544128,51.47294],[4.537175,51.47927],[4.476857,51.47526],[4.465859,51.46823],[4.443222,51.46573],[4.39342,51.44904],[4.401744,51.43458],[4.397519,51.425],[4.387858,51.41998],[4.393899,51.41018],[4.434043,51.37691],[4.432594,51.36112],[4.422241,51.36214],[4.384498,51.35135],[4.340371,51.35473],[4.332372,51.37453],[4.278406889934505,51.372823569691704],[4.278333,51.37522],[4.274972,51.38353],[4.270155,51.38692],[4.270194,51.40107],[4.265367,51.41485],[4.268118,51.4194],[4.276821,51.42431],[4.27668,51.42613],[4.220115,51.50635],[4.221382,51.51395],[4.23633,51.54116],[4.237586,51.5485],[4.236363,51.55454],[4.229053,51.56462],[4.196782,51.58975],[4.191486,51.60085],[4.193988,51.61098],[4.203581,51.62115],[4.214781,51.6264],[4.23901,51.63344],[4.2436,51.64798],[4.242779489987899,51.64827284858684],[4.275303,51.64513]]]}}
