{"type":"Feature","properties":{"sourceId":"northumberland"},"geometry":{"type":"Polygon","coordinates":[[[-2.415198,55.3599],[-2.401709,55.35529],[-2.397726,55.34907],[-2.380349,55.35029],[-2.374914,55.35491],[-2.361467,55.36063],[-2.34074,55.36711],[-2.347105,55.3735],[-2.338152,55.37743],[-2.337635,55.38064],[-2.336889,55.38104],[-2.337225,55.38319],[-2.336791,55.38589],[-2.336713,55.39206],[-2.344047,55.3967],[-2.345901,55.39949],[-2.334424,55.40341],[-2.336229,55.40898],[-2.332118,55.41088],[-2.327287,55.40897],[-2.315987,55.41035],[-2.315527,55.41029],[-2.315129,55.41045],[-2.313006,55.41071],[-2.296726,55.4157],[-2.295094,55.42124],[-2.260668,55.43391],[-2.242493,55.43315],[-2.230156,55.43153],[-2.206382,55.4383],[-2.195195,55.44567],[-2.188301,55.4623],[-2.190192,55.46395],[-2.174406,55.46916],[-2.200341,55.47279],[-2.201671,55.47395],[-2.20732,55.48132],[-2.204165,55.48866],[-2.219978,55.50485],[-2.227147,55.5063],[-2.229762,55.50913],[-2.229015,55.51839],[-2.227897,55.52279],[-2.228619,55.5233],[-2.228285,55.52745],[-2.234043,55.52909],[-2.233835,55.54485],[-2.240657,55.55004],[-2.24365,55.55355],[-2.250134,55.55692],[-2.26021,55.56275],[-2.26131,55.56474],[-2.27059,55.56932],[-2.286114,55.57698],[-2.289661,55.57974],[-2.293359,55.58569],[-2.289017,55.5924],[-2.289558,55.60107],[-2.308025,55.61043],[-2.317006,55.62012],[-2.317605,55.62052],[-2.311861,55.62542],[-2.323978,55.62475],[-2.32474,55.62526],[-2.332999,55.62908],[-2.336963,55.6327],[-2.335426,55.6354],[-2.327117,55.63757],[-2.32556,55.64384],[-2.316062,55.64431],[-2.305874,55.64803],[-2.297926,55.64782],[-2.288835,55.64449],[-2.278794,55.64375],[-2.255824,55.64542],[-2.236402,55.64353],[-2.247071,55.64715],[-2.244729,55.64763],[-2.248805,55.65043],[-2.24896,55.65275],[-2.237353,55.6573],[-2.232517,55.66156],[-2.225317,55.66459],[-2.221182,55.66565],[-2.221138,55.66634],[-2.220146,55.66676],[-2.220527,55.67366],[-2.219391,55.67658],[-2.206509,55.6869],[-2.192814,55.69633],[-2.184502,55.70249],[-2.169293,55.70637],[-2.169156,55.70779],[-2.177634,55.71545],[-2.177121,55.71963],[-2.16974,55.72266],[-2.164713,55.72353],[-2.151186,55.72396],[-2.14878,55.72717],[-2.15071,55.73543],[-2.144365,55.74029],[-2.136558,55.7414],[-2.125972,55.73835],[-2.122989,55.74068],[-2.121986,55.74061],[-2.121374,55.74194],[-2.120118,55.74292],[-2.116436,55.74825],[-2.107029,55.7497],[-2.110451,55.75694],[-2.108427,55.7604],[-2.100781,55.76321],[-2.087221,55.76388],[-2.086765,55.76761],[-2.088498,55.77206],[-2.089539,55.78666],[-2.089179,55.79064],[-2.086669,55.79386],[-2.077458,55.7951],[-2.064232,55.80273],[-2.060711,55.8038],[-2.050012,55.80456],[-2.033015,55.81263],[-1.964364,55.84866],[-1.554371,55.69721],[-1.223287,55.25475],[-1.453530768201886,55.079150996996944],[-1.460595,55.07589],[-1.471137,55.07571],[-1.480936,55.06869],[-1.493091,55.06698],[-1.490669,55.05901],[-1.491884,55.05632],[-1.505171,55.05099],[-1.510688,55.05629],[-1.531674,55.05575],[-1.539641,55.0628],[-1.543701,55.05967],[-1.566249,55.05587],[-1.573873,55.05743],[-1.57885,55.06436],[-1.601129,55.06641],[-1.621767,55.06772],[-1.636059,55.06699],[-1.648218,55.08063],[-1.671411,55.07793],[-1.690932,55.07417],[-1.705024,55.07208],[-1.714218,55.06662],[-1.714928,55.06484],[-1.711474,55.05199],[-1.701902,55.05089],[-1.699795,55.04716],[-1.701255,55.04458],[-1.712129,55.0423],[-1.717594,55.03964],[-1.721065,55.03539],[-1.739795,55.03072],[-1.751156,55.02479],[-1.757424,55.01651],[-1.759313,55.00548],[-1.77487,55.0048],[-1.778921,54.98478],[-1.791639,54.98507],[-1.813496,54.97731],[-1.815583,54.97074],[-1.822372,54.96728],[-1.825481,54.96321],[-1.826516,54.95812],[-1.834684,54.95403],[-1.832382,54.94431],[-1.827979,54.93884],[-1.829524,54.93286],[-1.841758,54.93086],[-1.853879,54.91796],[-1.850207,54.91365],[-1.828843,54.90907],[-1.8254030956769014,54.906850382903926],[-1.827424,54.9069],[-1.835801,54.90003],[-1.846309,54.89784],[-1.855556,54.89186],[-1.856468,54.88898],[-1.854189,54.88555],[-1.854694,54.88244],[-1.861129,54.8786],[-1.862565,54.8676],[-1.870863,54.86205],[-1.870618,54.85324],[-1.888141,54.84524],[-1.897423,54.84708],[-1.908702,54.84111],[-1.915469,54.84086],[-1.918725,54.84294],[-1.921204,54.85045],[-1.932004,54.85527],[-1.937569,54.85385],[-1.949523,54.85459],[-1.967489,54.86115],[-1.970918,54.86525],[-1.979935,54.86944],[-1.991235,54.87143],[-2.001067,54.87095],[-2.012607,54.8677],[-2.014789,54.86503],[-2.036774,54.8539],[-2.040622,54.84968],[-2.067927,54.84609],[-2.07434,54.8421],[-2.083292,54.83962],[-2.09596,54.83818],[-2.10314,54.84138],[-2.130533,54.84396],[-2.139718,54.8432],[-2.145554,54.8276],[-2.161829,54.81942],[-2.166829,54.81518],[-2.169863,54.80831],[-2.199295,54.80776],[-2.21808,54.78448],[-2.231318,54.78499],[-2.234994,54.78792],[-2.281947,54.79945],[-2.308297,54.79329],[-2.313948954840947,54.7911765362933],[-2.319083,54.79239],[-2.322582,54.79393],[-2.32871,54.80365],[-2.348851,54.80599],[-2.370106,54.81938],[-2.391604,54.83193],[-2.402086,54.85072],[-2.420487,54.84263],[-2.45181,54.83116],[-2.456208,54.83053],[-2.460037,54.83254],[-2.481186,54.81612],[-2.496878,54.80941],[-2.523669,54.80523],[-2.531768,54.8056],[-2.556976,54.81528],[-2.568118,54.82262],[-2.578283,54.83483],[-2.582328,54.84284],[-2.581257,54.84863],[-2.575361,54.85368],[-2.578868,54.85998],[-2.589053,54.86877],[-2.606682,54.88457],[-2.60526,54.88633],[-2.594948,54.88889],[-2.568154,54.90957],[-2.566594,54.91976],[-2.560007,54.92452],[-2.551486,54.92872],[-2.552964,54.93133],[-2.560406,54.93323],[-2.565121,54.93928],[-2.568198,54.94043],[-2.571902,54.9485],[-2.569785,54.95823],[-2.595483,54.96267],[-2.599424,54.96474],[-2.601842,54.97203],[-2.600283,54.97468],[-2.586564,54.98313],[-2.574118,54.98782],[-2.575225,54.99231],[-2.569923,55.00092],[-2.570397,55.0026],[-2.574867,55.00365],[-2.574103,55.00843],[-2.57567,55.01215],[-2.572089,55.01806],[-2.564169,55.02144],[-2.552813,55.0222],[-2.547448,55.02445],[-2.545791,55.02767],[-2.539474,55.03016],[-2.531836,55.03158],[-2.526815,55.03418],[-2.515764,55.03591],[-2.510723,55.0372],[-2.492349,55.03854],[-2.483768,55.04094],[-2.48454,55.04369],[-2.495102,55.04998],[-2.49677,55.05448],[-2.502522,55.05678],[-2.504948,55.06202],[-2.503713,55.06411],[-2.493923,55.06738],[-2.494703,55.07063],[-2.5015,55.07369],[-2.502215,55.07533],[-2.492623,55.08458],[-2.498908,55.08647],[-2.506566,55.08818],[-2.517817,55.08398],[-2.532131,55.08176],[-2.540211,55.08328],[-2.55069,55.07987],[-2.557307,55.08009],[-2.562499,55.08256],[-2.56378,55.08449],[-2.562294,55.0895],[-2.567337,55.09119],[-2.570144,55.09605],[-2.577112,55.09478],[-2.584091,55.09609],[-2.594396,55.10459],[-2.594941,55.11271],[-2.600016,55.11504],[-2.602923,55.12378],[-2.621021,55.12808],[-2.632334,55.1268],[-2.646726,55.13011],[-2.656952,55.13564],[-2.660687,55.14463],[-2.669475,55.14698],[-2.6742,55.15118],[-2.675129,55.15411],[-2.678275,55.15521],[-2.677777,55.15879],[-2.684226,55.16683],[-2.675948,55.17529],[-2.690724,55.18926],[-2.686391,55.1956],[-2.684056,55.20258],[-2.667217,55.22247],[-2.648231,55.22086],[-2.635753,55.22442],[-2.636783,55.2298],[-2.63083,55.24558],[-2.625115,55.24813],[-2.644926,55.2574],[-2.64765,55.26051],[-2.628221,55.26306],[-2.628802,55.26869],[-2.624572,55.2704],[-2.622829,55.27379],[-2.609846,55.28403],[-2.589909,55.29383],[-2.57659,55.29898],[-2.571739,55.30321],[-2.564902,55.30771],[-2.563156,55.31068],[-2.561012,55.31255],[-2.560844,55.31462],[-2.560283,55.31557],[-2.559171,55.31884],[-2.550705,55.317],[-2.543108,55.31958],[-2.543099,55.31959],[-2.543048,55.3196],[-2.531122,55.32364],[-2.527898,55.32493],[-2.52143,55.32581],[-2.518265,55.32878],[-2.51443,55.33031],[-2.502957,55.34089],[-2.491425,55.35128],[-2.475588,55.35572],[-2.448816,55.35956],[-2.437804,55.36032],[-2.424547,55.35957],[-2.415198,55.3599]]]}}
