{"type":"Feature","properties":{"sourceId":"northamptonshire"},"geometry":{"type":"Polygon","coordinates":[[[-1.163405,51.9922],[-1.175434,51.98126],[-1.190617,51.98039],[-1.195893,51.9765],[-1.229672,51.98036],[-1.241747,51.9851],[-1.249102,51.98462],[-1.260728,51.97994],[-1.271231,51.98193],[-1.279397,51.98143],[-1.28205,51.97846],[-1.284029,51.97875],[-1.289864,51.98975],[-1.284372,51.99231],[-1.285666,51.99466],[-1.284341,51.99983],[-1.27877,52.00591],[-1.279785,52.00769],[-1.284488,52.00863],[-1.285507,52.01107],[-1.279999,52.01265],[-1.279519,52.01421],[-1.285342,52.02047],[-1.285545,52.02408],[-1.287231,52.02563],[-1.295214,52.02756],[-1.293041,52.03223],[-1.29615,52.03946],[-1.301576,52.04454],[-1.307875,52.04633],[-1.313876,52.05107],[-1.30888,52.05756],[-1.30867,52.06475],[-1.302353,52.06667],[-1.302509,52.06851],[-1.307209,52.06941],[-1.307685,52.07096],[-1.300186,52.07769],[-1.301435,52.07893],[-1.318647,52.07902],[-1.321386,52.08127],[-1.322061,52.08747],[-1.317012,52.09075],[-1.30804,52.09326],[-1.272591,52.0988],[-1.254846,52.09661],[-1.250163,52.09692],[-1.249676,52.09817],[-1.27723,52.11614],[-1.309192,52.14286],[-1.318386,52.15257],[-1.3317548922019,52.16686537488621],[-1.330675,52.17346],[-1.322581,52.18059],[-1.317543,52.18068],[-1.316626,52.18426],[-1.312401,52.1891],[-1.281962,52.19079],[-1.279287,52.19475],[-1.262538,52.19496],[-1.254478,52.19699],[-1.253814,52.19926],[-1.256383,52.20896],[-1.260093,52.21652],[-1.274463,52.2227],[-1.275598,52.22479],[-1.271698,52.2279],[-1.277189,52.22957],[-1.281124,52.237],[-1.275567,52.23705],[-1.266381,52.23441],[-1.264543,52.24087],[-1.251712,52.24748],[-1.23918,52.24707],[-1.234947,52.24829],[-1.231543,52.25068],[-1.230463,52.25364],[-1.215039,52.26348],[-1.214898,52.26692],[-1.217726,52.27067],[-1.222755,52.28741],[-1.231561,52.29207],[-1.228043,52.29462],[-1.223369,52.30171],[-1.220438,52.30249],[-1.219402,52.30484],[-1.211797,52.30976],[-1.208458,52.31581],[-1.222923,52.31954],[-1.247013,52.32299],[-1.262364,52.32905],[-1.261558,52.33346],[-1.257912,52.33615],[-1.233192,52.34552],[-1.224876,52.34586],[-1.219896,52.34871],[-1.210543,52.34782],[-1.19817,52.35175],[-1.191945,52.35007],[-1.186158,52.35307],[-1.17893,52.35345],[-1.17422,52.35563],[-1.173687,52.35951],[-1.17115,52.36123],[-1.1999036186557872,52.39642298657582],[-1.188173,52.39547],[-1.187689,52.3936],[-1.1857921920470422,52.39385619083219],[-1.183691,52.39338],[-1.1775948403236607,52.39496335951339],[-1.166736,52.39643],[-1.166187,52.39822],[-1.158883,52.39912],[-1.158479,52.40023],[-1.151406,52.39929],[-1.151042,52.39764],[-1.14348932956262,52.40041580994514],[-1.142859,52.40056],[-1.1426637334696141,52.400719238760765],[-1.138798,52.40214],[-1.134287,52.41178],[-1.092924,52.42833],[-1.094302,52.4304],[-1.08054,52.43653],[-1.068971,52.43359],[-1.067835,52.4288],[-1.061134,52.42695],[-1.061134,52.42521],[-1.049706,52.42246],[-1.049527,52.42587],[-1.041808,52.43078],[-1.037979,52.43048],[-1.033248,52.43846],[-1.036426,52.44426],[-1.040041,52.44332],[-1.043593,52.44557],[-1.0131935030264887,52.463940248171106],[-1.006052,52.46608],[-1.001840551014125,52.470800774387165],[-1.001213,52.47118],[-0.9974288694822087,52.47143339028511],[-0.991445,52.4706],[-0.9861794275325036,52.472186667501504],[-0.971345,52.47318],[-0.972766,52.47349],[-0.967507,52.47736],[-0.946431,52.47532],[-0.946513,52.47398],[-0.9441753814857977,52.4736944716214],[-0.940548,52.46862],[-0.9341909259230943,52.467304863085694],[-0.934446,52.4668],[-0.9245439239416142,52.46530911342717],[-0.914929,52.46332],[-0.9137781918118645,52.46368819217951],[-0.910735,52.46323],[-0.909461,52.46129],[-0.903445,52.46263],[-0.900685,52.45902],[-0.888998,52.47046],[-0.886119,52.46931],[-0.884544,52.47146],[-0.882394,52.47123],[-0.885197,52.4814],[-0.897907,52.48562],[-0.894518,52.489],[-0.896809,52.49082],[-0.895609,52.49233],[-0.88225,52.49347],[-0.879226,52.50017],[-0.8826163964082062,52.503512512105566],[-0.8826657982065091,52.503807980112974],[-0.879939,52.50505],[-0.881447,52.50727],[-0.880549,52.50913],[-0.883343,52.51432],[-0.881166,52.51518],[-0.881472,52.51617],[-0.87173,52.51966],[-0.872472,52.52115],[-0.870936,52.52221],[-0.871367,52.52501],[-0.868762,52.52616],[-0.869086,52.52739],[-0.860904,52.52715],[-0.858599,52.52463],[-0.844932,52.52156],[-0.845703,52.51975],[-0.84109,52.52094],[-0.838802,52.51874],[-0.812129,52.51673],[-0.811437,52.51829],[-0.788768,52.51396],[-0.779474,52.51822],[-0.7679773566297194,52.515896837848956],[-0.765201,52.51458],[-0.7631414529153482,52.51491963188427],[-0.750821,52.51243],[-0.751714,52.51337],[-0.747393,52.51523],[-0.74771,52.51728],[-0.739482,52.51733],[-0.739549,52.51877],[-0.72966,52.52104],[-0.729811,52.52205],[-0.715886,52.52261],[-0.7149606090387918,52.523681376190176],[-0.71421,52.52355],[-0.702063,52.5312],[-0.695393,52.53793],[-0.693375,52.54369],[-0.683744,52.54827],[-0.676834,52.5566],[-0.672113,52.55783],[-0.666167,52.56484],[-0.645622,52.57146],[-0.637066,52.57075],[-0.60102,52.58742],[-0.588802,52.58546],[-0.581771,52.58852],[-0.574195,52.58479],[-0.564127,52.58465],[-0.560707,52.58614],[-0.557222,52.59309],[-0.543577,52.59177],[-0.541688,52.59613],[-0.548743,52.60109],[-0.546338,52.60661],[-0.546865,52.61071],[-0.538586,52.61662],[-0.536365,52.6247],[-0.531474,52.63016],[-0.523353,52.63351],[-0.517655,52.64028],[-0.51326,52.64153],[-0.499206,52.638],[-0.493977,52.63961],[-0.49564127789587226,52.64102175034432],[-0.493592,52.641],[-0.488429,52.63453],[-0.485663,52.63531],[-0.473144,52.62921],[-0.470055,52.6242],[-0.47009,52.61751],[-0.472654,52.61635],[-0.473402,52.61352],[-0.478652,52.61309],[-0.480208,52.60227],[-0.489791,52.59012],[-0.492193,52.58278],[-0.478614,52.5784],[-0.477682,52.57498],[-0.425331,52.58336],[-0.419246,52.58201],[-0.414479,52.57906],[-0.406267,52.56553],[-0.408381,52.56119],[-0.415529,52.56086],[-0.414541,52.55267],[-0.402646,52.54976],[-0.400959,52.54812],[-0.400363,52.5391],[-0.40119,52.53557],[-0.404173,52.53145],[-0.410856,52.52921],[-0.411879,52.52709],[-0.410479,52.52516],[-0.408008,52.52342],[-0.390376,52.52033],[-0.35776,52.50681],[-0.353939,52.50739],[-0.351318,52.50377],[-0.358067,52.49671],[-0.349351,52.4832],[-0.346503,52.47795],[-0.341544,52.46971],[-0.34068,52.4666],[-0.35211,52.46041],[-0.354586,52.45568],[-0.362435,52.44581],[-0.368611,52.43617],[-0.36226,52.43451],[-0.36169,52.43287],[-0.400669,52.41449],[-0.41602,52.41069],[-0.415315,52.40299],[-0.436288,52.38748],[-0.443317,52.38296],[-0.446576,52.38227],[-0.487651,52.37358],[-0.498369,52.36579],[-0.497755,52.36074],[-0.4769,52.34954],[-0.479965,52.34159],[-0.465916,52.33958],[-0.463796,52.33026],[-0.464224304711124,52.32462802168113],[-0.464721,52.32483],[-0.476537,52.32062],[-0.487362,52.32312],[-0.521046,52.3192],[-0.51963,52.3131],[-0.543874,52.29049],[-0.536274,52.28022],[-0.534422,52.27218],[-0.541013,52.2671],[-0.539952,52.26206],[-0.542909,52.25823],[-0.554649,52.2601],[-0.565579,52.2563],[-0.57783,52.26772],[-0.584565,52.27045],[-0.585356,52.27449],[-0.603198,52.28078],[-0.611293,52.28136],[-0.62742,52.27683],[-0.631875,52.27267],[-0.640492,52.27433],[-0.655386,52.26923],[-0.641665,52.22775],[-0.663502,52.20883],[-0.67061,52.1982],[-0.6699688515612074,52.19442093867311],[-0.673283,52.19561],[-0.699237,52.19365],[-0.717941,52.18289],[-0.729382,52.17945],[-0.73437,52.17354],[-0.736869,52.1736],[-0.738743,52.17118],[-0.745514,52.17005],[-0.746612,52.16853],[-0.749503,52.16708],[-0.75038,52.16785],[-0.756548,52.16757],[-0.7598,52.16565],[-0.760745,52.16424],[-0.761963,52.16381],[-0.762478,52.16649],[-0.763588,52.16751],[-0.765055,52.17104],[-0.778019,52.16888],[-0.779489,52.16563],[-0.783225,52.16583],[-0.783278,52.16409],[-0.780318,52.16345],[-0.783567,52.16016],[-0.784322,52.15832],[-0.792777,52.15154],[-0.794869,52.15254],[-0.79461,52.15364],[-0.795246,52.15415],[-0.797289,52.15356],[-0.800314,52.15749],[-0.802401,52.15854],[-0.802774,52.15799],[-0.807618,52.15703],[-0.807597,52.15555],[-0.817557,52.15524],[-0.819161,52.15336],[-0.827944,52.15357],[-0.82738,52.15086],[-0.824339,52.15086],[-0.824738,52.15014],[-0.823263,52.14703],[-0.819909,52.14418],[-0.820149,52.14318],[-0.8239451787560298,52.14221454253407],[-0.829733,52.14259],[-0.8291976515676823,52.14087871526763],[-0.829979,52.14068],[-0.829738,52.13977],[-0.83001,52.13972],[-0.829446,52.13858],[-0.829801,52.13849],[-0.828509,52.13531],[-0.830174,52.1346],[-0.829641,52.13334],[-0.832794,52.13179],[-0.836215,52.13285],[-0.839324,52.13062],[-0.851799,52.12954],[-0.85343,52.13063],[-0.853831,52.13188],[-0.868463,52.13054],[-0.868742,52.13093],[-0.869881,52.13046],[-0.869597,52.13009],[-0.881142,52.12615],[-0.88024,52.12383],[-0.880807,52.1239],[-0.881126,52.12336],[-0.880595,52.12272],[-0.881126,52.12138],[-0.880911,52.12082],[-0.881597,52.12019],[-0.881483,52.11923],[-0.882244,52.11879],[-0.88213,52.11823],[-0.883118,52.11818],[-0.883042,52.11767],[-0.887072,52.11475],[-0.886083,52.11337],[-0.883726,52.11356],[-0.881832,52.11272],[-0.876067,52.11302],[-0.875629,52.11253],[-0.873153,52.11287],[-0.870615,52.11112],[-0.870521,52.11041],[-0.869968,52.11082],[-0.868554,52.10842],[-0.869033,52.10795],[-0.870135,52.10806],[-0.870084,52.10764],[-0.869086,52.10721],[-0.869696,52.10662],[-0.869432,52.10588],[-0.869849,52.10513],[-0.868583,52.10446],[-0.867472,52.10505],[-0.867184,52.10415],[-0.865357,52.10321],[-0.86601,52.10205],[-0.868739,52.10102],[-0.869014,52.10037],[-0.868637,52.09965],[-0.85798,52.09743],[-0.856453,52.09307],[-0.854921,52.09204],[-0.854663,52.09239],[-0.850775,52.09182],[-0.85033,52.09228],[-0.846571,52.09103],[-0.847186,52.09056],[-0.846578,52.09039],[-0.846088,52.08885],[-0.846502,52.08867],[-0.846417,52.08802],[-0.845564,52.08787],[-0.845343,52.08634],[-0.844067,52.08577],[-0.843931,52.0847],[-0.837856,52.0824],[-0.837273,52.08077],[-0.835443,52.07959],[-0.835859,52.07601],[-0.83506,52.07499],[-0.834927,52.07344],[-0.831935,52.07206],[-0.832698,52.07125],[-0.832714,52.06985],[-0.840339,52.0642],[-0.848789,52.06416],[-0.848928,52.06461],[-0.850341,52.06507],[-0.859619,52.06393],[-0.859788,52.06321],[-0.862524,52.06159],[-0.862849,52.05994],[-0.860717,52.05889],[-0.86013,52.05745],[-0.860437,52.0571],[-0.859957,52.05618],[-0.861124,52.05557],[-0.860369,52.05444],[-0.857923,52.05316],[-0.855391,52.05331],[-0.853783,52.05256],[-0.85283,52.05009],[-0.855529,52.04795],[-0.855523,52.04758],[-0.859113,52.04471],[-0.862695,52.04539],[-0.86334,52.04603],[-0.864884,52.0458],[-0.865448,52.04658],[-0.867639,52.04625],[-0.870461,52.04361],[-0.870302,52.04344],[-0.872106,52.04147],[-0.871407,52.04132],[-0.87121,52.04055],[-0.872917,52.03793],[-0.872794,52.03681],[-0.872033,52.03642],[-0.873259,52.03537],[-0.872983,52.03527],[-0.876122,52.03346],[-0.877264,52.03107],[-0.876907,52.03059],[-0.880404,52.02874],[-0.884237,52.02867],[-0.890028,52.03156],[-0.89102,52.03034],[-0.896714,52.02742],[-0.897875,52.02743],[-0.900924,52.02458],[-0.904026,52.02364],[-0.904523,52.02236],[-0.906389,52.02125],[-0.9104935169425471,52.02334098032922],[-0.911684,52.02487],[-0.911795,52.02496],[-0.911793,52.02501],[-0.9118965613046613,52.02514293151338],[-0.913579,52.02848],[-0.923867,52.03562],[-0.928006,52.04191],[-0.927854,52.0421],[-0.930063,52.043],[-0.930348,52.04375],[-0.929863,52.04519],[-0.930348,52.04575],[-0.929821,52.04955],[-0.931424,52.05393],[-0.936538,52.05843],[-0.93801,52.06138],[-0.934062,52.06244],[-0.939479,52.06222],[-0.94177,52.06425],[-0.940525,52.06505],[-0.942034,52.06649],[-0.939608,52.06753],[-0.944409,52.06998],[-0.944339,52.07342],[-0.939944,52.07583],[-0.946129,52.07737],[-0.945628,52.0781],[-0.947357,52.07988],[-0.949633,52.07974],[-0.951824,52.08149],[-0.961621,52.07781],[-0.967946,52.07093],[-0.973471,52.07286],[-0.980556,52.0717],[-0.984364,52.06977],[-0.994949,52.07325],[-0.999919,52.0726],[-1.005398,52.07367],[-1.006204,52.07286],[-1.005421,52.07225],[-1.00594,52.072],[-1.007258,52.07258],[-1.012317,52.07204],[-1.012768,52.07307],[-1.016505,52.07288],[-1.017048,52.07329],[-1.018664,52.07294],[-1.021136,52.07522],[-1.025914,52.07592],[-1.04248,52.07383],[-1.029488,52.07012],[-1.025951,52.06579],[-1.027281,52.06386],[-1.031127,52.06313],[-1.037529,52.06576],[-1.042281,52.06515],[-1.051739,52.06094],[-1.052552,52.05979],[-1.061833,52.06266],[-1.071133,52.05959],[-1.072076,52.05819],[-1.076793,52.059],[-1.077148,52.05863],[-1.076624,52.0582],[-1.080587,52.05672],[-1.082153,52.05265],[-1.083217,52.05256],[-1.08337,52.05206],[-1.08952,52.05195],[-1.091031,52.05117],[-1.095932,52.05104],[-1.095901,52.05055],[-1.097197,52.05039],[-1.098846,52.04879],[-1.102086,52.04803],[-1.104922,52.04892],[-1.116009,52.04767],[-1.12211,52.04486],[-1.12298,52.04198],[-1.125225,52.04062],[-1.125308,52.04006],[-1.126491,52.03938],[-1.12595,52.03866],[-1.126776,52.03807],[-1.126707,52.03738],[-1.136104,52.02565],[-1.135977,52.02333],[-1.136772,52.0227],[-1.136148,52.02026],[-1.133706,52.01935],[-1.133195,52.01963],[-1.119074,52.01562],[-1.119273,52.01642],[-1.118135,52.01543],[-1.1173403346266724,52.01561632247909],[-1.117085,52.01534],[-1.13358,51.99665],[-1.143745,51.99602],[-1.151548,51.9931],[-1.156439,51.99128],[-1.163405,51.9922]]]}}
