{"type":"Feature","properties":{"sourceId":"nord-norge"},"geometry":{"type":"Polygon","coordinates":[[[7.840204,72.4056],[33.63965,71.59366],[33.49617,70.87468],[31.5857,70.13405],[31.10877,69.97026],[30.83304,69.79287],[30.89822,69.74459],[30.89892,69.71401],[30.95392,69.68765],[30.94151,69.6638],[30.9612,69.64228],[30.96241,69.61267],[30.95245,69.57328],[30.92425,69.54415],[30.79754,69.5203],[30.5144,69.53055],[30.41386,69.58067],[30.2371,69.63883],[30.15125,69.65922],[30.11004,69.65312],[30.14449,69.65098],[30.19806,69.56676],[30.18402,69.52965],[30.12869,69.50883],[30.11968,69.45945],[29.99423,69.4022],[29.94226,69.3952],[29.86229,69.41407],[29.72755,69.37994],[29.69873,69.35414],[29.56725,69.30705],[29.39243,69.31231],[29.29489,69.28772],[29.28874,69.25801],[29.32367,69.2308],[29.29877,69.17493],[29.25217,69.13689],[29.25018,69.10699],[29.04211,69.00085],[28.91371425016304,69.04548918947235],[28.95502,69.05731],[28.86932,69.08132],[28.824,69.11071],[28.85697,69.22181],[29.25448,69.40423],[29.35237,69.47794],[29.13509,69.69689],[28.35466,69.84885],[28.35262,69.88127],[28.16218,69.9324],[28.00005,70.01638],[27.96852,70.09959],[27.58438,70.07817],[27.25479,69.98337],[27.28905,69.9633],[26.5118,69.97025],[25.87357,69.66782],[25.95765,69.61431],[25.82378,69.5464],[25.85414,69.52605],[25.81803,69.4475],[25.77574,69.41674],[25.79398,69.40465],[25.66624,69.23225],[25.73396,69.02895],[25.64375,68.9297],[25.35262,68.88978],[25.1131,68.80094],[25.07194,68.64142],[24.90807,68.61078],[24.77721,68.65861],[24.16791,68.76065],[24.1684,68.79333],[23.91756,68.85773],[23.76792,68.82236],[23.68529,68.75528],[23.16948,68.63344],[23.04156,68.69703],[22.56263,68.75961],[22.3811,68.72605],[22.34722,68.86254],[21.65294,69.28345],[21.26343,69.32624],[20.92111,69.21513],[21.06311,69.08854],[21.03375,69.0578],[20.71324,69.12914],[20.54372,69.05889],[20.55854775804047,69.05182003849562],[20.5542,69.05025],[20.10048,69.03689],[20.31349,68.93326],[20.34574,68.80076],[20.20863,68.65785],[20.05659,68.5821],[19.97246,68.55765],[20.22838,68.50061],[20.23344,68.48369],[19.92478,68.3466],[18.983,68.50692],[18.61948,68.49708],[18.40487,68.5716],[18.13447,68.52776],[18.11128,68.4062],[18.16215,68.19527],[17.90309,67.95989],[17.66235,68.02877],[17.28387,68.10818],[17.18279,68.0409],[16.74436,67.9057],[16.56377,67.64133],[16.50186,67.58633],[16.41012,67.52425],[16.16181,67.50976],[16.1047,67.43723],[16.41165,67.21143],[16.39558,67.03935],[16.04421,66.90391],[15.63199,66.59795],[15.39094,66.4806],[15.49085,66.27456],[15.03607,66.14357],[14.52989,66.12309],[14.634,65.81412],[14.53903,65.67876],[14.50682,65.51669],[14.51425,65.3048],[14.38681,65.24073],[14.33596,65.11927],[14.330920891186587,65.11891843426883],[14.31643,65.12187],[14.17812,65.14671],[13.94859,65.12719],[13.83407,65.11863],[13.70957,65.11295],[13.5267,65.11899],[13.41113,65.09946],[13.30413,65.1025],[13.23506,65.10953],[13.15236,65.11625],[13.08488,65.11028],[13.05004,65.07792],[12.99517,65.06863],[12.96704,65.03337],[12.92968,65.03912],[12.90713,65.02926],[12.9079,65.01433],[12.94086,65.00084],[12.93347,64.98485],[12.90663,64.97463],[12.77421,64.97585],[12.79032,64.95352],[12.76796,64.9412],[12.71515,64.95299],[12.65435,64.94631],[12.62888,64.94],[12.58167,64.98724],[12.56141,64.99069],[12.50828,64.98212],[12.39829,64.99529],[12.28683,64.96789],[12.19929,64.97936],[12.19244,64.99923],[12.15414,65.01984],[12.12959,65.02463],[12.11637,65.01542],[12.11706,65.00737],[12.08719,65.00367],[12.06419,65.01484],[12.04462,65.03086],[12.03858,65.04763],[12.04625,65.05599],[12.04936,65.06718],[12.02831,65.06869],[11.98498,65.07087],[11.95958,65.07815],[11.95324,65.07632],[11.94161,65.06776],[11.92415,65.06824],[11.91786,65.07968],[11.94369,65.10877],[11.94621,65.10977],[11.95345,65.11342],[11.9611,65.11678],[11.95014,65.11879],[11.94698,65.14907],[11.94157,65.14948],[11.93918,65.1493],[11.91604,65.16074],[11.83639,65.15831],[11.48669,65.23714],[11.40104,65.29597],[11.02162,65.39478],[10.116481164476204,65.79083218486673],[7.840204,72.4056]]]}}
