{"type":"Feature","properties":{"sourceId":"norte"},"geometry":{"type":"Polygon","coordinates":[[[-51.0112,5.522895],[-43.48209,5.335832],[-42.87915,5.208002],[-45.53069920125903,-0.15574127928774203],[-45.76328,-0.200778],[-46.11566,-1.18431],[-46.17085,-1.225131],[-46.18021,-1.288648],[-46.13821,-1.352716],[-46.1953,-1.472946],[-46.15782,-1.562373],[-46.18021,-1.670102],[-46.22848,-1.704593],[-46.31218,-1.71185],[-46.34056,-1.751988],[-46.32319,-1.821377],[-46.23725,-1.834258],[-46.26353,-1.879866],[-46.24694,-1.915818],[-46.29233,-2.100756],[-46.36504,-2.203556],[-46.44945,-2.229458],[-46.43979,-2.271533],[-46.48558,-2.373516],[-46.45901,-2.405803],[-46.45741,-2.51428],[-46.50869,-2.527711],[-46.53036,-2.599454],[-46.62436,-2.625687],[-46.68863,-2.699793],[-46.6913,-2.741711],[-46.63511,-2.823017],[-46.69852,-2.875808],[-46.68054,-2.972722],[-46.70018,-3.072423],[-46.76365,-3.110691],[-46.75969,-3.148185],[-46.78762,-3.167487],[-46.84769,-3.296875],[-46.96292,-3.372422],[-46.99804,-3.508542],[-47.0571,-3.555067],[-47.1079,-3.841309],[-47.21919,-3.965317],[-47.3379,-4.039166],[-47.39892,-4.230207],[-47.49163,-4.305252],[-47.52632,-4.400964],[-47.62813,-4.540732],[-47.6902,-4.584526],[-47.81171,-4.575893],[-48.40295,-5.049199],[-48.44107,-5.070494],[-48.46499,-5.096509],[-48.77554,-5.347611],[-48.71919,-5.374482],[-48.6755,-5.331668],[-48.59813,-5.35432],[-48.52384,-5.221927],[-48.3654,-5.194299],[-48.17556,-5.281149],[-48.06603,-5.292662],[-47.98982,-5.255954],[-47.90446,-5.274842],[-47.88597,-5.348333],[-47.84481,-5.397895],[-47.74123,-5.404011],[-47.62039,-5.480167],[-47.56701,-5.487636],[-47.51728,-5.540991],[-47.49677,-5.645488],[-47.5109,-5.740293],[-47.45207,-5.881443],[-47.4678,-5.994569],[-47.45277,-6.118896],[-47.40192,-6.263208],[-47.45145,-6.423921],[-47.44167,-6.482435],[-47.51682,-6.666891],[-47.5182,-6.75271],[-47.54959,-6.83431],[-47.52744,-6.887872],[-47.55412,-6.98382],[-47.65512,-7.1218],[-47.71462,-7.119871],[-47.75484,-7.145662],[-47.76515,-7.211359],[-47.65552,-7.324288],[-47.62276,-7.322447],[-47.57982,-7.286507],[-47.50925,-7.318894],[-47.50543,-7.35507],[-47.58468,-7.397174],[-47.60942,-7.447721],[-47.57247,-7.469275],[-47.52202,-7.458549],[-47.49102,-7.545187],[-47.45838,-7.5491],[-47.42578,-7.584685],[-47.40081,-7.661539],[-47.35844,-7.673498],[-47.32957,-7.743058],[-47.28924,-7.759902],[-47.25964,-7.828718],[-47.17113,-7.906991],[-47.1241,-8.0006],[-47.08482,-8.018406],[-47.05684,-8.069493],[-46.9924,-8.085975],[-46.92986,-8.019833],[-46.86887,-7.989706],[-46.61838,-7.919166],[-46.51291,-7.992207],[-46.49314,-8.065819],[-46.53155,-8.156951],[-46.5179,-8.20483],[-46.5302,-8.261882],[-46.55332,-8.294223],[-46.64403,-8.30096],[-46.7379,-8.35433],[-46.78962,-8.34998],[-46.82202,-8.387901],[-46.82302,-8.440572],[-46.86574,-8.462907],[-46.87331,-8.528918],[-46.93327,-8.584061],[-46.93546,-8.65058],[-46.91766,-8.677909],[-46.95034,-8.723741],[-46.92555,-8.789272],[-46.93645,-8.833213],[-47.01058,-8.871413],[-47.00457,-8.913066],[-47.08569,-9.003576],[-47.08647,-9.070019],[-47.01376,-9.100445],[-46.95213,-9.094497],[-46.94256,-9.144838],[-46.87245,-9.171803],[-46.84733,-9.220488],[-46.86359,-9.305426],[-46.78792,-9.376547],[-46.77323,-9.425371],[-46.67735,-9.414677],[-46.65493,-9.468791],[-46.59519,-9.503784],[-46.57461,-9.550648],[-46.67041,-9.684419],[-46.66345,-9.742164],[-46.5953,-9.77672],[-46.58546,-9.822211],[-46.52046,-9.829851],[-46.4733,-10.06094],[-46.38034,-10.18221],[-46.32748,-10.20275],[-46.21508,-10.19345],[-46.16201,-10.23343],[-46.09427,-10.23246],[-46.04342,-10.20528],[-46.01003,-10.28036],[-45.88886,-10.26332],[-45.79649,-10.28682],[-45.72205,-10.2529],[-45.75447,-10.32277],[-45.84539,-10.36136],[-45.86415,-10.47216],[-46.22241,-10.64743],[-46.21764,-10.70594],[-46.27434,-10.75304],[-46.25594,-10.78908],[-46.30237,-10.81979],[-46.31024,-10.89458],[-46.41677,-10.98543],[-46.48714,-11.17157],[-46.62275,-11.24122],[-46.63678,-11.28881],[-46.61321,-11.36379],[-46.57243,-11.39641],[-46.5184,-11.51224],[-46.41259,-11.56063],[-46.25786,-11.57914],[-46.22798,-11.60617],[-46.32949,-11.61834],[-46.31837,-11.68525],[-46.39211,-11.74594],[-46.3544,-11.78632],[-46.39372,-11.83956],[-46.37593,-11.89991],[-46.25654,-11.92347],[-46.33783,-11.94271],[-46.41622,-12.03605],[-46.39106,-12.11359],[-46.41056,-12.19391],[-46.38709,-12.2249],[-46.39281,-12.29454],[-46.36773,-12.34844],[-46.31773,-12.38274],[-46.32957,-12.41183],[-46.28592,-12.44058],[-46.25749,-12.52018],[-46.30487,-12.5783],[-46.31492,-12.63952],[-46.29867,-12.65592],[-46.31552,-12.69198],[-46.29339,-12.72726],[-46.29467,-12.83197],[-46.31944,-12.85915],[-46.322229594415525,-12.942089404695732],[-46.12046,-12.88603],[-46.33015,-12.94429],[-46.34177,-12.8419],[-46.42388,-12.79183],[-46.48139,-12.92909],[-46.77464,-12.94352],[-46.98263,-13.08435],[-47.30341,-13.2161],[-47.4049,-13.21148],[-47.53017,-13.14722],[-47.5505,-13.08997],[-47.64384,-13.07235],[-47.69976,-13.16291],[-47.68458,-13.39731],[-47.81398,-13.28089],[-48.06213,-13.20313],[-48.11985,-13.25296],[-48.13867,-13.12078],[-48.42522,-13.23461],[-48.44697,-13.1194],[-48.54474,-13.11618],[-48.85463,-12.77245],[-48.98355,-12.89559],[-49.11323,-12.75933],[-49.25365,-12.85642],[-49.38105,-13.08106],[-49.38474,-13.22699],[-49.90579,-12.93131],[-50.26831,-12.80198],[-50.16302,-12.57396],[-50.18443,-12.50691],[-50.11561,-12.3976],[-50.14233,-12.3658],[-50.38076,-12.51599],[-50.54347,-12.80219],[-50.65496,-12.61133],[-50.58778,-12.4431],[-50.64587,-12.18011],[-50.6069,-11.89121],[-50.67906,-11.74594],[-50.64285,-11.5981],[-50.66826,-11.57657],[-50.68543,-11.57623],[-50.69243,-11.54403],[-50.70647,-11.44721],[-50.57536,-11.0683],[-50.55724,-10.66858],[-50.39516,-10.36912],[-50.35226,-10.13822],[-50.26159,-10.02612],[-50.18944,-9.813272],[-56.74144,-9.352241],[-56.80849,-9.217554],[-57.00493,-9.187669],[-57.01982,-9.068975],[-57.17446,-8.904893],[-57.37361,-8.843474],[-57.41083,-8.754585],[-57.56058,-8.719121],[-57.64719,-8.408137],[-57.60886,-8.204641],[-57.78669,-7.975355],[-57.94899,-7.510434],[-58.07222,-7.346056],[-58.14461,-7.317334],[-58.24656,-7.432735],[-58.23733,-7.601471],[-58.41768,-7.836697],[-58.3235,-8.08956],[-58.35892,-8.306787],[-58.45039,-8.492931],[-58.47175,-8.700502],[-58.43113,-8.754115],[-61.606,-8.776113],[-61.52012,-8.915473],[-61.58917,-9.093339],[-61.56381,-9.206661],[-61.66496,-9.265453],[-61.52991,-9.636686],[-61.60472,-9.710973],[-61.54478,-9.875626],[-61.63314,-10.15159],[-61.5053,-10.43604],[-61.51805,-10.75345],[-61.5799,-10.99705],[-60.48524,-11.02411],[-60.36697,-11.13665],[-60.30743,-11.11024],[-60.03052,-11.16394],[-59.95773,-11.34089],[-59.9644,-11.39888],[-60.14227,-11.57664],[-60.13965,-11.8434],[-60.02149,-11.93597],[-59.92482,-12.25079],[-59.83318,-12.34313],[-59.87903,-12.44021],[-60.09531,-12.59868],[-60.11744,-12.87645],[-60.31206,-13.06503],[-60.41575,-13.42596],[-60.65198,-13.55153],[-60.718807604507006,-13.644208986097718],[-61.00159,-13.4731],[-61.58524,-13.47377],[-61.82419,-13.49246],[-62.14142,-13.08616],[-62.64816,-12.943],[-62.7491,-12.97579],[-63.09517,-12.60281],[-63.78182,-12.38896],[-64.22642,-12.44731],[-64.46159,-12.35543],[-64.49661,-12.20917],[-64.99787,-11.86197],[-65.23956,-11.10968],[-65.25055,-10.88118],[-65.34084,-10.79385],[-65.33638,-10.76316],[-65.33501,-10.69974],[-65.36797,-10.4034],[-65.26497,-10.22641],[-65.26154,-9.837625],[-65.35904,-9.672506],[-65.45517,-9.63866],[-66.18713,-9.774023],[-66.64169,-9.871451],[-67.32765,-10.29803],[-67.59338,-10.49524],[-67.68402,-10.60324],[-68.06511,-10.64036],[-68.44345,-11.02208],[-68.69957,-11.1272],[-68.75021,-11.03758],[-68.74746,-11.02098],[-68.74635,-11.00868],[-68.75699,-10.99857],[-68.78815,-10.98231],[-69.40956,-10.91422],[-69.52955,-10.93192],[-69.47475448733813,-10.923836988298065],[-69.5077,-10.86805],[-70.32101,-10.96454],[-70.57343,-10.86433],[-70.46494,-9.39758],[-70.61325,-9.416547],[-71.14197,-9.841684],[-71.3974,-9.97967],[-72.12662,-9.981022],[-72.12525,-9.797029],[-72.27768,-9.476153],[-72.72537,-9.39216],[-73.022,-9.377256],[-72.89292,-8.982748],[-73.33786,-8.435695],[-73.66745,-7.751815],[-73.88443,-7.513618],[-73.66882,-7.336587],[-73.66882,-6.916883],[-73.05222,-6.515907],[-73.18405,-6.107783],[-72.93686,-5.672016],[-72.79953,-5.177114],[-71.91651,-4.627072],[-71.31157,-4.472379],[-70.91503,-4.397759],[-70.79006,-4.212888],[-70.56793,-4.221791],[-70.29739,-4.293005],[-70.19577,-4.36387],[-70.04059,-4.380301],[-69.97639,-4.352915],[-69.93828,-4.317654],[-69.9345,-4.285131],[-69.9383147208609,-4.256969645765784],[-69.92107,-4.256799],[-69.36143,-1.37366],[-69.35887,-1.130135],[-69.38684,-0.979942],[-69.56764,-0.744881],[-69.52464,-0.634573],[-69.57704,-0.481104],[-69.89308,-0.290072],[-69.99575,-0.168908],[-70.00681,0.50237],[-69.79355,0.535911],[-69.66771,0.614185],[-69.59545,0.577961],[-69.4781,0.683094],[-69.3781,0.587276],[-69.28011,0.564087],[-69.11396,0.597678],[-69.07913,0.643407],[-69.12376,0.734671],[-69.10274,0.884639],[-69.22242,1.085204],[-69.31316,1.12473],[-69.79348,1.138074],[-69.79468,1.654998],[-69.53611,1.72493],[-69.38657,1.690358],[-68.15271,1.695164],[-68.14461,1.780784],[-68.21759,1.863646],[-68.18079,1.933279],[-67.88734,1.778627],[-67.78215,1.947116],[-67.53231,2.016553],[-67.40767,2.164712],[-67.36046,1.919871],[-67.1961,1.80126],[-67.1241,1.432327],[-67.17585,1.305433],[-67.11563,1.1441],[-66.87003565306559,1.2095227232779528],[-66.86609,1.202113],[-66.31171,0.71638],[-66.07229,0.733756],[-65.95025,0.792572],[-65.852,0.909193],[-65.61172,0.966892],[-65.53659,0.857797],[-65.63486,0.708308],[-65.55736,0.621727],[-65.42108,0.675829],[-65.3059,0.900432],[-65.17156,0.898624],[-65.00078,1.083531],[-64.94119,1.183112],[-64.81509,1.256056],[-64.72496,1.203665],[-64.40807,1.365457],[-64.31869,1.340579],[-64.28098,1.437508],[-64.04698,1.639233],[-64.01998,1.908896],[-63.96345,1.954576],[-63.82905,1.938637],[-63.65528,1.991905],[-63.5623,2.097256],[-63.42308,2.102624],[-63.34064,2.257442],[-63.3443,2.42073],[-63.4133,2.477564],[-63.52737,2.451772],[-64.01169,2.525944],[-63.95457,2.732124],[-64.19117,3.129881],[-64.20833,3.426546],[-64.1491,3.503265],[-64.15149,3.588704],[-64.26421,3.732038],[-64.51752,3.879261],[-64.57373,4.079274],[-64.16782,4.089704],[-63.96824,3.840393],[-63.85729,3.911731],[-63.71212,3.875853],[-63.60927,3.864782],[-63.50079,3.812332],[-63.41063,3.849584],[-63.38755,3.942813],[-63.24905,3.926086],[-63.24097,3.808828],[-63.0995,3.672274],[-62.96457,3.579551],[-62.82273,3.695601],[-62.7186,3.661866],[-62.72689,3.999943],[-62.53945,3.995849],[-62.51281,4.087533],[-62.42354,4.148748],[-62.14709,4.049561],[-61.99658,4.131069],[-61.92422,4.093138],[-61.73818,4.217746],[-61.54431,4.229657],[-61.30569,4.405601],[-61.25171,4.49478],[-61.14502,4.452247],[-60.94467,4.523999],[-60.8801,4.679391],[-60.71022,4.750432],[-60.55668,4.964186],[-60.65904624383758,5.2067491464505755],[-60.45227,5.169592],[-60.20302,5.227375],[-60.00458,5.043751],[-60.08595,4.625362],[-60.13435,4.605514],[-60.16697,4.573003],[-60.16319,4.511741],[-60.12165,4.497708],[-59.9081,4.455609],[-59.69112,4.366267],[-59.74228,4.284446],[-59.77882,4.177271],[-59.61824,3.934971],[-59.73244,3.727035],[-59.91658,3.582523],[-59.8722,3.381949],[-60.00089,3.092634],[-60.04133,2.790114],[-59.91119,2.336695],[-59.7464,2.255736],[-59.77661,1.876954],[-59.69284,1.739694],[-59.57431,1.673151],[-59.29031,1.356908],[-58.94714,1.28804],[-58.86887,1.149369],[-58.71918,1.187813],[-58.66425,1.257835],[-58.49121,1.244105],[-58.43079,1.43494],[-58.27011,1.532411],[-57.99424,1.457517],[-57.93016,1.595692],[-57.84577,1.654587],[-57.52099,1.65546],[-57.31124,1.925205],[-57.21954,1.892317],[-57.11801,1.950364],[-56.80282,1.806973],[-56.523,1.872126],[-56.4503530249689,1.9353286498774966],[-56.41772,1.91488],[-56.34313,1.921879],[-56.25039,1.864542],[-55.99764,1.816773],[-55.89114,1.881292],[-55.89111,2.048904],[-55.99094,2.175963],[-56.01006,2.333877],[-55.97294,2.416407],[-55.98469,2.451561],[-55.91307,2.503403],[-55.75677,2.39941],[-55.72353,2.38574],[-55.38597,2.403657],[-55.1012,2.511065],[-54.99865,2.586305],[-54.95985,2.578709],[-54.94575,2.507575],[-54.87582,2.427069],[-54.80571,2.42059],[-54.75063,2.456178],[-54.72694,2.385158],[-54.70885,2.326179],[-54.64462,2.30362],[-54.61325318171229,2.3183083764362973],[-54.57184,2.260538],[-54.3528,2.147325],[-54.09737,2.093117],[-53.79456,2.272888],[-53.28781,2.181633],[-52.99187,2.157617],[-52.89368,2.170654],[-52.63481,2.366195],[-52.50366,2.577485],[-52.30007,3.079495],[-52.32857,3.11652],[-52.22077,3.233071],[-51.98353,3.622044],[-51.91212,3.724486],[-51.86371,3.810132],[-51.83659,3.847299],[-51.82079,3.852951],[-51.79779,3.879327],[-51.77565,3.922142],[-51.75768,3.98457],[-51.65092,4.046444],[-51.61913,4.176157],[-50.8667,5.096418],[-51.213267951441516,5.249271087755619],[-51.0112,5.522895]]]}}
