{"type":"Feature","properties":{"sourceId":"noord-holland"},"geometry":{"type":"Polygon","coordinates":[[[3.896906,52.44295],[4.604043,53.28945],[4.751492994698042,53.24163927737223],[4.817305,53.2149],[4.818318,53.21293],[5.050091,53.142],[5.163063,53.00041],[5.168565,52.99598],[5.238165,52.87281],[5.376290131428337,52.76413680678575],[5.360931,52.68184],[5.359132,52.67929],[5.30214,52.69364],[5.287847,52.693],[5.261297,52.67753],[5.256375,52.64768],[5.253885,52.64475],[5.059593,52.57981],[5.099425,52.50769],[5.149649,52.46581],[5.179662,52.42149],[5.179335,52.4189],[5.176071,52.41693],[5.136422,52.41656],[5.078938,52.38998],[5.078854,52.36911],[5.148198,52.31759],[5.2208,52.32473],[5.281051,52.31545],[5.306784,52.30557],[5.332663206230123,52.29023803836204],[5.304611,52.27881],[5.265319,52.28298],[5.222123,52.22638],[5.221722,52.22175],[5.214511,52.20512],[5.193089,52.18037],[5.190361,52.17902],[5.121074,52.18224],[5.04803,52.16853],[5.045836,52.17189],[5.043149,52.18405],[5.03715,52.1876],[5.039463,52.19549],[5.037655,52.2007],[5.037826,52.21905],[5.039026,52.22176],[5.043724,52.22331],[5.043427,52.22768],[5.044809,52.22975],[5.058963,52.23544],[5.048494,52.24361],[5.047877,52.24891],[5.044234,52.25655],[5.041433,52.25801],[5.035389,52.2578],[5.029994,52.26402],[5.029316,52.26897],[5.033962,52.27414],[5.042466,52.27661],[5.049143,52.27585],[5.052509,52.2807],[5.057376,52.2825],[5.059901,52.28267],[5.065954,52.27923],[5.067158,52.281],[5.066605,52.2857],[5.059795,52.29054],[5.049844,52.28896],[5.043423,52.28458],[5.03799,52.28551],[5.030914,52.28965],[5.025211,52.2885],[5.023123,52.29177],[5.02264,52.30304],[5.013962,52.30494],[5.002993,52.29939],[5.000205,52.2936],[4.99679,52.29068],[4.983238,52.29159],[4.96774,52.28285],[4.959744,52.28007],[4.943182,52.27968],[4.933853,52.28219],[4.925796,52.28081],[4.924918,52.26894],[4.921392,52.26416],[4.9171,52.26251],[4.915945,52.258],[4.909976,52.25406],[4.903006,52.25451],[4.897471,52.25252],[4.891573,52.2546],[4.887523,52.25328],[4.882471,52.255],[4.874253,52.25284],[4.869968,52.25458],[4.856517,52.24855],[4.852502,52.24381],[4.844661,52.23891],[4.828911,52.23195],[4.813704,52.22845],[4.805345,52.22929],[4.7950191801350615,52.22784889649943],[4.789557,52.22917],[4.781051,52.23005],[4.776135,52.22868],[4.77304,52.22511],[4.762212,52.21959],[4.742999,52.21592],[4.73354,52.20917],[4.727266,52.21269],[4.724984,52.21654],[4.725037,52.23322],[4.704927,52.23511],[4.696176,52.23348],[4.684824,52.22773],[4.676914,52.22783],[4.670164,52.23198],[4.632712,52.21758],[4.619454,52.21587],[4.602198,52.21593],[4.583589,52.22017],[4.571489,52.21826],[4.557555,52.22046],[4.553172,52.2253],[4.553109,52.22792],[4.555107,52.23037],[4.564099,52.23417],[4.570773,52.2593],[4.570307,52.2679],[4.589488,52.27972],[4.59716,52.29069],[4.598515,52.29589],[4.612248,52.31096],[4.612758,52.31412],[4.598697,52.31864],[4.583717,52.31966],[4.574361,52.31704],[4.568739,52.31771],[4.563651,52.31172],[4.560913,52.31141],[4.477468,52.33372],[4.009635,52.47611],[3.953988434684259,52.431397203605805],[3.896906,52.44295]]]}}
