{"type":"Feature","properties":{"sourceId":"nigeria"},"geometry":{"type":"Polygon","coordinates":[[[8.057832677174547,3.671031586605725],[7.963033,3.610023],[7.985406164273619,3.5299173814909324],[7.54612,2.674022],[2.93751,4.19902],[2.7211954906193543,6.138134781534763],[2.786765,6.147578],[2.712593,6.374671],[2.712593,6.463717],[2.730446,6.48589],[2.714309,6.515908],[2.735252,6.536374],[2.756881,6.569118],[2.734394,6.637668],[2.788467,6.693592],[2.785463,6.728456],[2.797393,6.749169],[2.786665,6.767239],[2.737141,6.784882],[2.743149,6.844112],[2.745724,6.929835],[2.717914,6.95318],[2.736111,7.013838],[2.769069,7.040416],[2.810439,7.433965],[2.741088,7.786514],[2.769927,8.219646],[2.78366,8.587132],[2.811813,9.0526],[3.099517,9.077011],[3.172988,9.282399],[3.175735,9.464641],[3.379669,9.707704],[3.363876,9.824772],[3.526611,9.847099],[3.623428,9.948562],[3.706512,10.18586],[3.611068,10.25479],[3.630294,10.40813],[3.795089,10.39192],[3.861694,10.5938],[3.758697,11.12788],[3.492965,11.43628],[3.630294,11.69258],[3.6224353912891036,11.707639948993252],[3.629951,11.71301],[3.673897,11.75494],[3.659477,11.80939],[3.624973,11.82888],[3.61433,11.92379],[3.672352,11.97854],[3.623085,12.12224],[3.642997,12.21588],[3.646087,12.52742],[3.809509,12.66747],[3.932075,12.75154],[4.014129,12.87808],[4.095497,12.99218],[4.137039,13.16106],[4.129829,13.48412],[4.231796,13.48512],[4.460106,13.69036],[4.875526,13.78941],[4.916381,13.75006],[5.078087,13.76073],[5.267944,13.77107],[5.341415,13.85408],[5.525436,13.89874],[5.881118,13.76073],[6.111488,13.67868],[6.150627,13.65533],[6.24916,13.69002],[6.280059,13.68802],[6.434555,13.61529],[6.714363,13.34386],[6.833496,13.15003],[6.949539,13.01861],[7.041206,13.00991],[7.111587,13.03031],[7.211837,13.14201],[7.393112,13.11225],[7.804069,13.35421],[8.074951,13.32816],[8.160095,13.28706],[8.269615,13.21354],[8.425827,13.07714],[8.499298,13.0962],[8.582725,13.05139],[8.647613,12.99051],[8.669586,12.95304],[8.981323,12.8513],[9.18045,12.84929],[9.646339,12.82553],[9.826927,13.03901],[9.998588,13.19282],[10.19669,13.2874],[10.45452,13.29909],[10.66429,13.3806],[11.45084,13.39931],[11.60019,13.35956],[11.68259,13.31045],[11.90369,13.26601],[12.01149,13.18847],[12.05166,13.14502],[12.14127,13.1166],[12.19002,13.139],[12.20959,13.13198],[12.26211,13.12295],[12.31705,13.10055],[12.36992,13.09653],[12.41798,13.0865],[12.46605,13.07914],[12.48184,13.12763],[12.52888,13.22023],[12.56252,13.25398],[12.57317,13.29074],[12.58896,13.29675],[12.59651,13.29308],[12.61265,13.29274],[12.6384,13.31279],[12.7438,13.3649],[12.7589,13.39263],[12.84164,13.48579],[12.87014,13.50882],[12.95528,13.52852],[13.05837,13.55489],[13.0709,13.55038],[13.14566,13.55689],[13.19355,13.5422],[13.22411,13.5916],[13.24127,13.61879],[13.30685,13.69953],[13.33551,13.72555],[13.36195,13.71671],[13.6433,13.71904],[14.088640225239416,13.09278],[14.07143,13.09278],[14.2,12.5368],[14.18944,12.50119],[14.18884,12.48636],[14.18532,12.48208],[14.17666,12.48217],[14.17296,12.47965],[14.18009,12.44819],[14.1882,12.43825],[14.17498,12.43008],[14.17258,12.42333],[14.17219,12.40879],[14.18618,12.40334],[14.19245,12.39494],[14.19522,12.38869],[14.20122,12.38259],[14.21472,12.37706],[14.2206,12.37302],[14.21693,12.37073],[14.21528,12.36717],[14.22026,12.36021],[14.29047,12.35241],[14.44153,12.34704],[14.48959,12.32525],[14.50779,12.29673],[14.54487,12.23433],[14.59705,12.19037],[14.65576,12.15916],[14.61044,12.05174],[14.59774,11.87676],[14.5998,11.78738],[14.54246,11.7336],[14.53766,11.71074],[14.62418,11.64618],[14.61559,11.52511],[14.42642,11.42484],[14.35055,11.36022],[14.28068,11.31545],[14.23553,11.29895],[14.21562,11.26958],[14.18258,11.24289],[14.17408,11.24281],[14.15923,11.24904],[14.15554,11.24382],[14.15099,11.2471],[14.1455,11.25232],[14.13829,11.25384],[14.10009,11.28111],[14.00671,11.30906],[13.97615,11.31444],[13.96422,11.30013],[13.94543,11.24441],[13.93152,11.21233],[13.9165,11.19819],[13.90989,11.18775],[13.87771,11.1507],[13.87316,11.14169],[13.87788,11.13773],[13.87865,11.13419],[13.87256,11.1315],[13.81428,11.07465],[13.78372,11.01062],[13.73016,11.01163],[13.70579,10.96074],[13.66356,10.84309],[13.57567,10.69907],[13.56571,10.64306],[13.54305,10.61708],[13.52486,10.46992],[13.49293,10.39125],[13.47301,10.33113],[13.461,10.24601],[13.42186,10.13788],[13.2505,10.08878],[13.22001,9.893611],[13.19968,9.580602],[12.99897,9.507942],[12.8351,9.385137],[12.76269,8.830729],[12.4197,8.627318],[12.22,8.44],[11.98267,7.667555],[11.59144,7.016025],[11.26807,6.562907],[10.76,7.03],[10.5782,7.180038],[10.0926,7.036171],[9.75,6.81],[9.31264,6.353575],[8.824786,5.841363],[8.785262,5.258442],[8.530155,4.807464],[8.354096,4.538881],[8.33,4.34],[8.35,4.31],[8.375062310639532,4.289114741133723],[8.057832677174547,3.671031586605725]]]}}
