{"type":"Feature","properties":{"sourceId":"nottinghamshire"},"geometry":{"type":"Polygon","coordinates":[[[-1.203087,53.23196],[-1.202149,53.2355],[-1.21015,53.24097],[-1.21191,53.24775],[-1.208112,53.25069],[-1.209114,53.25129],[-1.201227,53.25997],[-1.201852,53.26114],[-1.174974,53.26646],[-1.180842,53.26934],[-1.166708,53.27744],[-1.18007,53.28742],[-1.172349,53.29512],[-1.175497,53.30488],[-1.172045,53.30763],[-1.173344,53.31018],[-1.1967772465330664,53.30592440650423],[-1.171656,53.3226],[-1.171868,53.32566],[-1.159842,53.33054],[-1.137498,53.34072],[-1.137498,53.3653054662593],[-1.136635,53.36585],[-1.137313,53.36979],[-1.13583473459798,53.37212459772737],[-1.12829,53.37523],[-1.119924,53.39475],[-1.113315,53.39701],[-1.0985092425735672,53.416126558859624],[-1.0943053796818494,53.419319354421575],[-1.077457,53.42226],[-1.075615,53.42607],[-1.055465,53.42419],[-1.021448,53.42348],[-1.012781,53.42594],[-0.993606,53.43685],[-0.988948,53.45214],[-0.9321042855308417,53.499650044466044],[-0.901266,53.47504],[-0.920098,53.46606],[-0.916184,53.46049],[-0.873167,53.46148],[-0.871973,53.46616],[-0.797882,53.4551],[-0.807393,53.4457],[-0.820202,53.44137],[-0.816452,53.43295],[-0.818127,53.42847],[-0.808526,53.41985],[-0.788427,53.41493],[-0.789883,53.40687],[-0.777581,53.39753],[-0.776939,53.39012],[-0.790842,53.38598],[-0.775004,53.37761],[-0.783061,53.37598],[-0.790674,53.36881],[-0.791044,53.36364],[-0.780695,53.36157],[-0.774412,53.36467],[-0.758668,53.35321],[-0.764951,53.34612],[-0.756672,53.34006],[-0.766493,53.33069],[-0.760708,53.32482],[-0.750461,53.32468],[-0.754019,53.31194],[-0.747686,53.30497],[-0.751457,53.29323],[-0.758573,53.29316],[-0.759,53.298],[-0.76085,53.29942],[-0.765333,53.29835],[-0.767325,53.29138],[-0.778355,53.28377],[-0.765048,53.27387],[-0.77316,53.2595],[-0.770243,53.25345],[-0.778426,53.2526],[-0.777287,53.24648],[-0.735369,53.24336],[-0.73392,53.25384],[-0.688781,53.2585],[-0.682838,53.25147],[-0.680476,53.25207],[-0.666651,53.24094],[-0.676101,53.21722],[-0.699706,53.21991],[-0.716111,53.20794],[-0.733223,53.21104],[-0.754266,53.18818],[-0.76213,53.18807],[-0.764251,53.18172],[-0.730242,53.17995],[-0.729762,53.17804],[-0.719375,53.17727],[-0.716971,53.17063],[-0.723357,53.15469],[-0.715767,53.1368],[-0.732119,53.12752],[-0.730891,53.1238],[-0.718402,53.11974],[-0.719703,53.10952],[-0.729387,53.09766],[-0.70669,53.08369],[-0.709903,53.07937],[-0.698083,53.07632],[-0.697144,53.06494],[-0.716012,53.06466],[-0.71278,53.06276],[-0.715721,53.0593],[-0.725479,53.05757],[-0.725215,53.05672],[-0.738906,53.05507],[-0.73863,53.05412],[-0.748993,53.05488],[-0.755593,53.0369],[-0.758473,53.03629],[-0.761655,53.02944],[-0.781258,53.02447],[-0.786446,53.02575],[-0.795648,53.0104],[-0.803816,53.01273],[-0.803942,53.00605],[-0.791433,52.99722],[-0.79174,52.99633],[-0.78651,52.99347],[-0.787212,52.9922],[-0.776448,52.98423],[-0.775901,52.97954],[-0.796145,52.9768],[-0.8001648323858289,52.97222816431671],[-0.803204,52.97151],[-0.8044849421269932,52.967314817198066],[-0.8046075532299052,52.96717536914112],[-0.809141,52.9659],[-0.8133805809949487,52.95778745366155],[-0.819822,52.96094],[-0.832561,52.9496],[-0.830741,52.94846],[-0.833669,52.94569],[-0.822433,52.94402],[-0.836316,52.93915],[-0.842406,52.931],[-0.841286,52.93058],[-0.842756,52.9291],[-0.841916,52.92864],[-0.863897,52.91134],[-0.861097,52.90999],[-0.862147,52.90876],[-0.859344,52.90639],[-0.906303,52.88583],[-0.905931,52.88486],[-0.913135,52.88469],[-0.912784,52.88337],[-0.91765,52.87988],[-0.941103,52.87731],[-0.928478,52.86662],[-0.94119,52.86062],[-0.938998,52.85871],[-0.9400308896678333,52.8565804734487],[-0.947993598071804,52.85207915417173],[-0.954112,52.85025],[-0.9610918810313683,52.84365011249183],[-0.968688,52.84462],[-0.9688355681228511,52.84455421411698],[-0.971283,52.84484],[-0.977212,52.84082],[-0.97731,52.8363],[-0.973966,52.83376],[-0.979000587708711,52.82497777898316],[-0.98843,52.81776],[-0.997956,52.8218],[-1.037345,52.8201],[-1.0374677013729676,52.81959270104455],[-1.037663,52.8196],[-1.046674,52.78153],[-1.048231,52.78262],[-1.047423,52.78332],[-1.0482697685214502,52.784540682997545],[-1.047253,52.78766],[-1.051926,52.79373],[-1.048485,52.79915],[-1.0491135801128957,52.80040716022579],[-1.048767,52.80123],[-1.0497970363429845,52.80177407268597],[-1.05108,52.80434],[-1.072697,52.81387],[-1.069453,52.82103],[-1.070301474981152,52.82154246827439],[-1.070015,52.82246],[-1.072323,52.82374],[-1.0735698324345873,52.82351651528985],[-1.074569,52.82412],[-1.092296,52.82016],[-1.094578,52.82182],[-1.121166,52.81688],[-1.12029,52.8128],[-1.129367,52.80634],[-1.170452,52.80373],[-1.190605,52.79496],[-1.1906778688470676,52.79370242473609],[-1.199105,52.78959],[-1.2001305545710632,52.79118204402139],[-1.19952,52.79307],[-1.2290452856473135,52.79313921765616],[-1.229887205068331,52.794637055277214],[-1.231684,52.79993],[-1.2333433464207175,52.800785789243946],[-1.233638,52.80131],[-1.2357973548557755,52.8020514164795],[-1.241437,52.80496],[-1.2442529383935237,52.80495464887871],[-1.246715,52.8058],[-1.2516574870928767,52.80494057803175],[-1.256362551128604,52.80493163700932],[-1.263437,52.81507],[-1.260425,52.81843],[-1.2606881877717657,52.81899179292349],[-1.260346,52.81948],[-1.2610580377367842,52.8197812638465],[-1.261287,52.82027],[-1.265494446537081,52.82165831264712],[-1.2707259411119673,52.823871762998365],[-1.2720335301250876,52.82902458443364],[-1.272382,52.83248],[-1.2730230212561007,52.83292387622849],[-1.2734497591364988,52.834605523959766],[-1.272474040536404,52.836456775767985],[-1.2689356576074786,52.837388471011124],[-1.267043,52.83762],[-1.2674006037348353,52.83779266762292],[-1.266955,52.83791],[-1.2707599492797919,52.83970701805409],[-1.270085778936008,52.84028524144037],[-1.266491,52.8422],[-1.2669970265669364,52.84293440699725],[-1.266734,52.84316],[-1.2682940046523252,52.844816738565264],[-1.272017,52.85022],[-1.26438,52.85857],[-1.275204,52.8603],[-1.269761,52.86754],[-1.271522,52.86786],[-1.268405,52.87298],[-1.23917,52.88055],[-1.238998,52.88362],[-1.24638,52.88897],[-1.234878,52.89279],[-1.237951,52.89652],[-1.242413,52.89477],[-1.279577,52.90776],[-1.281263,52.91023],[-1.277946,52.91548],[-1.282796,52.91804],[-1.284434,52.92287],[-1.288092,52.92283],[-1.281874,52.92787],[-1.28239,52.93062],[-1.278918,52.93318],[-1.28303,52.94542],[-1.28145,52.94712],[-1.282231,52.94751],[-1.281407,52.9492],[-1.292889,52.95642],[-1.291996,52.95756],[-1.293151,52.95804],[-1.289159,52.96386],[-1.28969,52.9664],[-1.288266,52.96791],[-1.295509,52.97281],[-1.294625,52.97359],[-1.296949,52.97533],[-1.296066,52.97606],[-1.296763,52.97631],[-1.296113,52.97678],[-1.299413,52.98289],[-1.294858,52.98602],[-1.303132,52.99777],[-1.30231,52.99876],[-1.305518,53.00283],[-1.319931,53.00575],[-1.319428,53.00656],[-1.321398,53.00807],[-1.320685,53.00868],[-1.322068,53.00999],[-1.319889,53.0119],[-1.320727,53.01274],[-1.319227,53.01348],[-1.325822,53.02033],[-1.325102,53.02575],[-1.334325,53.04174],[-1.333333,53.04242],[-1.3339,53.04478],[-1.332436,53.04609],[-1.336735,53.05219],[-1.335872,53.05313],[-1.344477,53.06395],[-1.341968,53.07126],[-1.335726,53.07454],[-1.336499,53.07516],[-1.329035,53.08308],[-1.311074,53.08711],[-1.312018,53.08794],[-1.309185,53.08885],[-1.310256,53.09032],[-1.309248,53.09123],[-1.31164,53.09323],[-1.306352,53.09463],[-1.309752,53.09622],[-1.300371,53.10178],[-1.300875,53.10453],[-1.303456,53.10325],[-1.312504,53.10889],[-1.309438,53.1131],[-1.311561,53.11598],[-1.310545,53.11883],[-1.311192,53.11908],[-1.310361,53.11955],[-1.313681,53.12563],[-1.321462,53.13019],[-1.315587,53.13541],[-1.325502,53.15695],[-1.323311,53.16218],[-1.309065,53.16626],[-1.301534,53.16394],[-1.30058,53.16792],[-1.297853,53.16774],[-1.296631,53.17076],[-1.264546,53.16667],[-1.26388,53.16398],[-1.252191,53.16574],[-1.248776,53.16918],[-1.249272,53.17076],[-1.24558,53.17192],[-1.24514,53.17532],[-1.199794,53.18359],[-1.197477,53.19478],[-1.211467,53.21415],[-1.206163,53.22937],[-1.206181,53.22945],[-1.205971,53.23143],[-1.203087,53.23196]]]}}
