{"type":"Feature","properties":{"sourceId":"niedersachsen"},"geometry":{"type":"Polygon","coordinates":[[[6.295338,53.75893],[6.391712,53.79642],[6.638486,53.89139],[7.490666361710389,54.23873210978754],[7.46458,53.98708],[8.185063323210795,53.96304396777608],[8.3963,53.88896],[8.571911,53.84007],[8.580408,53.84377],[8.56766613013329,53.9502799618652],[8.736425,53.94465],[8.905865,53.86354],[9.099854,53.86763],[9.266892,53.85881],[9.324528,53.83111],[9.408314,53.7302],[9.472088,53.70904],[9.532392,53.61069],[9.642048,53.56964],[9.736808,53.54902],[9.738107513059584,53.55353117598627],[9.760666,53.55081],[9.761095,53.50791],[9.780064,53.49106],[9.79929,53.49177],[9.796886,53.47017],[9.8071,53.46199],[9.861511,53.42725],[9.90366,53.45361],[9.917221,53.43792],[9.902716,53.41531],[9.917564,53.41245],[9.933357,53.41946],[9.976187,53.41275],[9.984598,53.41265],[10.03206,53.43367],[10.06416,53.45484],[10.08476,53.44421],[10.10227,53.42375],[10.13454,53.41935],[10.15034,53.40319],[10.17351,53.39265],[10.19583,53.395],[10.23342,53.39183],[10.24544,53.39275],[10.25522,53.40697],[10.26432,53.41751],[10.28801,53.42263],[10.30926078828873,53.4305683434754],[10.32543,53.42355],[10.36972,53.42191],[10.42311,53.39623],[10.47409,53.37964],[10.5019,53.37094],[10.55666,53.36725],[10.56524,53.36018],[10.58189,53.3569],[10.60198,53.36315],[10.60269226299919,53.36387893929209],[10.6279,53.36848],[10.6794,53.36582],[10.69811,53.36879],[10.72317,53.3569],[10.73639,53.34082],[10.75424,53.32862],[10.78806,53.31508],[10.83801,53.30134],[10.92573,53.33702],[10.9877,53.3197],[11.00332,53.28112],[11.07319,53.2194],[11.13533,53.18855],[11.18751,53.18012],[11.16692,53.15748],[11.17584,53.13689],[11.18597,53.13174],[11.22545,53.13925],[11.260705638919797,53.1219615205297],[11.26133,53.09753],[11.33446,53.04679],[11.44741,53.0732],[11.49445,53.0474],[11.557721082381908,53.034591887599426],[11.48361,53.01113],[11.46512,52.94725],[11.31828,52.88941],[11.16818,52.91421],[11.10911,52.9024],[11.1052,52.91854],[11.04189,52.91932],[10.98381,52.91303],[10.93617,52.86183],[10.87743,52.86538],[10.79977,52.86617],[10.74936,52.85492],[10.755,52.81511],[10.74425,52.78352],[10.76531,52.74921],[10.78025,52.70673],[10.81856,52.71067],[10.82051,52.69473],[10.92506,52.59307],[10.92571,52.55597],[10.96857,52.51094],[10.93421,52.50077],[10.9225,52.47898],[10.92347,52.45301],[11.00822,52.38218],[11.0536,52.36957],[11.03994,52.35328],[10.97292,52.34851],[10.97748,52.32744],[11.01912,52.30317],[10.99212,52.29193],[11.0562,52.22662],[11.01066,52.21855],[11.00155,52.17368],[11.03864,52.15991],[11.02758,52.14514],[10.92738,52.10919],[10.92445,52.08681],[10.95812,52.07801],[10.95357,52.06542],[10.87614,52.06642],[10.80131,52.05702],[10.71477,52.05858],[10.63494,52.04441],[10.64057,52.03092],[10.61808,52.01674],[10.59728,52.01985],[10.54725,52.00809],[10.57648,51.97278],[10.61639,51.95269],[10.6029,51.93605],[10.60346,51.91629],[10.63607,51.90624],[10.63213,51.8882],[10.56917,51.85384],[10.57086,51.77286],[10.61302,51.74763],[10.63888,51.71282],[10.65799,51.66716],[10.686333459994621,51.644522161593876],[10.67327,51.64229],[10.66437,51.63388],[10.62799,51.6185],[10.62915,51.58052],[10.59741,51.5834],[10.568,51.56873],[10.51652,51.56007],[10.50452,51.57402],[10.44453,51.59615],[10.36601,51.5922],[10.35995,51.55725],[10.29911,51.51201],[10.28214,51.49579],[10.23027,51.47873],[10.20554,51.49111],[10.17912,51.47873],[10.17209,51.44989],[10.15379,51.45276],[10.13658,51.44158],[10.05149,51.44128],[10.00301,51.42571],[10.00204,51.41135],[9.957194,51.39774],[9.941923,51.38352],[9.93375648017972,51.382564396619436],[9.933872,51.39235],[9.906235,51.42201],[9.79414,51.40981],[9.787445,51.39305],[9.692001,51.36749],[9.735088,51.3186],[9.731483,51.29756],[9.672088,51.31946],[9.582138,51.34359],[9.568062,51.3438],[9.5545,51.35892],[9.569435,51.36085],[9.580593,51.37242],[9.561024,51.37741],[9.581623,51.39797],[9.593382,51.3969],[9.632692,51.40295],[9.645138,51.41725],[9.631834,51.45786],[9.649257,51.4678],[9.589691,51.51911],[9.615612,51.51985],[9.629173,51.54666],[9.650459,51.54922],[9.687023,51.56555],[9.695949,51.57792],[9.641018,51.6178],[9.632606,51.63848],[9.613258,51.63526],[9.567547,51.62697],[9.554844,51.64039],[9.541111,51.64157],[9.524288,51.62803],[9.505234,51.62899],[9.499319,51.65916],[9.441297990441495,51.65199821439238],[9.440174,51.6535],[9.390821,51.64769],[9.378118,51.65083],[9.381208,51.66601],[9.397688,51.67181],[9.399061,51.6749],[9.396229,51.68352],[9.390564,51.68746],[9.404812,51.69916],[9.403524,51.70645],[9.394684,51.71592],[9.390907,51.72081],[9.398031,51.73133],[9.384041,51.73824],[9.378204,51.74175],[9.380693,51.74638],[9.386187,51.75047],[9.387903,51.75626],[9.403868,51.75849],[9.454336,51.79365],[9.441461,51.80421],[9.432878,51.80851],[9.443865,51.82761],[9.442663,51.83291],[9.43511,51.84045],[9.46249,51.85131],[9.468311,51.86355],[9.358973,51.87124],[9.345136,51.9099],[9.326035,51.92603],[9.285089,51.92865],[9.289615,51.96544],[9.273834,51.97499],[9.264049,51.97806],[9.249544,51.97938],[9.231691,51.97727],[9.21607,51.97452],[9.189634,51.96727],[9.190149,51.97256],[9.18354,51.98002],[9.198561,51.99598],[9.198303,52.01553],[9.179592,52.04098],[9.184828,52.06616],[9.198646,52.06959],[9.185343,52.07861],[9.17633,52.08784],[9.158993,52.09338],[9.155989,52.09802],[9.150925,52.10092],[9.137192,52.10018],[9.147921,52.10803],[9.157963,52.11431],[9.162168,52.1191],[9.155559,52.13001],[9.14423,52.13612],[9.131355,52.14123],[9.112387,52.1397],[9.089298,52.13702],[9.071274,52.15076],[9.053163,52.14977],[9.018488,52.13765],[9.024496,52.18141],[9.051361,52.18193],[9.04767,52.21045],[9.04355,52.21592],[9.03883,52.21891],[9.049644,52.21907],[9.073248,52.2257],[9.080028,52.234],[9.035997,52.25177],[8.988104,52.26227],[8.989391,52.28759],[8.99291,52.30753],[8.998661,52.31756],[9.035826,52.33943],[9.060287,52.33738],[9.086037,52.35196],[9.10037,52.37078],[9.11273,52.39362],[9.119768,52.39713],[9.127493,52.40483],[9.125862,52.42383],[9.099512,52.44518],[9.105349,52.45522],[9.14011,52.47384],[9.137106,52.48435],[9.09625,52.49961],[9.051704,52.50217],[9.022608,52.47933],[9.009819,52.45941],[8.999777,52.45873],[8.976946,52.45141],[8.975916,52.42954],[8.963556,52.42666],[8.948879,52.41797],[8.937979,52.41603],[8.928366,52.40551],[8.892746,52.40698],[8.86322,52.39645],[8.787174,52.39959],[8.713531,52.40305],[8.720913,52.42943],[8.71233,52.47766],[8.70615,52.50086],[8.694305,52.51925],[8.652935,52.53345],[8.554916,52.5041],[8.508568,52.51747],[8.454666,52.4924],[8.448143,52.46197],[8.399391,52.45182],[8.361797,52.44712],[8.345661,52.45538],[8.292446,52.46333],[8.300686,52.43351],[8.30841,52.40336],[8.384971,52.38199],[8.436985,52.35862],[8.459129,52.31551],[8.466511,52.31478],[8.461361,52.30627],[8.455181,52.30407],[8.460674,52.27152],[8.456039,52.2586],[8.456039,52.24063],[8.439388,52.21392],[8.447285,52.20834],[8.453035,52.19861],[8.465309,52.19477],[8.508654,52.18551],[8.497839,52.1753],[8.469772,52.15782],[8.450375,52.15693],[8.433037,52.14797],[8.407116,52.13791],[8.39201,52.11136],[8.361797,52.12095],[8.288841,52.13633],[8.266353,52.13307],[8.242321,52.12253],[8.217773,52.10629],[8.197861,52.0871],[8.191337,52.07507],[8.145847,52.07877],[8.103275,52.06568],[8.094893,52.06655],[8.094893042311906,52.06654908831947],[8.06551,52.06959],[8.031864,52.07117],[7.991867,52.05154],[7.979679,52.03898],[7.923546,52.05344],[7.924061,52.05882],[7.892475,52.08489],[7.950153,52.0987],[7.972126,52.11304],[8.010406,52.11272],[8.00663,52.15729],[8.028259,52.15782],[8.028087,52.16393],[8.017616,52.17362],[8.00663,52.17814],[7.972641,52.17635],[7.919426,52.18762],[7.908439,52.20603],[7.928524,52.22422],[7.934189,52.2607],[7.94672,52.26364],[7.959595,52.27225],[7.937622,52.28717],[7.935734,52.30008],[7.952213,52.30459],[7.990837,52.30271],[7.992554,52.30953],[7.987833,52.31126],[7.978306,52.31357],[7.963543,52.32752],[7.952299,52.33718],[7.955046,52.34719],[7.938309,52.36632],[7.892303,52.38314],[7.868957,52.37817],[7.841062,52.37025],[7.806473,52.37319],[7.726393,52.40132],[7.715492,52.40237],[7.704849,52.43372],[7.69824,52.44455],[7.685366,52.45946],[7.60211,52.47682],[7.588978,52.46464],[7.561426,52.43231],[7.598591,52.41855],[7.580223,52.40394],[7.569323,52.38042],[7.554388,52.37078],[7.531729,52.37251],[7.501688,52.36135],[7.477999,52.34892],[7.436457,52.33466],[7.424183,52.3154],[7.402382,52.31378],[7.385902,52.31047],[7.368221,52.30024],[7.315779,52.2806],[7.296467,52.26532],[7.155962,52.268],[7.1206,52.26275],[7.109613,52.25555],[7.104034,52.24567],[7.068239685307502,52.24287878530507],[7.068264,52.24293],[7.044544,52.25833],[7.031167,52.27561],[7.02941,52.29096],[7.050009,52.31369],[7.050042,52.32263],[7.059279,52.33664],[7.074867,52.3504],[7.075066,52.37384],[7.060917,52.40146],[7.037172,52.40565],[7.024209,52.425],[7.013247,52.43121],[6.996353,52.46722],[6.988624,52.47259],[6.9754,52.46779],[6.959788,52.44669],[6.941407,52.43853],[6.85623,52.45352],[6.854735,52.46267],[6.774899,52.4626],[6.753652,52.46699],[6.700986,52.48816],[6.708209,52.52186],[6.68763,52.54938],[6.716428,52.54553],[6.727875,52.5598],[6.752295,52.55604],[6.769131,52.55989],[6.768056,52.56619],[6.722265,52.5902],[6.730256,52.61537],[6.721389577584854,52.62391063838637],[6.721395,52.62391],[6.717383,52.62777],[6.743337,52.64256],[6.784084,52.64954],[6.821407,52.64469],[6.872838,52.65024],[6.912264,52.64401],[6.918933,52.63686],[6.953745,52.636],[6.975989,52.64321],[7.039568,52.62971],[7.05756,52.64104],[7.07447,52.8093],[7.095411,52.83683],[7.095225157068064,52.83734],[7.095226,52.83734],[7.090966,52.84905],[7.183969,52.93986],[7.211986,52.99862],[7.220429,53.00672],[7.215711,53.01248],[7.202251,53.08151],[7.205696,53.11417],[7.188436,53.12269],[7.182299,53.13582],[7.192205,53.14647],[7.194018,53.1609],[7.205009,53.17352],[7.230455,53.18079],[7.212982,53.18967],[7.220549,53.19716],[7.220022,53.2149],[7.189534,53.33448],[7.111054,53.33481],[7.061512,53.32704],[7.00685,53.32943],[6.995954,53.35073],[6.954578,53.3957],[6.929332,53.45654],[6.821311,53.49649],[6.63969,53.58017],[6.519829,53.65732],[6.347368234602523,53.65686990370322],[6.295338,53.75893]],[[8.578437,53.21813],[8.572005,53.21167],[8.566145,53.21435],[8.554182,53.20877],[8.547045,53.21377],[8.543892,53.21398],[8.541184,53.21616],[8.537112,53.21534],[8.53042,53.21658],[8.526415,53.22205],[8.523496,53.22194],[8.523079,53.22355],[8.521073,53.22349],[8.521242,53.22672],[8.518743,53.22673],[8.517307,53.22909],[8.506858,53.22843],[8.50392,53.22966],[8.490168,53.2274],[8.488865,53.22891],[8.480959,53.22676],[8.482431,53.22288],[8.490537,53.21665],[8.495432,53.20903],[8.500976,53.20528],[8.505858,53.19947],[8.512254,53.19624],[8.515308,53.19723],[8.522611,53.19183],[8.533636,53.18623],[8.556976,53.18067],[8.582453,53.1727],[8.611348,53.1697],[8.619494,53.16638],[8.622735,53.16278],[8.625879,53.14537],[8.630098,53.13799],[8.634341,53.13348],[8.647819,53.12468],[8.650273,53.12153],[8.649707,53.11733],[8.652751,53.11112],[8.653751,53.10839],[8.669353,53.10219],[8.664211,53.09584],[8.665954,53.09124],[8.674488,53.08554],[8.686927,53.08522],[8.705708,53.07561],[8.709194,53.0721],[8.709702,53.06855],[8.706123,53.05247],[8.709331,53.04517],[8.729968,53.03335],[8.734242,53.03297],[8.737982,53.03663],[8.740454,53.03905],[8.741748,53.03869],[8.743301,53.03993],[8.751439,53.03726],[8.756901,53.03846],[8.757962,53.04095],[8.756123,53.04252],[8.756541,53.04336],[8.758404,53.04314],[8.764634,53.0467],[8.762022,53.04996],[8.770096,53.05205],[8.772064,53.04466],[8.775875,53.04264],[8.777443,53.03883],[8.782499,53.03719],[8.785725,53.03773],[8.808574,53.03036],[8.810032,53.02825],[8.815214,53.02582],[8.817499,53.02183],[8.82203,53.02016],[8.830788,53.02052],[8.838031,53.01747],[8.840843,53.02033],[8.844202,53.02154],[8.844866,53.02301],[8.849042,53.02341],[8.846577,53.01778],[8.847454,53.01602],[8.848968,53.01588],[8.850924,53.01616],[8.852819,53.01913],[8.855103,53.02045],[8.867059,53.02117],[8.869883,53.0248],[8.865539,53.02817],[8.866418,53.03223],[8.88359,53.02295],[8.892659,53.01356],[8.896934,53.01222],[8.915746,53.01034],[8.935836,53.01299],[8.938848,53.02414],[8.946119,53.02427],[8.952458,53.03282],[8.963457,53.03639],[8.966901,53.03607],[8.971601,53.03863],[8.980996,53.04654],[8.976998,53.05204],[8.973879,53.05194],[8.97087,53.0567],[8.966615,53.05825],[8.96458,53.06036],[8.96655,53.06254],[8.965461,53.07661],[8.964914,53.08017],[8.966571,53.08284],[8.962445,53.08526],[8.965782,53.08906],[8.984503,53.09262],[8.991268,53.09666],[8.989558,53.09878],[8.979542,53.10004],[8.970444,53.10211],[8.958218,53.11157],[8.948558,53.11619],[8.962749,53.11908],[8.966957,53.12127],[8.978232,53.12289],[8.983984,53.12562],[8.979324,53.13148],[8.971611,53.13416],[8.960158,53.14312],[8.956958,53.14777],[8.945054,53.15276],[8.939893,53.15291],[8.936901,53.15175],[8.930619,53.14832],[8.920491,53.14503],[8.920051,53.14412],[8.9214,53.14221],[8.915927,53.13985],[8.916077,53.13719],[8.912146,53.13328],[8.909629,53.13346],[8.907142,53.13793],[8.903128,53.13923],[8.897505,53.13471],[8.886153,53.13363],[8.874316,53.13412],[8.863432,53.13216],[8.862411,53.13726],[8.861722,53.13843],[8.858228,53.14054],[8.853117,53.14419],[8.845287,53.14806],[8.840334,53.15818],[8.831747,53.16024],[8.830586,53.16307],[8.829275,53.1649],[8.821277,53.16418],[8.814552,53.16465],[8.798689,53.16347],[8.79722,53.1643],[8.792599,53.16377],[8.790699,53.16394],[8.786732,53.16372],[8.782127,53.16414],[8.775121,53.1621],[8.771124,53.16009],[8.761751,53.16588],[8.755166,53.16418],[8.748036,53.16664],[8.741885,53.16467],[8.741523,53.16645],[8.744135,53.17095],[8.743869,53.17217],[8.739386,53.17163],[8.737198,53.17394],[8.732554,53.17501],[8.729187,53.18128],[8.714161,53.18396],[8.712246,53.18135],[8.709577,53.18065],[8.709726,53.17874],[8.705491,53.17667],[8.702337,53.17844],[8.701904,53.17965],[8.703409,53.18151],[8.699443,53.18614],[8.69656,53.18333],[8.691238,53.18203],[8.687234,53.1797],[8.679439,53.17872],[8.677812,53.17772],[8.67843,53.17658],[8.676175,53.17598],[8.674892,53.17946],[8.671074,53.17964],[8.669937,53.17788],[8.665359,53.17716],[8.662827,53.17888],[8.659425,53.17822],[8.658608,53.18215],[8.653511,53.18502],[8.656097,53.1863],[8.654726,53.18801],[8.643234,53.19003],[8.638992,53.19207],[8.64022,53.19466],[8.634298,53.19689],[8.631454,53.19637],[8.628186,53.19891],[8.621455,53.19779],[8.621347,53.19577],[8.616084,53.19474],[8.61709,53.19582],[8.61336,53.19747],[8.611878,53.1962],[8.61532,53.19451],[8.608342,53.19322],[8.608214,53.18922],[8.593501,53.185],[8.592324,53.18661],[8.593007,53.18786],[8.589129,53.19038],[8.584954,53.19017],[8.584542,53.19106],[8.5818,53.19125],[8.581361,53.1933],[8.585757,53.19609],[8.582182,53.19914],[8.597396,53.20713],[8.60015,53.21098],[8.599362,53.21342],[8.578437,53.21813]],[[8.635984,53.5543],[8.631574,53.55619],[8.625819,53.56784],[8.620204,53.57422],[8.620693,53.57695],[8.627218,53.5842],[8.641363,53.59292],[8.640072,53.59466],[8.653304,53.60224],[8.657775,53.60268],[8.660066,53.60779],[8.658592,53.60983],[8.654038,53.60895],[8.651924,53.61063],[8.642658,53.61052],[8.641847,53.60889],[8.644382,53.60731],[8.643166,53.60603],[8.643798,53.60448],[8.639793,53.60518],[8.623225,53.60602],[8.612262,53.60352],[8.601275,53.59622],[8.592972,53.59386],[8.581374,53.59864],[8.535422,53.60772],[8.533663,53.60514],[8.527368,53.60641],[8.525435,53.60457],[8.523178,53.60744],[8.493498,53.60351],[8.493468,53.60245],[8.559076,53.53636],[8.560064,53.53183],[8.558515,53.52774],[8.54622,53.5213],[8.551284,53.51639],[8.520366,53.50472],[8.511296,53.50007],[8.504218,53.49441],[8.501178,53.49139],[8.491656,53.47549],[8.491577,53.472],[8.505762,53.47047],[8.509653,53.47469],[8.514411,53.47464],[8.517022,53.4726],[8.528859,53.47938],[8.539527,53.47957],[8.573728,53.48781],[8.575051,53.48586],[8.578344,53.48486],[8.58414,53.48616],[8.591864,53.48421],[8.597157,53.48506],[8.603295,53.48379],[8.604164,53.48648],[8.610639,53.4868],[8.619703,53.49],[8.624468,53.49323],[8.626241,53.49289],[8.62763,53.49518],[8.629601,53.49504],[8.630505,53.49675],[8.628816,53.49916],[8.629345,53.50097],[8.636614,53.5022],[8.638345,53.5034],[8.637674,53.50512],[8.640633,53.50679],[8.651507,53.51032],[8.649244,53.51386],[8.65293,53.51626],[8.649762,53.52007],[8.646059,53.51939],[8.644103,53.52311],[8.640124,53.52569],[8.639099,53.53337],[8.639048,53.53445],[8.642332,53.5364],[8.642684,53.54082],[8.64603,53.54024],[8.645195,53.5494],[8.647419,53.55588],[8.635984,53.5543]]]}}
