{"type":"Feature","properties":{"sourceId":"new-brunswick"},"geometry":{"type":"Polygon","coordinates":[[[-68.80092,47.35379],[-68.57151,47.43165],[-68.38849,47.55583],[-68.38649,47.9189],[-68.12778,47.92132],[-68.12725,48.00256],[-67.59132,48.00233],[-67.57999,47.94441],[-67.36658,47.86205],[-67.34991,47.90073],[-67.28685,47.9038],[-67.24596,47.88722],[-67.13506,47.91985],[-67.05967,47.94081],[-66.94529,47.9747],[-66.9232,47.98922],[-66.85673,48.00569],[-66.77398,47.99855],[-66.76204,48.00407],[-66.74453,48.00496],[-66.72701,48.01131],[-66.6974,48.00853],[-66.67088,48.02047],[-66.65414,48.01973],[-66.5308,48.05399],[-66.51398,48.07785],[-66.4666,48.09551],[-66.34987,48.09138],[-66.3018,48.04091],[-66.18146,48.05262],[-65.85205,48.04504],[-65.1915,47.92371],[-64.4664,48.23565],[-63.34767,48.38075],[-62.88575,47.71716],[-63.09618792425472,47.60885533794892],[-63.284,47.68573],[-64.58863,47.08135],[-64.60236,46.5853],[-64.40461,46.3602],[-63.90769,46.23811],[-63.58942484811851,46.074438338575185],[-64.03313,46.01079],[-64.04171,45.97442],[-64.14196,45.97669],[-64.21711,45.89789],[-64.26564,45.83957],[-64.27975,45.826],[-64.33415,45.83711],[-64.45473,45.74644],[-64.48753,45.68858],[-64.78649,45.53849],[-64.92302,45.44231],[-64.991,45.26425],[-65.02284,45.25193],[-65.00061,45.20623],[-66.62659,44.24717],[-66.9626464533364,44.20928124852645],[-66.93645,44.22092],[-66.87164,44.79019],[-66.9754,44.86001],[-66.95843,44.91438],[-67.13931,45.16135],[-67.27916,45.19389],[-67.2916,45.19038],[-67.30156,45.16842],[-67.33992,45.12889],[-67.47185,45.27634],[-67.40593,45.37072],[-67.47562,45.4676],[-67.40627,45.50153],[-67.4176,45.61044],[-67.55768,45.60419],[-67.71973,45.69155],[-67.78221,45.69275],[-67.75148,45.8239],[-67.79285,45.86324],[-67.74462,45.91724],[-67.77535,45.94518],[-67.78444,47.06918],[-67.85645,47.10089],[-67.95124,47.19959],[-68.15028,47.32784],[-68.24512,47.36315],[-68.38233,47.36062],[-68.39456,47.29167],[-68.48328,47.30298],[-68.58102,47.29054],[-68.81596,47.2191],[-68.88582,47.18761],[-69.03122,47.2437],[-69.04839,47.29658],[-69.04631182115682,47.303950329528654],[-68.80092,47.35379]]]}}
