{"type":"Feature","properties":{"sourceId":"nicaragua"},"geometry":{"type":"Polygon","coordinates":[[[-84.20574,10.7726],[-84.24076,10.81375],[-84.37397,10.96175],[-84.43199,10.94524],[-84.68124,11.07364],[-84.90818,10.93344],[-85.43072,11.12619],[-85.52616,11.16527],[-85.60307,11.20905],[-85.70023,11.05544],[-86.36351,11.10721],[-87.93755405733472,12.88981448042456],[-87.61528,13.10356],[-87.58658032097068,13.170628084877235],[-87.53783,13.18008],[-87.3533,13.00107],[-86.9924,13.05541],[-86.92258,13.27386],[-86.84586,13.32376],[-86.74464,13.32017],[-86.81657,13.66014],[-86.78743,13.78806],[-86.54613,13.83563],[-86.35943,13.80159],[-86.17108,14.06066],[-86.02525,14.11127],[-85.97338,14.07168],[-85.98916,14.00967],[-85.82626,13.94338],[-85.79489,13.8874],[-85.76897,13.99324],[-85.43939,14.14657],[-85.39161,14.25174],[-85.20374,14.29136],[-85.25117,14.37531],[-85.17975,14.58428],[-85.07579,14.59645],[-85.05199,14.72238],[-84.91039,14.84376],[-84.79037,14.85218],[-84.67232,14.70117],[-84.46323,14.63574],[-84.36195,14.72873],[-84.29535,14.68125],[-84.27475,14.74069],[-84.23184,14.76891],[-84.17141,14.72242],[-84.11304,14.79646],[-83.90396,14.78086],[-83.69556,14.88225],[-83.50159,15.01775],[-83.40271,15.03963],[-83.27259,15.01128],[-83.13955,15.00382],[-82.87811,15.1119],[-82.37865,15.0312],[-82.95166,11.07911],[-83.6293,11.02478],[-83.65196,10.82083],[-83.66467,10.79385],[-83.86276,10.70919],[-83.93349,10.70177],[-84.01382,10.74292],[-84.20574,10.7726]]]}}
