{"type":"Feature","properties":{"sourceId":"north-admreg"},"geometry":{"type":"Polygon","coordinates":[[[-134.5711,54.38827],[-132.4355,54.71514],[-130.7734,54.75597],[-130.1435,55.27452],[-130.2402,56.02909],[-131.9238,56.60184],[-132.4292,57.09001],[-133.4976,58.36716],[-134.2831,58.83223],[-135.0302,59.28833],[-135.4944,59.75501],[-136.6068,59.11254],[-137.4746,58.82791],[-139.22776089982912,59.99884968267788],[-139.0479,59.99739],[-123.8021,59.99918],[-123.80637806522124,60.00515139916535],[-119.9986,60.00458],[-119.99859924244525,60.00253951969214],[-120.0035,60.00254],[-120.0043,53.79866],[-120.0008,53.7957],[-119.9971,53.80152],[-119.9907,53.80043],[-119.9835,53.78826],[-119.9493,53.77223],[-119.907,53.73783],[-119.9012,53.7291],[-119.9196,53.71887],[-119.9144,53.7095],[-119.9004,53.70536],[-119.8381,53.69154],[-119.7419,53.66139],[-119.7511,53.59369],[-119.7703,53.59298],[-119.8014,53.60573],[-119.8781,53.62125],[-119.9031,53.62301],[-119.9231,53.61722],[-119.9337,53.61099],[-119.9337,53.60667],[-119.8673,53.54895],[-119.901,53.53724],[-119.9034,53.51459],[-119.8653,53.49724],[-119.8537,53.50012],[-119.8481,53.50922],[-119.8372,53.51462],[-119.8165,53.49759],[-119.7873,53.48933],[-119.797,53.47774],[-119.7693,53.42741],[-119.7369,53.40387],[-119.7317,53.3863],[-119.6818,53.36729],[-119.6059,53.36025],[-119.5942,53.36719],[-119.5301,53.36103],[-119.4831,53.3598],[-119.4481,53.346],[-119.4414,53.34772],[-119.4409,53.35321],[-119.4101,53.36348],[-119.3927,53.35689],[-119.3543,53.32832],[-119.3531,53.31706],[-119.3632,53.31019],[-119.3456,53.28243],[-119.2852,53.22764],[-119.2639,53.17987],[-119.2621,53.17372],[-119.2361,53.17904],[-119.1919,53.18001],[-119.1501,53.18708],[-119.1414,53.17086],[-119.1237,53.15718],[-119.0949,53.1621],[-119.0521,53.14317],[-119.0506,53.12331],[-119.0265,53.12097],[-118.9968,53.14435],[-119.0252,53.16314],[-119.0034,53.1888],[-118.9926,53.19175],[-118.9903,53.20502],[-118.9975,53.21307],[-119.022,53.22268],[-119.011,53.23039],[-118.9836,53.23695],[-118.9584,53.23162],[-118.9273,53.22313],[-118.9271,53.21367],[-118.9214,53.20949],[-118.8784,53.20232],[-118.8632,53.18537],[-118.8305,53.16993],[-118.8144,53.16154],[-118.7879,53.15106],[-118.7926,53.14517],[-118.7841,53.13206],[-118.7341,53.11345],[-118.7544,53.0988],[-118.7728,53.07631],[-118.7808,53.05098],[-118.7807,53.04471],[-118.7612,53.03385],[-118.7569,53.04274],[-118.705,53.04342],[-118.7041,53.03324],[-118.6978,53.02908],[-118.6591,53.03211],[-118.6579,53.0121],[-118.6519,52.9946],[-118.6723,52.98582],[-118.6757,52.97734],[-118.6652,52.96162],[-118.6511,52.95009],[-118.6191,52.93503],[-118.6258,52.91677],[-118.6228,52.91071],[-118.62,52.89932],[-118.6175,52.87902],[-118.6019,52.87667],[-118.5767,52.88214],[-118.5223,52.8937],[-118.5108,52.90191],[-118.4551,52.88427],[-118.4674,52.86874],[-118.4547,52.85287],[-118.4398,52.84697],[-118.4061,52.83994],[-118.4261,52.7973],[-118.4215,52.77227],[-118.4163,52.76536],[-118.3384,52.73488],[-118.3438,52.72772],[-118.3468,52.70769],[-118.303,52.68943],[-118.3199,52.65955],[-118.3304,52.65371],[-118.3578,52.63606],[-118.3591,52.6135],[-118.3471,52.60433],[-118.3394,52.58519],[-118.3301,52.57503],[-118.2848,52.56848],[-118.2745,52.56277],[-118.2936,52.53857],[-118.2878,52.53387],[-118.2886,52.52457],[-118.2651,52.50231],[-118.2364,52.48456],[-118.203,52.48551],[-118.1977,52.47597],[-118.2108,52.47237],[-118.2373,52.45401],[-118.2517,52.45289],[-118.2553,52.44496],[-118.24691826911867,52.40507227403913],[-118.2486,52.4041],[-118.3502,52.39069],[-118.5974,52.29672],[-118.6716,52.18572],[-118.8144,52.20593],[-118.81750037956694,52.20216593019139],[-118.8556,52.2463],[-118.7691,52.31771],[-118.9105,52.35715],[-118.9215,52.44931],[-118.8748,52.48195],[-118.927,52.57635],[-118.9929,52.60555],[-119.0463,52.63887],[-119.1975,52.6364],[-119.225,52.61055],[-119.3568,52.60305],[-119.3472,52.65973],[-119.5161,52.65223],[-119.6136,52.713],[-119.7922,52.67888],[-119.8897,52.72382],[-119.9515,52.73546],[-120.0352,52.82351],[-120.1698,52.93209],[-120.3731,52.96684],[-120.4555,53.04369],[-120.3992,53.05772],[-120.4005,53.09897],[-120.4596,53.16242],[-120.6546,53.23399],[-120.6876,53.26111],[-121.0158,53.4349],[-121.2657,53.44962],[-121.5653,53.44385],[-121.5724,53.44917],[-122.342,53.45276],[-122.3582,53.44022],[-122.3561,53.37637],[-122.6047,53.37718],[-122.6369,53.38865],[-122.6898,53.39848],[-122.8416,53.38497],[-122.8965,53.32062],[-122.9713,53.30503],[-122.9968,53.28492],[-123.0565,53.30421],[-123.0908,53.29477],[-123.1615,53.30339],[-123.2385,53.30257],[-123.2879,53.29026],[-123.3018,53.28401],[-123.2975,53.47401],[-123.4246,53.47134],[-123.4249,53.48524],[-123.4501,53.48529],[-123.4623,53.49188],[-123.4655,53.4858],[-123.5852,53.4853],[-123.5901,53.48765],[-123.5986,53.48808],[-123.6039,53.4863],[-124.004,53.48716],[-124.0009,53.45514],[-124.0098,53.43945],[-124.1421,53.44185],[-124.2815,53.48233],[-124.3769,53.46353],[-124.40258996816922,53.45507494917343],[-124.40271634760636,53.45538703617238],[-124.368,53.5101],[-124.5136,53.55744],[-124.5836,53.47824],[-124.6797,53.41772],[-124.7443,53.36858],[-124.9475,53.44799],[-125.0104,53.44669],[-125.0009,53.00054],[-126.6167,53.0055],[-126.6463,53.04121],[-126.6779,53.03378],[-126.7067,52.9966],[-126.7726,53.0123],[-126.7712,53.0602],[-126.8413,53.12205],[-126.8893,53.11381],[-126.991,53.08578],[-126.98,53.15007],[-127.0171,53.2085],[-126.9553,53.26686],[-127.0116,53.31693],[-127.094,53.28985],[-127.0981,53.24714],[-127.1667,53.2841],[-127.2794,53.28574],[-127.381,53.23152],[-127.5101,53.14677],[-127.462,53.07918],[-127.256,53.02139],[-127.3288,52.90145],[-127.2357,52.83074],[-127.359,52.81687],[-127.4757,52.71633],[-127.5403,52.70468],[-127.5911,52.73546],[-127.5938,52.78366],[-127.6804,52.79861],[-127.738,52.78699],[-127.7367,52.72548],[-127.804,52.69969],[-127.8108,52.67555],[-127.83,52.67722],[-127.8603,52.69387],[-127.9001,52.68721],[-127.9138,52.72798],[-128.0566,52.718],[-128.1569,52.68471],[-128.1981,52.62056],[-128.2214,52.49783],[-128.3958,52.48111],[-128.4837,52.43257],[-128.5895,52.39404],[-128.5606,52.24967],[-128.6363,52.20007],[-128.8637,52.12848],[-128.8517808259747,52.1148064065358],[-131.8311,51.0635],[-138.5921,51.80058],[-141.7761,53.58405],[-134.5711,54.38827]]]}}
