{"type":"Feature","properties":{"sourceId":"northern-zone"},"geometry":{"type":"Polygon","coordinates":[[[70.93529,24.92381],[70.87074,25.13596],[70.64415,25.38125],[70.61325,25.66195],[70.29121,25.65824],[70.1223,25.87591],[69.43908,26.76278],[69.49486,27.21886],[70.35919,28.05502],[72.30926,28.81099],[72.89841,29.03336],[73.07556,29.25705],[73.27263,29.57973],[73.38455,29.96088],[73.60085,30.02987],[73.79379,30.07801],[73.95035,30.20093],[73.86864,30.35984],[73.9167,30.49306],[74.08905,30.63141],[74.34448,30.91754],[74.52644,31.01116],[74.49966,31.13408],[74.49898,31.18461],[74.52919,31.36419],[74.62532,31.44741],[74.56146,31.50246],[74.58412,31.56098],[74.54567,31.60486],[74.47632,31.72116],[74.59854,31.90205],[74.86359,32.06628],[74.94118,32.07734],[75.1767,32.09537],[75.19867,32.13027],[75.32295,32.22384],[75.36072,32.23662],[75.17601,32.40199],[75.12794,32.40315],[74.94461,32.43967],[74.7139,32.47096],[74.67201,32.4837],[74.62463,32.59831],[74.6418,32.73184],[74.51408,32.73704],[74.45366,32.77111],[74.15909,33.07486],[73.98125,33.22605],[74.00803,33.27773],[74.15771,33.35806],[74.13299,33.53796],[74.01215,33.57229],[73.96751,33.64035],[73.94691,33.72605],[74.04922,33.82879],[74.22329,33.8784],[74.26037,33.96386],[74.1354,34.02506],[74.07772,34.02933],[73.97919,34.00173],[73.89645,34.0151],[73.88615,34.06205],[73.90057,34.11038],[73.95,34.17574],[73.99155,34.19448],[73.98125,34.26119],[73.93078,34.27651],[73.87756,34.31565],[73.76942,34.32586],[73.74161,34.34202],[73.74573,34.37858],[73.76976,34.39926],[73.80134,34.4307],[73.93284,34.56934],[73.91773,34.60919],[73.92769,34.64564],[73.95927,34.69279],[74.30569,34.78871],[74.38465,34.79463],[74.48387,34.78646],[74.58824,34.76418],[74.71149,34.70041],[74.93431,34.68602],[75.03559,34.64987],[75.14305,34.66992],[75.27729,34.64394],[75.36484,34.55379],[75.40363,34.56595],[75.77305,34.54078],[75.95055,34.6414],[76.02161,34.69082],[76.06968,34.69957],[76.14899,34.65044],[76.25748,34.72553],[76.47514,34.80591],[76.76559,34.95406],[77.03064,35.10194],[76.70929,35.55793],[76.74637,35.6718],[76.83838,35.73091],[77.46185,35.52776],[78.17734,35.55346],[78.11072,35.26918],[78.37472,34.70795],[79.12999,34.39852],[79.13551,34.23658],[78.83879,34.0256],[78.85017,33.5854],[79.18396,33.19273],[79.48883,32.70873],[79.43939,32.5005],[79.10019,32.34516],[78.9299,32.31731],[78.78982,32.43677],[78.67584,32.59542],[78.44101,32.54334],[78.6961,32.11021],[78.80081,32.00225],[78.85712,31.60427],[78.81935,31.34953],[78.91837,31.39745],[78.88389,31.35716],[79.02122,31.17286],[79.04388,31.08352],[78.89007,31.07176],[78.32565,31.20693],[78.15124,31.17873],[78.03314,31.14172],[77.90886,31.12644],[77.84603,30.95082],[77.81445,30.88867],[77.81136,30.8539],[77.76878,30.82472],[77.71935,30.75777],[77.76775,30.70819],[77.80003,30.66095],[77.8014,30.6131],[77.82646,30.55664],[77.83298,30.52944],[77.82303,30.50075],[77.80741,30.49683],[77.79865,30.49972],[77.77393,30.48685],[77.69978,30.44113],[77.58511,30.4096],[77.61429,30.36873],[77.593,30.30384],[77.51198,30.19054],[77.4246,30.09672],[77.26204,29.96683],[77.16522,29.73457],[77.16042,29.67672],[77.13226,29.54897],[77.17003,29.38337],[77.16042,29.10838],[77.20848,29.00364],[77.21363,28.94026],[77.24316,28.91712],[77.23011,28.87595],[77.22702,28.81821],[77.21123,28.79414],[77.22908,28.78902],[77.24213,28.77639],[77.24118,28.76059],[77.26204,28.75351],[77.25861,28.73922],[77.27594,28.73786],[77.29225,28.72386],[77.29122,28.71091],[77.29878,28.71242],[77.31594,28.71634],[77.33345,28.71408],[77.32744,28.70128],[77.33568,28.68261],[77.32882,28.67447],[77.32281,28.66227],[77.32418,28.64977],[77.31989,28.63983],[77.33397,28.6332],[77.34289,28.62431],[77.34392,28.60276],[77.3386,28.60065],[77.31508,28.59402],[77.30684,28.58528],[77.2974,28.57699],[77.32109,28.54819],[77.36212,28.50309],[77.37173,28.50113],[77.41997,28.47548],[77.45687,28.44243],[77.50048,28.41209],[77.50648,28.39261],[77.51816,28.26266],[77.56142,28.25903],[77.56348,28.1604],[77.51541,28.14829],[77.51884,28.12286],[77.5058,28.07925],[77.55524,27.98955],[77.55661,27.93921],[77.5367,27.91737],[77.47919,27.88476],[77.41619,27.84545],[77.35165,27.84333],[77.29809,27.80537],[77.31319,27.79171],[77.34684,27.7045],[77.36126,27.65038],[77.32555,27.6078],[77.36195,27.59654],[77.35989,27.57768],[77.34821,27.56855],[77.37328,27.52715],[77.39628,27.51284],[77.44125,27.46167],[77.44297,27.43425],[77.44812,27.39768],[77.50442,27.38488],[77.55627,27.35622],[77.62768,27.34219],[77.62699,27.31413],[77.61807,27.30101],[77.64175,27.25707],[77.69085,27.19021],[77.60468,27.11567],[77.53155,27.09153],[77.57755,27.07411],[77.57687,27.04353],[77.68433,27.05209],[77.74956,27.03558],[77.76707,27.01754],[77.76535,26.99429],[77.43919,26.8547],[77.42374,26.81948],[77.45533,26.78515],[77.47902,26.77259],[77.49584,26.84858],[77.51644,26.84888],[77.58202,26.83755],[77.75848,26.9386],[78.02421,26.92085],[78.11657,26.95497],[78.24051,26.9588],[78.29269,26.9184],[78.2309,26.8253],[78.08533,26.65728],[78.01048,26.672],[77.90542,26.61431],[77.82372,26.54062],[77.72861,26.49331],[77.54494,26.40663],[77.44812,26.35558],[77.34547,26.33404],[77.2926,26.27125],[77.20299,26.21829],[77.09106,26.17177],[76.9194,26.07652],[76.81675,25.96947],[76.80027,25.93273],[76.73401,25.89413],[76.64886,25.89598],[76.62792,25.86355],[76.59153,25.86355],[76.52801,25.72754],[76.51668,25.63131],[76.56509,25.47985],[76.59393,25.43583],[76.60698,25.39707],[76.64886,25.38591],[76.67599,25.35737],[76.86078,25.33596],[77.37121,25.45568],[77.44263,25.18382],[77.41722,25.10083],[77.30942,25.07254],[77.20676,25.1027],[77.17175,25.08],[77.09003,25.05232],[76.96438,25.04673],[76.8837,25.03459],[76.87271,24.96272],[76.9273,24.91571],[76.95305,24.869],[76.93279,24.84438],[76.81881,24.81977],[76.86173,24.75494],[76.95614,24.77458],[77.04128,24.71097],[77.07149,24.64608],[77.08282,24.58647],[77.05913,24.51745],[77.02858,24.48027],[76.98189,24.44715],[76.8679,24.45028],[76.86378,24.3765],[76.95476,24.19718],[76.90567,24.11292],[76.79787,24.11104],[76.69418,24.16116],[76.66534,24.18372],[76.52286,24.15004],[76.15448,24.21378],[76.12976,24.07531],[75.98865,23.92821],[75.94231,23.89651],[75.89905,23.87203],[75.77545,23.84063],[75.68653,23.74544],[75.57598,23.7954],[75.55195,23.80922],[75.53203,23.86606],[75.49633,23.88521],[75.4493,23.91315],[75.45959,23.97653],[75.5135,24.03424],[75.67314,24.02358],[75.7497,24.00194],[75.77511,24.04866],[75.82523,24.059],[75.78129,24.09286],[75.73837,24.14644],[75.76515,24.21628],[75.80395,24.23914],[75.76309,24.29266],[75.73116,24.33052],[75.71983,24.3815],[75.73048,24.42371],[75.78094,24.4759],[75.82214,24.46903],[75.89561,24.55587],[75.82592,24.59614],[75.7727,24.68945],[75.61306,24.67198],[75.56723,24.69358],[75.48157,24.66636],[75.18768,24.68696],[75.14923,24.71191],[75.22167,24.84283],[75.27283,24.92225],[75.25394,24.95213],[75.25669,24.97205],[75.28931,24.96894],[75.31677,24.91166],[75.33291,24.95213],[75.30373,24.98637],[75.31437,25.0094],[75.3336,25.03708],[75.28278,25.02899],[75.18837,25.02931],[75.17292,25.00099],[75.12554,24.95774],[75.12176,24.87024],[75.02701,24.72875],[75.00847,24.68071],[74.95216,24.62268],[74.80179,24.62455],[74.79424,24.58272],[74.7448,24.49527],[74.81415,24.47465],[74.86702,24.44653],[74.84505,24.38963],[74.78668,24.26575],[74.88144,24.25385],[74.91577,24.21754],[74.90273,24.16993],[74.95354,24.05775],[74.99336,24.03643],[74.96384,23.95739],[74.92126,23.89777],[74.9501,23.76775],[74.94598,23.61685],[74.84848,23.54699],[74.72488,23.49096],[74.61571,23.44309],[74.5388,23.32271],[74.6878,23.27857],[74.75784,23.22368],[74.74068,23.20096],[74.59648,23.13278],[74.50104,23.07721],[74.31221,23.04688],[74.15016,23.14162],[73.87962,23.32334],[73.8192,23.41978],[73.71689,23.39646],[73.61114,23.44687],[73.63243,23.61118],[73.52325,23.59545],[73.48618,23.62125],[73.35571,23.76524],[73.34129,23.79477],[73.34404,23.8896],[73.39004,24.01699],[73.2074,23.97873],[73.1868,24.03392],[73.03711,24.20439],[73.11126,24.31957],[73.02887,24.42965],[72.94922,24.31206],[72.73361,24.34897],[72.45758,24.39463],[72.20764,24.59209],[72.07581,24.64577],[71.93985,24.62205],[71.85196,24.59771],[71.54571,24.65076],[71.28479,24.59271],[70.98297,24.61186],[71.04378,24.73748],[70.93529,24.92381]]]}}
