{"type":"Feature","properties":{"sourceId":"norcal"},"geometry":{"type":"Polygon","coordinates":[[[-125.8203,35.82776],[-125.89323591612647,41.96784817847659],[-122.3767,41.99947],[-120.6274,41.98295],[-120.00052030738581,41.98466800265264],[-120.0005,41.99626],[-120.002,41.14002],[-119.9973,40.38166],[-120.0074,39.22347],[-120.0024,38.99865],[-119.3599,38.55438],[-117.5683,37.26807],[-116.9135,36.7795],[-115.7061,35.85252],[-115.65262514349128,35.81025359494926],[-115.7349,35.81055],[-115.7366,35.80889],[-115.7369,35.79719],[-115.7404,35.79492],[-117.633,35.79809],[-117.6335,35.79766],[-117.9241,35.79961],[-117.9257,35.79867],[-117.9252,35.79049],[-117.9287,35.78789],[-118.0176,35.78814],[-118.0449,35.79213],[-118.0687,35.79287],[-118.2742,35.7911],[-118.4698,35.79394],[-118.5714,35.79076],[-119.7552,35.79175],[-120.1937,35.78986],[-120.1937,35.79012],[-121.4393,35.79717],[-121.43930039255976,35.79554441497359],[-125.8203,35.82776]]]}}
