{"type":"Feature","properties":{"sourceId":"namibia"},"geometry":{"type":"Polygon","coordinates":[[[18.18443,-28.92824],[18.03474,-28.88075],[17.91183,-28.78571],[17.64473,-28.78752],[17.40097,-28.72672],[17.31651,-28.47231],[17.35859,-28.38291],[17.32691,-28.30482],[17.19206,-28.24905],[17.09473,-28.06653],[16.91414,-28.09803],[16.89697,-28.1834],[16.78436,-28.45662],[16.72874,-28.51274],[16.50421,-28.57276],[16.46027,-28.63727],[15.42755,-30.20686],[9.784615,-17.20905],[11.79148,-17.21324],[12.07538,-17.09701],[12.2692,-17.18556],[12.53892,-17.19332],[12.95503,-16.94539],[13.15386,-16.91682],[13.47948,-16.9697],[13.57594,-17.11199],[13.97941,-17.40175],[14.2115,-17.38865],[15.89052,-17.38906],[18.42476,-17.37685],[18.91784,-17.76756],[19.69128,-17.83499],[19.75771,-17.90214],[19.82122,-17.82927],[20.31338,-17.81587],[20.7827,-18.00159],[21.17019,-17.88414],[21.45149,-18.00551],[23.39776286990831,-17.630388774259988],[23.42663,-17.64337],[24.2435,-17.47931],[24.25439,-17.48858],[24.27034,-17.49493],[24.27981,-17.48787],[24.29882,-17.48764],[24.32459,-17.49575],[24.3996,-17.47971],[24.56338,-17.54553],[24.73263,-17.51671],[24.79649,-17.5429],[24.83734,-17.53144],[25.01896,-17.61556],[25.08762,-17.70846],[25.19234,-17.77484],[25.21359345960466,-17.78040721594257],[25.243886405725224,-17.783947765980038],[25.15903,-17.77403],[25.12505,-17.80247],[25.11663,-17.81685],[25.0672,-17.83368],[25.05981,-17.80296],[25.01518,-17.81734],[24.99204,-17.80581],[24.98188,-17.78514],[24.95716,-17.78449],[24.8592,-17.83418],[24.82223,-17.83989],[24.79438,-17.85919],[24.73116,-17.87686],[24.6939,-17.92504],[24.6097,-17.98623],[24.46571,-17.95646],[24.42298,-17.94055],[24.36502,-17.94053],[24.19066,-18.00879],[24.04605,-18.10047],[23.92389,-18.19659],[23.90803,-18.22451],[23.87184,-18.26318],[23.79528,-18.33173],[23.77949,-18.37214],[23.71665,-18.4207],[23.68095,-18.42166],[23.65372,-18.46378],[23.61299,-18.48696],[23.58514,-18.47278],[23.5693,-18.43585],[23.5692,-18.33464],[23.5453,-18.31243],[23.53498,-18.26716],[23.50546,-18.23201],[23.4708,-18.22818],[23.45171,-18.20406],[23.4178,-18.1911],[23.3764,-18.1101],[23.33797,-18.0711],[23.34565,-18.0496],[23.31858,-17.99659],[23.29482,-17.98909],[23.09457,-17.98964],[21.45481,-18.30508],[20.98855,-18.31312],[20.98451,-21.98635],[20.00243,-21.98822],[19.98745,-22.00319],[19.9877,-24.7638],[20.02258371907726,-24.799715415821666],[20.00816,-28.44152],[19.82345,-28.51998],[19.5639,-28.55196],[19.49524,-28.7207],[19.37439,-28.75682],[19.30916,-28.74388],[19.27002,-28.7499],[19.25011,-28.80557],[19.30572,-28.87865],[19.30092,-28.91863],[19.11381,-28.98292],[18.98163,-28.92884],[18.18443,-28.92824]]]}}
