{"type":"Feature","properties":{"sourceId":"ningxia"},"geometry":{"type":"Polygon","coordinates":[[[104.4206,37.51926],[104.5782,37.53205],[104.8621,37.57288],[105.0169,37.58322],[105.1604,37.66725],[105.2919,37.70909],[105.3675,37.72484],[105.5903,37.71099],[105.6157,37.78781],[105.7568,37.81467],[105.8004,38.03592],[105.7492,38.12321],[105.7746,38.21552],[105.8248,38.23144],[105.8519,38.29533],[105.81,38.36319],[105.8244,38.38661],[105.8138,38.4275],[105.8371,38.44821],[105.8279,38.47294],[105.8413,38.49847],[105.8402,38.51647],[105.8502,38.54092],[105.835,38.55],[105.8564,38.60104],[105.8371,38.63591],[105.8776,38.69328],[105.8756,38.71981],[105.8941,38.73721],[105.885,38.79],[105.915,38.805],[105.9789,38.86618],[105.9587,38.89664],[105.9875,38.93912],[106.0328,38.96582],[106.0751,39.00985],[106.0644,39.03625],[106.1015,39.12607],[106.1448,39.16201],[106.2302,39.14284],[106.2797,39.1487],[106.28,39.18011],[106.2701,39.19794],[106.2721,39.27452],[106.5076,39.2987],[106.5983,39.37996],[106.7136,39.385],[106.7469,39.38606],[106.8091,39.35448],[106.802,39.32368],[106.8056,39.27718],[106.7983,39.24409],[106.8355,39.1873],[106.8832,39.0925],[106.9447,39.07838],[106.9718,39.03545],[106.9612,38.94152],[106.8036,38.81483],[106.7452,38.72918],[106.7109,38.71043],[106.6649,38.59836],[106.6649,38.56776],[106.6498,38.48853],[106.5921,38.38042],[106.485,38.31661],[106.5186,38.29667],[106.5461,38.26784],[106.7305,38.20689],[106.8012,38.16804],[107.01,38.14],[107.1531,38.16372],[107.3316,38.09539],[107.4384,37.994],[107.425,37.965],[107.4882,37.94853],[107.575,37.915],[107.6571,37.86564],[107.6454,37.77452],[107.4964,37.75226],[107.4834,37.69306],[107.3632,37.60281],[107.38,37.545],[107.2925,37.4754],[107.2636,37.3254],[107.325,37.24],[107.31,37.22],[107.33,37.205],[107.3433,37.13897],[107.3055,37.09572],[107.2781,37.09188],[106.991,37.09736],[106.8894,37.0949],[106.8633,37.10913],[106.8475,37.11215],[106.8184,37.13268],[106.7984,37.14253],[106.7813,37.15238],[106.7693,37.13788],[106.7741,37.12063],[106.7552,37.07408],[106.7099,37.11324],[106.6803,37.11078],[106.6302,37.10393],[106.665,37.055],[106.6632,37.01845],[106.6419,36.95785],[106.5914,36.93288],[106.647,36.88264],[106.6621,36.82028],[106.6426,36.71467],[106.575,36.73],[106.535,36.715],[106.5324,36.68797],[106.497,36.67971],[106.5,36.62],[106.4503,36.61222],[106.5241,36.48701],[106.532,36.37043],[106.515,36.345],[106.5162,36.2786],[106.5526,36.29355],[106.6051,36.29852],[106.6848,36.27722],[106.7627,36.23209],[106.8311,36.23154],[106.9509,36.12262],[106.9571,36.07824],[106.9461,35.98801],[106.9426,35.92631],[106.8695,35.89656],[106.9124,35.83396],[106.9292,35.80027],[106.9121,35.76741],[106.8661,35.73481],[106.8242,35.73286],[106.8125,35.70721],[106.7569,35.7153],[106.7517,35.68407],[106.7178,35.68686],[106.6796,35.71084],[106.6433,35.70192],[106.6024,35.72366],[106.5324,35.73425],[106.5265,35.71976],[106.4634,35.70805],[106.4386,35.68128],[106.4812,35.57915],[106.4618,35.57175],[106.4539,35.54941],[106.4718,35.48625],[106.4975,35.48472],[106.4901,35.44179],[106.508,35.35658],[106.4894,35.32885],[106.4678,35.30728],[106.4458,35.29607],[106.4167,35.27309],[106.3689,35.26581],[106.3786,35.2445],[106.3576,35.23272],[106.315,35.25459],[106.3003,35.28458],[106.2732,35.30028],[106.2302,35.35378],[106.2278,35.40584],[106.1945,35.40612],[106.1767,35.41843],[106.1715,35.42571],[106.1458,35.40668],[106.13,35.39017],[106.1152,35.35966],[106.1018,35.3619],[106.0936,35.38345],[106.0812,35.39997],[106.0603,35.42235],[106.0414,35.45088],[106.0061,35.43885],[105.9755,35.43214],[105.9659,35.42543],[105.9446,35.42235],[105.9267,35.41983],[105.8876,35.40724],[105.8794,35.44948],[105.9576,35.47577],[106.0091,35.48947],[105.9875,35.51965],[105.9532,35.52971],[105.8698,35.53223],[105.8584,35.49674],[105.8347,35.48583],[105.815,35.535],[105.8093,35.56854],[105.7935,35.56044],[105.735,35.615],[105.7077,35.64502],[105.705,35.67766],[105.6813,35.68156],[105.6926,35.72951],[105.6452,35.73369],[105.593,35.71335],[105.5611,35.68379],[105.5426,35.7192],[105.501,35.71614],[105.4684,35.72728],[105.4447,35.74623],[105.4475,35.77019],[105.4258,35.78161],[105.4042,35.81419],[105.3846,35.78691],[105.3664,35.79916],[105.3623,35.84481],[105.3678,35.86652],[105.3263,35.87959],[105.3194,35.90323],[105.327,36.00328],[105.3366,36.03383],[105.3623,36.05715],[105.4282,36.10931],[105.4821,36.1082],[105.4959,36.14869],[105.4499,36.22877],[105.4574,36.29825],[105.4131,36.33283],[105.3888,36.36905],[105.3791,36.42957],[105.352,36.42874],[105.3173,36.51543],[105.2854,36.51985],[105.2573,36.52757],[105.2411,36.54385],[105.2583,36.58631],[105.2123,36.63261],[105.1944,36.71577],[105.2257,36.74769],[105.275,36.83],[105.2686,36.86122],[105.2521,36.88017],[105.2332,36.88731],[105.2216,36.88154],[105.2027,36.89088],[105.191,36.88237],[105.1745,36.88566],[105.1601,36.90763],[105.1721,36.94303],[105.1553,36.99186],[105.1289,36.98884],[105.0533,37.01489],[105.0362,37.00255],[105.0049,37.01352],[104.9891,37.02969],[104.9496,37.02613],[104.9407,37.07408],[104.9054,37.09325],[104.9057,37.11872],[104.8779,37.13541],[104.8697,37.15868],[104.8449,37.17728],[104.8466,37.206],[104.7701,37.23416],[104.7124,37.20408],[104.6317,37.1956],[104.6025,37.20955],[104.585,37.25821],[104.6142,37.29509],[104.6293,37.30546],[104.6516,37.30792],[104.6867,37.33659],[104.6496,37.36279],[104.651,37.40562],[104.5644,37.42389],[104.4769,37.41298],[104.4093,37.43316],[104.3502,37.40644],[104.296,37.40617],[104.275,37.42],[104.2929,37.44243],[104.4206,37.51926]]]}}
