{"type":"Feature","properties":{"sourceId":"oberbayern"},"geometry":{"type":"Polygon","coordinates":[[[12.87323,48.19743],[12.85028,48.16219],[12.83376,48.1509],[12.80605,48.14434],[12.78837,48.11772],[12.76824,48.1227],[12.75538,48.10814],[12.76559,48.0757],[12.85832,48.01956],[12.87696,47.96667],[12.91032,47.95998],[12.92464,47.95859],[12.92435,47.94355],[12.94043,47.9474],[12.94796,47.9299],[12.99583,47.86452],[13.00632,47.85452],[13.01197,47.85009],[13.00195,47.83558],[12.99528,47.82991],[12.98799,47.8237],[12.96354,47.79163],[12.94411,47.75675],[12.91567,47.7252],[12.98931,47.71869],[13.02024,47.73236],[13.05648,47.716],[13.08628,47.68766],[13.10973,47.63938],[13.08662,47.61659],[13.08393,47.58983],[13.06011,47.58182],[13.07103,47.56221],[13.04555,47.53387],[13.0614,47.52016],[13.05811,47.4919],[13.0175,47.46649],[13.00242,47.4609],[12.9835,47.47866],[12.96788,47.4682],[12.92283,47.48669],[12.87799,47.51233],[12.83233,47.54025],[12.78485,47.55199],[12.77731,47.58711],[12.79467,47.61848],[12.8037,47.61956],[12.74895,47.64473],[12.75571,47.6615],[12.73171,47.67488],[12.6089,47.66673],[12.5783,47.63055],[12.52419,47.62771],[12.50095,47.62061],[12.45798,47.65009],[12.43809,47.67622],[12.43379,47.69226],[12.39049,47.68271],[12.3625,47.6829],[12.33097,47.69244],[12.27836,47.68815],[12.26292,47.67455],[12.24829,47.67659],[12.23192,47.70739],[12.24308,47.72556],[12.20889,47.70365],[12.17217,47.6868],[12.18735,47.66854],[12.20713,47.63555],[12.21348,47.61305],[12.20884,47.60321],[12.17546,47.59888],[12.17594,47.61086],[12.15352,47.60764],[12.14061,47.60314],[12.08329,47.60848],[12.02081,47.61016],[12.00686,47.61849],[11.98252,47.61534],[11.97719,47.6111],[11.96405,47.61294],[11.86054,47.59953],[11.85147,47.5772],[11.78195,47.58583],[11.73641,47.5844],[11.72483,47.58672],[11.65935,47.5799],[11.63482,47.59225],[11.6382,47.58069],[11.61048,47.57688],[11.59424,47.55506],[11.5905,47.52527],[11.57745,47.51574],[11.57088,47.51242],[11.50567,47.5027],[11.4678,47.50635],[11.44516,47.50415],[11.43523,47.51377],[11.41188,47.49198],[11.39048,47.47765],[11.41355,47.47312],[11.4172,47.46201],[11.42561,47.44322],[11.33762,47.44453],[11.33168,47.43629],[11.30951,47.42809],[11.29503,47.4089],[11.27474,47.39619],[11.255,47.39812],[11.22624,47.39352],[11.21982,47.39775],[11.24496,47.42894],[11.22636,47.42866],[11.20587,47.43291],[11.2006,47.42649],[11.15241,47.41775],[11.11692,47.39344],[11.06393,47.39487],[11.02425,47.3913],[10.96756,47.39777],[10.96261,47.41843],[10.97799,47.42743],[10.95719,47.44667],[10.91905,47.4716],[10.92945,47.47841],[10.90964,47.48054],[10.89387,47.47927],[10.87783,47.47682],[10.86039,47.48783],[10.86091,47.5031],[10.89796,47.51889],[10.88474,47.52579],[10.88178513210208,47.52942324816588],[10.88889,47.53392],[10.88093,47.57131],[10.92985,47.58371],[10.96229,47.61507],[10.91698,47.63821],[10.92213,47.66215],[10.84248,47.67013],[10.78566,47.66331],[10.79578,47.67556],[10.80282,47.6932],[10.80075,47.70217],[10.8042,47.70611],[10.81313,47.70642],[10.82294,47.71067],[10.83105,47.7206],[10.83013,47.72878],[10.81446,47.72891],[10.79252,47.72171],[10.75878,47.69926],[10.75048,47.69243],[10.74015,47.69206],[10.73868,47.69752],[10.72964,47.70075],[10.72338,47.70794],[10.74144,47.71489],[10.73886,47.72407],[10.74181,47.73945],[10.7527,47.76264],[10.76835,47.76247],[10.78113,47.76659],[10.78439,47.77439],[10.78042,47.7809],[10.76418,47.79447],[10.75754,47.80933],[10.77561,47.84177],[10.76639,47.85958],[10.79368,47.88234],[10.79847,47.90311],[10.78815,47.9125],[10.78446,47.93103],[10.80216,47.93276],[10.81949,47.96561],[10.83313,47.99745],[10.82133,48.01596],[10.81691,48.0347],[10.79294,48.04382],[10.77893,48.05245],[10.80843,48.07882],[10.82281,48.10542],[10.79845,48.11515],[10.79958,48.14406],[10.85157,48.14283],[10.87996,48.16964],[10.8963,48.19673],[10.90647,48.23591],[10.92211,48.23478],[10.9401,48.2049],[10.9637,48.19595],[10.98312,48.20751],[11.03605,48.18961],[11.06213,48.19447],[11.06161,48.21428],[11.0573,48.2142],[11.05118,48.22419],[11.04857,48.234],[11.05861,48.24181],[11.07086,48.25536],[11.06369,48.27029],[11.07412,48.27462],[11.09459,48.25874],[11.10046,48.25831],[11.11232,48.26265],[11.12405,48.27289],[11.11584,48.29215],[11.12979,48.30178],[11.12288,48.31027],[11.13696,48.32137],[11.15821,48.32102],[11.17711,48.33515],[11.16994,48.34555],[11.17568,48.35543],[11.17216,48.36227],[11.18428,48.36426],[11.19119,48.37474],[11.20006,48.38496],[11.20162,48.39552],[11.18233,48.41655],[11.1981,48.41829],[11.21792,48.42789],[11.24047,48.42962],[11.24999,48.43913],[11.29393,48.44173],[11.30748,48.44692],[11.31348,48.45254],[11.30292,48.45496],[11.3067,48.47112],[11.30579,48.47519],[11.27476,48.47536],[11.27215,48.46966],[11.26511,48.46896],[11.26146,48.47372],[11.25403,48.47778],[11.2513,48.48651],[11.21948,48.49636],[11.21284,48.50145],[11.22196,48.50931],[11.2114,48.5259],[11.20544,48.53084],[11.19254,48.53499],[11.15566,48.5505],[11.1481,48.55025],[11.13851,48.5577],[11.15824,48.56087],[11.16635,48.56953],[11.16765,48.57612],[11.1647,48.58746],[11.15511,48.5971],[11.13944,48.5938],[11.13317,48.59295],[11.12551,48.59548],[11.12075,48.6085],[11.10706,48.60936],[11.09513,48.60544],[11.08099,48.60652],[11.06756,48.60574],[11.05361,48.60359],[11.03497,48.61462],[11.0276,48.6247],[11.04435,48.62733],[11.03764,48.63707],[11.04174,48.64633],[11.02017,48.65839],[11.0128,48.66609],[11.00654,48.667],[10.99977,48.68236],[10.9881,48.69101],[10.99279,48.6976],[10.98614,48.71734],[11.00302,48.72091],[11.00772,48.72809],[11.00511,48.73437],[10.99344,48.73544],[10.98921,48.74292],[10.9999,48.75096],[11.00055,48.76493],[10.99077,48.76729],[10.97558,48.77468],[10.98888,48.78808],[10.97969,48.79912],[10.96156,48.8028],[10.95707,48.80792],[10.97884,48.80865],[11.00439,48.81955],[11.00707,48.82376],[10.9997,48.84457],[10.97389,48.84238],[10.98588,48.8607],[10.97754,48.86601],[10.970857281664781,48.863593119119656],[10.97627,48.87399],[11.03343,48.88514],[11.07122,48.90926],[11.07915,48.91478],[11.05758,48.93186],[11.08745,48.95995],[11.14221,48.96068],[11.1623,48.99226],[11.17005,49.00944],[11.18535,49.01065],[11.19346,49.01766],[11.18922,49.02951],[11.20434,49.04317],[11.24527,49.04643],[11.25928,49.0144],[11.27569,49.00291],[11.29966,49.00315],[11.3264,48.9948],[11.35755,49.01307],[11.3841,49.01404],[11.41674,49.03374],[11.41932,49.04849],[11.43001,49.04957],[11.42227,49.06105],[11.39959,49.07289],[11.399528506374493,49.072944314534794],[11.40411,49.07248],[11.43711,49.05955],[11.46403,49.05979],[11.48855,49.06028],[11.5057,49.06934],[11.52819,49.06269],[11.52414,49.0488],[11.50791,49.04203],[11.51197,49.0297],[11.53077,49.01386],[11.53335,49.00358],[11.55769,48.98362],[11.58645,48.95869],[11.59512,48.94804],[11.599384128066927,48.949467195371426],[11.62058,48.94172],[11.62849,48.94234],[11.63377,48.93076],[11.64831,48.92773],[11.65804,48.92861],[11.66836,48.92343],[11.68767,48.92858],[11.68884,48.92302],[11.705,48.91615],[11.71555,48.91719],[11.72174,48.92267],[11.71503,48.89722],[11.72184,48.88977],[11.73499,48.88853],[11.73503,48.88109],[11.7408,48.87694],[11.7327,48.87474],[11.73094,48.87137],[11.72171,48.87154],[11.71704,48.86688],[11.71413,48.85511],[11.71793,48.85137],[11.71855,48.84244],[11.71639,48.83908],[11.71234,48.83849],[11.70318,48.84338],[11.69723,48.8388],[11.70151,48.8331],[11.7025,48.82602],[11.70012,48.82119],[11.70423,48.81832],[11.70586,48.81136],[11.71434,48.81006],[11.72424,48.81311],[11.72694,48.80614],[11.73514,48.79933],[11.73419,48.79199],[11.72298,48.78411],[11.71878,48.78529],[11.71615,48.78068],[11.71151,48.7869],[11.69609,48.78776],[11.69255,48.78522],[11.69219,48.78105],[11.69673,48.77735],[11.70028,48.76733],[11.69795,48.76215],[11.7096,48.75985],[11.71063,48.75694],[11.66828,48.75134],[11.65347,48.74474],[11.65546,48.7286],[11.66693,48.72192],[11.65274,48.70805],[11.65194,48.69958],[11.67438,48.68679],[11.68097,48.68811],[11.68939,48.68343],[11.68674,48.67787],[11.68841,48.66982],[11.68368,48.66253],[11.69956,48.65729],[11.70378,48.64898],[11.71109,48.64682],[11.71026,48.64435],[11.70305,48.64235],[11.70176,48.63659],[11.69172,48.63427],[11.69097,48.61799],[11.71324,48.61006],[11.72406,48.60943],[11.73316,48.60424],[11.74355,48.60348],[11.75167,48.59873],[11.77516,48.59829],[11.78025,48.6022],[11.78338,48.60917],[11.79768,48.61102],[11.8006,48.60728],[11.80739,48.60722],[11.81126,48.60323],[11.80855,48.59858],[11.81035,48.59594],[11.82098,48.59682],[11.83105,48.59216],[11.8414,48.59115],[11.84989,48.58815],[11.85328,48.58377],[11.86183,48.58233],[11.86577,48.57727],[11.88191,48.57913],[11.88798,48.58288],[11.89602,48.58139],[11.90084,48.58437],[11.90918,48.58336],[11.91537,48.57881],[11.9221,48.57954],[11.94227,48.57093],[11.95912,48.57592],[11.96147,48.56936],[11.95609,48.56523],[11.96032,48.55613],[11.96683,48.55463],[11.9676,48.55224],[11.96119,48.54806],[11.96122,48.54381],[11.96606,48.54019],[11.95916,48.5321],[11.96913,48.51203],[11.9639,48.50625],[11.95589,48.50275],[11.95595,48.49903],[11.97421,48.48992],[12.00407,48.49206],[12.00472,48.48356],[11.99603,48.46915],[11.998,48.46455],[11.98971,48.4494],[11.99639,48.44601],[12.00533,48.44975],[12.01,48.44382],[12.00851,48.43761],[12.01371,48.43553],[12.01537,48.42931],[12.01992,48.42555],[12.01805,48.41944],[12.01979,48.41475],[12.04161,48.41385],[12.04489,48.41918],[12.0582,48.42155],[12.06259,48.41993],[12.07612,48.42651],[12.08174,48.42635],[12.08721,48.42188],[12.09474,48.4235],[12.11583,48.42158],[12.13014,48.41372],[12.13513,48.42262],[12.14186,48.41885],[12.14647,48.42317],[12.15513,48.4192],[12.16135,48.42],[12.16882,48.40646],[12.16508,48.40458],[12.16521,48.3997],[12.17326,48.394],[12.17989,48.39341],[12.18522,48.38768],[12.18401,48.3826],[12.18992,48.38071],[12.19053,48.37641],[12.18559,48.3733],[12.18589,48.36986],[12.19207,48.36731],[12.19646,48.36084],[12.20814,48.3592],[12.21441,48.34959],[12.22944,48.34874],[12.23052,48.34467],[12.22834,48.34201],[12.23262,48.32865],[12.2505,48.31994],[12.25583,48.32029],[12.25764,48.32406],[12.26718,48.32695],[12.27313,48.32611],[12.27767,48.31863],[12.28711,48.32022],[12.29087,48.32836],[12.30032,48.32804],[12.30017,48.31737],[12.30859,48.31437],[12.32679,48.31962],[12.33135,48.32937],[12.32697,48.33772],[12.33287,48.33703],[12.3361,48.33188],[12.34532,48.32807],[12.35657,48.32826],[12.36163,48.33081],[12.36391,48.34271],[12.37662,48.34267],[12.37748,48.34653],[12.38214,48.34711],[12.38695,48.35563],[12.39916,48.35737],[12.40145,48.36089],[12.41471,48.35975],[12.41989,48.37012],[12.42867,48.37107],[12.43169,48.38258],[12.43878,48.3836],[12.44277,48.38782],[12.4395,48.39275],[12.44304,48.39667],[12.44082,48.3997],[12.44272,48.40289],[12.43785,48.41061],[12.45427,48.40882],[12.4585,48.4144],[12.47282,48.41391],[12.47563,48.41967],[12.48362,48.42254],[12.48576,48.42661],[12.51246,48.42187],[12.51568,48.41712],[12.52243,48.41412],[12.52911,48.41678],[12.53358,48.41185],[12.53463,48.40532],[12.54244,48.39777],[12.5514,48.40022],[12.55353,48.40419],[12.56244,48.39955],[12.5652,48.39422],[12.57059,48.39212],[12.57206,48.38442],[12.57846,48.37431],[12.58291,48.37351],[12.58496,48.37635],[12.58203,48.38475],[12.58954,48.38446],[12.5914,48.3728],[12.59852,48.37049],[12.60264,48.35988],[12.60607,48.35734],[12.60547,48.35279],[12.61504,48.33935],[12.61963,48.34114],[12.62002,48.34781],[12.62978,48.34444],[12.63703,48.34584],[12.63883,48.33651],[12.65495,48.33541],[12.66726,48.32954],[12.67126,48.33268],[12.67123,48.33849],[12.68074,48.33936],[12.68371,48.34254],[12.69162,48.34058],[12.70166,48.32914],[12.71845,48.32758],[12.7346,48.31944],[12.74659,48.31902],[12.76219,48.32304],[12.76972,48.32014],[12.77674,48.32534],[12.78331,48.32545],[12.80359,48.31972],[12.80381,48.31447],[12.80871,48.31074],[12.818,48.31343],[12.82384,48.30835],[12.82133,48.30061],[12.83838,48.29323],[12.84355,48.29343],[12.85409,48.28511],[12.85139,48.27915],[12.85267,48.27659],[12.85894,48.27657],[12.86574,48.27116],[12.87533,48.26909],[12.87417,48.26422],[12.88194,48.26244],[12.88437,48.25924],[12.89329,48.26307],[12.89757,48.25715],[12.89979,48.25037],[12.89245,48.24713],[12.89019,48.23508],[12.89859,48.23142],[12.90955,48.21974],[12.92984,48.20755],[12.94424984194075,48.20179405758817],[12.87323,48.19743]]]}}
