{"type":"Feature","properties":{"sourceId":"ontario"},"geometry":{"type":"Polygon","coordinates":[[[-87.93132,57.50826],[-81.95112,55.41636],[-82.00015,53.22226],[-82.17948,53.00439],[-80.00206,51.46731],[-79.50855,51.48909],[-79.51516,47.55422],[-79.50296,47.54455],[-79.51521,47.52452],[-79.54432,47.51263],[-79.5588,47.45158],[-79.58129,47.43256],[-79.5496,47.37946],[-79.51489,47.35595],[-79.47868,47.30379],[-79.41369,47.24778],[-79.43643,47.21059],[-79.42737,47.17573],[-79.43945,47.13211],[-79.43509,47.09829],[-79.43265,47.08538],[-79.38739,47.0417],[-79.34127,47.00955],[-79.3225,46.95113],[-79.27723,46.90166],[-79.24988,46.88296],[-79.22926,46.85663],[-79.2274,46.84642],[-79.21006,46.83255],[-79.17649,46.83148],[-79.16934,46.82531],[-79.16311,46.81921],[-79.14284,46.78691],[-79.10416,46.71819],[-79.0832,46.68765],[-79.00031,46.62878],[-78.97377,46.54665],[-78.87206,46.46156],[-78.72535,46.38694],[-78.70309,46.32571],[-78.60611,46.32425],[-78.40506,46.29847],[-78.12878,46.27924],[-77.7016,46.19069],[-77.68052,46.20302],[-77.55271,46.15881],[-77.26554,46.01394],[-77.27543,45.96308],[-77.23183,45.92608],[-77.19338,45.87113],[-77.08798,45.84148],[-77.01004,45.80727],[-76.98223,45.7886],[-76.91563,45.80655],[-76.93279,45.84722],[-76.9297,45.89646],[-76.89331,45.901],[-76.84593,45.89837],[-76.7783,45.87423],[-76.7601,45.85463],[-76.76285,45.73614],[-76.69315,45.72464],[-76.68079,45.68124],[-76.70792,45.66493],[-76.665,45.62388],[-76.65608,45.56406],[-76.61282,45.53906],[-76.43738,45.50683],[-76.36442,45.46182],[-76.2446,45.47325],[-76.23585,45.51152],[-76.20546,45.51958],[-76.09126,45.52397],[-76.00376,45.48685],[-75.96668,45.47626],[-75.89184,45.40424],[-75.84888,45.38082],[-75.82052,45.37675],[-75.80198,45.37801],[-75.7758,45.39543],[-75.75786,45.41407],[-75.72927,45.4195],[-75.71979,45.42169],[-75.70966,45.42368],[-75.70546,45.42722],[-75.70374,45.43851],[-75.69949,45.44658],[-75.69172,45.45522],[-75.68366,45.46067],[-75.63764,45.46787],[-75.60892,45.47478],[-75.57876,45.47831],[-75.47401,45.51862],[-75.38813,45.52966],[-75.23821,45.59043],[-75.08291,45.59476],[-74.98349,45.61719],[-74.96092,45.63709],[-74.93483,45.64801],[-74.8696,45.64321],[-74.7884,45.64429],[-74.62953,45.63901],[-74.60747,45.62436],[-74.47683,45.59734],[-74.37693,45.56743],[-74.41864,45.4405],[-74.46894,45.30315],[-74.30998,45.18654],[-74.41229,45.12974],[-74.48902,45.06528],[-74.56575,45.0392],[-74.6533,45.01639],[-74.65970298859396,45.00909595511156],[-74.67098,45.00948],[-74.75132,44.99807],[-74.77467,45.01555],[-74.83514,45.01766],[-74.98272,44.98435],[-75.1355,44.91838],[-75.313,44.83737],[-75.50285,44.71039],[-75.81631,44.48499],[-75.82695,44.43231],[-75.95467,44.34988],[-76.00719,44.35282],[-76.16856,44.28355],[-76.31516,44.19993],[-76.44562,44.09844],[-76.77796,43.68476],[-78.6726,43.65219],[-79.21691,43.45496],[-79.07537,43.26426],[-79.05791,43.25174],[-79.05926,43.23805],[-79.05872,43.20908],[-79.05147,43.20008],[-79.05685,43.17677],[-79.04556,43.14151],[-79.0555,43.13014],[-79.07295,43.12112],[-79.05952,43.11095],[-79.06436,43.09681],[-79.07806,43.0817],[-79.07725,43.07621],[-79.00854,43.05761],[-79.02958,43.01998],[-79.02215,42.98025],[-78.96709,42.95554],[-78.93397,42.95207],[-78.91368,42.93506],[-78.90733,42.91357],[-78.9087,42.90282],[-78.95637,42.8378],[-80.50522347574976,42.3345447385163],[-80.50521,42.33584],[-81.385,42.20145],[-82.30042,41.75045],[-82.63504,41.70539],[-82.80836,41.76026],[-83.05735,41.86716],[-83.1060130919532,41.96316721279783],[-83.10601,41.96317],[-83.14475,42.0396],[-83.11713,42.12702],[-83.12191,42.23138],[-83.09852,42.282],[-83.07765,42.30495],[-83.0596,42.31704],[-83.02915,42.32497],[-82.98798,42.32872],[-82.94061,42.34539],[-82.82222,42.37166],[-82.5143,42.60539],[-82.50239,42.66612],[-82.4875,42.69862],[-82.46269,42.76027],[-82.45998,42.88799],[-82.4496,42.92633],[-82.42614,42.94549],[-82.40945,42.97784],[-82.42028,42.98741],[-82.41389,43.00063],[-82.06913,43.59196],[-82.38232,44.88212],[-82.46722,45.36835],[-83.18576,45.69387],[-83.53695,46.14629],[-83.79072,46.15031],[-83.91807,46.07276],[-84.10395,46.26941],[-84.07469,46.5175],[-84.16935,46.5471],[-84.23189,46.53623],[-84.24872,46.51074],[-84.26612,46.49661],[-84.28855,46.49543],[-84.32329,46.50303],[-84.3444,46.51062],[-84.37474,46.51169],[-84.44234,46.49817],[-84.47531,46.45974],[-84.53647,46.47164],[-84.74081,46.64774],[-84.84942,46.89066],[-88.38264,48.35021],[-89.32805,48.01402],[-89.46905,48.03936],[-89.4846,48.01491],[-89.48884677639664,48.00843239353932],[-89.4912,48.00922],[-89.50298992313827,48.007302162308356],[-89.48612,48.04243],[-90.06953,48.14727],[-90.69889,48.13334],[-90.86171,48.28385],[-91.46047,48.09477],[-91.90691,48.36068],[-92.27982,48.39208],[-92.36386,48.27686],[-92.51618,48.59744],[-93.23574,48.66686],[-93.52461,48.60786],[-93.52986,48.54878],[-93.76096,48.54183],[-93.77147,48.62175],[-94.14963,48.69807],[-94.6486,48.77774],[-94.74314,49.35585],[-95.1475557264998,49.402864852132126],[-95.14727,52.84011],[-93.65118,53.72939],[-92.57855,54.50444],[-91.44608,55.28203],[-90.38759,55.97299],[-88.98568,56.83803],[-88.90793555245823,56.90253759699546],[-87.93132,57.50826]]]}}
