{"type":"Feature","properties":{"sourceId":"opolskie"},"geometry":{"type":"Polygon","coordinates":[[[16.93477,50.46683],[16.94117,50.48308],[16.95917,50.49467],[16.97695,50.49503],[16.98805,50.48286],[17.02283,50.48658],[17.03089,50.473],[17.04404,50.47152],[17.05266,50.48301],[17.05069,50.5075],[17.06342,50.51944],[17.05721,50.54425],[17.08993,50.57112],[17.11698,50.61235],[17.23468,50.6218],[17.2236,50.64021],[17.22814,50.68337],[17.2357,50.6876],[17.21586,50.69603],[17.21424,50.71558],[17.24891,50.72588],[17.25801,50.74422],[17.27961,50.75188],[17.24813,50.77506],[17.28509,50.80148],[17.34401,50.79437],[17.31236,50.82206],[17.3305,50.83252],[17.32396,50.85597],[17.38496,50.8713],[17.38402,50.88527],[17.34644,50.89844],[17.36554,50.92981],[17.42236,50.92006],[17.43022,50.93519],[17.42197,50.94534],[17.42626,50.97238],[17.46382,50.98517],[17.48766,50.98141],[17.48479,50.9912],[17.49762,50.99959],[17.52357,50.99597],[17.50789,51.00965],[17.52378,51.04024],[17.51276,51.04758],[17.51223,51.0611],[17.52942,51.0749],[17.56412,51.08145],[17.55563,51.09265],[17.56717,51.11096],[17.56615,51.12504],[17.54116,51.13841],[17.53816,51.15636],[17.58957,51.17793],[17.60329,51.1956],[17.66877,51.16882],[17.79556,51.2014],[17.83785,51.19854],[17.85196,51.18962],[17.85792,51.17058],[17.82538,51.12765],[17.88627,51.11175],[18.03814,51.13813],[18.06121,51.1492],[18.0757,51.17255],[18.10656,51.16439],[18.16127,51.18146],[18.18819,51.16495],[18.26235,51.16409],[18.31156,51.1417],[18.36815,51.14563],[18.4371,51.12159],[18.46601,51.12685],[18.48877,51.09936],[18.51009,51.11164],[18.50886,51.13522],[18.51709,51.14607],[18.55663,51.14502],[18.58735,51.08939],[18.67699,51.06246],[18.70219,51.01695],[18.67146,50.99941],[18.66776,50.96511],[18.62415,50.95628],[18.6348,50.93865],[18.65445,50.93603],[18.66211,50.91708],[18.6238,50.85106],[18.56665,50.83038],[18.56451,50.80266],[18.52829,50.79387],[18.55377,50.76589],[18.58338,50.75872],[18.58585,50.74731],[18.57163,50.73797],[18.55618,50.74031],[18.55228,50.72647],[18.5158,50.71892],[18.49987,50.70223],[18.51319,50.6689],[18.52896,50.66272],[18.51755,50.6489],[18.5229,50.63238],[18.58762,50.62066],[18.60769,50.60784],[18.60104,50.5818],[18.62263,50.57133],[18.61364,50.54709],[18.55774,50.53285],[18.48119,50.54528],[18.44275,50.53932],[18.45358,50.50851],[18.4719,50.50342],[18.47689,50.48526],[18.49228,50.47223],[18.48337,50.45176],[18.44834,50.45661],[18.44109,50.47266],[18.39009,50.47168],[18.39568,50.43738],[18.38051,50.42001],[18.40307,50.38796],[18.39371,50.36582],[18.37631,50.35454],[18.41204,50.32717],[18.41463,50.31343],[18.40378,50.3069],[18.4123,50.28337],[18.4329,50.27161],[18.42953,50.24328],[18.36912,50.24793],[18.24545,50.20976],[18.25663,50.19854],[18.24781,50.18562],[18.1855,50.17424],[18.1638,50.18126],[18.13129,50.17536],[18.11168,50.16073],[18.09643,50.16956],[18.0692,50.16298],[18.07255,50.15508],[18.06108,50.14],[18.07397,50.13305],[18.0792,50.10826],[18.04923,50.06704],[18.05027316568415,50.06472517185459],[18.03519,50.06914],[18.00181,50.05473],[18.00184,50.03418],[18.0084,50.02852],[18.04218,50.03257],[18.02633,50.01295],[18.00478,50.02095],[17.95237,50.00686],[17.92019,49.98503],[17.88759,49.98357],[17.83906,49.99555],[17.83882,50.00933],[17.78615,50.02689],[17.75785,50.07717],[17.71143,50.11621],[17.68202,50.12116],[17.67554,50.10595],[17.65215,50.11235],[17.64247,50.13233],[17.59757,50.15878],[17.70842,50.18251],[17.72026,50.20035],[17.75902,50.2],[17.77063,50.23592],[17.7475,50.24867],[17.72799,50.26147],[17.75619,50.29562],[17.75242,50.3029],[17.73229,50.30548],[17.7234,50.32284],[17.68412,50.3303],[17.68293,50.30187],[17.64526,50.28092],[17.61127,50.26945],[17.59198,50.28107],[17.46055,50.27426],[17.4544,50.27192],[17.44606,50.25526],[17.43643,50.256],[17.43345,50.2637],[17.432143477183054,50.26080141912269],[17.43256,50.264],[17.43303,50.26479],[17.42807,50.27762],[17.40671,50.28282],[17.36205,50.2856],[17.35962,50.26918],[17.35285,50.26848],[17.34822,50.27324],[17.35017,50.28264],[17.3602,50.30864],[17.34242,50.31552],[17.34393,50.31882],[17.3534,50.32264],[17.3499,50.33079],[17.27957,50.32555],[17.20676,50.3688],[17.21134,50.37471],[17.21395,50.38475],[17.19469,50.39395],[17.1446,50.38602],[17.13297,50.39344],[17.12121,50.39934],[17.11485,50.4056],[17.09926,50.40863],[17.05523,50.41606],[16.90749,50.45234],[16.90206946873573,50.45106265945786],[16.9015,50.45172],[16.93477,50.46683]]]}}
