{"type":"Feature","properties":{"sourceId":"oberpfalz"},"geometry":{"type":"Polygon","coordinates":[[[13.13702,49.10906],[13.12375,49.10786],[13.06641,49.12632],[13.0594,49.14622],[12.97182,49.15973],[12.94693,49.13754],[12.91928,49.12885],[12.89863,49.12584],[12.86581,49.12753],[12.82875,49.12258],[12.79851,49.11944],[12.78579,49.12897],[12.76606,49.10882],[12.73675,49.11063],[12.73325,49.11413],[12.70928,49.10267],[12.68973,49.10061],[12.64844,49.09844],[12.59663,49.09071],[12.56233,49.08588],[12.54002,49.07115],[12.52933,49.05484],[12.50297,49.05653],[12.48287,49.03937],[12.49467,49.01991],[12.49338,48.9858],[12.4908,48.97479],[12.47384,48.9737],[12.45355,48.97721],[12.45503,48.96704],[12.45558,48.95591],[12.44563,48.94901],[12.46001,48.92103],[12.45632,48.91655],[12.43973,48.9014],[12.43493,48.8763],[12.37944,48.84525],[12.36358,48.84428],[12.33888,48.8529],[12.29536,48.83773],[12.26181,48.83554],[12.2395,48.81042],[12.1947,48.79123],[12.1722,48.78953],[12.13736,48.76414],[12.11357,48.76243],[12.09882,48.76547],[12.09053,48.78054],[12.10048,48.80252],[12.09329,48.84319],[12.10011,48.8569],[12.12298,48.87497],[12.07928,48.89922],[12.07688,48.90903],[12.07301,48.92527],[12.0719,48.9346],[12.06029,48.93908],[12.04701,48.94307],[12.03282,48.94453],[12.02858,48.95058],[12.01788,48.95312],[11.9965,48.94719],[11.94856,48.94416],[11.92791,48.94235],[11.9163,48.94864],[11.89085,48.99137],[11.87518,49.006],[11.85656,49.0187],[11.81471,49.01604],[11.78982,48.98858],[11.77119,48.9783],[11.7299,48.99016],[11.71349,49.00516],[11.69044,49.01386],[11.6484,49.00165],[11.62167,49.00165],[11.62609,48.98362],[11.60489,48.95131],[11.59512,48.94804],[11.58645,48.95869],[11.55769,48.98362],[11.53335,49.00358],[11.53077,49.01386],[11.51197,49.0297],[11.50791,49.04203],[11.52414,49.0488],[11.52819,49.06269],[11.5057,49.06934],[11.48855,49.06028],[11.46403,49.05979],[11.43711,49.05955],[11.40411,49.07248],[11.39952850637449,49.072944314534794],[11.38263,49.08787],[11.36511,49.09414],[11.37101,49.09921],[11.36309,49.11261],[11.35553,49.11913],[11.32935,49.11973],[11.33008,49.15556],[11.3146,49.16279],[11.32013,49.17991],[11.27938,49.19015],[11.27219,49.20738],[11.31644,49.20172],[11.32713,49.20015],[11.30741,49.24134],[11.29487,49.2565],[11.29487,49.26661],[11.28823,49.27647],[11.24951,49.27551],[11.22776,49.28213],[11.22001,49.29355],[11.20305,49.29391],[11.19549,49.29932],[11.22075,49.31194],[11.24398,49.30497],[11.25412,49.3069],[11.25394,49.32012],[11.26666,49.3194],[11.26998,49.3117],[11.29892,49.30954],[11.32971,49.29944],[11.35682,49.31411],[11.38466,49.3254],[11.3948,49.34078],[11.38337,49.34751],[11.42135,49.37309],[11.43702,49.39277],[11.4632,49.40933],[11.46449,49.41449],[11.45306,49.41904],[11.45638,49.42348],[11.4656,49.42024],[11.48053,49.423],[11.49159,49.41689],[11.53695,49.40735],[11.55234,49.40993],[11.5611,49.41551],[11.55898,49.42684],[11.56258,49.43481],[11.58055,49.45004],[11.59392,49.46592],[11.59825,49.47335],[11.59171,49.47994],[11.59346,49.48586],[11.57935,49.48988],[11.57124,49.49239],[11.56599,49.49712],[11.56765,49.49898],[11.56838,49.50514],[11.54008,49.50658],[11.53593,49.51227],[11.5493,49.51682],[11.54875,49.53261],[11.54617,49.53579],[11.55207,49.53788],[11.55244,49.54051],[11.54976,49.5453],[11.53501,49.54745],[11.52377,49.54889],[11.51823,49.55427],[11.53132,49.56043],[11.54174,49.55798],[11.55695,49.56228],[11.55575,49.56946],[11.57898,49.57788],[11.56921,49.60812],[11.59438,49.61021],[11.60553,49.6224],[11.59991,49.63517],[11.58922,49.64377],[11.57511,49.64968],[11.5776,49.66233],[11.57751,49.66854],[11.56755,49.68208],[11.56534,49.68882],[11.56534,49.69472],[11.56645,49.70569],[11.56331,49.7166],[11.563590887283832,49.71562405087051],[11.56451,49.71672],[11.5665,49.72278],[11.55911,49.73085],[11.56585,49.73001],[11.5696,49.72572],[11.5773,49.72483],[11.58803,49.72682],[11.59359,49.73327],[11.59688,49.73392],[11.59953,49.73822],[11.60092,49.74533],[11.59871,49.75212],[11.60987,49.75375],[11.62024,49.75802],[11.63488,49.75977],[11.63195,49.77989],[11.63696,49.7906],[11.64251,49.79617],[11.64044,49.79922],[11.63664,49.80033],[11.63693,49.80198],[11.64396,49.80433],[11.64649,49.80236],[11.64992,49.80304],[11.65904,49.80015],[11.67319,49.80785],[11.679,49.80341],[11.68564,49.80377],[11.69174,49.80094],[11.69911,49.80043],[11.69991,49.80496],[11.70203,49.80681],[11.70151,49.81384],[11.70358,49.81714],[11.72439,49.81658],[11.72627,49.81991],[11.72442,49.8248],[11.72878,49.82628],[11.72935,49.82981],[11.74006,49.83319],[11.74101,49.83635],[11.74658,49.83835],[11.75208,49.83568],[11.75844,49.83567],[11.7612,49.83285],[11.76657,49.83486],[11.76962,49.83908],[11.78516,49.83395],[11.79832,49.83815],[11.80538,49.8433],[11.80676,49.84621],[11.82025,49.84282],[11.82505,49.83965],[11.82867,49.84034],[11.83019,49.84314],[11.83725,49.84466],[11.83756,49.84977],[11.84447,49.8478],[11.84866,49.84863],[11.85479,49.84515],[11.86278,49.84956],[11.86383,49.85254],[11.86003,49.85774],[11.85453,49.85903],[11.84607,49.86537],[11.84748,49.87594],[11.84404,49.87884],[11.85541,49.88492],[11.85665,49.89304],[11.84708,49.89732],[11.84309,49.89623],[11.84164,49.90045],[11.83733,49.90184],[11.84108,49.90698],[11.83864,49.91048],[11.84004,49.91418],[11.83692,49.91748],[11.83663,49.92141],[11.82964,49.93578],[11.82615,49.93776],[11.82144,49.93715],[11.81952,49.93388],[11.81731,49.93462],[11.81822,49.93835],[11.82266,49.94069],[11.82132,49.94583],[11.81603,49.94821],[11.81424,49.95305],[11.8158,49.95857],[11.82933,49.96093],[11.83368,49.95903],[11.84804,49.95904],[11.85105,49.95658],[11.85709,49.95895],[11.86526,49.95798],[11.86956,49.95927],[11.87322,49.96392],[11.90228,49.96862],[11.90659,49.97362],[11.91476,49.96875],[11.96738,49.97666],[11.97767,49.98106],[11.98486,49.97831],[11.99141,49.98027],[12.0078,49.97944],[12.01815,49.98288],[12.02249,49.98223],[12.02664,49.97848],[12.03057,49.98325],[12.03585,49.9845],[12.0511,49.97781],[12.07175,49.9926],[12.07626,49.99147],[12.07436,49.98737],[12.07502,49.98313],[12.09399,49.97375],[12.10934,49.97552],[12.11094,49.97963],[12.12745,49.98623],[12.13789,49.98748],[12.14665,49.98519],[12.14962,49.99134],[12.18835,49.99817],[12.19464,49.99556],[12.19995,49.99834],[12.19765,50.00289],[12.20276,50.00794],[12.20123,50.01373],[12.20327,50.01695],[12.20006,50.02393],[12.20044,50.03065],[12.20575,50.03267],[12.22073,50.03196],[12.2441,50.03491],[12.24828,50.03843],[12.24974,50.04233],[12.25934,50.04761],[12.259632942747247,50.04881197127221],[12.43319,49.97687],[12.46131,49.98943],[12.48371,49.97104],[12.45654,49.94621],[12.49085,49.92351],[12.53694,49.9183],[12.52541,49.90422],[12.54914,49.90425],[12.525412980388468,49.904220003767875],[12.45368,49.81662],[12.45856,49.78887],[12.39661,49.76688],[12.38887,49.74898],[12.44119,49.69027],[12.51182,49.67342],[12.5061,49.64504],[12.52564,49.61139],[12.5509,49.61201],[12.56806,49.5873],[12.5652,49.55423],[12.59474,49.52733],[12.63668,49.52238],[12.62667,49.47843],[12.6513,49.42889],[12.70453,49.41244],[12.7806,49.33486],[12.89689,49.32523],[12.89689,49.34417],[12.95503,49.33175],[13.01936,49.29136],[13.01793,49.26089],[13.07083,49.23632],[13.1142,49.19294],[13.15471,49.17498],[13.16138,49.14163],[13.16272287329595,49.1402284759702],[13.13702,49.10906]]]}}
