{"type":"Feature","properties":{"sourceId":"olomoucky"},"geometry":{"type":"Polygon","coordinates":[[[17.01402,50.27103],[17.0092,50.29032],[16.9429,50.30916],[16.89624,50.38102],[16.85106,50.40843],[16.87596,50.44491],[16.90749,50.45234],[17.05523,50.41606],[17.09926,50.40863],[17.11485,50.4056],[17.12121,50.39934],[17.13297,50.39344],[17.1446,50.38602],[17.19469,50.39395],[17.21395,50.38475],[17.21134,50.37471],[17.20676,50.3688],[17.27957,50.32555],[17.3499,50.33079],[17.3534,50.32264],[17.34393,50.31882],[17.34242,50.31552],[17.3602,50.30864],[17.35017,50.28264],[17.34822,50.27324],[17.35285,50.26848],[17.35962,50.26918],[17.36205,50.2856],[17.40671,50.28282],[17.42807,50.27762],[17.43303,50.26479],[17.43256,50.264],[17.42991,50.24365],[17.42603,50.20926],[17.40363,50.20542],[17.3826,50.21327],[17.36904,50.20811],[17.35067,50.18915],[17.33814,50.18311],[17.29609,50.16909],[17.24768,50.1394],[17.25171,50.12041],[17.24596,50.1148],[17.22382,50.10164],[17.2336,50.08468],[17.2312,50.07796],[17.23617,50.06254],[17.22897,50.05251],[17.22038,50.0459],[17.21369,50.04314],[17.20098,50.03289],[17.19051,50.02936],[17.18004,50.01425],[17.17146,50.00752],[17.17472,49.98666],[17.16202,49.98203],[17.17249,49.97607],[17.19274,49.96734],[17.2027,49.95763],[17.20085,49.95256],[17.20464,49.94931],[17.19708,49.93951],[17.19123,49.93716],[17.19086,49.93211],[17.17224,49.92332],[17.1642,49.9197],[17.17728,49.91049],[17.17069,49.90116],[17.16622,49.89618],[17.15781,49.88944],[17.15043,49.88634],[17.15198,49.88203],[17.14992,49.87926],[17.15695,49.87738],[17.16047,49.87378],[17.16099,49.86892],[17.17223,49.86482],[17.17366,49.85823],[17.18647,49.84684],[17.19197,49.8507],[17.22201,49.86117],[17.22685,49.8603],[17.21857,49.82175],[17.23188,49.82663],[17.24124,49.82769],[17.25017,49.8263],[17.26198,49.82167],[17.25841,49.83034],[17.26375,49.83624],[17.31466,49.85769],[17.33363,49.86074],[17.35541,49.86361],[17.35955,49.8637],[17.38364,49.84842],[17.35908,49.81308],[17.37259,49.80577],[17.37565,49.80153],[17.38312,49.79534],[17.38533,49.79423],[17.38715,49.79193],[17.38835,49.79661],[17.39075,49.81401],[17.41027,49.81531],[17.40633,49.82345],[17.40875,49.82784],[17.42131,49.82813],[17.4311,49.83638],[17.44114,49.83178],[17.43685,49.82553],[17.4438,49.82741],[17.45085,49.83213],[17.45307,49.83676],[17.46251,49.83826],[17.45204,49.84949],[17.45067,49.85785],[17.43994,49.86676],[17.44947,49.87528],[17.47737,49.87473],[17.47376,49.85791],[17.48757,49.85376],[17.49075,49.8433],[17.49263,49.83996],[17.48362,49.83175],[17.50784,49.8173],[17.50723,49.81088],[17.50225,49.79812],[17.52096,49.79307],[17.52585,49.79052],[17.52161,49.77982],[17.53379,49.7727],[17.54113,49.77484],[17.55508,49.76907],[17.55607,49.76422],[17.56246,49.75873],[17.57231,49.75924],[17.58271,49.7536],[17.58748,49.7512],[17.61649,49.75568],[17.6298,49.75654],[17.63734,49.75734],[17.64426,49.7567],[17.64709,49.75718],[17.64801,49.75839],[17.64912,49.7589],[17.65131,49.75928],[17.65269,49.75989],[17.65439,49.7603],[17.66014,49.76031],[17.68229,49.7549],[17.70064,49.73313],[17.69859,49.72458],[17.68398,49.7047],[17.69175,49.67787],[17.71587,49.66897],[17.72088,49.66752],[17.73005,49.66685],[17.73133,49.67457],[17.73708,49.68229],[17.75236,49.67296],[17.76026,49.66146],[17.77475,49.65266],[17.77837,49.63512],[17.78661,49.63779],[17.7988,49.62873],[17.81596,49.62333],[17.82463,49.61388],[17.84007,49.60711],[17.86879,49.57643],[17.8644,49.57021],[17.84695,49.56492],[17.85562,49.55968],[17.856,49.55463],[17.86081,49.54828],[17.88186,49.56921],[17.90453,49.5671],[17.92035,49.54053],[17.91991275337855,49.53947124393217],[17.91527,49.53925],[17.90019,49.51932],[17.89312,49.51039],[17.86428,49.5188],[17.84557,49.52415],[17.83527,49.52426],[17.83982,49.51618],[17.8363,49.50459],[17.82549,49.50203],[17.81888,49.50175],[17.81304,49.50359],[17.80875,49.49929],[17.81047,49.49539],[17.80712,49.49205],[17.79974,49.48915],[17.79116,49.48815],[17.78472,49.489],[17.79767,49.4715],[17.78965,49.46687],[17.78944,49.46291],[17.77743,49.45854],[17.77648,49.44941],[17.77794,49.4415],[17.72007,49.43958],[17.71309,49.45057],[17.69247,49.46465],[17.67374,49.46285],[17.66765,49.45552],[17.66859,49.45298],[17.66867,49.45288],[17.66732,49.44924],[17.66727,49.44921],[17.66728,49.44915],[17.66718,49.4491],[17.66724,49.44902],[17.66434,49.44123],[17.64938,49.45241],[17.62329,49.4509],[17.62029,49.44716],[17.62267,49.44304],[17.62301,49.44077],[17.62474,49.43961],[17.64387,49.41873],[17.64761,49.41535],[17.63641,49.40778],[17.63289,49.40718],[17.62894,49.4017],[17.59555,49.40036],[17.59065,49.4055],[17.58085,49.40906],[17.56726,49.4075],[17.54568,49.40639],[17.53325,49.40331],[17.52853,49.39808],[17.52311,49.40301],[17.50348,49.40258],[17.50435,49.40084],[17.50434,49.40079],[17.50436,49.40073],[17.50446,49.40062],[17.51281,49.38393],[17.5032,49.37729],[17.47504,49.35666],[17.46938,49.36974],[17.45533,49.37622],[17.4494,49.37778],[17.45048,49.38002],[17.44647,49.38052],[17.4449,49.37933],[17.43904,49.38029],[17.3903,49.3895],[17.38578,49.38187],[17.37589,49.38084],[17.38774,49.40553],[17.36759,49.41415],[17.35213,49.40818],[17.33382,49.39018],[17.33044,49.38222],[17.3398,49.3605],[17.35325,49.34395],[17.34133,49.34238],[17.31466,49.33194],[17.29918,49.3127],[17.27666,49.29685],[17.2546,49.30415],[17.23,49.29894],[17.20888,49.29423],[17.19326,49.29849],[17.1776,49.28734],[17.17554,49.27029],[17.15766,49.27632],[17.155823994543564,49.27452394659474],[17.15382,49.27564],[17.15249,49.28639],[17.14288,49.29507],[17.14053,49.30796],[17.11717,49.33325],[17.07248,49.34363],[17.04505,49.35318],[17.03374,49.35903],[17.04706,49.36468],[17.02078,49.37082],[17.0246,49.39012],[17.02229,49.39751],[17.01087,49.40444],[17.01185,49.41674],[16.99545,49.41945],[16.98581,49.42537],[16.98091,49.44112],[16.98532,49.45289],[16.97203,49.45722],[16.95573,49.46817],[16.93993,49.49312],[16.93595,49.48649],[16.90596,49.49724],[16.87174,49.47832],[16.87244,49.47447],[16.89036,49.46121],[16.8974,49.46121],[16.90264,49.4563],[16.91036,49.44067],[16.90779,49.4369],[16.91795,49.42868],[16.90728,49.41547],[16.89603,49.41527],[16.89311,49.4071],[16.89388,49.4026],[16.88693,49.39824],[16.88218,49.39939],[16.87721,49.397],[16.87373,49.39507],[16.87213,49.39475],[16.87013,49.39052],[16.85972,49.38085],[16.84979,49.38691],[16.83564,49.3913],[16.82393,49.40008],[16.81736,49.40204],[16.8111,49.40313],[16.80663,49.4046],[16.80449,49.40586],[16.80376,49.40776],[16.80676,49.41058],[16.8041,49.41209],[16.80011,49.4098],[16.79595,49.41137],[16.79245,49.41442],[16.7976,49.42021],[16.79769,49.4249],[16.799,49.4265],[16.79979,49.42782],[16.80003,49.4284],[16.80019,49.42858],[16.80032,49.4289],[16.80196,49.42919],[16.80251,49.42943],[16.80394,49.42982],[16.80457,49.42983],[16.80733,49.42958],[16.80887,49.42954],[16.80946,49.42945],[16.81084,49.4292],[16.81107,49.42925],[16.81211,49.43009],[16.81306,49.43074],[16.81345,49.43085],[16.81371,49.43096],[16.81412,49.43114],[16.81435,49.43134],[16.8145,49.43153],[16.81466,49.43176],[16.81538,49.43188],[16.81677,49.43132],[16.8199,49.4313],[16.82671,49.43591],[16.81809,49.43917],[16.81681,49.44358],[16.79719,49.45613],[16.78329,49.49692],[16.78765,49.50989],[16.79047,49.51171],[16.79161,49.51239],[16.79272,49.51275],[16.79531,49.51161],[16.8035,49.51501],[16.80024,49.52437],[16.80676,49.5324],[16.79423,49.5334],[16.78574,49.53585],[16.77569,49.54036],[16.76436,49.54069],[16.75492,49.54315],[16.7393,49.54186],[16.73553,49.54278],[16.73947,49.54994],[16.75063,49.56108],[16.74445,49.5638],[16.74522,49.5697],[16.74025,49.57427],[16.74531,49.57905],[16.74503,49.58778],[16.74769,49.58703],[16.76027,49.58118],[16.76476,49.58361],[16.76506,49.58351],[16.76597,49.58188],[16.76835,49.58003],[16.77014,49.57885],[16.7781,49.57861],[16.77943,49.57551],[16.78384,49.57446],[16.79989,49.57811],[16.78911,49.58675],[16.78616,49.59155],[16.79698,49.5963],[16.797599427400492,49.597617784608246],[16.80625,49.59897],[16.80376,49.60265],[16.80505,49.60493],[16.80749,49.60676],[16.80954,49.61906],[16.81359,49.62489],[16.81655,49.62286],[16.82101,49.6218],[16.82273,49.62317],[16.8144,49.6317],[16.80273,49.64043],[16.80569,49.64493],[16.8064,49.65564],[16.81003,49.65677],[16.81076,49.66032],[16.81312,49.66271],[16.82041,49.66613],[16.8238,49.66513],[16.82803,49.666],[16.83972,49.67402],[16.84646,49.68062],[16.84934,49.70267],[16.84749,49.70497],[16.84135,49.70594],[16.84504,49.71058],[16.84813,49.7161],[16.84646,49.72145],[16.8317,49.72972],[16.81282,49.73259],[16.79117,49.7296],[16.79823,49.7342],[16.80717,49.74047],[16.81528,49.74841],[16.79469,49.75708],[16.79776,49.76087],[16.80365,49.76721],[16.80345,49.77305],[16.79859,49.77519],[16.79056,49.77557],[16.78056,49.78054],[16.76809,49.79234],[16.76273,49.79634],[16.76257,49.81894],[16.73849,49.8309],[16.74029,49.84053],[16.74293,49.86304],[16.74366,49.86355],[16.74945,49.86572],[16.75326,49.86523],[16.75917,49.86711],[16.76575,49.87225],[16.76587,49.87343],[16.76673,49.87367],[16.76931,49.87435],[16.76715,49.87583],[16.76419,49.87676],[16.75531,49.88781],[16.75227,49.8944],[16.75488,49.89719],[16.75516,49.89823],[16.75565,49.89842],[16.75577,49.89908],[16.75697,49.90007],[16.75772,49.9015],[16.7566,49.90213],[16.75578,49.90268],[16.75518,49.90384],[16.7572,49.91161],[16.75888,49.92036],[16.74982,49.92484],[16.7505,49.93124],[16.75076,49.93158],[16.75048,49.93177],[16.74991,49.932],[16.749,49.93249],[16.74726,49.93314],[16.7363,49.94862],[16.73647,49.96674],[16.73184,49.97746],[16.7151,49.99889],[16.73072,50.00112],[16.75061,49.99372],[16.76848,50.0063],[16.78333,50.02246],[16.80908,50.0292],[16.82075,50.04388],[16.81054,50.0513],[16.8154,50.05884],[16.8006,50.06892],[16.82656,50.08528],[16.8071,50.10845],[16.82766,50.11389],[16.85058,50.16465],[16.86804,50.17655],[16.86767,50.18733],[16.86653,50.19797],[16.86067324238456,50.20412877856564],[16.8596,50.21493],[16.94433,50.23636],[17.01402,50.27103]]]}}
