{"type":"Feature","properties":{"sourceId":"overijssel"},"geometry":{"type":"Polygon","coordinates":[[[6.716659,52.11697],[6.661622,52.12923],[6.66181,52.13139],[6.672822,52.14224],[6.669119,52.1562],[6.671514,52.16181],[6.669946,52.16428],[6.647838,52.17195],[6.645034,52.1717],[6.640299,52.16618],[6.630931,52.17146],[6.611899,52.16195],[6.603975,52.16538],[6.60042,52.17537],[6.589662,52.18086],[6.555005,52.17598],[6.513825,52.17998],[6.495763,52.17584],[6.478663,52.18109],[6.471981,52.18756],[6.466732,52.19843],[6.454335,52.20119],[6.446432,52.21097],[6.427648,52.22285],[6.422536,52.23062],[6.411496,52.24156],[6.389827,52.24126],[6.380733,52.24397],[6.367541,52.24038],[6.35273,52.24019],[6.340746,52.23398],[6.339208,52.22603],[6.320547,52.22437],[6.298335,52.22423],[6.290632,52.22903],[6.270913,52.22512],[6.261442,52.22708],[6.238153,52.22625],[6.227878,52.22828],[6.220464,52.22751],[6.216533,52.22524],[6.202209,52.22809],[6.188747,52.228],[6.181945,52.23228],[6.178327,52.2322],[6.170333,52.22961],[6.168622,52.22436],[6.169837,52.22036],[6.164923,52.21615],[6.161639,52.21756],[6.159576,52.22372],[6.145308,52.22771],[6.140569,52.23347],[6.142913,52.24263],[6.141586,52.24524],[6.122486,52.25151],[6.124907,52.26018],[6.121571,52.26922],[6.11131,52.27755],[6.110243,52.28697],[6.104732,52.29176],[6.102089,52.29781],[6.08334,52.30064],[6.078495,52.31507],[6.065998,52.31669],[6.06492,52.31876],[6.06521,52.32121],[6.070015,52.32474],[6.07512,52.33786],[6.074994,52.3511],[6.08206,52.35654],[6.081833,52.35921],[6.076228,52.36512],[6.077727,52.37061],[6.083362,52.37366],[6.11739,52.37948],[6.1226,52.38212],[6.124896,52.38609],[6.124685,52.39907],[6.109655,52.40728],[6.112798,52.41427],[6.112509,52.4199],[6.115969,52.42613],[6.115935,52.43332],[6.113363,52.43694],[6.101339,52.44477],[6.10208,52.45609],[6.100266,52.46652],[6.097718,52.46991],[6.088645,52.47566],[6.067672,52.48266],[6.053859,52.4985],[6.041875,52.5044],[6.029313,52.50752],[6.022804,52.50401],[6.012422,52.50451],[6.008135,52.50307],[5.965736,52.47526],[5.957497,52.48244],[5.952702,52.48293],[5.937548,52.47536],[5.925006,52.47296],[5.90849,52.4972],[5.886738,52.51558],[5.875836,52.52032],[5.865061303790516,52.51772734414403],[5.865676,52.51929],[5.856086,52.55154],[5.812891,52.58021],[5.780143,52.58324],[5.780323,52.60515],[5.83686,52.60603],[5.842272,52.60934],[5.904566,52.61778],[5.90928,52.6167],[5.915298,52.61236],[5.932507,52.6136],[5.959438,52.62409],[5.989307,52.62819],[6.010685,52.63656],[6.018276,52.64398],[6.007856,52.65221],[6.000293,52.65572],[5.984964,52.65831],[5.967049,52.66779],[5.953687,52.66908],[5.940094,52.67335],[5.94031,52.67747],[5.948002,52.68328],[5.952687,52.68389],[5.963261,52.68968],[5.966303,52.69316],[5.966146,52.69787],[5.952439,52.71244],[5.943441,52.71638],[5.936634,52.73099],[5.922963,52.75199],[5.906943,52.76227],[5.897883,52.76349],[5.880547,52.77424],[5.860915,52.78295],[5.849287,52.78602],[5.821747,52.7866],[5.806381,52.79617],[5.795832,52.80758],[5.794660769300651,52.807557554812384],[5.819298,52.81853],[5.845286,52.807],[5.857273,52.8085],[5.861125,52.80577],[5.865729,52.80595],[5.87745,52.80217],[5.882609,52.80531],[5.895534,52.80859],[5.900799,52.81334],[5.909125,52.81542],[5.920547,52.82418],[5.921687,52.83137],[5.926686,52.83507],[5.945533,52.83875],[5.952808,52.83687],[5.958692,52.84117],[5.970107,52.84368],[5.974003,52.84332],[5.97737,52.83532],[5.987339,52.82381],[5.996767,52.81865],[6.024782,52.82377],[6.032623,52.81746],[6.046084,52.82158],[6.053424,52.82604],[6.054462,52.82892],[6.052129,52.83848],[6.061814,52.8406],[6.0802,52.84004],[6.087026,52.84433],[6.119982,52.85539],[6.120296141129881,52.855173960786054],[6.118592,52.85438],[6.126788,52.84758],[6.129803,52.84272],[6.146273,52.83104],[6.148355,52.8275],[6.157386,52.82363],[6.170584,52.81424],[6.176911,52.81233],[6.197423,52.79509],[6.19751,52.792],[6.193207,52.78761],[6.172842,52.77466],[6.167638,52.76858],[6.155913,52.76387],[6.126118,52.75814],[6.120629,52.75506],[6.118934,52.75164],[6.149646,52.70328],[6.155301,52.69158],[6.161125,52.69025],[6.164755,52.68682],[6.162225,52.67911],[6.183483,52.67376],[6.187949,52.67729],[6.19483,52.67557],[6.202656,52.68321],[6.215982,52.68425],[6.236741,52.67629],[6.243644,52.67659],[6.246841,52.67147],[6.251175,52.6689],[6.261875,52.6685],[6.270955,52.6635],[6.28055,52.66727],[6.287112,52.66225],[6.291802,52.66113],[6.296232,52.66123],[6.29988,52.66461],[6.322024,52.66892],[6.325167,52.66622],[6.324688,52.65949],[6.326161,52.65768],[6.333348,52.65356],[6.340332,52.65253],[6.353114,52.64467],[6.360821,52.64282],[6.362124,52.63815],[6.372091,52.62764],[6.372043,52.62378],[6.3755,52.61617],[6.383758,52.61093],[6.395695,52.61577],[6.403474,52.61494],[6.410627,52.61865],[6.419181,52.61782],[6.422257,52.62174],[6.429298,52.62405],[6.432178,52.62293],[6.433515,52.61904],[6.436924,52.61631],[6.453043,52.61268],[6.461468,52.61519],[6.465769,52.62209],[6.468317,52.62311],[6.477953,52.61736],[6.49189,52.61778],[6.503757,52.6159],[6.51251,52.61237],[6.518358,52.61276],[6.519835,52.61465],[6.515672,52.64298],[6.517601,52.6468],[6.552803,52.66422],[6.613648,52.67262],[6.700209,52.64888],[6.701837,52.64527],[6.699908,52.64157],[6.702212,52.63653],[6.699494,52.62853],[6.702395,52.62598],[6.70738,52.62556],[6.721389577584854,52.62391063838637],[6.730256,52.61537],[6.722265,52.5902],[6.768056,52.56619],[6.769131,52.55989],[6.752295,52.55604],[6.727875,52.5598],[6.716428,52.54553],[6.68763,52.54938],[6.708209,52.52186],[6.700986,52.48816],[6.753652,52.46699],[6.774899,52.4626],[6.854735,52.46267],[6.85623,52.45352],[6.941407,52.43853],[6.959788,52.44669],[6.9754,52.46779],[6.988624,52.47259],[6.996353,52.46722],[7.013247,52.43121],[7.024209,52.425],[7.037172,52.40565],[7.060917,52.40146],[7.075066,52.37384],[7.074867,52.3504],[7.059279,52.33664],[7.050042,52.32263],[7.050009,52.31369],[7.02941,52.29096],[7.031167,52.27561],[7.044544,52.25833],[7.068264,52.24293],[7.063317,52.23251],[7.026832,52.22275],[6.989159,52.22325],[6.953173,52.17876],[6.910407,52.17356],[6.907694,52.16766],[6.884791,52.155],[6.875589,52.12817],[6.856423,52.11762],[6.763181,52.11577],[6.762698,52.11349],[6.73675,52.11688],[6.716659,52.11697]]]}}
