{"type":"Feature","properties":{"sourceId":"oxfordshire"},"geometry":{"type":"MultiPolygon","coordinates":[[[[-1.089407,51.95388],[-1.079022,51.94642],[-1.080309,51.94457],[-1.078936,51.94303],[-1.075074,51.94356],[-1.0745271872289046,51.94379417979517],[-1.054682919173508,51.94723378802651],[-1.0547275705780654,51.94687553838529],[-1.0552748517627393,51.94602417218399],[-1.055762,51.94589],[-1.0557796647040703,51.94523887079183],[-1.060568,51.93779],[-1.077836,51.93148],[-1.074812,51.93071],[-1.078335,51.92737],[-1.081683,51.92816],[-1.08194,51.92774],[-1.0821564168553712,51.926240517857984],[-1.082541,51.92636],[-1.082627,51.92298],[-1.086317,51.92276],[-1.086344102071989,51.922076145392836],[-1.086575,51.92202],[-1.0863523334429692,51.921868446846005],[-1.086403,51.92059],[-1.079317,51.91708],[-1.0819241596931803,51.91581770571827],[-1.082707,51.91567],[-1.082473079617736,51.913781786744856],[-1.083239279554962,51.91009535308462],[-1.085883,51.90545],[-1.084896,51.90442],[-1.085711,51.90318],[-1.085454,51.90177],[-1.085883,51.90093],[-1.0852829103537494,51.900262789807435],[-1.085668,51.89841],[-1.091419,51.89722],[-1.092964,51.89386],[-1.0927836897709449,51.89380373266395],[-1.092921,51.89346],[-1.076685,51.88878],[-1.077286,51.88812],[-1.077157,51.88769],[-1.0704944762748554,51.88826243177484],[-1.070205,51.88743],[-1.0694639737471197,51.88719708138734],[-1.068917,51.88648],[-1.071749,51.88483],[-1.0701688488701036,51.884251254303145],[-1.0701063869443062,51.88403917427602],[-1.076599,51.87871],[-1.076771,51.87808],[-1.0764259382444052,51.87726697778134],[-1.076256,51.87585],[-1.075998,51.87543],[-1.072779,51.87482],[-1.072608,51.87389],[-1.07102,51.8736],[-1.070677,51.87408],[-1.068917,51.87437],[-1.06896,51.87397],[-1.06454,51.86814],[-1.065656,51.86788],[-1.064325,51.86629],[-1.06557,51.86581],[-1.065184,51.86483],[-1.066213,51.86451],[-1.0641617460118056,51.857569262022224],[-1.064411,51.85746],[-1.063920695042874,51.8567536284516],[-1.0634877848778328,51.85528880935033],[-1.063596,51.85526],[-1.063411721723029,51.85503143779601],[-1.0633258152222484,51.854740759744466],[-1.063596,51.85465],[-1.063166,51.8542],[-1.06617,51.85322],[-1.065784049003548,51.852799960113394],[-1.065956,51.85266],[-1.061879,51.84855],[-1.063767,51.84771],[-1.0626001777522167,51.84556045296352],[-1.062265,51.84415],[-1.06170911916596,51.84391892414706],[-1.061536,51.8436],[-1.0600819861618913,51.84324253610896],[-1.051993,51.83988],[-1.0479689415323155,51.84026458916504],[-1.04673,51.83996],[-1.047116,51.83989],[-1.0470537508933413,51.83979831526926],[-1.0478280156049609,51.83941163901912],[-1.058274,51.83583],[-1.062008,51.83233],[-1.067673,51.83503],[-1.071749,51.83384],[-1.072479,51.83052],[-1.076771,51.8292],[-1.0885419821036544,51.832988350303516],[-1.089989,51.83424],[-1.091319,51.83424],[-1.103979,51.84079],[-1.121531,51.84543],[-1.1229287013386122,51.84396164562669],[-1.140791,51.83446],[-1.122899809681373,51.824304258015424],[-1.119514,51.82087],[-1.110631,51.81734],[-1.117454,51.81432],[-1.1178120316871056,51.81237584944098],[-1.1209411989354865,51.810212698236235],[-1.12269,51.80997],[-1.123076,51.81026],[-1.1241226794284134,51.808013383589596],[-1.124793,51.80755],[-1.120947045502758,51.80307734074805],[-1.120177,51.80032],[-1.11757,51.79915],[-1.121572,51.79668],[-1.123505,51.79425],[-1.120158,51.79234],[-1.122862,51.78857],[-1.121875,51.78711],[-1.1181778724326912,51.78706719678649],[-1.1108984876669794,51.78473176021668],[-1.105481,51.78167],[-1.105867,51.78141],[-1.096898,51.78024],[-1.095932,51.78233],[-1.0846351757492434,51.78091868353038],[-1.080078,51.77763],[-1.082307,51.77392],[-1.082213735692724,51.77387218382683],[-1.082439,51.77357],[-1.080259,51.77287],[-1.080676,51.77222],[-1.078874,51.77126],[-1.079646,51.77007],[-1.0796350045764438,51.77006138070611],[-1.081439,51.76722],[-1.0814278033101858,51.76700291310037],[-1.081706,51.76667],[-1.083036,51.76003],[-1.080883,51.75644],[-1.0750950269043795,51.75814364990704],[-1.069038,51.75645],[-1.067837,51.75454],[-1.052988,51.7514],[-1.053331,51.75071],[-1.0517,51.74912],[-1.051044450315203,51.748916962532455],[-1.0457251688926703,51.74474575603981],[-1.045727,51.74473],[-1.045297,51.74441],[-1.0428289736619267,51.74482896463143],[-1.036714,51.74383],[-1.03002,51.74553],[-1.029419,51.74654],[-1.0295080322918133,51.74709028705144],[-1.029333,51.74712],[-1.029619039723976,51.74777639712778],[-1.029762,51.74866],[-1.0302393244888306,51.7491998117934],[-1.031147176438356,51.75128312876713],[-1.031133,51.75147],[-1.031315957026289,51.751670442429734],[-1.0323904241459958,51.75413610391712],[-1.0323751100056264,51.75478650446692],[-1.030449,51.75796],[-1.025562,51.75584],[-1.016286,51.75587],[-1.016241,51.75617],[-1.007787,51.75607],[-1.007637,51.75482],[-1.0047,51.75424],[-1.003756,51.75461],[-0.999636,51.75408],[-0.998692,51.75451],[-0.998606,51.75339],[-0.99337,51.7544],[-0.993198,51.75392],[-0.989078,51.75286],[-0.987705,51.75313],[-0.98822,51.75233],[-0.984529,51.75201],[-0.980753,51.7536],[-0.9808675854739478,51.75435050134983],[-0.980839,51.75435],[-0.978989,51.76038],[-0.974139,51.75778],[-0.9652067617354496,51.75789747380536],[-0.947444307162157,51.754698010995845],[-0.944358,51.75336],[-0.9406371769854527,51.75347187641236],[-0.933243,51.75214],[-0.932299,51.75057],[-0.932513,51.74975],[-0.9292914150527607,51.74668259263355],[-0.929123,51.74645],[-0.9290644501415437,51.74646648973637],[-0.928522,51.74595],[-0.923939,51.74791],[-0.9194175904820815,51.73913725880446],[-0.919519,51.73909],[-0.9192973057108418,51.738903874245146],[-0.919218,51.73875],[-0.9189745306773068,51.73863288509611],[-0.917244,51.73718],[-0.9158270261097664,51.737118855768514],[-0.9013871891842236,51.730172928885224],[-0.9011864167598932,51.73001386709209],[-0.9010951755981335,51.72921815928605],[-0.90158,51.72854],[-0.9009330690060869,51.727804439006576],[-0.90085,51.72708],[-0.8994526711208168,51.7261212255736],[-0.895872,51.72205],[-0.8930500476772465,51.72172807825444],[-0.8880221840489587,51.71827821964346],[-0.8878206461297868,51.717300461421736],[-0.889607,51.70823],[-0.8892833937078143,51.70789277920361],[-0.889478,51.70722],[-0.888963,51.70738],[-0.886517,51.70501],[-0.889364,51.70138],[-0.8888694617281248,51.70054891238836],[-0.8899169301823213,51.69856254700408],[-0.894777,51.69095],[-0.893352,51.6893],[-0.891481,51.68848],[-0.891023,51.68873],[-0.8904533316142664,51.68860508413652],[-0.8855963924442815,51.686094567972546],[-0.8803557268022737,51.682605603243026],[-0.879607,51.68093],[-0.881667,51.68048],[-0.886731,51.68155],[-0.89171,51.67843],[-0.893383,51.67918],[-0.896987,51.67665],[-0.8970760510121559,51.67635571124738],[-0.897327,51.67629],[-0.8971115873830946,51.67623827345501],[-0.89722,51.67588],[-0.89467,51.67441],[-0.8876716900075285,51.673971492226826],[-0.8823749043202576,51.67269958704736],[-0.880937,51.67196],[-0.877547,51.66853],[-0.911857,51.67461],[-0.915241679290302,51.67265026386905],[-0.917243,51.67239],[-0.923712,51.6679],[-0.9237906350154723,51.66770040127364],[-0.9282297251576515,51.66513015913427],[-0.9282300604247246,51.665130117284015],[-0.928874,51.66638],[-0.931492,51.66494],[-0.9313183851069413,51.66478340010204],[-0.931492,51.66467],[-0.930861467302418,51.664371262178236],[-0.9282633019078022,51.66202772800024],[-0.927961,51.66137],[-0.9269345937066151,51.66082923883226],[-0.922523,51.65685],[-0.927188,51.65455],[-0.927029,51.65163],[-0.928836,51.65552],[-0.931063,51.65498],[-0.930891,51.65344],[-0.9350487139889714,51.65296979173863],[-0.938444,51.65434],[-0.938916,51.65389],[-0.945997,51.6536],[-0.947714,51.65211],[-0.944066,51.65195],[-0.944555,51.64947],[-0.949762,51.65051],[-0.9347774789950166,51.63594448690594],[-0.9348011445047664,51.635869930930106],[-0.9352670118167156,51.63555431631877],[-0.937637,51.63533],[-0.943067,51.63027],[-0.948615,51.63131],[-0.950289,51.62907],[-0.949946,51.62124],[-0.9473987095241805,51.62038433222387],[-0.945912,51.61895],[-0.9421754883301443,51.61862978475245],[-0.938187,51.61729],[-0.941648061132258,51.612444764491514],[-0.943594,51.61082],[-0.943723,51.60954],[-0.9427464230055659,51.60632432094032],[-0.943122,51.60551],[-0.941792,51.60456],[-0.9383613945723803,51.60381093510298],[-0.935554,51.60222],[-0.933704,51.60191],[-0.930785,51.60279],[-0.930642646770905,51.60302541211027],[-0.9253741706481059,51.60388938875255],[-0.9227230772152328,51.60365976877536],[-0.9181991218783696,51.60139883141553],[-0.917309729855763,51.60067341914212],[-0.919033829614257,51.597080588087465],[-0.9220465175537756,51.59384991872032],[-0.9408663249428827,51.58577550342366],[-0.941534,51.58555],[-0.940454111097398,51.583199772744806],[-0.9399636309211853,51.58102019955654],[-0.940091,51.57635],[-0.938642,51.57152],[-0.9372950089025012,51.571120743082794],[-0.924454,51.56378],[-0.924196,51.56448],[-0.9160155230694524,51.56147364925048],[-0.913296,51.55999],[-0.9124924109692768,51.56017889458116],[-0.9121119812320786,51.56003908546792],[-0.910516,51.55817],[-0.90172,51.55622],[-0.902666,51.55365],[-0.9023331087115045,51.55351847093753],[-0.902739,51.55173],[-0.8950624738816836,51.550261154036335],[-0.90039,51.54193],[-0.901278,51.53683],[-0.879621,51.52298],[-0.881547,51.51221],[-0.8799563760101604,51.51129196170209],[-0.8722184821111146,51.50567828359773],[-0.871846,51.50375],[-0.882658,51.50232],[-0.894212,51.49762],[-0.899574,51.48755],[-0.910168,51.48372],[-0.911562,51.47781],[-0.919947,51.47348],[-0.9209512673627411,51.47156902958675],[-0.9265219717269814,51.46868653851125],[-0.930841,51.46863],[-0.939553,51.46301],[-0.9464787926204535,51.460609378641095],[-0.9481798757513147,51.460625063397536],[-0.953022,51.46155],[-0.953355,51.46413],[-0.949114,51.46401],[-0.946647,51.46584],[-0.9467484994036002,51.46654773393667],[-0.946695,51.46656],[-0.9467657420804952,51.466667963486444],[-0.947235,51.46994],[-0.940238,51.47542],[-0.943831,51.47962],[-0.943552,51.48212],[-0.946319,51.48673],[-0.95273,51.48903],[-0.95762,51.49408],[-0.970122,51.49173],[-0.9733452866979051,51.488298260138066],[-0.9748726241244673,51.488328122761054],[-0.978099,51.48931],[-0.98217,51.48608],[-0.993322,51.48727],[-0.998638,51.48528],[-1.001579,51.48111],[-1.001402889060251,51.48085597744412],[-1.0176288631234989,51.46783030878281],[-1.019571,51.46813],[-1.0374626451735163,51.47668432810448],[-1.0374020848785521,51.479050404744946],[-1.03691,51.48477],[-1.041906,51.48963],[-1.051084,51.49282],[-1.061547,51.49251],[-1.087909,51.48675],[-1.100770827071093,51.49011218364161],[-1.105070812257608,51.497073957995035],[-1.108031,51.50513],[-1.112631,51.51041],[-1.11919,51.51283],[-1.133783,51.5123],[-1.141165,51.51667],[-1.1421751065112458,51.52260237157398],[-1.1417523571915753,51.52333187618512],[-1.137489,51.52661],[-1.133467,51.53378],[-1.135534,51.54058],[-1.140156,51.54386],[-1.16034,51.53759],[-1.161989,51.53543],[-1.203307,51.52963],[-1.204714,51.53223],[-1.202292,51.53692],[-1.204763,51.53861],[-1.2127260302922744,51.53766795297144],[-1.2362606200314394,51.53757112273182],[-1.240136,51.53866],[-1.260202,51.53871],[-1.269763,51.54551],[-1.285084,51.54989],[-1.287233,51.55377],[-1.290872875467061,51.55392699021055],[-1.301434897413446,51.556640447021884],[-1.303209,51.55757],[-1.3070213012653442,51.55807563297962],[-1.3279003891305017,51.563439615697106],[-1.328941,51.56468],[-1.333912,51.56103],[-1.339412,51.54624],[-1.342686,51.54465],[-1.346414,51.54492],[-1.350247,51.54788],[-1.3570118431030143,51.54766955979819],[-1.3604022557290718,51.548787153352286],[-1.367567,51.55344],[-1.378489,51.55051],[-1.3784,51.54593],[-1.380888682900292,51.54390783102562],[-1.38558785694068,51.54149395698193],[-1.3921308886109272,51.54147117880379],[-1.4003719157779,51.545058127543534],[-1.404778,51.54821],[-1.421822,51.53751],[-1.426849,51.54655],[-1.4361954636200787,51.542521579860065],[-1.453427693436868,51.53680808779328],[-1.456624,51.53645],[-1.464846,51.53941],[-1.465863,51.53538],[-1.464822,51.53126],[-1.469872,51.52981],[-1.476649,51.53355],[-1.4825844527159864,51.53458497069009],[-1.4856803456089946,51.53563302984378],[-1.486785,51.53698],[-1.485234,51.54111],[-1.489087,51.54368],[-1.496375,51.54684],[-1.504659,51.54771],[-1.512769,51.55174],[-1.521381,51.5519],[-1.532269,51.54839],[-1.538809,51.55033],[-1.541915,51.55322],[-1.555368,51.55431],[-1.56605,51.5471],[-1.570234,51.54845],[-1.571399,51.54349],[-1.582027,51.53753],[-1.5859830009282685,51.52424601164308],[-1.602417,51.51821],[-1.602847,51.5204],[-1.60422,51.5205],[-1.607739,51.52868],[-1.623617,51.54341],[-1.622931,51.54416],[-1.625163,51.54544],[-1.624733,51.54603],[-1.629282,51.54918],[-1.628853,51.5496],[-1.631943,51.55312],[-1.633145,51.55264],[-1.646792,51.56935],[-1.646191,51.56993],[-1.654946,51.57649],[-1.676442,51.56945],[-1.690518,51.58332],[-1.685282,51.58844],[-1.686102,51.5894],[-1.684901,51.59041],[-1.686102,51.5926],[-1.68533,51.59377],[-1.687514,51.59516],[-1.688677,51.6014],[-1.690346,51.60177],[-1.690604,51.60428],[-1.681248,51.61323],[-1.676099,51.61174],[-1.667258,51.61563],[-1.667515,51.61782],[-1.672488,51.62012],[-1.671206,51.62453],[-1.659409,51.63508],[-1.662499,51.63689],[-1.664352,51.64208],[-1.67491,51.64154],[-1.687527,51.65182],[-1.694307,51.65188],[-1.688505,51.65686],[-1.693741,51.66868],[-1.700093,51.6698],[-1.695029,51.67954],[-1.696488,51.68028],[-1.681532,51.69002],[-1.674962,51.68743],[-1.675636,51.6871],[-1.674064,51.6852],[-1.675964,51.68353],[-1.647932,51.68408],[-1.652671,51.68686],[-1.650783,51.68813],[-1.68666,51.71127],[-1.68945,51.71659],[-1.688763,51.71755],[-1.695544,51.72374],[-1.68533,51.73012],[-1.687132,51.73384],[-1.686231,51.73398],[-1.688549,51.73876],[-1.686703,51.73964],[-1.692454,51.74609],[-1.691681,51.74663],[-1.694471,51.74854],[-1.693698,51.74894],[-1.695587,51.75186],[-1.69355,51.75378],[-1.699449,51.76448],[-1.698848,51.76458],[-1.70005,51.76902],[-1.719533,51.7832],[-1.681167,51.80369],[-1.676613,51.81713],[-1.680859,51.81608],[-1.683656,51.82568],[-1.684514,51.82558],[-1.686231,51.83444],[-1.676232,51.85048],[-1.680309,51.85464],[-1.680566,51.85925],[-1.687089,51.86278],[-1.684686,51.86423],[-1.686188,51.86564],[-1.666833,51.87804],[-1.668636,51.87801],[-1.668936,51.88032],[-1.662327,51.88861],[-1.662713,51.89189],[-1.656448,51.89674],[-1.644775,51.89444],[-1.633188,51.89894],[-1.635419,51.90214],[-1.634261,51.90598],[-1.63602,51.90685],[-1.634775,51.90738],[-1.63602,51.91088],[-1.633874,51.91149],[-1.635548,51.91175],[-1.634389,51.91271],[-1.645547,51.91488],[-1.643831,51.9149],[-1.644904,51.91816],[-1.641385,51.91967],[-1.641385,51.9212],[-1.645504,51.92247],[-1.615126,51.9378],[-1.634219,51.95631],[-1.655418,51.95774],[-1.65516,51.9602],[-1.652543,51.96173],[-1.661383,51.96356],[-1.668722,51.97598],[-1.6655415883975182,51.98645331402025],[-1.638932,51.97436],[-1.6329103974925774,51.97056036776674],[-1.6266694522536547,51.966257649069476],[-1.617827,51.95667],[-1.613333,51.95471],[-1.596039,51.96391],[-1.59079,51.96997],[-1.593407,51.97293],[-1.592607,51.97415],[-1.580021,51.97212],[-1.549167,51.98002],[-1.548933,51.98152],[-1.555367,51.9894],[-1.554781,51.99074],[-1.5427355235798625,51.99499155883017],[-1.53547075024433,51.99332299288565],[-1.528005,51.99076],[-1.524177,51.99255],[-1.521842,51.9967],[-1.52016,52.00566],[-1.509988,52.02119],[-1.506229,52.03618],[-1.496431,52.05858],[-1.496425,52.06142],[-1.501064,52.06713],[-1.499131,52.06969],[-1.500044,52.07197],[-1.492831,52.07399],[-1.489822,52.07663],[-1.492478,52.08175],[-1.487481,52.08651],[-1.48496,52.08699],[-1.483341,52.09265],[-1.479441,52.09279],[-1.476403,52.10014],[-1.467634,52.09607],[-1.446707,52.09677],[-1.447161,52.10556],[-1.451219,52.1134],[-1.4499482001663027,52.11414857152978],[-1.4456557645993724,52.114660558304266],[-1.44308,52.11425],[-1.4279601880009498,52.11677122509097],[-1.4245759488405105,52.11717488535909],[-1.418269,52.11599],[-1.405124,52.10947],[-1.402614,52.10481],[-1.388773,52.09683],[-1.385728,52.0932],[-1.377399,52.09509],[-1.3752273832826913,52.097408741546424],[-1.3683881839791878,52.099211213281144],[-1.357134,52.10057],[-1.358101,52.10553],[-1.36472,52.11215],[-1.368852,52.11336],[-1.370365,52.11838],[-1.374731,52.1193],[-1.390478,52.11782],[-1.3910427710419209,52.11981944110478],[-1.3908447682064717,52.12005014061099],[-1.38846,52.1213],[-1.3867151026392133,52.124248000107265],[-1.382261660778333,52.126714855039424],[-1.382157,52.12671],[-1.365438,52.13521],[-1.362935,52.13381],[-1.347935,52.13454],[-1.348261,52.1408],[-1.340053,52.14473],[-1.341789,52.15396],[-1.337774,52.15772],[-1.333092,52.1587],[-1.3317548922018998,52.16686537488621],[-1.318386,52.15257],[-1.309192,52.14286],[-1.27723,52.11614],[-1.2505007763946587,52.098707897648694],[-1.249783346909858,52.097894468917204],[-1.250163,52.09692],[-1.254846,52.09661],[-1.272591,52.0988],[-1.30804,52.09326],[-1.317012,52.09075],[-1.322061,52.08747],[-1.321386,52.08127],[-1.318647,52.07902],[-1.301435,52.07893],[-1.300186,52.07769],[-1.307685,52.07096],[-1.307209,52.06941],[-1.302509,52.06851],[-1.302353,52.06667],[-1.30867,52.06475],[-1.30888,52.05756],[-1.313876,52.05107],[-1.307875,52.04633],[-1.302529936926808,52.04481108225099],[-1.3005785610180542,52.043606164757044],[-1.29615,52.03946],[-1.2952161398460238,52.03728830205428],[-1.295571,52.03592],[-1.2933800255956422,52.03150139920311],[-1.295214,52.02756],[-1.287231,52.02563],[-1.285545,52.02408],[-1.285342,52.02047],[-1.279519,52.01421],[-1.279999,52.01265],[-1.2810457239839557,52.012349741486084],[-1.284686,52.01296],[-1.288343,52.01097],[-1.28726,52.00902],[-1.2795743267236792,52.007320543416895],[-1.27877,52.00591],[-1.284341,51.99983],[-1.285666,51.99466],[-1.284372,51.99231],[-1.289864,51.98975],[-1.284029,51.97875],[-1.28205,51.97846],[-1.279397,51.98143],[-1.271231,51.98193],[-1.260728,51.97994],[-1.249102,51.98462],[-1.241747,51.9851],[-1.229672,51.98036],[-1.195893,51.9765],[-1.1954809327868805,51.97680381756236],[-1.1807395927706035,51.9809559846071],[-1.175434,51.98126],[-1.163405,51.9922],[-1.156439,51.99128],[-1.151548,51.9931],[-1.1449868028237586,51.99555529869981],[-1.1405912010245112,51.996215464176544],[-1.13358,51.99665],[-1.117085,52.01534],[-1.1172099848375558,52.015475258271124],[-1.1074748472364335,52.01383646186027],[-1.107442,52.01371],[-1.100902,52.01273],[-1.098541,52.0152],[-1.090266,52.00627],[-1.087479,52.00599],[-1.087308,52.00627],[-1.0865511856652887,52.00635632863134],[-1.0746784703713579,52.00663223885706],[-1.074559,52.00648],[-1.0727683687136818,52.00667662774085],[-1.058423,52.00701],[-1.058937,52.00463],[-1.0579488066721903,52.00388553148398],[-1.057822,52.00305],[-1.054475914683318,52.00225915668962],[-1.079419,51.97978],[-1.078164,51.97926],[-1.0835934472728954,51.97218005698674],[-1.084086,51.97202],[-1.0840153673164017,51.97162987761966],[-1.0897186626594897,51.964192839559],[-1.090351,51.96377],[-1.095158,51.9571],[-1.088721,51.95552],[-1.089407,51.95388]]],[[[-1.1176360642813363,52.01554698375584],[-1.118135,52.01543],[-1.1176360642813419,52.01554698375584],[-1.1176360642813363,52.01554698375584]]]]}}
