{"type":"Feature","properties":{"sourceId":"okanagan-admreg"},"geometry":{"type":"Polygon","coordinates":[[[-117.3038,52.19246],[-117.1747,51.99926],[-117.019,51.94696],[-116.8259,51.77209],[-116.9769,51.75679],[-117.4809,51.74489],[-117.4919,50.88268],[-117.4808,50.87932],[-117.4557,50.84898],[-117.4471,50.82448],[-117.3827,50.76643],[-117.3771,50.71059],[-117.3551,50.72418],[-117.3113,50.73841],[-117.2634,50.74992],[-117.2403,50.73939],[-117.267,50.66894],[-117.2145,50.64717],[-117.2749,50.56874],[-117.2178,50.51517],[-117.2748,50.50349],[-117.3355,50.48263],[-117.4526,50.47619],[-117.5108,50.45849],[-117.5561,50.48253],[-117.637,50.53231],[-117.6785,50.53023],[-117.7734,50.54398],[-117.8481,50.52554],[-117.9889,50.52674],[-118.0436,50.64772],[-118.0768,50.66589],[-118.0792,50.687],[-118.1229,50.67829],[-118.2064,50.68417],[-118.2112,50.67976],[-118.1693,50.6703],[-118.1885,50.64783],[-118.1598,50.61266],[-118.1593,50.59021],[-118.1789,50.55053],[-118.2036,50.54376],[-118.1899,50.50819],[-118.1645,50.49727],[-118.1892,50.47521],[-118.2097,50.47723],[-118.2162,50.47127],[-118.2013,50.4622],[-118.2033,50.4316],[-118.263,50.43324],[-118.2517,50.39911],[-118.2843,50.37963],[-118.2908,50.3448],[-118.2531,50.3402],[-118.239,50.30074],[-118.2671,50.27267],[-118.2266,50.20679],[-118.2452,50.16634],[-118.2925,50.09394],[-118.39,50.07212],[-118.3966,50.032],[-118.4309,50.03024],[-118.4072,49.97397],[-118.4014,49.93133],[-118.3482,49.89729],[-118.3712,49.83931],[-118.2816,49.80875],[-119.0414,49.81107],[-119.0701,49.79113],[-119.1118,49.79628],[-119.1193,49.80127],[-119.1272,49.82337],[-119.1514,49.82314],[-119.1512,49.78686],[-119.1514,49.7633],[-119.1646,49.75709],[-119.1974,49.7572],[-119.1984,49.75283],[-119.211,49.74467],[-119.2579,49.7368],[-119.2905,49.71782],[-119.3,49.70672],[-119.3255,49.6949],[-119.3713,49.67724],[-119.3668,49.6598],[-119.3462,49.63273],[-119.3393,49.60248],[-119.3301,49.55528],[-119.3091,49.53323],[-119.2995,49.52298],[-119.2978,49.50158],[-119.2981,49.38707],[-119.2847,49.39086],[-119.2408,49.38126],[-119.236,49.37053],[-119.2508,49.34727],[-119.1979,49.34548],[-119.2023,49.32333],[-119.1684,49.3099],[-119.1742,49.29737],[-119.2106,49.27968],[-119.2329,49.24405],[-119.2085,49.22388],[-119.1704,49.21827],[-119.1804,49.2019],[-119.2113,49.19427],[-119.2504,49.1624],[-119.2583,49.14534],[-119.2779,49.1341],[-119.2645,49.11119],[-119.2875,49.09748],[-119.2868,49.08848],[-119.2995,49.08084],[-119.3003,49.00793],[-119.2943,49.00757],[-119.2951,48.99463],[-120.84700000526536,48.99456013505668],[-120.8474,49.00482],[-120.8397,49.04124],[-120.8846,49.08016],[-120.9179,49.08916],[-120.9488,49.09635],[-120.8664,49.11366],[-120.8455,49.13298],[-120.8884,49.17093],[-120.8754,49.17766],[-120.8906,49.19079],[-120.8611,49.20291],[-120.8429,49.21883],[-120.8139,49.24865],[-120.8077,49.29334],[-120.851,49.34481],[-120.9483,49.35789],[-120.9991,49.33799],[-121.0438,49.33541],[-121.0568,49.33787],[-121.0704,49.33172],[-121.0797,49.32861],[-121.0913,49.34229],[-121.0818,49.34604],[-121.072,49.35387],[-121.0966,49.35443],[-121.0961,49.43375],[-121.0494,49.47147],[-121.0652,49.51496],[-121.0381,49.52699],[-121.0257,49.58022],[-120.9526,49.61049],[-120.96481129987563,49.6393548206509],[-120.9626,49.64157],[-120.9684,49.67957],[-120.9758,49.69087],[-120.9502,49.71668],[-120.9341,49.71637],[-120.9348,49.72337],[-120.9323,49.72715],[-120.916,49.73266],[-120.9171,49.74568],[-120.9218,49.74968],[-120.9259,49.75414],[-120.9203,49.75914],[-120.9175,49.75981],[-120.8322,49.76032],[-120.8313,49.76393],[-120.7729,49.76388],[-120.7718,49.76059],[-120.7617,49.76017],[-120.761,49.74985],[-120.7045,49.74988],[-120.6933,49.75051],[-120.6022,49.74978],[-120.6021,49.77021],[-120.5894,49.77309],[-120.4906,49.77315],[-120.4919,49.77971],[-120.4411,49.81583],[-120.4263,49.8402],[-120.3752,49.89082],[-120.3726,49.90299],[-120.3421,49.91325],[-120.3216,49.91318],[-120.3129,49.90164],[-120.2936,49.90182],[-120.28,49.90069],[-120.2697,49.89038],[-120.2584,49.88612],[-120.2445,49.87901],[-120.243,49.87536],[-120.2323,49.84927],[-120.199,49.86455],[-120.1731,49.85716],[-120.1692,49.8648],[-120.1471,49.85898],[-120.1227,49.84933],[-120.0703,49.84905],[-120.061,49.8745],[-120.0445,49.9068],[-119.993,49.94371],[-119.9535,49.92691],[-119.8869,49.96977],[-119.8681,49.96886],[-119.8354,50.00134],[-119.8042,50.00862],[-119.8135,50.03509],[-119.774,50.04898],[-119.7678,50.08843],[-119.7434,50.10605],[-119.7874,50.11441],[-119.8382,50.18218],[-119.796,50.21119],[-119.7551,50.20811],[-119.7705,50.23645],[-119.7585,50.25961],[-119.7156,50.32015],[-119.6573,50.39911],[-119.6669,50.48547],[-119.659,50.58498],[-119.5464,50.58847],[-119.5464,50.75297],[-119.4901,50.7686],[-119.5175,50.82763],[-119.5628,50.85451],[-119.6449,50.82611],[-119.6758,50.86058],[-119.7266,50.98804],[-119.5628,50.99561],[-119.5553,51.09231],[-119.4379,51.27395],[-119.0176,51.47796],[-119.0369,51.9358],[-118.8144,52.20593],[-118.6716,52.18572],[-118.5974,52.29672],[-118.3502,52.39069],[-118.2486,52.4041],[-117.9563,52.57309],[-117.6814,52.37979],[-117.3038,52.19246]]]}}
