{"type":"Feature","properties":{"sourceId":"oberfranken"},"geometry":{"type":"Polygon","coordinates":[[[10.76823,50.24375],[10.78059,50.25308],[10.80179,50.25291],[10.83029,50.24073],[10.84747,50.25889],[10.84172,50.27059],[10.80952,50.27618],[10.76961,50.29142],[10.71287,50.32081],[10.70995,50.3551],[10.71193,50.36501],[10.73879,50.36463],[10.7527,50.35954],[10.76211,50.3714],[10.78428,50.38669],[10.82977,50.39413],[10.87586,50.3984],[10.90248,50.38884],[10.93512,50.39431],[10.96496,50.37722],[10.96684,50.36868],[10.98754,50.35115],[10.99239,50.36735],[11.03586,50.36321],[11.05273,50.34849],[11.07439,50.35641],[11.0897,50.36806],[11.11104,50.37001],[11.13878,50.35423],[11.14473,50.34447],[11.16168,50.33149],[11.16323,50.32568],[11.16048,50.32338],[11.13559,50.3099],[11.14782,50.28758],[11.1598,50.29127],[11.18706,50.28141],[11.19635,50.29389],[11.2479,50.27294],[11.25364,50.27907],[11.24957,50.30051],[11.25824,50.33844],[11.25931,50.35445],[11.27181,50.37773],[11.26236,50.3863],[11.25704,50.39993],[11.2633,50.43881],[11.24425,50.44925],[11.24185,50.47969],[11.25652,50.48288],[11.30103,50.48951],[11.31884,50.49132],[11.31827,50.50829],[11.34496,50.52245],[11.36879,50.52571],[11.39377,50.52339],[11.42646,50.51707],[11.43157,50.51357],[11.44552,50.49771],[11.42235,50.48078],[11.42552,50.46166],[11.42261,50.44397],[11.48428,50.43321],[11.49624,50.40289],[11.52165,50.3973],[11.52504,50.37881],[11.57113,50.40135],[11.59358,50.40447],[11.60547,50.40023],[11.62126,50.39022],[11.67872,50.39738],[11.691,50.39615],[11.69679,50.40031],[11.71017,50.4061],[11.71452,50.39922],[11.74082,50.41073],[11.75172,50.41721],[11.78433,50.42104],[11.8004,50.41813],[11.81721,50.40259],[11.82674,50.40536],[11.83223,50.39689],[11.86526,50.40749],[11.88206,50.41642],[11.91776,50.42596],[11.93553,50.42498],[11.94669,50.41776],[11.9851,50.39046],[11.9878,50.35365],[11.9972,50.35431],[12.01621,50.34806],[12.04638,50.33382],[12.09226,50.33346],[12.100948731678036,50.3275938412851],[12.08863,50.32711],[12.12747,50.2782],[12.08955,50.26664],[12.08477,50.24345],[12.18123,50.18968],[12.1892,50.10537],[12.24924,50.05312],[12.259632942747247,50.04881197127221],[12.25934,50.04761],[12.24974,50.04233],[12.24828,50.03843],[12.2441,50.03491],[12.22073,50.03196],[12.20575,50.03267],[12.20044,50.03065],[12.20006,50.02393],[12.20327,50.01695],[12.20123,50.01373],[12.20276,50.00794],[12.19765,50.00289],[12.19995,49.99834],[12.19464,49.99556],[12.18835,49.99817],[12.14962,49.99134],[12.14665,49.98519],[12.13789,49.98748],[12.12745,49.98623],[12.11094,49.97963],[12.10934,49.97552],[12.09399,49.97375],[12.07502,49.98313],[12.07436,49.98737],[12.07626,49.99147],[12.07175,49.9926],[12.0511,49.97781],[12.03585,49.9845],[12.03057,49.98325],[12.02664,49.97848],[12.02249,49.98223],[12.01815,49.98288],[12.0078,49.97944],[11.99141,49.98027],[11.98486,49.97831],[11.97767,49.98106],[11.96738,49.97666],[11.91476,49.96875],[11.90659,49.97362],[11.90228,49.96862],[11.87322,49.96392],[11.86956,49.95927],[11.86526,49.95798],[11.85709,49.95895],[11.85105,49.95658],[11.84804,49.95904],[11.83368,49.95903],[11.82933,49.96093],[11.8158,49.95857],[11.81424,49.95305],[11.81603,49.94821],[11.82132,49.94583],[11.82266,49.94069],[11.81822,49.93835],[11.81731,49.93462],[11.81952,49.93388],[11.82144,49.93715],[11.82615,49.93776],[11.82964,49.93578],[11.83663,49.92141],[11.83692,49.91748],[11.84004,49.91418],[11.83864,49.91048],[11.84108,49.90698],[11.83733,49.90184],[11.84164,49.90045],[11.84309,49.89623],[11.84708,49.89732],[11.85665,49.89304],[11.85541,49.88492],[11.84404,49.87884],[11.84748,49.87594],[11.84607,49.86537],[11.85453,49.85903],[11.86003,49.85774],[11.86383,49.85254],[11.86278,49.84956],[11.85479,49.84515],[11.84866,49.84863],[11.84447,49.8478],[11.83756,49.84977],[11.83725,49.84466],[11.83019,49.84314],[11.82867,49.84034],[11.82505,49.83965],[11.82025,49.84282],[11.80676,49.84621],[11.80538,49.8433],[11.79832,49.83815],[11.78516,49.83395],[11.76962,49.83908],[11.76657,49.83486],[11.7612,49.83285],[11.75844,49.83567],[11.75208,49.83568],[11.74658,49.83835],[11.74101,49.83635],[11.74006,49.83319],[11.72935,49.82981],[11.72878,49.82628],[11.72442,49.8248],[11.72627,49.81991],[11.72439,49.81658],[11.70358,49.81714],[11.70151,49.81384],[11.70203,49.80681],[11.69991,49.80496],[11.69911,49.80043],[11.69174,49.80094],[11.68564,49.80377],[11.679,49.80341],[11.67319,49.80785],[11.65904,49.80015],[11.64992,49.80304],[11.64649,49.80236],[11.64396,49.80433],[11.63693,49.80198],[11.63664,49.80033],[11.64044,49.79922],[11.64251,49.79617],[11.63696,49.7906],[11.63195,49.77989],[11.63488,49.75977],[11.62024,49.75802],[11.60987,49.75375],[11.59871,49.75212],[11.60092,49.74533],[11.59953,49.73822],[11.59688,49.73392],[11.59359,49.73327],[11.58803,49.72682],[11.5773,49.72483],[11.5696,49.72572],[11.56585,49.73001],[11.55911,49.73085],[11.5665,49.72278],[11.56451,49.71672],[11.563590887283832,49.71562405087051],[11.56331,49.7166],[11.55621,49.71726],[11.55225,49.69961],[11.53778,49.69353],[11.55474,49.67313],[11.55483,49.65923],[11.55769,49.65261],[11.54036,49.64682],[11.51261,49.65052],[11.50339,49.64968],[11.47352,49.64652],[11.45979,49.63613],[11.42918,49.62938],[11.41462,49.6264],[11.3983,49.63756],[11.38917,49.65469],[11.3806,49.66705],[11.37728,49.67087],[11.36318,49.66866],[11.34474,49.66311],[11.3346,49.65189],[11.33017,49.64383],[11.29671,49.63111],[11.285,49.61905],[11.28205,49.60681],[11.26371,49.60788],[11.25809,49.60567],[11.25366,49.59904],[11.23744,49.59982],[11.22665,49.60961],[11.21928,49.61224],[11.21199,49.60687],[11.20665,49.60245],[11.19844,49.59378],[11.18895,49.59115],[11.16756,49.59121],[11.15355,49.59115],[11.14429,49.59403],[11.10778,49.60248],[11.08301,49.62766],[11.06659,49.6599],[11.05616,49.68403],[11.01522,49.68555],[10.97128,49.69202],[10.93957,49.70264],[10.93164,49.70741],[10.95764,49.71027],[10.96667,49.71742],[10.94584,49.72851],[10.93865,49.74733],[10.93477,49.76603],[10.93828,49.78413],[10.93035,49.78949],[10.86766,49.77282],[10.83116,49.75377],[10.81088,49.74233],[10.78488,49.76544],[10.72902,49.78842],[10.71205,49.79103],[10.66559,49.75782],[10.69712,49.73887],[10.66301,49.72684],[10.64568,49.74209],[10.549704884871078,49.75782330463119],[10.54953,49.75864],[10.55258,49.76423],[10.55179,49.76684],[10.53784,49.76996],[10.53443,49.7809],[10.52751,49.78187],[10.52287,49.78477],[10.5272,49.79227],[10.51707,49.79479],[10.51615,49.79982],[10.50969,49.79697],[10.5068,49.79374],[10.4972,49.7903],[10.49448,49.78621],[10.49032,49.78466],[10.47825,49.78336],[10.46923,49.78453],[10.46534,49.78728],[10.46475,49.7927],[10.47611,49.79905],[10.48096,49.80555],[10.47864,49.80847],[10.47487,49.80475],[10.46835,49.80753],[10.46055,49.80675],[10.44719,49.81778],[10.44526,49.82428],[10.45535,49.83656],[10.44504,49.84134],[10.43993,49.84114],[10.43816,49.8453],[10.44746,49.8568],[10.45129,49.87328],[10.45481,49.87402],[10.45849,49.88047],[10.50139,49.87359],[10.50584,49.87914],[10.52054,49.87609],[10.53214,49.87874],[10.54361,49.87849],[10.54929,49.88349],[10.55726,49.8835],[10.56114,49.87892],[10.55821,49.87592],[10.55995,49.87144],[10.56735,49.87053],[10.57153,49.87543],[10.57921,49.87479],[10.58159,49.87196],[10.5798,49.86354],[10.58405,49.86173],[10.58963,49.87208],[10.5947,49.87496],[10.60784,49.87741],[10.60966,49.87512],[10.60736,49.86949],[10.59865,49.86107],[10.59953,49.85803],[10.60306,49.85742],[10.62761,49.86581],[10.63073,49.87574],[10.64006,49.88084],[10.65044,49.88355],[10.65296,49.88556],[10.65271,49.88936],[10.65644,49.89206],[10.669,49.89198],[10.67112,49.88888],[10.67872,49.88929],[10.68298,49.88605],[10.68784,49.88927],[10.68341,49.89218],[10.68504,49.89792],[10.6925,49.90176],[10.69452,49.90464],[10.68947,49.91181],[10.69274,49.91759],[10.69662,49.92054],[10.70311,49.92167],[10.70635,49.9267],[10.71137,49.9257],[10.71451,49.92709],[10.71456,49.9334],[10.73013,49.93841],[10.73696,49.9462],[10.72691,49.95396],[10.72341,49.95279],[10.71993,49.9547],[10.71966,49.95748],[10.72927,49.96452],[10.743,49.96321],[10.75208,49.96424],[10.75804,49.97081],[10.74753,49.98035],[10.74614,49.98596],[10.7387,49.9915],[10.75264,49.99551],[10.76203,50.00201],[10.76376,50.01084],[10.75183,50.01137],[10.74861,50.02103],[10.75287,50.02482],[10.75806,50.02626],[10.76864,50.02632],[10.77069,50.03175],[10.77062,50.03806],[10.77451,50.04014],[10.77477,50.04422],[10.78233,50.04829],[10.79277,50.04892],[10.79575,50.04644],[10.799,50.04636],[10.80165,50.04242],[10.80761,50.03958],[10.82114,50.04121],[10.8225,50.04457],[10.83319,50.04871],[10.83015,50.05237],[10.8306,50.05722],[10.83367,50.06114],[10.83005,50.06495],[10.83547,50.07052],[10.83569,50.07445],[10.84379,50.07807],[10.8534,50.07571],[10.85788,50.07658],[10.85784,50.08074],[10.85984,50.08364],[10.85734,50.08765],[10.85869,50.09336],[10.85416,50.10376],[10.85735,50.11671],[10.86048,50.11919],[10.85958,50.12497],[10.86822,50.12876],[10.8687,50.13711],[10.87602,50.14207],[10.87613,50.14367],[10.87324,50.14599],[10.86007,50.14894],[10.85257,50.15547],[10.84692,50.15333],[10.8489,50.15029],[10.84866,50.14629],[10.84206,50.14217],[10.83773,50.1447],[10.82426,50.14437],[10.81996,50.14651],[10.81193,50.14437],[10.80922,50.14666],[10.80525,50.14472],[10.80468,50.13938],[10.79331,50.13947],[10.79061,50.14094],[10.79096,50.14406],[10.78838,50.14623],[10.7833,50.14458],[10.7762,50.14771],[10.77096,50.16597],[10.77364,50.17544],[10.7789,50.17913],[10.77717,50.18341],[10.77753,50.19171],[10.77083,50.19551],[10.76921,50.20068],[10.76261,50.20753],[10.75261,50.21184],[10.75634,50.22198],[10.72607,50.22897],[10.72571,50.23767],[10.72398,50.24096],[10.72645,50.24421],[10.7248,50.24684],[10.72388,50.24847],[10.73188,50.25505],[10.76823,50.24375]]]}}
