{"type":"Feature","properties":{"sourceId":"ostlandet"},"geometry":{"type":"Polygon","coordinates":[[[12.14959,61.72825],[12.42191,61.57306],[12.57219,61.57754],[12.88071,61.3548],[12.84179,61.25239],[12.7973,61.18986],[12.71589,61.13685],[12.68647,61.05076],[12.61021,61.03643],[12.44873,61.0412],[12.24101,61.00879],[12.34125,60.89558],[12.34439,60.85482],[12.40304,60.74056],[12.51864,60.65038],[12.52748,60.60581],[12.58923,60.5579],[12.61609,60.51648],[12.61519,60.40201],[12.50963,60.31796],[12.55164,60.19109],[12.48779,60.06616],[12.34625,59.95708],[12.23547,59.91854],[12.17607,59.87998],[12.05171,59.87609],[11.98281,59.88984],[11.86867,59.83895],[11.93472,59.79909],[11.95334,59.69335],[11.89337,59.68346],[11.85931,59.6391],[11.72516,59.61642],[11.702,59.59006],[11.76264,59.4827],[11.78914,59.39131],[11.82603,59.3465],[11.83969,59.24041],[11.79291,59.20271],[11.77661,59.11912],[11.79076,59.09613],[11.71892,59.02655],[11.69777,58.95189],[11.65918,58.89926],[11.57292,58.87791],[11.55471,58.88761],[11.53294,58.86802],[11.4492,58.88278],[11.44648,58.9922],[11.33901,59.10435],[11.15899,59.06885],[11.12502,59.00889],[11.06991,58.96802],[10.64631,58.88345],[10.59518,58.75149],[10.41882,58.65681],[9.792557176158635,58.60694840281863],[9.372626,58.76717],[9.368137,58.76985],[9.366059,58.77214],[9.354484,58.77716],[9.328616,58.78567],[9.320378,58.78278],[9.312503,58.77473],[9.305413,58.77275],[9.304047,58.77454],[9.286237,58.7884],[9.274996,58.79612],[9.231107,58.79649],[9.197734,58.80365],[9.208764,58.81326],[9.192894,58.81479],[9.191079,58.84552],[9.18365,58.86261],[9.167416,58.87956],[9.161095,58.88532],[9.133385,58.8933],[9.094384,58.90584],[9.051696,58.92517],[9.03542,58.93288],[9.014051,58.96569],[9.008703,58.98151],[8.995167,58.99367],[8.955424,58.98894],[8.939551,58.98657],[8.833909,58.98853],[8.831362,58.97821],[8.821501,58.97016],[8.76125,58.94875],[8.753571,58.94273],[8.761031,58.93704],[8.812621,58.91746],[8.829679,58.91251],[8.817284,58.90618],[8.814168,58.90298],[8.810391,58.89319],[8.797199,58.8846],[8.780264,58.86771],[8.791126,58.86438],[8.787792,58.86229],[8.789019,58.85534],[8.78563,58.84387],[8.744052,58.83193],[8.731923,58.83977],[8.723745,58.85061],[8.654598,58.86955],[8.656878,58.87308],[8.653458,58.87792],[8.642077,58.88494],[8.640419,58.88876],[8.639502,58.89172],[8.633544,58.89329],[8.616957,58.90937],[8.610078,58.91457],[8.587108,58.92252],[8.575806,58.93187],[8.532643,58.91867],[8.502421,58.90833],[8.476162,58.88755],[8.446768,58.89691],[8.4339,58.89947],[8.431466,58.90214],[8.420929,58.90382],[8.419909,58.90594],[8.384713,58.91392],[8.340989,58.91716],[8.326664,58.91699],[8.310885,58.91981],[8.308356,58.92681],[8.294563,58.93699],[8.279857,58.94221],[8.270232,58.94814],[8.22668,58.96375],[8.22298,58.97068],[8.173517,58.98278],[8.158636,58.98196],[8.127655,58.98623],[8.097199,58.97581],[8.07897,58.97254],[8.088837,58.96465],[8.133889,58.96287],[8.135657,58.96131],[8.121448,58.9554],[8.097069,58.95228],[8.09131,58.94902],[8.078127,58.95032],[8.055418,58.95062],[8.036945,58.95452],[8.009797,58.96512],[7.994602,58.96374],[7.985543,58.96216],[7.968652,58.96778],[7.96464,58.97449],[7.942783,58.98716],[7.938072,58.99783],[7.941268,59.00568],[7.913156,59.00908],[7.903279,59.02587],[7.878258,59.04691],[7.868618,59.06033],[7.848114,59.07773],[7.82999,59.09041],[7.806071,59.11731],[7.7856,59.12437],[7.769799,59.13521],[7.756277,59.13974],[7.756167,59.13978],[7.756036,59.13982],[7.742993,59.14419],[7.7318,59.1641],[7.736521,59.17012],[7.7502,59.19461],[7.744654,59.19848],[7.750113,59.20743],[7.763046,59.21388],[7.775328,59.21354],[7.781389,59.22071],[7.776364,59.22312],[7.760725,59.22906],[7.746294,59.2518],[7.725902,59.26105],[7.7168,59.29018],[7.696963,59.32695],[7.67358,59.33303],[7.643321,59.33419],[7.624992,59.33267],[7.612334,59.34376],[7.613362,59.34856],[7.597552,59.36611],[7.596158,59.37697],[7.571539,59.3875],[7.540941,59.39899],[7.545097,59.40438],[7.57445,59.42288],[7.574557,59.42294],[7.574606,59.42298],[7.578031,59.42624],[7.584171,59.4339],[7.574679,59.43865],[7.626529,59.46175],[7.59547,59.47903],[7.585314,59.50155],[7.537073,59.52428],[7.51554,59.56139],[7.554474,59.5872],[7.537651,59.60353],[7.485122,59.63756],[7.44152,59.66132],[7.399292,59.66132],[7.387619,59.63582],[7.340927,59.64918],[7.303848,59.6589],[7.211837,59.67468],[7.206475310941472,59.67380885460003],[7.173866,59.68566],[7.10924,59.70044],[7.11541,59.71403],[7.109563,59.76323],[7.095391,59.78281],[7.144518,59.81191],[7.13974,59.82221],[7.138023,59.85223],[7.148769,59.87405],[7.145637,59.88125],[7.184016,59.91903],[7.232113,59.96292],[7.260933,59.98611],[7.428817,60.01924],[7.441841,60.05751],[7.462693,60.07857],[7.487486,60.09916],[7.608917,60.24426],[7.693132,60.42639],[7.731128,60.52073],[7.672586,60.53706],[7.638774,60.55939],[7.635333,60.56643],[7.634708,60.56742],[7.632268,60.5716],[7.631261,60.57476],[7.620815,60.59614],[7.634875,60.63267],[7.546047,60.65697],[7.465695,60.65938],[7.441117,60.65998],[7.438842,60.66004],[7.43911,60.66017],[7.438012,60.66021],[7.504244,60.69455],[7.614204,60.74456],[7.687682,60.73869],[7.720693,60.78975],[7.704874,60.7927],[7.704432,60.79277],[7.704442,60.79278],[7.703602,60.79294],[7.739524,60.83554],[7.802208,60.89691],[7.850885,60.92023],[7.879475,60.92443],[7.913735,60.90996],[7.935541,60.89773],[7.980188,60.90208],[8.040456,60.89373],[8.13962,60.97956],[8.234814,61.01404],[8.266983,61.02109],[8.28151,61.03322],[8.205383,61.05239],[8.238372,61.0729],[8.125076,61.10477],[8.095397,61.1346],[8.072204,61.17603],[8.041992,61.17305],[8.00352,61.2349],[8.107593,61.26807],[8.216399,61.33486],[8.149795,61.36449],[8.149469,61.42679],[8.192121,61.43922],[8.302923,61.4788],[8.286759,61.48937],[8.261584,61.53367],[8.195652,61.54731],[8.108138,61.51588],[7.944564,61.5551],[7.894754,61.64362],[7.897684,61.72016],[7.684868,61.74233],[7.513052,61.72715],[7.49073,61.77822],[7.407842,61.85533],[7.387904,61.93303],[7.398092,61.97792],[7.39252,61.9924],[7.367206,62.00253],[7.348211,62.00765],[7.351806,62.02913],[7.341673,62.03555],[7.394485,62.05903],[7.402725,62.08717],[7.41412,62.0924],[7.450759,62.0885],[7.485604,62.08996],[7.514613,62.09782],[7.554638,62.06986],[7.617988,62.08508],[7.578593,62.1221],[7.734038,62.18496],[7.827553,62.19009],[7.864341,62.17121],[7.983058,62.17784],[8.079385,62.25206],[8.093493,62.25912],[8.10979,62.27459],[8.118553,62.28102],[8.128899,62.28581],[8.130486,62.29088],[8.143777,62.2971],[8.205211,62.33204],[8.274947,62.34839],[8.389074,62.36427],[8.625844,62.37418],[8.79268,62.37882],[8.890006,62.37587],[8.919569,62.35387],[8.931806,62.35361],[8.971019,62.35431],[9.05555860487135,62.37165778134136],[9.097088,62.36271],[9.601641,62.25533],[9.797834,62.28726],[9.84066,62.30321],[9.855601,62.33084],[9.854799,62.33214],[9.842309,62.33982],[9.822508,62.34312],[9.8397,62.36148],[9.90062,62.34399],[9.935046,62.35509],[9.954276,62.38134],[9.952736,62.39694],[10.09841,62.42765],[10.03938,62.50332],[10.01192,62.55644],[10.03959,62.56761],[10.02895,62.57844],[10.03966,62.58947],[10.07493,62.60169],[10.1368,62.66954],[10.16358,62.68573],[10.17315,62.69232],[10.19249,62.68616],[10.23883,62.69466],[10.32497,62.69488],[10.5943,62.66335],[10.59607,62.66376],[10.59742,62.66376],[10.61832,62.6689],[10.65277,62.67135],[10.71731,62.64995],[10.74031,62.64505],[10.79299,62.67878],[10.8515,62.69245],[10.92441,62.69508],[11.04354,62.66644],[11.12385,62.6613],[11.12614,62.65626],[11.12966,62.64888],[11.15995,62.64712],[11.165,62.61923],[11.16126,62.61535],[11.19513,62.59434],[11.19431,62.56991],[11.2141,62.56997],[11.24307,62.56645],[11.24433,62.55969],[11.24376,62.54403],[11.25336,62.53223],[11.28156,62.52857],[11.29736,62.52357],[11.29776,62.52231],[11.29772,62.52229],[11.29771,62.52219],[11.29779,62.52213],[11.29782,62.52212],[11.29803,62.52148],[11.30638,62.51945],[11.33587,62.51318],[11.37037,62.49344],[11.42834,62.47951],[11.44585,62.47005],[11.46471,62.44903],[11.51553,62.41207],[11.52998,62.3886],[11.55474,62.36857],[11.67106,62.38132],[11.67349,62.37734],[11.68379,62.36586],[11.68619,62.34849],[11.72378,62.34618],[11.7334,62.34889],[11.73477,62.35805],[11.75383,62.36092],[11.77237,62.38003],[11.9775,62.35877],[11.9902,62.35224],[12.05955,62.34188],[12.10419,62.31741],[12.13062,62.30863],[12.16307,62.31166],[12.19517,62.32435],[12.25353,62.32722],[12.26702,62.32712],[12.26412506804931,62.33126991652234],[12.26413,62.33127],[12.30938,62.2664],[12.14959,61.72825]]]}}
