{"type":"Feature","properties":{"sourceId":"panama"},"geometry":{"type":"Polygon","coordinates":[[[-77.35418,8.637726],[-77.43473,8.514803],[-77.38116,8.46813],[-77.10767,7.926607],[-77.30148,7.866126],[-77.32735,7.756293],[-77.48306,7.553615],[-77.57836,7.488933],[-77.71408,7.666233],[-77.68524,7.498363],[-77.75727,7.44108],[-77.81199,7.437993],[-77.883,7.217441],[-77.99169,7.062519],[-78.06476,7.069657],[-83.46462,6.644027],[-82.9569,7.938631],[-82.90661,8.052771],[-82.89425,8.093222],[-82.9509,8.22984],[-83.05741,8.322679],[-83.05321,8.344671],[-82.93716,8.440112],[-82.8709,8.442489],[-82.84206,8.493086],[-82.84309,8.551146],[-82.84515,8.632619],[-82.92378,8.750723],[-82.92206,8.775493],[-82.88464,8.838259],[-82.85717,8.861666],[-82.72911,8.927131],[-82.94128,9.076332],[-82.937,9.474419],[-82.85494,9.500874],[-82.89116,9.53558],[-82.89047,9.572314],[-82.86181,9.625799],[-82.84447,9.624784],[-82.74061,9.592626],[-82.63916,9.504598],[-82.60706,9.507815],[-82.61,9.560361],[-82.56817,9.574322],[-81.54938,11.20708],[-77.08126,9.489029],[-77.24075,8.98275],[-77.35418,8.637726]]]}}
