{"type":"Feature","properties":{"sourceId":"peru"},"geometry":{"type":"Polygon","coordinates":[[[-79.93896,-19.68055],[-85.75169010710465,-3.7074362718704252],[-84.60572,-3.831359],[-80.3239,-3.397315],[-80.23556,-3.43443],[-80.2462,-3.465102],[-80.24895,-3.487891],[-80.22182,-3.515648],[-80.22235,-3.594505],[-80.20072,-3.604413],[-80.20246,-3.777631],[-80.17113,-3.808411],[-80.1699,-3.871611],[-80.14231,-3.896655],[-80.21005,-3.94141],[-80.23943,-3.939882],[-80.26968,-3.992631],[-80.29901,-4.006405],[-80.36462,-3.972282],[-80.44648,-3.985979],[-80.49105,-4.050793],[-80.49499,-4.086707],[-80.47537,-4.133353],[-80.45933,-4.138882],[-80.4584,-4.215326],[-80.43377,-4.207029],[-80.41048,-4.22813],[-80.3731,-4.212741],[-80.34543,-4.22772],[-80.4618,-4.376692],[-80.45804,-4.452678],[-80.38915,-4.498229],[-80.32426,-4.473982],[-80.28313,-4.44257],[-80.27561,-4.417349],[-80.25752,-4.419514],[-80.18846,-4.357867],[-80.17138,-4.310019],[-80.14296,-4.304095],[-80.06904,-4.319756],[-79.99598,-4.389971],[-79.95286,-4.408114],[-79.91839,-4.399745],[-79.87583,-4.422989],[-79.81633,-4.501387],[-79.7415,-4.492432],[-79.65292,-4.446455],[-79.63276,-4.449492],[-79.56792,-4.523691],[-79.49728,-4.534624],[-79.49828,-4.627274],[-79.47457,-4.655411],[-79.4297,-4.799447],[-79.40186,-4.839965],[-79.35917,-4.887401],[-79.2741,-4.973247],[-79.07765,-4.997968],[-79.021,-5.024173],[-79.00179,-5.013134],[-78.96575,-4.904815],[-78.88431,-4.902638],[-78.8821,-4.867677],[-78.88109,-4.80723],[-78.90188,-4.786167],[-78.88399,-4.773676],[-78.70992,-4.632908],[-78.63979,-4.58392],[-78.58246,-4.42172],[-78.52066,-4.064274],[-78.3902,-3.765595],[-78.32016,-3.417465],[-78.23915,-3.509268],[-78.18331,-3.509343],[-78.14143,-3.487365],[-78.13677,-3.462165],[-78.14802,-3.417232],[-78.17334,-3.403836],[-78.18371,-3.36829],[-78.10032,-3.284306],[-78.05988,-3.236032],[-78.00373,-3.197725],[-77.93523,-3.071951],[-77.83933,-3.009188],[-76.62641,-2.598907],[-76.03812,-2.132753],[-75.58003,-1.561244],[-75.55085,-1.568517],[-75.38516,-0.999729],[-75.16149,-0.995646],[-75.21246,-0.867826],[-75.21302,-0.629094],[-75.23273,-0.518582],[-75.45303,-0.315283],[-75.4743,-0.244833],[-75.5295,-0.178952],[-75.58051,-0.168862],[-75.59245,-0.179818],[-75.59614,-0.130563],[-75.56722,-0.141424],[-75.51821,-0.126834],[-75.46284,-0.161238],[-75.38123,-0.17843],[-75.28364,-0.161992],[-75.2680319372296,-0.1474148257308498],[-75.17878,-0.088644],[-74.93524,-0.261645],[-74.80471,-0.246448],[-74.75561,-0.368764],[-74.59968,-0.42635],[-74.4235,-0.60029],[-74.2988,-1.00479],[-74.05974,-1.092653],[-73.86455,-1.269477],[-73.66058,-1.303028],[-73.61118,-1.446961],[-73.52492,-1.539204],[-73.56064,-1.730462],[-73.32422,-1.862905],[-73.1897,-1.838197],[-73.14258,-2.099172],[-73.20431,-2.176102],[-73.19312,-2.266266],[-73.14122,-2.355974],[-72.99482,-2.399317],[-72.94984,-2.488746],[-72.78473,-2.44768],[-72.6755,-2.488927],[-72.60984,-2.418469],[-72.38061,-2.525948],[-72.20918,-2.484678],[-72.15181,-2.515926],[-72.04473,-2.390486],[-71.89839,-2.408254],[-71.76743,-2.227654],[-71.56493,-2.282545],[-71.51627,-2.384875],[-71.44455,-2.364635],[-71.39777,-2.446666],[-71.16611,-2.416983],[-71.09255,-2.323723],[-70.99168,-2.343805],[-70.8866,-2.274179],[-70.7158,-2.378589],[-70.64527,-2.509032],[-70.48742,-2.511983],[-70.36015,-2.608288],[-70.26883,-2.599969],[-70.24676,-2.671068],[-70.11025,-2.765576],[-70.74773,-3.807178],[-70.52778,-3.91615],[-70.32734,-3.848408],[-69.97372,-4.25732],[-69.9383147208609,-4.256969645765784],[-69.9345,-4.285131],[-69.93828,-4.317654],[-69.97639,-4.352915],[-70.04059,-4.380301],[-70.19577,-4.36387],[-70.29739,-4.293005],[-70.56793,-4.221791],[-70.79006,-4.212888],[-70.91503,-4.397759],[-71.31157,-4.472379],[-71.91651,-4.627072],[-72.79953,-5.177114],[-72.93686,-5.672016],[-73.18405,-6.107783],[-73.05222,-6.515907],[-73.66882,-6.916883],[-73.66882,-7.336587],[-73.88443,-7.513618],[-73.66745,-7.751815],[-73.33786,-8.435695],[-72.89292,-8.982748],[-73.022,-9.377256],[-72.72537,-9.39216],[-72.27768,-9.476153],[-72.12525,-9.797029],[-72.12662,-9.981022],[-71.3974,-9.97967],[-71.14197,-9.841684],[-70.61325,-9.416547],[-70.46494,-9.39758],[-70.57343,-10.86433],[-70.32101,-10.96454],[-69.5077,-10.86805],[-69.47475448733813,-10.923836988298065],[-69.52955,-10.93192],[-69.57779,-10.94237],[-68.67828,-12.49491],[-68.7703,-12.61086],[-68.9035,-12.8841],[-69.11225,-13.66467],[-68.93097,-14.13391],[-69.2482,-14.59156],[-69.36596,-14.79513],[-69.37592,-14.96469],[-69.29009,-15.11323],[-69.15756,-15.2292],[-69.44595,-15.58997],[-69.2125,-16.18962],[-69.10091,-16.23182],[-69.01199,-16.22588],[-68.97268,-16.1977],[-68.81287,-16.33464],[-68.99689,-16.41699],[-69.04264,-16.57154],[-69.02092,-16.65461],[-69.1761,-16.72433],[-69.21764,-16.81736],[-69.30897,-16.91067],[-69.40475,-17.01969],[-69.56543,-17.15719],[-69.65675,-17.29017],[-69.5759,-17.29533],[-69.47445,-17.37587],[-69.47423106076482,-17.52367974130289],[-69.675,-17.67107],[-69.76278,-17.68535],[-69.73692,-18.17643],[-70.11746,-18.33795],[-70.33458,-18.33444],[-73.78941,-20.30552],[-79.93896,-19.68055]]]}}
