{"type":"Feature","properties":{"sourceId":"picardie"},"geometry":{"type":"Polygon","coordinates":[[[1.7022623975806113,49.23200177034998],[1.7040871380217866,49.23464921544802],[1.702961,49.23606],[1.701417,49.24852],[1.703162,49.25149],[1.708659,49.25423],[1.711003,49.26209],[1.726521,49.26349],[1.736199,49.26822],[1.754019,49.26633],[1.758294,49.26177],[1.765499,49.25918],[1.766151,49.25107],[1.790545,49.24549],[1.791802,49.25458],[1.803956,49.27137],[1.803395,49.27428],[1.798712,49.27724],[1.79836,49.28946],[1.791461,49.28982],[1.784674,49.2944],[1.779514,49.29394],[1.777196,49.29552],[1.774302,49.31275],[1.769499,49.31923],[1.775672,49.33692],[1.770871,49.34078],[1.761635,49.35363],[1.762322,49.36665],[1.757314,49.37173],[1.750399,49.37293],[1.745437,49.3817],[1.738066,49.38431],[1.728883,49.39377],[1.729999,49.39856],[1.741002,49.40432],[1.741395,49.40642],[1.737139,49.40857],[1.719949,49.40715],[1.716993,49.41243],[1.717941,49.41568],[1.725427,49.42186],[1.724472,49.42585],[1.726022,49.4337],[1.734853,49.4406],[1.739152,49.44718],[1.752155,49.45162],[1.754586,49.45984],[1.776732,49.47053],[1.778396,49.47423],[1.776365,49.47971],[1.777493,49.48685],[1.781243,49.48941],[1.789053,49.48896],[1.791995,49.49788],[1.791211,49.50449],[1.788458,49.50744],[1.770418,49.51444],[1.765537,49.51216],[1.758655,49.51245],[1.753643,49.50621],[1.747608,49.50465],[1.746854,49.5008],[1.744466,49.49916],[1.736571,49.50239],[1.728789,49.50149],[1.722908,49.50601],[1.723997,49.51108],[1.736019,49.51754],[1.741957,49.51849],[1.740714,49.52347],[1.746987,49.53074],[1.749006,49.53902],[1.739741,49.5445],[1.730953,49.54255],[1.728063,49.54424],[1.727601,49.54785],[1.732059,49.55603],[1.731173,49.56165],[1.723628,49.56798],[1.71709,49.57692],[1.721185,49.58108],[1.723267,49.59021],[1.7207,49.59136],[1.711554,49.58925],[1.709721,49.59132],[1.709956,49.59549],[1.704948,49.59751],[1.703241,49.60035],[1.711466,49.61106],[1.718906,49.61401],[1.722708,49.62304],[1.720666,49.63314],[1.70917,49.63816],[1.70697,49.64297],[1.715365,49.65437],[1.722458,49.65782],[1.723506,49.66597],[1.72622,49.67115],[1.753206,49.67978],[1.752186,49.69567],[1.745541,49.69971],[1.743896,49.70355],[1.739629,49.70269],[1.723389,49.69504],[1.715422,49.68455],[1.707953,49.68302],[1.705057,49.68391],[1.694819,49.69398],[1.695447,49.69675],[1.705488,49.70466],[1.712743,49.70374],[1.714988,49.70544],[1.716889,49.71023],[1.714216,49.72446],[1.715143,49.7284],[1.723957,49.72905],[1.746885,49.73796],[1.743442,49.75044],[1.751114,49.76024],[1.766418,49.7553],[1.784608,49.75711],[1.787808,49.76242],[1.774061,49.77849],[1.760198,49.78266],[1.753087,49.79449],[1.748353,49.79778],[1.747149,49.80423],[1.737198,49.81033],[1.728929,49.82854],[1.727052,49.84532],[1.722974,49.84798],[1.72069,49.85312],[1.721033,49.8639],[1.714123,49.87202],[1.715521,49.87605],[1.713461,49.88144],[1.713639,49.88822],[1.703295,49.89443],[1.694709,49.89561],[1.685392,49.91187],[1.672747,49.92228],[1.665464,49.92328],[1.640023,49.9331],[1.623318,49.93636],[1.616068,49.94131],[1.605151,49.94417],[1.594791,49.95049],[1.588076,49.96061],[1.578353,49.96654],[1.576767,49.97383],[1.560592,49.97981],[1.547957,49.9884],[1.529129,49.99639],[1.523684,50.00445],[1.519907,50.00705],[1.516912,50.01322],[1.498946,50.02092],[1.492352,50.02098],[1.480052,50.02823],[1.471739,50.03594],[1.458312,50.03862],[1.456536,50.04102],[1.45781,50.04936],[1.456532,50.05544],[1.46033,50.0632],[1.450244,50.07107],[1.429247,50.07284],[1.423797,50.07695],[1.413786,50.07191],[1.414291,50.06594],[1.409339,50.05971],[1.404897,50.05841],[1.399972,50.06068],[1.397329,50.0653],[1.388499,50.06344],[1.381683,50.06581],[1.363678513925074,50.075435855963825],[1.535053,50.36567],[1.5583177440235632,50.367069450984246],[1.623514,50.36881],[1.627088,50.36632],[1.626358,50.35924],[1.641653,50.34967],[1.641035,50.34475],[1.64402,50.33836],[1.659471,50.33442],[1.6613,50.33075],[1.665421,50.32847],[1.676462,50.33119],[1.687152,50.33671],[1.693498,50.3366],[1.704707,50.3422],[1.728817,50.34484],[1.732487,50.34793],[1.740728,50.34966],[1.744527,50.35471],[1.759434,50.35674],[1.763335,50.36004],[1.803241,50.35839],[1.832096,50.34345],[1.841169,50.34431],[1.849193,50.34207],[1.858651,50.33392],[1.864176,50.33515],[1.869866,50.33246],[1.872236,50.32887],[1.871266,50.32353],[1.880835,50.31692],[1.893835,50.31681],[1.898653,50.31215],[1.908972,50.31013],[1.919734,50.31047],[1.927089,50.3197],[1.934742,50.32366],[1.939036,50.32892],[1.948358,50.32958],[1.952509,50.32823],[1.958552,50.32282],[1.960232,50.31711],[1.952647,50.31084],[1.933911,50.30297],[1.930411,50.29934],[1.940514,50.29331],[1.945306,50.28667],[1.952523,50.28452],[1.957775,50.28872],[1.960843,50.28885],[1.963953,50.28335],[1.968304,50.28079],[1.977907,50.28048],[2.010252,50.26663],[2.025713,50.26794],[2.04171,50.26127],[2.047116,50.25567],[2.056195,50.25328],[2.064286,50.25413],[2.070394,50.24907],[2.070926,50.24641],[2.063393,50.24133],[2.062224,50.23432],[2.065744,50.23158],[2.066496,50.22699],[2.069929,50.22478],[2.072452,50.21874],[2.074851,50.21756],[2.079131,50.21859],[2.082557,50.21557],[2.082307,50.2045],[2.085004,50.2001],[2.09378,50.20052],[2.097649,50.20416],[2.105086,50.20479],[2.11509,50.20201],[2.121236,50.20839],[2.128594,50.20867],[2.142927,50.20005],[2.14614,50.19141],[2.148908,50.18965],[2.160684,50.19391],[2.174016,50.20651],[2.182493,50.20843],[2.19272,50.20795],[2.214999,50.2161],[2.220034,50.21527],[2.221475,50.21298],[2.220455,50.20843],[2.223979,50.20697],[2.240691,50.21202],[2.246248,50.20984],[2.255844,50.2152],[2.269499,50.22677],[2.284971,50.22092],[2.29823,50.21091],[2.318886,50.21787],[2.327337,50.21192],[2.332981,50.21512],[2.334165,50.21827],[2.3321,50.22374],[2.325095,50.23118],[2.326612,50.23479],[2.331022,50.23615],[2.334482,50.23521],[2.33973,50.2284],[2.348037,50.22241],[2.355469,50.21349],[2.354047,50.2067],[2.358711,50.20511],[2.371201,50.20779],[2.374066,50.21067],[2.374989,50.2154],[2.379854,50.21743],[2.382043,50.2237],[2.392695,50.22319],[2.404223,50.23248],[2.409867,50.23288],[2.413268,50.2282],[2.417883,50.22691],[2.433466,50.22585],[2.44922,50.22801],[2.465831,50.21157],[2.474865,50.20729],[2.485701,50.20608],[2.49299,50.19954],[2.49249,50.19568],[2.469514,50.18907],[2.452376,50.18171],[2.440584,50.18276],[2.432369,50.18002],[2.425773,50.18019],[2.413911,50.17402],[2.414433,50.16903],[2.412521,50.16575],[2.402708,50.16609],[2.39753,50.15836],[2.388174,50.15593],[2.38715,50.1531],[2.389974,50.14394],[2.381301,50.14018],[2.3837,50.13307],[2.375053,50.11982],[2.376369,50.11519],[2.374661,50.10839],[2.390072,50.10523],[2.395265,50.10589],[2.400057,50.10064],[2.411968,50.0983],[2.418333,50.0867],[2.427992,50.08632],[2.431465,50.08818],[2.45076,50.12322],[2.456519,50.12756],[2.481732,50.13685],[2.512304,50.13947],[2.518443,50.12774],[2.522995,50.12482],[2.53337,50.11273],[2.54842,50.12206],[2.547748,50.1349],[2.55431,50.14074],[2.568075,50.13466],[2.573974,50.13641],[2.576624,50.13538],[2.577766,50.13278],[2.576259,50.12873],[2.570479,50.12484],[2.568243,50.12023],[2.570813,50.11582],[2.575744,50.11217],[2.587244,50.11051],[2.592981,50.10535],[2.602621,50.10567],[2.613288,50.10907],[2.624791,50.10804],[2.638371,50.09596],[2.643593,50.09617],[2.650368,50.09323],[2.658365,50.09816],[2.666694,50.09621],[2.671137,50.0926],[2.682462,50.09329],[2.690951,50.09069],[2.70421,50.07948],[2.707815,50.08179],[2.716159,50.08311],[2.720275,50.08813],[2.703977,50.09679],[2.700714,50.10037],[2.700344,50.10422],[2.702653,50.10624],[2.715145,50.10924],[2.71197,50.11432],[2.713155,50.11868],[2.711629,50.12339],[2.71306,50.12581],[2.729671,50.12455],[2.73638,50.12159],[2.740511,50.11691],[2.74998,50.11114],[2.75735,50.11113],[2.762981,50.10852],[2.773575,50.11159],[2.776759,50.10888],[2.777411,50.08964],[2.772197,50.08646],[2.76839,50.0766],[2.757884,50.06885],[2.759183,50.05974],[2.741328,50.04854],[2.751859,50.03798],[2.764035,50.03717],[2.776874,50.04221],[2.782447,50.04678],[2.789248,50.04411],[2.805639,50.05866],[2.811871,50.05683],[2.825193,50.0643],[2.83173,50.06188],[2.836592,50.06522],[2.839417,50.07102],[2.850474,50.07641],[2.853588,50.07425],[2.854769,50.06103],[2.86232,50.05857],[2.866323,50.0516],[2.873338,50.04477],[2.87225,50.03859],[2.869707,50.03639],[2.863989,50.03441],[2.857918,50.03614],[2.848461,50.03038],[2.848578,50.0286],[2.852992,50.02707],[2.856261,50.02271],[2.860881,50.02224],[2.863478,50.01869],[2.870525,50.02032],[2.874502,50.01873],[2.877964,50.01948],[2.881873,50.02947],[2.896332,50.03561],[2.910094,50.0357],[2.91763,50.03387],[2.919092,50.0388],[2.922532,50.04218],[2.933492,50.04221],[2.9391,50.0448],[2.941362,50.04904],[2.946081,50.05237],[2.965611,50.04771],[2.967658,50.04183],[2.971852,50.04033],[2.980318,50.0456],[2.991619,50.04907],[2.996795,50.04832],[2.999005,50.05086],[3.013538,50.05713],[3.025015,50.0534],[3.029798,50.05559],[3.033341,50.05383],[3.046105,50.05314],[3.070342,50.04653],[3.074137,50.0441],[3.079602,50.0445],[3.083138,50.04679],[3.092368,50.04573],[3.111755,50.03808],[3.118197,50.0249],[3.124786,50.02294],[3.143215,50.024],[3.145521,50.02244],[3.146257,50.01759],[3.148629,50.01675],[3.152523,50.01837],[3.158072,50.01705],[3.166844,50.01862],[3.172924,50.0101],[3.192339,50.01431],[3.197927,50.01376],[3.22361,50.0249],[3.229017,50.02936],[3.23491,50.02665],[3.241871,50.02878],[3.258348,50.0231],[3.261269,50.02892],[3.268313,50.02854],[3.272665,50.02463],[3.272142,50.02014],[3.274077,50.01604],[3.277799,50.01322],[3.282479,50.01425],[3.285934,50.01252],[3.297326,50.01634],[3.311371,50.01832],[3.329013,50.01459],[3.337446,50.01598],[3.344859,50.02531],[3.351959,50.02657],[3.354722,50.0334],[3.362884,50.03501],[3.375946,50.03506],[3.38261,50.0304],[3.388978,50.02925],[3.399599,50.03269],[3.413274,50.02452],[3.423162,50.02668],[3.42873,50.02076],[3.445556,50.02181],[3.46448,50.01875],[3.470667,50.01984],[3.490134,50.01759],[3.504958,50.02794],[3.509106,50.03347],[3.530001,50.03626],[3.5327,50.04342],[3.544583,50.04521],[3.545181,50.05033],[3.547301,50.05241],[3.557507,50.05293],[3.57062,50.05095],[3.578434,50.04609],[3.593795,50.0426],[3.602594,50.03719],[3.609577,50.02719],[3.614624,50.02405],[3.630686,50.03002],[3.634008,50.03428],[3.640627,50.03693],[3.653508,50.03269],[3.659373,50.02812],[3.66116,50.02962],[3.66358,50.03905],[3.659531,50.04315],[3.660089,50.04905],[3.661885,50.05114],[3.666077,50.05365],[3.676082,50.0549],[3.71451,50.06678],[3.721798,50.06234],[3.735509,50.05863],[3.746667,50.05161],[3.771552,50.04963],[3.77746,50.04485],[3.7947,50.04749],[3.815465,50.03786],[3.835153,50.04631],[3.848341,50.03767],[3.869716,50.03636],[3.877799,50.02638],[3.885114,50.02199],[3.88581,50.00981],[3.887435,50.00834],[3.893251,50.00843],[3.897641,50.01453],[3.914871,50.01894],[3.923428,50.02479],[3.930597,50.02431],[3.944701,50.02866],[3.950282,50.02557],[3.958252,50.03122],[3.969207,50.03551],[3.973759,50.03563],[3.980803,50.04146],[3.98472,50.04205],[3.990125,50.03855],[3.993867,50.02748],[3.978518,50.00284],[3.980563,49.99254],[4.003496,49.9945],[4.01126,49.98453],[4.019334,49.98437],[4.031038,49.98092],[4.038082,49.98446],[4.058942,49.98342],[4.078807,49.97845],[4.080975,49.97018],[4.086696,49.96764],[4.097524,49.97088],[4.105503,49.96958],[4.115752,49.97376],[4.121341,49.97218],[4.139991,49.97767],[4.144466669099206,49.97768932082495],[4.14487,49.97745],[4.146300485044395,49.97769723714675],[4.150931598151147,49.9777172290013],[4.152967,49.97668],[4.166173278773721,49.97778302516198],[4.172422,49.97781],[4.172813721514646,49.97833765342294],[4.173201,49.97837],[4.17897,49.97353],[4.197967,49.96866],[4.199842,49.96596],[4.199229,49.96052],[4.201232,49.95863],[4.215818,49.95857],[4.224963,49.96057],[4.233868,49.95856],[4.23122,49.94591],[4.222642,49.93761],[4.219003,49.91553],[4.223228,49.91166],[4.234034,49.91027],[4.23545,49.90626],[4.237826,49.90503],[4.246396,49.90347],[4.256744,49.9047],[4.253171,49.89074],[4.25518,49.88665],[4.25402,49.86971],[4.24933,49.85556],[4.244779,49.8513],[4.233892,49.84699],[4.230876,49.83574],[4.225048,49.83249],[4.218758,49.80893],[4.222686,49.80528],[4.222322,49.79973],[4.227968,49.79294],[4.224593,49.78743],[4.212377,49.78123],[4.211331,49.77842],[4.214338,49.7739],[4.228444,49.77436],[4.233861,49.77035],[4.243511,49.7681],[4.244179,49.76187],[4.250359,49.758],[4.25051,49.75617],[4.233819,49.74811],[4.228727,49.74239],[4.227925,49.73402],[4.233192,49.73184],[4.233156,49.72959],[4.214663,49.72264],[4.207549,49.72254],[4.196052,49.71578],[4.193897,49.71076],[4.186549,49.70338],[4.185804,49.69782],[4.147903,49.68817],[4.1465,49.68479],[4.150479,49.67875],[4.149215,49.67677],[4.12861,49.67498],[4.123739,49.65869],[4.126507,49.65023],[4.116276,49.6318],[4.111387,49.63006],[4.104284,49.63158],[4.099111,49.62714],[4.085611,49.62815],[4.07958,49.63263],[4.068084,49.63597],[4.055598,49.63308],[4.0476,49.63394],[4.03884,49.6222],[4.033278,49.62118],[4.031374,49.61906],[4.032424,49.61506],[4.046653,49.60209],[4.052667,49.60113],[4.055991,49.59705],[4.060981,49.59748],[4.067146,49.59529],[4.063505,49.58878],[4.062928,49.57709],[4.077077,49.57237],[4.077987,49.57057],[4.075662,49.56494],[4.069113,49.56278],[4.058342,49.54941],[4.060156,49.54593],[4.07635,49.54212],[4.078813,49.52857],[4.076691,49.51763],[4.071571,49.51529],[4.067587,49.51889],[4.064759,49.51891],[4.062745,49.51692],[4.063012,49.51227],[4.058016,49.50732],[4.045126,49.50696],[4.041745,49.50447],[4.043462,49.47093],[4.055766,49.46013],[4.058256,49.45376],[4.069664,49.44548],[4.068201,49.4435],[4.061053,49.44582],[4.052506,49.44261],[4.047641,49.44367],[4.040972,49.43794],[4.044899,49.42936],[4.044477,49.42126],[4.049406,49.41757],[4.051335,49.41264],[4.048872,49.40361],[4.041305,49.39498],[4.038775,49.38679],[4.036938,49.3598],[4.031106,49.35796],[4.021627,49.35912],[4.012232,49.3573],[4.007066,49.36697],[4.000188,49.36769],[3.995933,49.37036],[3.992717,49.37668],[3.977325,49.37825],[3.96123,49.37631],[3.95394,49.38216],[3.94181,49.38768],[3.93999,49.39147],[3.926163,49.40484],[3.917957,49.40219],[3.910652,49.39359],[3.892124,49.39081],[3.878445,49.3843],[3.862098,49.38051],[3.860236,49.3772],[3.861027,49.37225],[3.857476,49.3673],[3.855895,49.3606],[3.859935,49.35463],[3.858926,49.34887],[3.853317,49.34382],[3.832974,49.3489],[3.820301,49.35597],[3.801581,49.35753],[3.780224,49.35075],[3.774587,49.35316],[3.761494,49.3492],[3.758107,49.34664],[3.746173,49.34681],[3.742865,49.34405],[3.744209,49.33704],[3.742798,49.33561],[3.701378,49.33155],[3.690183,49.32602],[3.669159,49.32274],[3.665229,49.31873],[3.64766,49.31346],[3.643699,49.29854],[3.658411,49.29165],[3.659395,49.28688],[3.654644,49.27945],[3.666352,49.26949],[3.661063,49.26545],[3.660941,49.26161],[3.66856,49.24675],[3.677094,49.23989],[3.679524,49.23521],[3.671816,49.23025],[3.669954,49.22128],[3.659929,49.22031],[3.657365,49.21625],[3.657744,49.21355],[3.661152,49.21143],[3.667202,49.21173],[3.679285,49.208],[3.686427,49.20111],[3.689794,49.20235],[3.692151,49.2064],[3.698064,49.20783],[3.706511,49.20026],[3.702121,49.1919],[3.702594,49.18927],[3.708017,49.18625],[3.709887,49.18128],[3.722199,49.17603],[3.724758,49.17592],[3.729831,49.17957],[3.741913,49.18055],[3.751776,49.17889],[3.753745,49.17224],[3.749779,49.166],[3.750351,49.15668],[3.739212,49.15549],[3.702827,49.14026],[3.695905,49.14928],[3.68473,49.15343],[3.655552,49.14722],[3.626245,49.1502],[3.621013,49.14713],[3.621233,49.13843],[3.615151,49.13745],[3.612801,49.13532],[3.613184,49.12851],[3.609838,49.1242],[3.609889,49.12156],[3.62364,49.10582],[3.632446,49.08845],[3.640272,49.08127],[3.640264,49.07766],[3.633023,49.07126],[3.625366,49.06963],[3.611005,49.07217],[3.605401,49.06882],[3.602601,49.06171],[3.590846,49.05825],[3.587386,49.0444],[3.587687,49.03759],[3.591344,49.03556],[3.612105,49.03505],[3.629425,49.04078],[3.643375,49.0404],[3.650327,49.04412],[3.659268,49.03893],[3.664684,49.03847],[3.67501,49.02275],[3.680151,49.01912],[3.678947,49.01348],[3.665547,49.00442],[3.640496,49.00214],[3.627205,48.98478],[3.627797,48.98017],[3.6216,48.96506],[3.6167,48.96384],[3.609319,48.96495],[3.605068,48.96289],[3.600766,48.96391],[3.597861,48.96202],[3.597462,48.95812],[3.603158,48.95372],[3.601942,48.94937],[3.603892,48.94261],[3.590885,48.94311],[3.577473,48.93851],[3.574674,48.92982],[3.577318,48.92313],[3.571262,48.9143],[3.564736,48.91082],[3.558542,48.91475],[3.549035,48.91169],[3.544063,48.91402],[3.527332,48.90882],[3.516051,48.89473],[3.511313,48.89144],[3.504012,48.87062],[3.486803,48.86471],[3.4858,48.86231],[3.48768,48.85778],[3.486242351218891,48.85228026976355],[3.46979,48.85235],[3.46421,48.84268],[3.453902,48.84349],[3.451547,48.8466],[3.453106,48.85698],[3.446338,48.86169],[3.431352,48.86197],[3.423937,48.86876],[3.409333,48.86601],[3.407259,48.86794],[3.40633,48.87724],[3.397063,48.87739],[3.393,48.87673],[3.389358,48.87315],[3.384648,48.87389],[3.382506,48.87738],[3.385079,48.88916],[3.372868,48.8939],[3.371111,48.8961],[3.372179,48.90393],[3.376999,48.90703],[3.377474,48.91005],[3.373128,48.91871],[3.373025,48.92485],[3.368317,48.92947],[3.366291,48.92919],[3.365649,48.92477],[3.35957,48.91942],[3.354528,48.9176],[3.350196,48.91924],[3.346584,48.91832],[3.33614,48.91198],[3.331656,48.91116],[3.315048,48.92223],[3.31372,48.93466],[3.308353,48.94629],[3.30485,48.94995],[3.283743,48.94173],[3.271383,48.93915],[3.266423,48.94005],[3.263162,48.9445],[3.264035,48.94965],[3.260857,48.95231],[3.252072,48.97422],[3.244642,48.97782],[3.23341,48.97965],[3.230516,48.98367],[3.230058,48.98963],[3.224908,48.99264],[3.211707,48.99505],[3.208578,49.00103],[3.202467,49.00435],[3.198828,49.00988],[3.190857,49.01001],[3.180946,49.01426],[3.172855,49.01369],[3.170615,49.01501],[3.166693,49.02486],[3.169786,49.02748],[3.174569,49.02737],[3.178096,49.02934],[3.184736,49.04254],[3.191165,49.04564],[3.191983,49.05092],[3.190441,49.05385],[3.183272,49.05526],[3.183024,49.06309],[3.177056,49.07122],[3.16728,49.07882],[3.159114,49.08266],[3.158835,49.08546],[3.166196,49.10058],[3.149558,49.10195],[3.137438,49.1089],[3.126931,49.10773],[3.12036,49.11055],[3.103435,49.10929],[3.095357,49.11304],[3.080717,49.11429],[3.071879,49.11906],[3.068661,49.11852],[3.060878,49.10699],[3.055155,49.10274],[3.054162,49.09686],[3.05585,49.09119],[3.05231,49.08751],[3.032729,49.09019],[3.027646,49.08816],[3.015944,49.09248],[3.008095,49.09277],[3.005344,49.09026],[3.000713,49.09066],[2.995722,49.08873],[2.990406,49.08496],[2.986269,49.07547],[2.982751,49.07319],[2.976217,49.07694],[2.972521,49.08939],[2.967964,49.09282],[2.95522,49.08716],[2.94535,49.08947],[2.940734,49.07976],[2.933419,49.08282],[2.922978,49.07959],[2.901096,49.08673],[2.895149,49.07973],[2.887398,49.08069],[2.869533,49.072],[2.858333,49.07199],[2.845716,49.08593],[2.833429,49.08433],[2.823073,49.0874],[2.809195,49.09875],[2.783171,49.0898],[2.779934,49.08431],[2.768077,49.08445],[2.767864,49.08223],[2.774938,49.07856],[2.776766,49.07496],[2.77546,49.07251],[2.764695,49.06564],[2.753758,49.06226],[2.738264,49.06216],[2.734489,49.06438],[2.730806,49.07574],[2.72634,49.07781],[2.724374,49.08186],[2.719643,49.08055],[2.717251,49.07408],[2.706258,49.06705],[2.697019,49.06627],[2.693694,49.07034],[2.696064,49.07563],[2.683693,49.08328],[2.677933,49.08947],[2.650743,49.1021],[2.642352,49.10149],[2.638336,49.10392],[2.637394,49.10803],[2.634241,49.10975],[2.623364,49.1015],[2.620429,49.09678],[2.616207,49.09529],[2.609368,49.09598],[2.606634,49.09062],[2.596752,49.08326],[2.58961,49.0812],[2.584993,49.08212],[2.582322,49.08458],[2.579468,49.09287],[2.571846,49.0962],[2.566555,49.09622],[2.561395,49.09974],[2.555136,49.11264],[2.558137,49.12431],[2.554226,49.12573],[2.547484,49.12242],[2.541927,49.12365],[2.532454,49.12057],[2.530514,49.10551],[2.528069,49.10238],[2.511063,49.10588],[2.499396,49.106],[2.496067,49.10794],[2.495597,49.11087],[2.504139,49.11774],[2.500214,49.12285],[2.480075,49.12888],[2.472062,49.13651],[2.465821,49.13762],[2.462557,49.14069],[2.457866,49.14234],[2.443,49.13664],[2.440188,49.13924],[2.442062,49.14592],[2.440133,49.1476],[2.419092,49.15084],[2.41305,49.15371],[2.391673,49.15102],[2.381295,49.15906],[2.375372,49.16049],[2.370837,49.16051],[2.363206,49.1541],[2.358467,49.15277],[2.324442,49.18088],[2.322303,49.18542],[2.311379,49.18796],[2.300392,49.18495],[2.297748,49.17844],[2.293653,49.17398],[2.287958,49.17161],[2.281722,49.16048],[2.268191,49.15766],[2.261767,49.15955],[2.253446,49.15435],[2.228753,49.15289],[2.224008,49.15458],[2.224008,49.15896],[2.235456,49.16533],[2.23652,49.16742],[2.225291,49.17472],[2.219474,49.18164],[2.203966,49.17551],[2.198932,49.17653],[2.188431,49.17452],[2.175531,49.17716],[2.172796,49.16995],[2.165967,49.16692],[2.16161,49.1725],[2.166023,49.1782],[2.164926,49.18079],[2.150964,49.18537],[2.147575,49.18927],[2.138946,49.18734],[2.135934,49.19221],[2.127978,49.19482],[2.12126,49.18992],[2.11553,49.18816],[2.109078,49.19215],[2.099022,49.19125],[2.094255,49.19482],[2.091934,49.20936],[2.083781,49.20967],[2.080916,49.21192],[2.074291,49.20993],[2.069031,49.2047],[2.056102,49.20044],[2.046844,49.19984],[2.04452,49.19692],[2.032106,49.18999],[2.02129,49.19003],[2.001026,49.17713],[1.990982,49.17836],[1.982729,49.18276],[1.973564,49.18509],[1.961014,49.17542],[1.950622,49.17184],[1.937742,49.172],[1.931819,49.17616],[1.886561,49.16595],[1.878801,49.1712],[1.876612,49.17625],[1.862189,49.17217],[1.856346,49.17455],[1.85182,49.17218],[1.841212,49.17115],[1.835587,49.17798],[1.82683,49.18088],[1.81644,49.17761],[1.806216,49.1817],[1.802803,49.1864],[1.795183,49.18646],[1.790281,49.18348],[1.784857,49.18704],[1.776452,49.18619],[1.753936,49.17642],[1.746331,49.17997],[1.74093,49.19266],[1.737986,49.19574],[1.728171,49.19698],[1.724292,49.20435],[1.726465,49.20807],[1.734639,49.21025],[1.736938,49.2201],[1.741258,49.22276],[1.74146,49.22488],[1.715833,49.23477],[1.713539,49.24203],[1.709643,49.24271],[1.7022623975806115,49.23200177034998],[1.7022623975806113,49.23200177034998]]]}}
