{"type":"Feature","properties":{"sourceId":"papua-new-guinea"},"geometry":{"type":"MultiPolygon","coordinates":[[[[141.4,-1.076389],[140.8194,0.736111],[140.8097,1.025797],[141.0843,1.25104],[141.3771,1.44365],[141.6878,1.604046],[142.0076,1.728901],[142.746,1.938496],[143.0908,2.00892],[143.4195,2.130052],[143.766,2.217146],[144.1369,2.383223],[144.5183,2.501031],[144.7694,2.55223],[145.0278,2.584313],[145.5378,2.587814],[145.8211,2.555551],[146.0953,2.500363],[146.369,2.420472],[146.6395,2.315395],[147.0311,2.137909],[147.3039,1.987033],[147.5835,1.794534],[147.8492,1.567981],[148.2325,1.764463],[148.6429,1.911005],[149.0653,2.001851],[149.4994,2.036961],[149.8938,2.018475],[150.2821,1.956835],[150.6884,1.840784],[151.0577,1.684365],[151.4205,1.621145],[152.3145,0.285562],[152.7055,-0.188692],[152.985,-0.463595],[153.9182,-0.985608],[156.0186,-1.147444],[157.3098,-1.173111],[157.4717,-1.393299],[157.8453,-1.476419],[158.1662,-1.328635],[158.5052,-1.214509],[158.8436,-1.139311],[159.1988,-1.099178],[159.5526,-1.097338],[159.9083,-1.133772],[160.2615,-1.209224],[160.5927,-1.318012],[161.0134,-1.515926],[161.4024,-1.769702],[161.785,-2.10347],[162.0941,-2.44802],[162.3562,-2.835284],[162.5573,-3.238233],[162.7127,-3.69223],[162.80338388396748,-4.141786106412334],[160.4803,-4.751389],[158.2353,-4.871667],[156.0358,-6.55],[156.0397,-6.658333],[155.9413,-6.817668],[155.8905,-6.858382],[155.6936,-6.925833],[155.5083,-6.958333],[155.1122,-7.246667],[154.5856,-8.135],[157.1611,-11.37389],[157.6008,-12.43639],[157.0298,-14.09231],[157.2527531255648,-14.284142517500802],[156.9347,-14.16552],[156.6176,-14.08178],[154.251,-14.74845],[152.1177,-14.63179],[150.1164,-13.91883],[148.0844,-13.17348],[147.1427,-12.64016],[146.5011,-12.33183],[144.7344,-9.848514],[144.48761722984798,-9.669798952571652],[144.1406,-8.841629],[144.1026,-8.846906],[143.2963,-9.421205],[142.85159302629174,-9.491615438154609],[142.85160018810058,-9.488973357347056],[142.8651,-9.308742],[142.552,-9.35346],[142.3378,-9.234197],[142.1902,-9.166416],[142.0521,-9.231486],[142.0549,-9.48081],[141.5005,-9.426709],[140.97986347025756,-9.480130463266601],[141.0217,-9.160827],[141.0207,-6.881843],[141.0017,-6.297641],[141.0126,-2.566397],[141.00269444200148,-2.5543572963099606],[141.025,-2.141667],[141.4,-1.076389]]],[[[139.3845,-11.14853],[139.2014,-10.83228],[140.0090183399848,-10.223927735293138],[139.74380983408935,-11.051406792008322],[139.3845,-11.14853]]],[[[140.77540695424597,-9.46389835384368],[140.92032391856858,-9.48623969646819],[140.74625003773335,-9.504101065963939],[140.77540695424597,-9.46389835384368]]]]}}
