{"type":"Feature","properties":{"sourceId":"provence-alpes-cote-d-azur"},"geometry":{"type":"Polygon","coordinates":[[[6.517926,42.31539],[4.146725,43.21313],[4.144746,43.21732],[4.198225681388514,43.37540938074458],[4.208744,43.38948],[4.232478,43.45923],[4.233853,43.47904],[4.242998,43.49702],[4.259388,43.5049],[4.272967,43.50562],[4.297254,43.51235],[4.31013,43.52177],[4.324434,43.52505],[4.328155,43.53298],[4.335299,43.53323],[4.355142,43.5446],[4.370906,43.54607],[4.383433,43.55114],[4.390097,43.55799],[4.409084,43.55826],[4.418474,43.56643],[4.418043,43.57789],[4.424831,43.58204],[4.448098,43.58084],[4.461553,43.58678],[4.476696,43.60334],[4.477993,43.60751],[4.475661,43.61234],[4.465769,43.61785],[4.441545,43.61342],[4.43265,43.61917],[4.430438,43.62447],[4.453031,43.66197],[4.479476,43.67092],[4.479553,43.68667],[4.488884,43.69689],[4.52509,43.69969],[4.537396,43.70483],[4.557645,43.69703],[4.578384,43.69455],[4.595792,43.68422],[4.617442,43.68601],[4.629201,43.68365],[4.627012,43.69732],[4.616182,43.71165],[4.615053,43.72584],[4.631584,43.76025],[4.65438,43.78367],[4.657677,43.80856],[4.647249,43.83218],[4.654282,43.8377],[4.667039,43.84204],[4.669298,43.84679],[4.664845,43.85441],[4.651326,43.85713],[4.649726,43.86586],[4.65958,43.87304],[4.687183,43.88129],[4.70039,43.89511],[4.726063,43.90496],[4.741303,43.91764],[4.742737,43.92324],[4.748338,43.92837],[4.778031,43.93451],[4.796266,43.95269],[4.813301,43.95938],[4.817961,43.96569],[4.81314,43.97743],[4.814122,43.98438],[4.817963,43.98589],[4.836009,43.98264],[4.844139,43.98493],[4.846635,43.98848],[4.847979,43.99741],[4.84533,44.01162],[4.837281,44.01758],[4.822542,44.02016],[4.81586,44.03637],[4.790969,44.05478],[4.790125,44.06727],[4.766323,44.07655],[4.76103,44.08912],[4.750807,44.09048],[4.729115,44.08228],[4.723589,44.08347],[4.72127,44.09325],[4.711165,44.10332],[4.709141,44.10929],[4.713508,44.11916],[4.714661,44.13397],[4.72235,44.14546],[4.7191,44.16465],[4.724489,44.18868],[4.708105,44.19657],[4.712304,44.20886],[4.707742,44.21638],[4.696363,44.2183],[4.677416,44.21625],[4.679707,44.2363],[4.657159,44.25525],[4.652004805755315,44.27023991091987],[4.653981,44.27619],[4.656172,44.29855],[4.652849,44.3127],[4.657491,44.32373],[4.682899,44.31779],[4.712224,44.31796],[4.721917,44.32408],[4.759964,44.32267],[4.770647,44.31487],[4.779744,44.31474],[4.788133,44.30566],[4.799457,44.30007],[4.80193,44.29263],[4.801543,44.26888],[4.809591,44.25776],[4.811513,44.2322],[4.817248,44.22719],[4.826339,44.22586],[4.841985,44.23327],[4.845805,44.23833],[4.867434,44.24749],[4.870133,44.25338],[4.878076,44.25816],[4.890789,44.25947],[4.89953,44.25431],[4.904869,44.25745],[4.934246,44.25984],[4.940532,44.26513],[4.977243,44.28026],[5.005008,44.28423],[5.023233,44.29327],[5.057569,44.30347],[5.064056,44.30077],[5.067674,44.28954],[5.075454,44.28187],[5.097326,44.27941],[5.108602,44.27483],[5.120554,44.2847],[5.156203,44.29989],[5.158645,44.30886],[5.16528,44.31105],[5.168722,44.30644],[5.1658,44.2943],[5.147178,44.28261],[5.144445,44.2748],[5.146034,44.26774],[5.155921,44.26357],[5.159108,44.25375],[5.157709,44.24591],[5.146966,44.23604],[5.154109,44.22804],[5.175392,44.21784],[5.190639,44.21658],[5.207459,44.21102],[5.238795,44.21093],[5.243116,44.22649],[5.249187,44.22859],[5.289575,44.21277],[5.302671,44.20298],[5.307978,44.20606],[5.318495,44.20663],[5.337338,44.20109],[5.348845,44.20803],[5.357857,44.21004],[5.378739,44.1992],[5.379384,44.19023],[5.383635,44.18291],[5.380016,44.16196],[5.381724,44.15353],[5.397453,44.14945],[5.415771,44.15194],[5.423869,44.1468],[5.432027,44.14689],[5.434364,44.13902],[5.44482,44.1336],[5.448279,44.12059],[5.453477,44.1171],[5.494046,44.11274],[5.505379,44.11398],[5.51608,44.12272],[5.543672,44.13137],[5.554648,44.14629],[5.56876,44.1455],[5.580802,44.15059],[5.585128,44.15874],[5.574888,44.16512],[5.569108,44.17375],[5.580192,44.18551],[5.607049,44.18724],[5.614862,44.17568],[5.625555,44.17304],[5.633592,44.16661],[5.629165,44.1581],[5.630186,44.14871],[5.67987,44.144],[5.684252,44.16538],[5.651822,44.17005],[5.649766,44.1739],[5.656215,44.18589],[5.675606,44.18644],[5.688912,44.19393],[5.68905,44.19796],[5.680113,44.21332],[5.685985,44.23568],[5.679153,44.23976],[5.676048,44.2519],[5.68936,44.26626],[5.675327,44.2781],[5.651255,44.27274],[5.635906,44.28385],[5.636343,44.28816],[5.644285,44.2923],[5.644383,44.29614],[5.63767,44.30308],[5.626326,44.30557],[5.619048,44.3135],[5.621613,44.31859],[5.634645,44.32725],[5.630557,44.33617],[5.623663,44.33793],[5.616065,44.33494],[5.578748,44.33493],[5.560627,44.33804],[5.548086,44.33322],[5.542034,44.3365],[5.541386,44.3445],[5.530268,44.34596],[5.521419,44.35356],[5.493348,44.3416],[5.482569,44.35264],[5.472155,44.35449],[5.46562,44.36844],[5.444718,44.3722],[5.445159,44.39249],[5.434618,44.41398],[5.425067,44.41931],[5.424352,44.425],[5.439088,44.43078],[5.477149,44.41714],[5.487486,44.42567],[5.495282,44.42646],[5.500636,44.43665],[5.497849,44.44067],[5.479678,44.44501],[5.467824,44.45121],[5.463362,44.46569],[5.470405,44.4733],[5.461081,44.49549],[5.468686,44.49713],[5.481217,44.48864],[5.518866,44.48799],[5.544881,44.47961],[5.558712,44.47103],[5.570144,44.47326],[5.59548,44.46398],[5.604069,44.46294],[5.612814,44.46721],[5.626972,44.48302],[5.627953,44.49437],[5.631325,44.4984],[5.641807,44.49944],[5.65081,44.49655],[5.667107,44.50109],[5.664295,44.50757],[5.654726,44.51688],[5.628981,44.53664],[5.615361,44.53681],[5.601359,44.54652],[5.606229,44.56148],[5.61678,44.57161],[5.61952,44.58037],[5.628694,44.58582],[5.639789,44.60531],[5.647548,44.60733],[5.649571,44.61057],[5.652134,44.61895],[5.644363,44.62869],[5.644352,44.64851],[5.652212,44.65047],[5.669352,44.64604],[5.680048,44.6489],[5.706458,44.63967],[5.71332,44.6405],[5.7284,44.63672],[5.739894,44.63855],[5.742571,44.64454],[5.75491,44.64653],[5.755931,44.6524],[5.759187,44.65484],[5.772928,44.65094],[5.791626,44.65108],[5.799977,44.66195],[5.80389,44.67287],[5.827604,44.68369],[5.832414,44.6887],[5.828514,44.70233],[5.815742,44.70646],[5.812758,44.71003],[5.820743,44.73078],[5.830995,44.74069],[5.828629,44.75149],[5.830241,44.75549],[5.83633,44.75555],[5.850612,44.74751],[5.88149,44.74446],[5.888613,44.74582],[5.892807,44.75212],[5.900467,44.75536],[5.909315,44.75514],[5.919409,44.74957],[5.939481,44.76009],[5.952643,44.75735],[5.956342,44.76934],[5.982777,44.78098],[5.980372,44.79171],[5.96345,44.79929],[5.959496,44.80285],[5.959533,44.80662],[5.979277,44.81553],[6.006428,44.81787],[6.018921,44.8335],[6.030641,44.83381],[6.043372,44.82153],[6.056842,44.81365],[6.06796,44.81858],[6.072429,44.82413],[6.091232,44.83147],[6.098158,44.83833],[6.105514,44.84163],[6.111634,44.84106],[6.13185,44.86055],[6.155857,44.859],[6.160407,44.8526],[6.166888,44.85051],[6.179502,44.85329],[6.189547,44.85142],[6.197836,44.856],[6.228858,44.84857],[6.246556,44.84935],[6.256352,44.85286],[6.26595,44.8675],[6.290268,44.87181],[6.30436,44.86993],[6.324449,44.85155],[6.333184,44.84735],[6.355191,44.85311],[6.355704,44.86284],[6.35155,44.87771],[6.360534,44.89375],[6.358133,44.90006],[6.360214,44.91627],[6.357771,44.92533],[6.359042,44.9417],[6.356262,44.94499],[6.331808,44.94972],[6.326893,44.95374],[6.326594,44.95881],[6.332223,44.97026],[6.325092,44.97395],[6.318911,44.98292],[6.325925,44.99747],[6.325076,45.00122],[6.320058,45.00613],[6.307843,45.00744],[6.247482,44.99996],[6.212746,45.01084],[6.20495,45.0155],[6.204464,45.02188],[6.210497,45.03142],[6.212815,45.04216],[6.217819,45.0468],[6.22226,45.06191],[6.241547,45.06549],[6.247007,45.06975],[6.232489,45.10524],[6.234179,45.10876],[6.241696,45.11072],[6.247546,45.11722],[6.263845,45.12203],[6.273386,45.1139],[6.294396,45.10609],[6.317773,45.10965],[6.336564,45.11569],[6.359635,45.10347],[6.368329,45.09166],[6.370729,45.08354],[6.362941,45.0731],[6.363806,45.06789],[6.395163,45.05869],[6.405692,45.06197],[6.422096,45.05777],[6.434801,45.06063],[6.442499,45.05264],[6.4539,45.04924],[6.488623,45.05448],[6.492217,45.06786],[6.488439,45.07706],[6.48706,45.09173],[6.509098,45.1041],[6.518286,45.10277],[6.530104,45.09635],[6.538918,45.09652],[6.563502,45.10328],[6.565736,45.11136],[6.577636,45.11939],[6.592213,45.11657],[6.61406,45.11828],[6.626597,45.10753],[6.646699477787177,45.100582599670766],[6.639546,45.09804],[6.664861,45.07298],[6.681253,45.02691],[6.753322,45.02224],[6.787871,44.89831],[6.90921,44.85059],[6.930832,44.86853],[7.027325,44.83719],[7.043637,44.72277],[7.069489,44.71579],[7.082193,44.67768],[6.984578,44.68155],[6.954428,44.65258],[6.976129,44.62322],[6.929081,44.56146],[6.859932,44.5298],[6.954603,44.4281],[6.901817,44.37246],[7.001151,44.28406],[7.00962,44.24643],[7.100105,44.22949],[7.188148,44.20436],[7.296657,44.14937],[7.347362,44.14755],[7.360254,44.12652],[7.623408,44.16728],[7.628561,44.17919],[7.689757,44.18558],[7.680372,44.1235],[7.731295,44.07925],[7.651235,43.96522],[7.580754,43.94251],[7.565829,43.89753],[7.503786,43.8704],[7.534675,43.77821],[7.748528,43.72428],[7.70049,43.54537],[6.517926,42.31539]],[[7.427498,43.74386],[7.424507,43.74122],[7.422745,43.74231],[7.421361,43.74075],[7.411995,43.73475],[7.412432,43.73207],[7.409892,43.73106],[7.408583,43.72958],[7.417316,43.72397],[7.487181,43.48382],[7.595671,43.52067],[7.456283,43.74326],[7.439429,43.7499],[7.438892,43.75157],[7.436454,43.75293],[7.436556,43.75096],[7.435657,43.75031],[7.430337,43.74943],[7.428432,43.74628],[7.427498,43.74386]]]}}
