{"type":"Feature","properties":{"sourceId":"pays-de-la-loire"},"geometry":{"type":"Polygon","coordinates":[[[-2.442151,46.62818],[-2.625531,47.27933],[-2.674666,47.33196],[-2.461965,47.44925],[-2.457137,47.45463],[-2.454873,47.46427],[-2.438976,47.46969],[-2.429807,47.47826],[-2.421249,47.47889],[-2.41621,47.47361],[-2.413509,47.46322],[-2.399292,47.45876],[-2.389387,47.46026],[-2.381379,47.46519],[-2.368204,47.4668],[-2.354933,47.45884],[-2.320143,47.46322],[-2.315808,47.46715],[-2.315565,47.48677],[-2.305629,47.49438],[-2.300119,47.50932],[-2.300963,47.51637],[-2.296884,47.51852],[-2.286575,47.51802],[-2.281327,47.51411],[-2.262437,47.5159],[-2.254987,47.51424],[-2.251945,47.5076],[-2.253342,47.50166],[-2.244601,47.49703],[-2.231896,47.50083],[-2.215351,47.51098],[-2.184476,47.51472],[-2.18213,47.51281],[-2.181321,47.49497],[-2.16484,47.49348],[-2.15665,47.50149],[-2.157504,47.52395],[-2.137933,47.52814],[-2.132064,47.53363],[-2.116151,47.53098],[-2.101647,47.53725],[-2.10742,47.54836],[-2.101177,47.56925],[-2.10806,47.57792],[-2.104438,47.58292],[-2.105073,47.59722],[-2.087848,47.60723],[-2.087764,47.62119],[-2.099912,47.63123],[-2.092714,47.64395],[-2.082265,47.65254],[-2.075832,47.65436],[-2.054535,47.65324],[-2.051625,47.65749],[-2.051712,47.66385],[-2.039949,47.6721],[-2.013725,47.66994],[-2.008521,47.67509],[-1.989399,47.6835],[-1.974492,47.69687],[-1.966699,47.69035],[-1.964959,47.67498],[-1.958454,47.67386],[-1.937446,47.68897],[-1.89731,47.69844],[-1.878666,47.6984],[-1.869894,47.7033],[-1.86585,47.70888],[-1.858479,47.71081],[-1.841317,47.70849],[-1.827433,47.71323],[-1.819175,47.70788],[-1.772074,47.70119],[-1.751329,47.71],[-1.723198,47.70144],[-1.715024,47.704],[-1.712008,47.71061],[-1.690349,47.71574],[-1.661235,47.71368],[-1.64295,47.72653],[-1.639351,47.74244],[-1.631633,47.75219],[-1.629387,47.76103],[-1.624094,47.76582],[-1.604614,47.76612],[-1.596725,47.77685],[-1.587606,47.78197],[-1.567155,47.78206],[-1.553653,47.7879],[-1.534376,47.78664],[-1.504554,47.80363],[-1.492221,47.80107],[-1.472972,47.80572],[-1.473493,47.81474],[-1.485741,47.8308],[-1.478701,47.83833],[-1.470393,47.83652],[-1.462432,47.83843],[-1.456415,47.83508],[-1.439214,47.83363],[-1.424088,47.83534],[-1.417294,47.83105],[-1.405675,47.82891],[-1.398439,47.83166],[-1.388595,47.83064],[-1.379097,47.82403],[-1.372905,47.81168],[-1.363354,47.80879],[-1.355997,47.80082],[-1.24901,47.78082],[-1.241399,47.79738],[-1.244866,47.80881],[-1.238288,47.81488],[-1.236204,47.8208],[-1.226325,47.82351],[-1.219344,47.83305],[-1.217823,47.84247],[-1.225474,47.84935],[-1.225586,47.85337],[-1.215903,47.85987],[-1.202816,47.8614],[-1.194943,47.86808],[-1.194671,47.87241],[-1.199201,47.87602],[-1.200637,47.88188],[-1.199306,47.88888],[-1.192874,47.89444],[-1.184564,47.89518],[-1.180289,47.89919],[-1.177639,47.91262],[-1.171379,47.91756],[-1.168124,47.9247],[-1.169924,47.93562],[-1.164842,47.94103],[-1.16306,47.95838],[-1.158144,47.96606],[-1.132237,47.97417],[-1.130344,47.98304],[-1.125091,47.98935],[-1.102131,47.99182],[-1.072211,47.98535],[-1.063409,47.98808],[-1.050581,47.98746],[-1.041375,47.99277],[-1.024715,47.99712],[-1.020813,48.00641],[-1.02273,48.01467],[-1.037448,48.0334],[-1.03242,48.03952],[-1.036217,48.05247],[-1.029483,48.06799],[-1.043066,48.07701],[-1.051869,48.08912],[-1.061615,48.12469],[-1.063696,48.15041],[-1.067053,48.15573],[-1.076037,48.15755],[-1.076719,48.16284],[-1.080991,48.16765],[-1.083371,48.1762],[-1.079392,48.19868],[-1.089306,48.20811],[-1.085874,48.21722],[-1.087008,48.22401],[-1.093994,48.23192],[-1.104469,48.26222],[-1.102658,48.26911],[-1.096245,48.27533],[-1.092422,48.29083],[-1.083461,48.30053],[-1.062361,48.3142],[-1.050569,48.32846],[-1.062236,48.34724],[-1.061748,48.36218],[-1.06803,48.36709],[-1.058595,48.38376],[-1.070826,48.40322],[-1.082461,48.41269],[-1.081666,48.42386],[-1.086054,48.43356],[-1.081846,48.44478],[-1.070697,48.45105],[-1.068647,48.45569],[-1.070376,48.46524],[-1.081223,48.48086],[-1.079394,48.503],[-1.0758568677317952,48.50602098769494],[-1.072415,48.50559],[-1.057496,48.50896],[-1.030555,48.4983],[-1.017706,48.48971],[-1.003452,48.48666],[-0.971223,48.49219],[-0.96004,48.50287],[-0.959772,48.5099],[-0.954584,48.51386],[-0.92813,48.51075],[-0.924341,48.50158],[-0.907714,48.49383],[-0.893873,48.49204],[-0.881013,48.49633],[-0.859604,48.49804],[-0.846317,48.49453],[-0.834199,48.4777],[-0.822201,48.47194],[-0.818336,48.45738],[-0.8145,48.4531],[-0.798415,48.45668],[-0.792039,48.46242],[-0.782922,48.46125],[-0.780617,48.45489],[-0.781667,48.44432],[-0.770356,48.43933],[-0.765907,48.4342],[-0.759856,48.43358],[-0.71273,48.4478],[-0.713558,48.45652],[-0.729094,48.46308],[-0.726743,48.46887],[-0.715734,48.4667],[-0.70747,48.46844],[-0.701319,48.46464],[-0.691705,48.46554],[-0.680732,48.46869],[-0.678748,48.47557],[-0.668702,48.47971],[-0.657019,48.45999],[-0.657784,48.44586],[-0.651214,48.44117],[-0.624975,48.45428],[-0.613787,48.45699],[-0.595263,48.46904],[-0.572284,48.46612],[-0.564535,48.47074],[-0.549979,48.47111],[-0.546048,48.47884],[-0.537983,48.48217],[-0.534052,48.48914],[-0.515179,48.49584],[-0.509982,48.50366],[-0.492861,48.49922],[-0.478305,48.49909],[-0.471597,48.50177],[-0.464401,48.50916],[-0.447355,48.51153],[-0.431719,48.50892],[-0.424461,48.50434],[-0.408428,48.50304],[-0.398148,48.50503],[-0.390639,48.49665],[-0.375155,48.49305],[-0.369216,48.48559],[-0.353296,48.48126],[-0.346987,48.48796],[-0.350183,48.49404],[-0.348889,48.49773],[-0.335988,48.4987],[-0.33117,48.50923],[-0.320154,48.51899],[-0.292251,48.51311],[-0.286177,48.50415],[-0.270347,48.50531],[-0.264986,48.51296],[-0.264371,48.52001],[-0.259596,48.52368],[-0.249455,48.52479],[-0.239336,48.53574],[-0.244176,48.5445],[-0.251741,48.54948],[-0.242752,48.56079],[-0.239079,48.56181],[-0.217528,48.5557],[-0.20874,48.55994],[-0.197245,48.55362],[-0.18052,48.53875],[-0.155652,48.52766],[-0.156393,48.52365],[-0.168906,48.51785],[-0.175645,48.50981],[-0.174045,48.50063],[-0.166167,48.49872],[-0.15918,48.49345],[-0.154314,48.4811],[-0.15219,48.45986],[-0.148463,48.45454],[-0.125581,48.44691],[-0.10652,48.4448],[-0.073772,48.44789],[-0.066429,48.45399],[-0.053753,48.44937],[-0.054769,48.43979],[-0.05983,48.42954],[-0.060137,48.42039],[-0.057194,48.41478],[-0.060162,48.40877],[-0.058066,48.39211],[-0.060312,48.3866],[-0.057305,48.37755],[-0.052043,48.37303],[-0.034922,48.37872],[-0.030618,48.3832],[-0.02025,48.3832],[-0.016494,48.39068],[-0.002402,48.39366],[0.001863,48.38703],[0.015549,48.37898],[0.060896,48.37712],[0.065106,48.38282],[0.061106,48.39332],[0.068489,48.40354],[0.085381,48.40819],[0.100907,48.40815],[0.112237,48.42157],[0.112506,48.42888],[0.117672,48.43304],[0.127122,48.43216],[0.156705,48.4369],[0.162211,48.44617],[0.17539,48.4489],[0.173387,48.45843],[0.175704,48.46196],[0.19136,48.45941],[0.213457,48.46995],[0.249524,48.47154],[0.259082,48.47415],[0.267796,48.4803],[0.275256,48.47667],[0.297534,48.47729],[0.309233,48.46961],[0.323705,48.4694],[0.337666,48.45933],[0.354886,48.45509],[0.361281,48.44855],[0.36585,48.4362],[0.377264,48.42367],[0.37758,48.41798],[0.369043,48.41118],[0.371986,48.3984],[0.371242,48.38688],[0.377003,48.37751],[0.377326,48.36538],[0.3824,48.35036],[0.378127,48.343],[0.380575,48.33274],[0.39389,48.31847],[0.405683,48.31237],[0.419105,48.318],[0.430676,48.30431],[0.442621,48.30193],[0.465074,48.30282],[0.479541,48.29616],[0.487303,48.30336],[0.491663,48.30345],[0.498917,48.29735],[0.491362,48.28636],[0.492326,48.28103],[0.511844,48.26441],[0.531605,48.2608],[0.534595,48.25746],[0.533827,48.24949],[0.536046,48.24697],[0.547656,48.24739],[0.567188,48.24266],[0.605061,48.24213],[0.611126,48.23956],[0.622189,48.24177],[0.626524,48.23495],[0.634122,48.2317],[0.640933,48.23578],[0.63594,48.24714],[0.636783,48.25562],[0.651056,48.26102],[0.663353,48.25793],[0.678553,48.25075],[0.68414,48.2391],[0.693167,48.23434],[0.702464,48.21728],[0.714347,48.21071],[0.722302,48.19635],[0.730744,48.19564],[0.737016,48.18679],[0.755939,48.17802],[0.8014551976626006,48.19251418152346],[0.802987,48.19019],[0.824682,48.18171],[0.839464,48.16881],[0.859798,48.17021],[0.869787,48.16575],[0.886435,48.16434],[0.912797,48.15116],[0.914277,48.14349],[0.918996,48.13949],[0.914404,48.13261],[0.877068,48.13209],[0.870673,48.12942],[0.863899,48.13175],[0.857007,48.12918],[0.856917,48.12065],[0.84405,48.10175],[0.845574,48.09791],[0.850121,48.0962],[0.851241,48.09009],[0.844627,48.07053],[0.833735,48.06632],[0.805519,48.06849],[0.801443,48.06616],[0.798507,48.0474],[0.801417,48.04219],[0.809483,48.03933],[0.814173,48.03433],[0.825708,48.03351],[0.837128,48.03703],[0.844551,48.03131],[0.844124,48.01802],[0.835987,48.00439],[0.834663,47.99608],[0.824767,47.98593],[0.829789,47.97569],[0.83967,47.96979],[0.851775,47.94789],[0.85088,47.93994],[0.816507,47.93046],[0.815493,47.91884],[0.819137,47.91319],[0.816285,47.90613],[0.820182,47.89256],[0.81278,47.88619],[0.792968,47.8979],[0.791156,47.90564],[0.787775,47.90806],[0.77851,47.90599],[0.762202,47.89534],[0.760385,47.88676],[0.76701,47.86748],[0.765542,47.86001],[0.776114,47.85245],[0.777081,47.83875],[0.769301,47.82915],[0.761842,47.83087],[0.748622,47.82447],[0.742978,47.81691],[0.742976,47.80983],[0.733225,47.80465],[0.713326,47.78513],[0.70134,47.7868],[0.696857,47.78394],[0.696877,47.7797],[0.705481,47.77125],[0.704508,47.76528],[0.692047,47.76127],[0.677113,47.76659],[0.647543,47.75092],[0.627022,47.74877],[0.622671,47.74474],[0.622467,47.73774],[0.610903,47.72365],[0.596372,47.72098],[0.587634,47.71483],[0.587699,47.71065],[0.596387,47.70224],[0.595478,47.69554],[0.598236,47.69081],[0.602747,47.68961],[0.613235,47.69673],[0.620998,47.69512],[0.621982,47.69061],[0.616138,47.68091],[0.587947,47.66685],[0.563009,47.66634],[0.551364,47.65639],[0.523113,47.65065],[0.516239,47.65173],[0.500298,47.64262],[0.478683,47.64084],[0.470318,47.64338],[0.458494,47.63652],[0.459417,47.62796],[0.449774,47.61697],[0.424214,47.61534],[0.40808,47.62465],[0.40519,47.63075],[0.395261,47.63743],[0.384138,47.63833],[0.36971,47.62598],[0.368713,47.62185],[0.374725,47.61536],[0.385705,47.61126],[0.39234,47.59992],[0.398953,47.59511],[0.399802,47.58708],[0.404888,47.57853],[0.379576,47.56612],[0.338019,47.57724],[0.3347,47.58378],[0.32062,47.59205],[0.275989,47.59546],[0.26691,47.60028],[0.264766,47.60548],[0.258002,47.60936],[0.23589,47.60665],[0.236695,47.57722],[0.216549,47.56885],[0.211231,47.5623],[0.211095,47.55643],[0.202611,47.541],[0.211603,47.5295],[0.217366,47.5318],[0.227937,47.52771],[0.222302,47.50984],[0.222415,47.50124],[0.204357,47.48372],[0.19328,47.46134],[0.18534,47.45287],[0.18763,47.42339],[0.182706,47.41461],[0.17485,47.41069],[0.168633,47.40216],[0.173247,47.38944],[0.183941,47.38488],[0.185647,47.38001],[0.149047,47.35886],[0.150431,47.34722],[0.148544,47.34347],[0.139427,47.33397],[0.122417,47.32866],[0.113942,47.31452],[0.103996,47.30826],[0.101158,47.30166],[0.096261,47.30031],[0.089805,47.29254],[0.090878,47.2744],[0.084736,47.27063],[0.079416,47.26106],[0.078722,47.24985],[0.073963,47.24346],[0.07642,47.22473],[0.08146,47.21599],[0.06958,47.21109],[0.059216,47.20044],[0.059865,47.19608],[0.068989,47.1897],[0.065515,47.17503],[0.060872,47.16761],[0.056821226662898836,47.163452881778156],[0.051052,47.17085],[0.034445,47.16576],[0.018862,47.17837],[-0.011261,47.16042],[-0.037891,47.12691],[-0.043592,47.11359],[-0.040795,47.10606],[-0.03129,47.10256],[-0.034228,47.09407],[-0.060837,47.09738],[-0.067466,47.10207],[-0.087156,47.10309],[-0.096279,47.09738],[-0.102738,47.08803],[-0.108442,47.06648],[-0.12917,47.0578],[-0.13738,47.06807],[-0.146788,47.07231],[-0.156054,47.07291],[-0.165793,47.06832],[-0.170725,47.07205],[-0.162659,47.08109],[-0.1433,47.09054],[-0.137849,47.09739],[-0.13964,47.10578],[-0.154172,47.10398],[-0.180303,47.1108],[-0.186407,47.11047],[-0.191883,47.10225],[-0.204305,47.09799],[-0.226737,47.10233],[-0.240744,47.10807],[-0.257321,47.1042],[-0.263762,47.10838],[-0.272197,47.10369],[-0.283525,47.10587],[-0.304776,47.10049],[-0.314849,47.09432],[-0.334729,47.09078],[-0.353284,47.09789],[-0.377151,47.09167],[-0.395579,47.0943],[-0.398486,47.0922],[-0.403118,47.07346],[-0.407631,47.07012],[-0.427418,47.07535],[-0.443246,47.07029],[-0.45523,47.07028],[-0.459693,47.07447],[-0.457752,47.08357],[-0.467305,47.08631],[-0.485852,47.08396],[-0.493243,47.08581],[-0.516012,47.08038],[-0.558936,47.06597],[-0.561695,47.06217],[-0.560708,47.05158],[-0.558283,47.04246],[-0.5541,47.03836],[-0.55489,47.03457],[-0.563739,47.03252],[-0.568708,47.02191],[-0.582758,47.01639],[-0.600013,47.00102],[-0.615236,46.99586],[-0.631027,47.00012],[-0.644513,46.99767],[-0.650778,47.00071],[-0.664577,47.00178],[-0.671797,47.00576],[-0.677827,47.00377],[-0.683382,46.994],[-0.698616,46.99721],[-0.714919,46.98947],[-0.728758,46.99855],[-0.742515,47.00329],[-0.748843,46.99543],[-0.759382,46.99483],[-0.764127,46.99736],[-0.768588,47.0054],[-0.786818,47.0078],[-0.8014,46.9972],[-0.825482,46.99545],[-0.836045,46.98964],[-0.84426,46.99226],[-0.862321,46.97547],[-0.885274,46.97986],[-0.896559,46.97809],[-0.905928,46.97162],[-0.902618,46.96478],[-0.887158,46.96283],[-0.884191,46.95633],[-0.886314,46.94985],[-0.880926,46.94356],[-0.863777,46.94266],[-0.86072,46.93278],[-0.851439,46.93397],[-0.84155,46.92651],[-0.832584,46.92889],[-0.822956,46.91558],[-0.824406,46.90948],[-0.822197,46.90377],[-0.835158,46.88376],[-0.817197,46.87684],[-0.810331,46.86717],[-0.791212,46.85305],[-0.783438,46.84092],[-0.767452,46.83188],[-0.741599,46.82647],[-0.733743,46.81926],[-0.713813,46.81832],[-0.708167,46.81313],[-0.709422,46.80886],[-0.720304,46.80155],[-0.721835,46.79172],[-0.729622,46.78347],[-0.729852,46.76681],[-0.71778,46.7504],[-0.700539,46.74547],[-0.704606,46.73315],[-0.689495,46.72353],[-0.678364,46.72118],[-0.666478,46.70863],[-0.664839,46.69981],[-0.680882,46.6904],[-0.683399,46.6862],[-0.653558,46.67139],[-0.6461,46.66456],[-0.651276,46.6568],[-0.652897,46.64661],[-0.661576,46.64113],[-0.660368,46.63384],[-0.656935,46.63169],[-0.64485,46.63551],[-0.635546,46.63491],[-0.627476,46.63105],[-0.620364,46.62284],[-0.62916,46.60499],[-0.622054,46.59859],[-0.623048,46.5922],[-0.618659,46.58593],[-0.626668,46.57945],[-0.62693,46.57556],[-0.620053,46.56037],[-0.609547,46.55651],[-0.610414,46.55009],[-0.605576,46.54158],[-0.605605,46.53472],[-0.608091,46.53204],[-0.628222,46.53214],[-0.64306,46.52705],[-0.646541,46.52187],[-0.648428,46.50934],[-0.628477,46.49489],[-0.627699,46.48713],[-0.633773,46.47814],[-0.621264,46.47282],[-0.618592,46.46186],[-0.622753,46.45437],[-0.621526,46.44152],[-0.638879,46.43322],[-0.638239,46.42699],[-0.643069,46.41634],[-0.638208,46.40373],[-0.642891,46.39606],[-0.619497,46.38864],[-0.613679,46.39735],[-0.610475,46.40907],[-0.606591,46.41051],[-0.576519,46.39851],[-0.568301,46.39124],[-0.546471,46.38821],[-0.544338,46.38448],[-0.547872,46.37754],[-0.562197,46.3633],[-0.579903,46.35858],[-0.604489,46.36354],[-0.60896,46.35711],[-0.609832,46.34895],[-0.623139,46.34045],[-0.638127,46.33924],[-0.64248,46.32405],[-0.649366,46.31984],[-0.671607,46.31927],[-0.697547,46.32746],[-0.708003,46.32058],[-0.720812,46.31759],[-0.728585,46.30742],[-0.747273,46.30652],[-0.757562,46.31399],[-0.768152,46.31554],[-0.77476,46.321],[-0.79976,46.32822],[-0.80168,46.3329],[-0.794639,46.34018],[-0.802647,46.34536],[-0.820141,46.33886],[-0.824812,46.33934],[-0.830671,46.34433],[-0.841208,46.34285],[-0.850701,46.3338],[-0.849927,46.32364],[-0.853421,46.32054],[-0.857535,46.3222],[-0.859116,46.32747],[-0.865529,46.33017],[-0.873587,46.32551],[-0.888265,46.32921],[-0.89738,46.32044],[-0.905472,46.31685],[-0.938683,46.3177],[-0.949773,46.32215],[-0.951564,46.32579],[-0.940561,46.33652],[-0.931668,46.35972],[-0.92538,46.36916],[-0.925606,46.37253],[-0.929763,46.37395],[-0.936951,46.36962],[-0.943161,46.37033],[-0.952743,46.36398],[-0.965855,46.3676],[-0.976618,46.35395],[-0.990649,46.35328],[-0.999516,46.35732],[-1.007597,46.35494],[-1.013309,46.35799],[-1.047386,46.34777],[-1.054786,46.35164],[-1.067223,46.33652],[-1.082874,46.32585],[-1.085344,46.32122],[-1.095277,46.31802],[-1.107283,46.31807],[-1.112031,46.31966],[-1.115851,46.325],[-1.123229,46.32565],[-1.134262,46.30599],[-1.176929,46.26387],[-1.217367,46.25065],[-1.429329,46.28843],[-1.5003920584547241,46.291511888941926],[-2.442151,46.62818]]]}}
