{"type":"Feature","properties":{"sourceId":"pomorskie"},"geometry":{"type":"Polygon","coordinates":[[[19.51022291565081,54.68547469416043],[19.50858,54.68355],[19.40837,54.61169],[19.62365,54.46356],[19.62416230390201,54.463313172638216],[19.62248,54.40688],[19.25212,54.29509],[19.2415,54.2618],[19.3052,54.20567],[19.23876,54.17948],[19.20273,54.11701],[19.22442,54.0963],[19.20824,54.06214],[19.24605,54.04358],[19.26444,54.00428],[19.31338,54.01051],[19.35975,53.98947],[19.36744,53.9223],[19.5417,53.93023],[19.54139,53.9065],[19.46682,53.82399],[19.46816,53.80283],[19.31446,53.82594],[19.28361,53.75611],[19.19811,53.69678],[19.19725,53.6562],[19.11998,53.61834],[19.11840689518738,53.60109744453878],[19.08712,53.60913],[18.91719,53.59817],[18.77389,53.61757],[18.75159,53.64186],[18.79888,53.69731],[18.78496,53.71441],[18.728,53.69733],[18.69903,53.71004],[18.65226,53.70787],[18.62219,53.68442],[18.5701,53.68962],[18.55355,53.66851],[18.51447,53.71323],[18.35588,53.69919],[18.27998,53.71019],[18.27252,53.75177],[18.20084,53.7665],[18.17281,53.75842],[18.15621,53.77821],[18.11764,53.77473],[18.07045,53.7917],[18.03114,53.74003],[18.01147,53.73537],[17.95055,53.75923],[17.85785,53.76722],[17.85077,53.74978],[17.88097,53.71893],[17.80373,53.69111],[17.77556,53.71019],[17.75703,53.70368],[17.70263,53.64154],[17.69993,53.60452],[17.66534,53.61197],[17.64401,53.59506],[17.60392,53.60762],[17.56546,53.58916],[17.54724,53.59224],[17.51564,53.62828],[17.4409,53.61048],[17.4122,53.58843],[17.40912,53.5452],[17.378533118465498,53.48349904216935],[17.3338,53.49045],[17.27229,53.52402],[17.09247,53.53058],[17.05698,53.50908],[16.99757,53.5066],[16.97819,53.52472],[16.98495,53.54177],[16.94682,53.53197],[16.92638,53.57722],[16.88616,53.61598],[16.84635,53.74957],[16.91606,53.78593],[16.85805,53.82952],[16.84932,53.85433],[16.8652,53.87789],[16.96144,53.89299],[16.85107,53.93796],[16.84893,53.95327],[16.86462,53.96373],[16.83287,53.9838],[16.81679,53.96818],[16.77865,53.97288],[16.78465,53.99792],[16.77125,54.02368],[16.7898,54.06327],[16.78433,54.10808],[16.76984,54.11206],[16.76255,54.14284],[16.72265,54.17012],[16.70063,54.2114],[16.72886,54.24337],[16.83139,54.25907],[16.8527,54.27814],[16.84246,54.29901],[16.80269,54.31539],[16.81252,54.34341],[16.79888,54.37741],[16.83397,54.38763],[16.81354,54.41145],[16.8229,54.43479],[16.81002,54.46007],[16.75412,54.47646],[16.72943,54.52836],[16.68848,54.56457],[16.68699,55.00626],[17.4973,55.07949],[19.25272,55.06663],[19.51022291565081,54.68547469416043]]]}}
