{"type":"Feature","properties":{"sourceId":"pardubicky"},"geometry":{"type":"Polygon","coordinates":[[[16.64028,50.12039],[16.70224,50.10388],[16.79479,50.19136],[16.84425,50.21105],[16.85218,50.21306],[16.86653,50.19797],[16.86767,50.18733],[16.86804,50.17655],[16.85058,50.16465],[16.82766,50.11389],[16.8071,50.10845],[16.82656,50.08528],[16.8006,50.06892],[16.8154,50.05884],[16.81054,50.0513],[16.82075,50.04388],[16.80908,50.0292],[16.78333,50.02246],[16.76848,50.0063],[16.75061,49.99372],[16.73072,50.00112],[16.7151,49.99889],[16.73184,49.97746],[16.73647,49.96674],[16.7363,49.94862],[16.74726,49.93314],[16.749,49.93249],[16.74991,49.932],[16.75048,49.93177],[16.75076,49.93158],[16.7505,49.93124],[16.74982,49.92484],[16.75888,49.92036],[16.7572,49.91161],[16.75518,49.90384],[16.75578,49.90268],[16.7566,49.90213],[16.75772,49.9015],[16.75697,49.90007],[16.75577,49.89908],[16.75565,49.89842],[16.75516,49.89823],[16.75488,49.89719],[16.75227,49.8944],[16.75531,49.88781],[16.76419,49.87676],[16.76715,49.87583],[16.76931,49.87435],[16.76673,49.87367],[16.76587,49.87343],[16.76575,49.87225],[16.75917,49.86711],[16.75326,49.86523],[16.74945,49.86572],[16.74366,49.86355],[16.74293,49.86304],[16.74029,49.84053],[16.73849,49.8309],[16.76257,49.81894],[16.76273,49.79634],[16.76809,49.79234],[16.78056,49.78054],[16.79056,49.77557],[16.79859,49.77519],[16.80345,49.77305],[16.80365,49.76721],[16.79776,49.76087],[16.79469,49.75708],[16.81528,49.74841],[16.80717,49.74047],[16.79823,49.7342],[16.79117,49.7296],[16.81282,49.73259],[16.8317,49.72972],[16.84646,49.72145],[16.84813,49.7161],[16.84504,49.71058],[16.84135,49.70594],[16.84749,49.70497],[16.84934,49.70267],[16.84646,49.68062],[16.83972,49.67402],[16.82803,49.666],[16.8238,49.66513],[16.82041,49.66613],[16.81312,49.66271],[16.81076,49.66032],[16.81003,49.65677],[16.8064,49.65564],[16.80569,49.64493],[16.80273,49.64043],[16.8144,49.6317],[16.82273,49.62317],[16.82101,49.6218],[16.81655,49.62286],[16.81359,49.62489],[16.80954,49.61906],[16.80749,49.60676],[16.80505,49.60493],[16.80376,49.60265],[16.80625,49.59897],[16.78226,49.59522],[16.6927,49.62367],[16.6509,49.618],[16.62384,49.63109],[16.61708,49.62361],[16.60335,49.621],[16.58652,49.6225],[16.56395,49.626],[16.55651,49.62906],[16.54953,49.62128],[16.54953,49.6141],[16.54438,49.59235],[16.54117,49.58845],[16.53726,49.59052],[16.51829,49.58952],[16.50447,49.58974],[16.48859,49.59781],[16.47117,49.59063],[16.46464,49.59163],[16.45872,49.58913],[16.44568,49.58651],[16.4431,49.59686],[16.42782,49.59241],[16.41844,49.59413],[16.42044,49.58691],[16.42063,49.5859],[16.42029,49.58469],[16.41799,49.58275],[16.41031,49.57928],[16.40645,49.57176],[16.39791,49.57446],[16.38808,49.58181],[16.37718,49.5896],[16.36984,49.6012],[16.35993,49.60042],[16.35238,49.60415],[16.3464,49.61168],[16.32427,49.61452],[16.30277,49.62186],[16.29654,49.61747],[16.28566,49.6188],[16.26944,49.62931],[16.24083,49.65888],[16.21245,49.666],[16.20737,49.66609],[16.20571,49.66603],[16.20468,49.66661],[16.20458,49.66746],[16.20389,49.66939],[16.20267,49.6705],[16.20086,49.67106],[16.19904,49.6712],[16.19249,49.67648],[16.18676,49.67329],[16.17703,49.67535],[16.16162,49.68024],[16.14973,49.67726],[16.14861,49.68421],[16.13763,49.68926],[16.12689,49.68606],[16.10172,49.68287],[16.09604,49.68683],[16.08838,49.69554],[16.07716,49.70913],[16.05673,49.7146],[16.04914,49.711],[16.04728,49.71132],[16.04315,49.71312],[16.0407,49.71392],[16.03944,49.7142],[16.03773,49.71452],[16.03583,49.71488],[16.03429,49.71556],[16.03388,49.71703],[16.0247,49.71578],[16.01909,49.71563],[16.00852,49.72372],[16.00487,49.7362],[16.00153,49.73727],[15.99657,49.73746],[15.99677,49.73318],[15.99169,49.7295],[15.97311,49.71925],[15.97453,49.70254],[15.96937,49.70028],[15.95689,49.70076],[15.96131,49.69019],[15.94931,49.68567],[15.91663,49.68424],[15.86843,49.70268],[15.85322,49.71146],[15.84645,49.71885],[15.86318,49.73596],[15.86259,49.74105],[15.85042,49.7352],[15.83175,49.74096],[15.82546,49.74517],[15.8228,49.75224],[15.81864,49.75238],[15.81615,49.75349],[15.81424,49.7549],[15.81214,49.7547],[15.80967,49.75486],[15.80604,49.75684],[15.77332,49.75473],[15.77156,49.76525],[15.77911,49.77777],[15.76999,49.77706],[15.76422,49.77763],[15.75349,49.78187],[15.7386,49.77894],[15.72757,49.78243],[15.71573,49.79016],[15.71114,49.79526],[15.69976,49.79944],[15.68264,49.80193],[15.68204,49.80805],[15.68204,49.81077],[15.67831,49.80994],[15.67607,49.80894],[15.66962,49.80971],[15.66665,49.81197],[15.66234,49.8163],[15.66156,49.81609],[15.66048,49.81511],[15.65916,49.80825],[15.655,49.80658],[15.64131,49.80545],[15.63711,49.80949],[15.63603,49.81462],[15.63183,49.81226],[15.62445,49.80977],[15.61147,49.80882],[15.61026,49.809],[15.60892,49.80945],[15.60843,49.80952],[15.60778,49.80942],[15.59215,49.80847],[15.59061,49.809],[15.5887,49.81132],[15.58986,49.81644],[15.58119,49.8178],[15.57574,49.8204],[15.57123,49.82553],[15.55647,49.83178],[15.54617,49.83671],[15.54467,49.83967],[15.5369,49.83989],[15.5296,49.84252],[15.52016,49.85193],[15.51231,49.8524],[15.49782,49.85816],[15.49665,49.86126],[15.49791,49.86174],[15.49838,49.86152],[15.49918,49.862],[15.50025,49.86263],[15.50018,49.86326],[15.49533,49.86983],[15.50231,49.88413],[15.49819,49.89087],[15.49664,49.89817],[15.51278,49.90077],[15.51776,49.91155],[15.5254,49.92382],[15.53201,49.92631],[15.5138,49.94098],[15.5294,49.96111],[15.51793,49.96226],[15.51787,49.96366],[15.51937,49.96533],[15.5199,49.96646],[15.51866,49.96661],[15.51757,49.96704],[15.51381,49.96701],[15.50566,49.96596],[15.45948,49.98666],[15.47124,49.99395],[15.47169,50.00107],[15.45854,49.99643],[15.45304,50.00206],[15.4551,50.00923],[15.44515,50.00432],[15.42249,50.00851],[15.41193,50.01882],[15.40317,50.01778],[15.38052,50.02368],[15.3626,50.04102],[15.36339,50.04179],[15.36528,50.04236],[15.36831,50.04263],[15.37301,50.04364],[15.37534,50.04645],[15.37811,50.04765],[15.38324,50.04778],[15.38693,50.04729],[15.39378,50.04951],[15.38923,50.05185],[15.38266,50.05177],[15.37897,50.05364],[15.37455,50.05562],[15.38039,50.06127],[15.41086,50.06495],[15.40379,50.08581],[15.40532,50.08718],[15.41746,50.08981],[15.41208,50.09146],[15.41207,50.09145],[15.40983,50.09048],[15.40738,50.09193],[15.40873,50.09316],[15.40073,50.09381],[15.39873,50.09556],[15.40729,50.10554],[15.41496,50.10822],[15.41957,50.10642],[15.42084,50.10426],[15.42963,50.10074],[15.43236,50.11143],[15.43444,50.11122],[15.43914,50.10969],[15.45301,50.09712],[15.46883,50.10086],[15.4879,50.11566],[15.50737,50.11574],[15.51733,50.1236],[15.52076,50.13565],[15.53149,50.1405],[15.53836,50.14204],[15.54789,50.14044],[15.55084,50.13681],[15.55621,50.14],[15.56608,50.15051],[15.569,50.15155],[15.58127,50.14809],[15.58685,50.13752],[15.59981,50.14055],[15.62161,50.13824],[15.63204,50.13791],[15.63522,50.1362],[15.64432,50.13513],[15.64814,50.14113],[15.66766,50.13307],[15.68846,50.12811],[15.69195,50.13274],[15.70306,50.14014],[15.72568,50.13794],[15.73118,50.1419],[15.7367,50.14295],[15.73856,50.16193],[15.77564,50.17602],[15.78134,50.17484],[15.78474,50.17066],[15.78903,50.16918],[15.79585,50.16854],[15.80491,50.16862],[15.80401,50.16249],[15.81018,50.15988],[15.80718,50.15565],[15.80714,50.14192],[15.83799,50.13436],[15.85138,50.14887],[15.88653,50.14734],[15.88713,50.16299],[15.91545,50.16495],[15.91666,50.17118],[15.9503,50.16417],[15.9655,50.15834],[15.9931,50.1587],[15.99356,50.14707],[16.01099,50.1466],[16.01073,50.11331],[16.06403,50.11318],[16.07644,50.0879],[16.11287,50.08515],[16.12334,50.07868],[16.12528,50.074],[16.12913,50.0702],[16.13874,50.06404],[16.13997,50.06372],[16.14089,50.06323],[16.14226,50.06288],[16.14379,50.06399],[16.14286,50.065],[16.14372,50.06608],[16.14662,50.06804],[16.15095,50.066],[16.15668,50.06073],[16.16213,50.06199],[16.16833,50.06184],[16.1755,50.05962],[16.17973,50.05344],[16.17997,50.05302],[16.18744,50.04996],[16.19003,50.048],[16.19604,50.03889],[16.19801,50.04085],[16.20271,50.04065],[16.21204,50.04521],[16.22329,50.04673],[16.23565,50.04717],[16.24223,50.0571],[16.25249,50.05396],[16.25067,50.05031],[16.24672,50.04893],[16.24991,50.0442],[16.2818,50.05208],[16.32986,50.04235],[16.31064,50.06156],[16.31593,50.0648],[16.31543,50.06827],[16.32478,50.07058],[16.35095,50.07736],[16.34843,50.07898],[16.33856,50.08521],[16.33791,50.09118],[16.35062,50.10071],[16.36044,50.10206],[16.3662,50.10142],[16.37298,50.10101],[16.38611,50.10927],[16.3926,50.11933],[16.41881,50.12256],[16.4228,50.12688],[16.43497,50.13092],[16.47215,50.13745],[16.47692,50.15018],[16.47722,50.16168],[16.48008,50.16584],[16.49775,50.16824],[16.52258,50.15936],[16.56864,50.13953],[16.57167,50.14182],[16.57495,50.14108],[16.59831,50.15324],[16.60264,50.14757],[16.64028,50.12039]]]}}
