{"type":"Feature","properties":{"sourceId":"pakistan"},"geometry":{"type":"Polygon","coordinates":[[[61.60171,25.18941],[61.64858,25.40452],[61.65871,25.65515],[61.72462,25.75537],[61.81045,25.97101],[61.82281,26.06048],[61.84822,26.1844],[61.88255,26.27002],[62.28699,26.55168],[62.82257,26.699],[63.16314,26.68919],[63.18237,27.12759],[62.74841,27.218],[62.73193,28.02835],[62.77244,28.25903],[62.59598,28.23362],[62.37625,28.41194],[62.04185,28.49646],[61.90521,28.55377],[61.82625,28.60502],[61.60583,28.82543],[61.46713,29.02315],[60.82168,29.89305],[60.87151260758547,29.880339897722752],[60.85048,29.85834],[62.47478,29.38188],[63.3506,29.44528],[63.57987,29.48503],[64.04017,29.4064],[64.10883,29.36856],[64.16513,29.38681],[64.20953,29.47596],[64.37027,29.52388],[64.66384,29.56931],[65.06378,29.52358],[66.26621,29.83732],[66.37852,29.95261],[66.38695,29.97457],[66.25908,30.0728],[66.34361,30.23998],[66.38214,30.48419],[66.30398,30.58035],[66.40343,30.9252],[66.58195,30.96642],[66.70589,31.06627],[66.74606,31.17815],[66.94588,31.26975],[67.06056,31.19906],[67.1579,31.22313],[67.27494,31.18135],[67.39465,31.19135],[67.65801,31.26282],[67.7272,31.30556],[67.77872,31.30669],[67.81104,31.34658],[67.80282,31.40581],[67.8667,31.60509],[67.98991,31.6276],[68.08234,31.68378],[68.27274,31.74123],[68.41659,31.73809],[68.5508,31.69597],[68.57628,31.70223],[68.71166,31.68956],[68.76577,31.64635],[68.78345,31.6054],[68.85369,31.57638],[68.91429,31.58002],[68.96789,31.61906],[69.02711,31.61355],[69.12781,31.68748],[69.21376,31.83609],[69.34409,31.91421],[69.29018,32.15154],[69.32716,32.31789],[69.26042,32.45718],[69.30299,32.52034],[69.39483,32.5473],[69.46857,32.65021],[69.45619,32.73861],[69.48923,32.83907],[69.562,32.86739],[69.51356,32.94442],[69.52228,33.01901],[69.59354,33.08101],[69.71602,33.07294],[69.78793,33.10654],[69.87652,33.07688],[70.02592,33.12224],[70.17047,33.20262],[70.34433,33.32933],[70.34002,33.39961],[70.30962,33.44137],[70.2688,33.45434],[70.21673,33.6468],[70.17011,33.66936],[70.15708,33.7342],[70.00725,33.75471],[69.92486,33.90555],[69.88042,33.94147],[69.91668,33.97426],[69.91743,34.01756],[70.1912,33.96606],[70.49665,33.92279],[70.8817,33.95525],[71.0913,34.04725],[71.09656,34.10075],[71.14614,34.15857],[71.1933,34.36479],[71.12043,34.44555],[71.0449,34.46192],[71.03633,34.53843],[71.09749,34.57186],[71.13142,34.61954],[71.11555,34.67963],[71.2875,34.78547],[71.31969,34.86776],[71.52421,34.96267],[71.5283,34.99201],[71.57403,35.02568],[71.63465,35.12514],[71.69832,35.20874],[71.57337,35.30193],[71.6742,35.4444],[71.63377,35.58169],[71.56704,35.73363],[71.51832,35.80944],[71.44313,35.90036],[71.3948,35.96946],[71.33448,35.98154],[71.22289,36.05082],[71.27359,36.11861],[71.35581,36.15272],[71.54038,36.30731],[71.58801,36.31474],[71.60503,36.34925],[71.59396,36.36695],[71.62962,36.39289],[71.81107,36.38295],[71.84679,36.43203],[71.8223,36.48582],[71.91736,36.49095],[71.95598,36.53273],[72.09098,36.57381],[72.21999,36.64838],[72.21377,36.7015],[72.25257,36.72872],[72.5014,36.76163],[72.57454,36.8105],[72.64513,36.8285],[72.89078,36.82206],[72.93558,36.82685],[72.96304,36.85342],[73.04187,36.84224],[73.08319,36.8669],[73.30295,36.85244],[73.54306,36.8555],[73.68242,36.89585],[73.97961,36.81534],[74.124,36.82129],[74.2366,36.87789],[74.30449,36.8973],[74.439,36.98347],[74.51705,36.94263],[74.55241,36.95059],[74.54806,37.00587],[74.58001,37.04025],[74.55078078942505,37.07174413481382],[74.66858,37.10667],[74.81003,37.09024],[75.4129,36.97513],[75.83038,36.78069],[76.60766,35.95355],[76.82471651477134,35.7221321648531],[76.74637,35.6718],[76.70929,35.55793],[77.03064,35.10194],[76.76559,34.95406],[76.47514,34.80591],[76.25748,34.72553],[76.14899,34.65044],[76.06968,34.69957],[76.02161,34.69082],[75.95055,34.6414],[75.77305,34.54078],[75.40363,34.56595],[75.36484,34.55379],[75.27729,34.64394],[75.14305,34.66992],[75.03559,34.64987],[74.93431,34.68602],[74.71149,34.70041],[74.58824,34.76418],[74.48387,34.78646],[74.38465,34.79463],[74.30569,34.78871],[73.95927,34.69279],[73.92769,34.64564],[73.91773,34.60919],[73.93284,34.56934],[73.80134,34.4307],[73.76976,34.39926],[73.74573,34.37858],[73.74161,34.34202],[73.76942,34.32586],[73.87756,34.31565],[73.93078,34.27651],[73.98125,34.26119],[73.99155,34.19448],[73.95,34.17574],[73.90057,34.11038],[73.88615,34.06205],[73.89645,34.0151],[73.97919,34.00173],[74.07772,34.02933],[74.1354,34.02506],[74.26037,33.96386],[74.22329,33.8784],[74.04922,33.82879],[73.94691,33.72605],[73.96751,33.64035],[74.01215,33.57229],[74.13299,33.53796],[74.15771,33.35806],[74.00803,33.27773],[73.98125,33.22605],[74.15909,33.07486],[74.45366,32.77111],[74.51408,32.73704],[74.6418,32.73184],[74.62463,32.59831],[74.67201,32.4837],[74.7139,32.47096],[74.94461,32.43967],[75.12794,32.40315],[75.17601,32.40199],[75.36072,32.23662],[75.32295,32.22384],[75.19867,32.13027],[75.1767,32.09537],[74.94118,32.07734],[74.86359,32.06628],[74.59854,31.90205],[74.47632,31.72116],[74.54567,31.60486],[74.58412,31.56098],[74.56146,31.50246],[74.62532,31.44741],[74.52919,31.36419],[74.49898,31.18461],[74.49966,31.13408],[74.52644,31.01116],[74.34448,30.91754],[74.08905,30.63141],[73.9167,30.49306],[73.86864,30.35984],[73.95035,30.20093],[73.79379,30.07801],[73.60085,30.02987],[73.38455,29.96088],[73.27263,29.57973],[73.07556,29.25705],[72.89841,29.03336],[72.30926,28.81099],[70.35919,28.05502],[69.49486,27.21886],[69.43908,26.76278],[70.1223,25.87591],[70.29121,25.65824],[70.61325,25.66195],[70.64415,25.38125],[70.87074,25.13596],[70.93529,24.92381],[71.04378,24.73748],[70.98297,24.61186],[70.98297393790803,24.611859750145985],[70.97854,24.6027],[70.96687,24.379],[70.64587,24.23476],[70.59677,24.25949],[70.61565,24.41058],[70.56587,24.44402],[70.10376,24.3058],[68.78952,24.37587],[67.67457,23.79702],[67.78085812629308,23.408146453275034],[61.40808,24.53214],[61.60171,25.18941]]]}}
