{"type":"Feature","properties":{"sourceId":"pais-vasco"},"geometry":{"type":"MultiPolygon","coordinates":[[[[-1.789055,43.37611],[-1.789457,43.37277],[-1.788025,43.36918],[-1.778506,43.36299],[-1.788368,43.35358],[-1.783776,43.34976],[-1.77691,43.34851],[-1.775579,43.3445],[-1.769893,43.34297],[-1.760924,43.34466],[-1.756568,43.34423],[-1.752362,43.34147],[-1.751719,43.3396],[-1.750989,43.33592],[-1.741204,43.33197],[-1.736611,43.33042],[-1.736805,43.32162],[-1.740539,43.31681],[-1.73545,43.31262],[-1.728754328957214,43.29808980477519],[-1.739917,43.29645],[-1.784978,43.28739],[-1.788583,43.28055],[-1.795321,43.27655],[-1.794334,43.27105],[-1.796565,43.26386],[-1.797295,43.24655],[-1.804633,43.24495],[-1.820941,43.23945],[-1.839867,43.22629],[-1.850038,43.22898],[-1.853213,43.22619],[-1.862226,43.21778],[-1.865401,43.23141],[-1.878448,43.23445],[-1.883211,43.22813],[-1.882653,43.217],[-1.88982,43.21534],[-1.906171,43.22207],[-1.909797,43.22826],[-1.911943,43.22766],[-1.916986,43.22335],[-1.913788,43.21675],[-1.915999,43.20887],[-1.926642,43.18709],[-1.925182,43.14803],[-1.908274,43.14127],[-1.949387,43.1028],[-1.973162,43.0939],[-2.014275,43.07328],[-2.026548,43.06719],[-2.020454,43.0539],[-2.034531,43.03358],[-2.043114,43.03025],[-2.042084,43.01689],[-2.032986,42.99624],[-2.040968,42.98268],[-2.050667,42.98054],[-2.089977,42.97639],[-2.097015,42.97332],[-2.111006,42.94995],[-2.174606,42.94279],[-2.199326,42.95542],[-2.214432,42.95089],[-2.239237,42.93073],[-2.256489,42.89219],[-2.244644,42.88477],[-2.243185,42.86326],[-2.235289,42.84318],[-2.270393,42.81391],[-2.272883,42.80749],[-2.283011,42.78488],[-2.268419,42.75048],[-2.318287,42.74071],[-2.327728,42.72217],[-2.319145,42.68199],[-2.310219,42.66874],[-2.347298,42.63686],[-2.388067,42.65991],[-2.397251,42.66249],[-2.416048,42.66382],[-2.431326,42.65864],[-2.452355,42.64791],[-2.473555,42.62727],[-2.483339,42.61482],[-2.502308,42.61842],[-2.501192,42.60945],[-2.492523,42.58311],[-2.467632,42.58279],[-2.454415,42.56206],[-2.441197,42.57205],[-2.418537,42.5996],[-2.401028,42.58443],[-2.395535,42.55194],[-2.404461,42.54385],[-2.397251,42.51906],[-2.421799,42.51488],[-2.426949,42.50881],[-2.423108690976345,42.49065386693551],[-2.437506,42.49115],[-2.44832,42.49786],[-2.474842,42.49318],[-2.479305,42.48824],[-2.499561,42.49001],[-2.510376,42.49469],[-2.507887,42.50273],[-2.502737,42.5133],[-2.507114,42.52121],[-2.512693,42.52038],[-2.515268,42.51861],[-2.519131,42.5107],[-2.538614,42.49621],[-2.568569,42.49507],[-2.573032,42.49336],[-2.575071,42.49112],[-2.577689,42.48568],[-2.604103,42.5059],[-2.630196,42.49666],[-2.665386,42.51134],[-2.675729,42.52644],[-2.680042,42.5271],[-2.694225,42.53006],[-2.685471,42.55896],[-2.686501,42.57002],[-2.678776,42.59663],[-2.740231,42.62373],[-2.766581,42.62537],[-2.776022,42.60491],[-2.781,42.5819],[-2.80057,42.5742],[-2.817135,42.57148],[-2.815247,42.60061],[-2.817049,42.61615],[-2.838764,42.6116],[-2.839708,42.62878],[-2.852755,42.63882],[-2.859793,42.64027],[-2.8688845639381544,42.637867011201934],[-2.871294,42.63819],[-2.890692,42.6476],[-2.898073,42.65366],[-2.901077,42.66729],[-2.901077,42.6731],[-2.898502,42.6765],[-2.904682,42.68635],[-2.904425,42.69259],[-2.918501,42.69695],[-2.922621,42.6996],[-2.933006,42.69859],[-2.93232,42.70616],[-2.964592,42.70565],[-2.981415,42.69972],[-3.040466,42.73579],[-3.082009,42.75432],[-3.129902,42.75332],[-3.155308,42.75332],[-3.135567,42.78545],[-3.228092,42.82562],[-3.284912,42.8698],[-3.29092,42.88376],[-3.282509,42.90389],[-3.244915,42.94411],[-3.227749,42.95291],[-3.205776,42.95316],[-3.145352,42.93908],[-3.10175,42.91683],[-3.090763,42.90489],[-3.031025,42.90967],[-2.992916,42.94034],[-3.018665,42.94901],[-3.051796,42.97162],[-3.045101,42.98092],[-3.089218,42.99812],[-3.148098,43.00314],[-3.179856,43.01783],[-3.182259,43.02962],[-3.152905,43.03188],[-3.144493,43.06287],[-3.161831,43.07215],[-3.15239,43.10086],[-3.181572,43.11301],[-3.186722,43.12141],[-3.170586,43.14546],[-3.165436,43.15536],[-3.145695,43.16763],[-3.168869,43.17514],[-3.187065,43.16638],[-3.216076,43.17076],[-3.227921,43.17151],[-3.253155,43.19316],[-3.389626,43.13469],[-3.3897267260025803,43.1346739480474],[-3.253412,43.19316],[-3.26397,43.20956],[-3.243885,43.25145],[-3.245087,43.26296],[-3.250065,43.28908],[-3.208008,43.28133],[-3.188782,43.29582],[-3.150501,43.29907],[-3.147412,43.30619],[-3.151875,43.34035],[-3.148699,43.34834],[-3.149386,43.35589],[-3.145500075635932,43.7445883439525],[-1.666284,43.65226],[-1.765709,43.38409],[-1.789055,43.37611]]],[[[-1.726385,43.29911],[-1.7263859130533603,43.299104896653866],[-1.72863,43.29782],[-1.726385,43.29911]]],[[[-3.419495,43.12993],[-3.419668681232942,43.13035284831297],[-3.3937307129072725,43.13403586248489],[-3.419495,43.12993]]],[[[-2.4231086909763446,42.49065386693551],[-2.419224,42.49052],[-2.423108690976345,42.49065386693551],[-2.4231086909763446,42.49065386693551]]]]}}
