{"type":"Feature","properties":{"sourceId":"plzensky"},"geometry":{"type":"Polygon","coordinates":[[[13.51499,48.93387],[13.49259,48.93575],[13.39141,48.98191],[13.39013,49.02802],[13.27927,49.11523],[13.23239,49.10701],[13.17901,49.12323],[13.16138,49.14163],[13.15471,49.17498],[13.1142,49.19294],[13.07083,49.23632],[13.01793,49.26089],[13.01936,49.29136],[12.95503,49.33175],[12.89689,49.34417],[12.89689,49.32523],[12.7806,49.33486],[12.70453,49.41244],[12.6513,49.42889],[12.62667,49.47843],[12.63668,49.52238],[12.59474,49.52733],[12.5652,49.55423],[12.56806,49.5873],[12.5509,49.61201],[12.52564,49.61139],[12.5061,49.64504],[12.51182,49.67342],[12.44119,49.69027],[12.38887,49.74898],[12.39661,49.76688],[12.45856,49.78887],[12.45368,49.81662],[12.525412980388468,49.904220003767875],[12.54914,49.90425],[12.56486,49.90101],[12.58136,49.90237],[12.59406,49.89142],[12.61213,49.89718],[12.61436,49.90635],[12.64519,49.91488],[12.66071,49.90978],[12.66881,49.89064],[12.68612,49.88988],[12.68011,49.90768],[12.71433,49.91135],[12.71067,49.92288],[12.71925,49.92106],[12.7262,49.92161],[12.73685,49.92393],[12.7432,49.93078],[12.75212,49.92879],[12.76792,49.93067],[12.77547,49.92647],[12.77813,49.93178],[12.79444,49.93778],[12.82225,49.93022],[12.83862,49.93257],[12.84834,49.92417],[12.85288,49.92252],[12.87756,49.92467],[12.8939,49.93292],[12.92096,49.92062],[12.92916,49.91953],[12.96881,49.94318],[12.96507,49.9521],[12.96918,49.95242],[12.97025,49.95838],[12.9616,49.9746],[13.00146,49.97662],[13.00243,49.988],[13.01839,49.98506],[13.06855,50.00863],[13.08151,50.01825],[13.08418,50.01825],[13.08524,50.02157],[13.08504,50.02172],[13.09675,50.03237],[13.1056,50.02209],[13.15465,50.02202],[13.18009,50.00909],[13.20582,49.99847],[13.23441,49.99384],[13.23655,50.00057],[13.23346,50.01585],[13.24467,50.02561],[13.24122,50.03754],[13.23512,50.04475],[13.25227,50.04506],[13.28144,50.0511],[13.29515,50.06054],[13.30032,50.06987],[13.29758,50.07626],[13.28204,50.07951],[13.292,50.0919],[13.29166,50.09597],[13.3023,50.09597],[13.302421971976981,50.098696432426635],[13.32199,50.09961],[13.32329,50.08606],[13.33461,50.08617],[13.35268,50.09851],[13.35487,50.09375],[13.3719,50.07552],[13.39457,50.07964],[13.40606,50.08384],[13.410809537113778,50.088478863715494],[13.43096,50.0724],[13.43111,50.06034],[13.41276,50.05119],[13.41268,50.04843],[13.40169,50.03432],[13.42469,50.03548],[13.42684,50.02991],[13.44469,50.04264],[13.4716,50.04413],[13.47991,50.03894],[13.47999,50.03894],[13.4802,50.03896],[13.48009,50.03883],[13.48798,50.0339],[13.49209,50.03596],[13.4967,50.04033],[13.51287,50.04214],[13.52048,50.04097],[13.52554,50.03498],[13.53898,50.03149],[13.53846,50.02812],[13.51024,50.02954],[13.50426,50.02219],[13.5081,50.02059],[13.51577,50.02095],[13.52355,50.01485],[13.53508,50.0152],[13.55447,50.01028],[13.57148,49.9949],[13.61661,49.99389],[13.62991,50.00079],[13.64468,50.00314],[13.65687,50.0022],[13.66882,49.99685],[13.67137,49.98942],[13.68133,49.97954],[13.69223,49.97943],[13.70124,49.97126],[13.70192,49.96353],[13.71051,49.96712],[13.72373,49.96845],[13.73883,49.9648],[13.74879,49.96641],[13.75387,49.95745],[13.75043,49.94059],[13.7572,49.94421],[13.78334,49.9428],[13.8098,49.92867],[13.83586,49.92847],[13.82196,49.92119],[13.82955,49.89012],[13.83492,49.86748],[13.82934,49.86513],[13.81136,49.86538],[13.8141,49.85316],[13.80704,49.83637],[13.80971,49.81144],[13.80467,49.80347],[13.79187,49.80022],[13.80211,49.78134],[13.79591,49.7689],[13.78411,49.762],[13.799,49.76685],[13.81447,49.76077],[13.82212,49.75342],[13.84247,49.69596],[13.82438,49.68491],[13.80635,49.69088],[13.78681,49.66874],[13.77754,49.6683],[13.76604,49.64852],[13.77606,49.63811],[13.75626,49.62606],[13.754,49.59631],[13.74253,49.58441],[13.74713,49.55365],[13.7669,49.54649],[13.7742,49.5354],[13.76879,49.51724],[13.75557,49.50543],[13.76055,49.50164],[13.75883,49.49617],[13.75152,49.4872],[13.77086,49.48352],[13.76809,49.45175],[13.79276,49.43544],[13.76999,49.42483],[13.7633,49.39993],[13.78192,49.37461],[13.78475,49.37544],[13.7899,49.37187],[13.7917,49.36879],[13.791,49.3635],[13.78583,49.35155],[13.77068,49.3428],[13.7726,49.33645],[13.77129,49.32326],[13.73824,49.31582],[13.73446,49.30744],[13.72568,49.30839],[13.72831,49.30262],[13.73681,49.29026],[13.73278,49.27939],[13.72411,49.27674],[13.70426,49.2761],[13.71002,49.26025],[13.73145,49.25937],[13.73571,49.25668],[13.722,49.25015],[13.72893,49.24215],[13.71049,49.24195],[13.71183,49.23551],[13.69101,49.22762],[13.70544,49.21222],[13.71205,49.21199],[13.71686,49.20829],[13.72072,49.19421],[13.7166,49.19197],[13.71184,49.19127],[13.69853,49.19034],[13.69397,49.18636],[13.69604,49.16309],[13.69213,49.1626],[13.69179,49.16248],[13.68976,49.15903],[13.66124,49.15909],[13.66124,49.15449],[13.65369,49.14876],[13.64357,49.14294],[13.63453,49.13741],[13.63025,49.13429],[13.60498,49.14314],[13.60219,49.14709],[13.59286,49.14738],[13.59152,49.1459],[13.60216,49.14256],[13.59429,49.12956],[13.59048,49.12688],[13.59386,49.12276],[13.60038,49.10867],[13.58245,49.10253],[13.59901,49.08861],[13.6064,49.07066],[13.60755,49.06383],[13.60403,49.05385],[13.58866,49.04328],[13.58337,49.04347],[13.57226,49.04865],[13.54642,49.01816],[13.547,49.00573],[13.53962,48.98709],[13.55271,48.97802],[13.55245,48.96656],[13.54791,48.96097],[13.52214,48.96392],[13.51499,48.93387]]]}}
