{"type":"Feature","properties":{"sourceId":"portugal"},"geometry":{"type":"Polygon","coordinates":[[[-15.09523,30.03107],[-15.76411,29.73514],[-15.94481,29.7],[-16.43109,29.7],[-18.25081,30.45744],[-29.453567355133178,37.46174496294495],[-23.71814,35.67791],[-23.71814,40.0757],[-31.57293,40.0757],[-31.57293,38.78683501186214],[-31.6,38.80376],[-31.6,40.21331],[-9.222567521767271,41.864325254259],[-9.214475,41.84694],[-8.870688,41.86234],[-8.863049,41.87055],[-8.853564,41.87288],[-8.843651,41.87864],[-8.829854,41.89206],[-8.8106,41.90503],[-8.787174,41.91492],[-8.778591,41.91965],[-8.764076,41.92557],[-8.747477,41.93935],[-8.745718,41.94679],[-8.746061,41.95604],[-8.742199,41.96523],[-8.721943,41.97583],[-8.699713,41.98233],[-8.678779,41.98933],[-8.659507,42.00363],[-8.656626,42.01818],[-8.65551,42.02991],[-8.645983,42.0361],[-8.634997,42.04668],[-8.597531,42.0542],[-8.582425,42.05136],[-8.573585,42.05222],[-8.561053,42.05181],[-8.546848,42.05347],[-8.536892,42.05732],[-8.526979,42.06099],[-8.523717,42.06427],[-8.525605,42.06679],[-8.525221,42.07546],[-8.521142,42.07787],[-8.51419,42.07752],[-8.500071,42.07736],[-8.495693,42.07886],[-8.489857,42.08045],[-8.484364,42.0809],[-8.478398,42.08013],[-8.446635,42.08132],[-8.438659,42.07784],[-8.429904,42.07163],[-8.419519,42.07204],[-8.411708,42.07606],[-8.402614,42.07887],[-8.397803,42.07892],[-8.390894,42.07424],[-8.382354,42.07478],[-8.369136,42.08462],[-8.361712,42.08806],[-8.353429,42.08803],[-8.344288,42.08364],[-8.332577,42.0822],[-8.324075,42.0901],[-8.323431,42.09341],[-8.323259,42.09857],[-8.320169,42.10115],[-8.314033,42.10243],[-8.303003,42.10328],[-8.298369,42.10548],[-8.273306,42.12191],[-8.258106,42.11996],[-8.240965,42.1364],[-8.229789,42.12874],[-8.204813,42.1405],[-8.197432,42.14864],[-8.189535,42.13731],[-8.195801,42.12968],[-8.187058,42.06623],[-8.171158,42.06441],[-8.12067,42.07929],[-8.098351,42.06801],[-8.087117,42.04741],[-8.087552,42.01714],[-8.131392,42.0058],[-8.141554,41.99046],[-8.165175,41.98401],[-8.178815,41.95567],[-8.200837,41.93898],[-8.218676,41.91185],[-8.215463,41.89563],[-8.204429,41.88911],[-8.201294,41.8725],[-8.170953,41.87479],[-8.164902,41.84859],[-8.167992,41.81674],[-8.121925,41.80559],[-8.092522,41.80708],[-8.055235,41.81432],[-8.032384,41.82772],[-8.011658,41.82768],[-7.979411,41.87092],[-7.945466,41.86967],[-7.918194,41.87878],[-7.902097,41.92475],[-7.886263,41.92446],[-7.888482,41.9054],[-7.885557,41.88348],[-7.895222,41.85806],[-7.873764,41.84271],[-7.838745,41.86598],[-7.836983,41.8778],[-7.783253,41.8828],[-7.759747,41.89725],[-7.742938,41.89155],[-7.731114,41.89078],[-7.699954,41.90597],[-7.659008,41.88081],[-7.628218,41.87786],[-7.61732,41.88218],[-7.608166,41.87799],[-7.589016,41.87769],[-7.60408,41.8664],[-7.614216,41.84606],[-7.61696,41.82602],[-7.540135,41.83039],[-7.503777,41.8492],[-7.509791,41.86342],[-7.492484,41.86885],[-7.485302,41.85973],[-7.452914,41.86243],[-7.44617,41.83703],[-7.427711,41.80443],[-7.395982,41.82119],[-7.383649,41.84035],[-7.356211,41.83808],[-7.308816,41.84212],[-7.253169,41.86227],[-7.231034,41.86564],[-7.19575,41.87838],[-7.18261,41.8978],[-7.1719,41.91911],[-7.182549,41.9408],[-7.180775,41.95157],[-7.184385,41.96931],[-7.176346,41.97776],[-7.157407,41.97496],[-7.140343,41.98889],[-7.070791,41.94686],[-7.009467,41.9474],[-6.990137,41.95914],[-6.982773864688937,41.96615310617263],[-6.981559,41.96434],[-6.971684,41.97034],[-6.943012,41.94185],[-6.892903,41.9384],[-6.821389,41.94297],[-6.803122,41.98357],[-6.776676,41.98399],[-6.750448,41.94124],[-6.696975,41.93063],[-6.670349,41.93623],[-6.617454,41.93895],[-6.59895,41.94696],[-6.585526,41.96432],[-6.548705,41.93965],[-6.574293,41.88182],[-6.523529,41.87339],[-6.547637,41.79538],[-6.556137,41.76815],[-6.571633,41.74422],[-6.556168,41.72065],[-6.559182,41.69701],[-6.549569,41.67907],[-6.498993,41.65298],[-6.453438,41.66445],[-6.439706,41.68],[-6.374641,41.67264],[-6.354218,41.67291],[-6.285455,41.65226],[-6.23457,41.60482],[-6.19801,41.58996],[-6.196614,41.58026],[-6.246205,41.5172],[-6.258245,41.51488],[-6.260061,41.51166],[-6.256285,41.50395],[-6.257057,41.49926],[-6.265555,41.49996],[-6.267614,41.49765],[-6.269331,41.49431],[-6.267057,41.4919],[-6.26401,41.4891],[-6.26328,41.48785],[-6.265769,41.48797],[-6.268988,41.48759],[-6.272807,41.48592],[-6.279202,41.48228],[-6.28521,41.47926],[-6.307896,41.4487],[-6.297736,41.4363],[-6.334772,41.41522],[-6.334733,41.38723],[-6.366379,41.39698],[-6.393228,41.38594],[-6.397614,41.36369],[-6.425285,41.34254],[-6.439276,41.31927],[-6.442881,41.30573],[-6.466656,41.30296],[-6.471291,41.30109],[-6.486912,41.29283],[-6.493552,41.28732],[-6.49189,41.28284],[-6.483135,41.27548],[-6.506996,41.26749],[-6.512146,41.27316],[-6.522519,41.27795],[-6.572309,41.24112],[-6.590002,41.25803],[-6.616345,41.25019],[-6.649343,41.24942],[-6.693919,41.20909],[-6.702551,41.18846],[-6.776736,41.1285],[-6.759338,41.10658],[-6.757536,41.10316],[-6.760197,41.09844],[-6.763802,41.09585],[-6.765947,41.09125],[-6.770067,41.08919],[-6.775303,41.07864],[-6.782169,41.06887],[-6.803412,41.04887],[-6.808562,41.04673],[-6.813626,41.03926],[-6.822853,41.03301],[-6.843238,41.02887],[-6.864009,41.02819],[-6.87933,41.02916],[-6.897655,41.03356],[-6.904221,41.03469],[-6.907697,41.03712],[-6.916194,41.03942],[-6.931644,41.02981],[-6.933364,41.01432],[-6.860021,40.94147],[-6.850531,40.90085],[-6.830377,40.87994],[-6.810547,40.88045],[-6.803395,40.84824],[-6.828272,40.84586],[-6.8256,40.81849],[-6.820956,40.80142],[-6.831341,40.77023],[-6.831865,40.74223],[-6.811622,40.69742],[-6.80706,40.6641],[-6.798477,40.66124],[-6.822767,40.61174],[-6.826544,40.60789],[-6.82929,40.60346],[-6.835814,40.59825],[-6.842766,40.59362],[-6.849633,40.56207],[-6.807519,40.5514],[-6.80452,40.51169],[-6.821137,40.50127],[-6.856156,40.45348],[-6.838646,40.40461],[-6.793289,40.36878],[-6.79671,40.33083],[-6.820871,40.32719],[-6.865469,40.30181],[-6.865942,40.28403],[-6.870947,40.27436],[-6.870946148478807,40.27435615999462],[-6.875725,40.26512],[-6.921044,40.2625],[-6.953659,40.25883],[-6.967736,40.24258],[-6.990052,40.24337],[-7.017838,40.22379],[-7.033997,40.18753],[-7.018514,40.12549],[-6.994858,40.10985],[-6.947823,40.10381],[-6.920357,40.06388],[-6.887055,40.04049],[-6.883622,40.01894],[-6.875038,40.01052],[-6.912117,39.91843],[-6.906468,39.87141],[-6.930313,39.85731],[-6.935609,39.84957],[-6.951758,39.83019],[-6.981901,39.82359],[-6.989638,39.80901],[-6.995676,39.72512],[-7.020435,39.67235],[-7.064255,39.66157],[-7.114347,39.66608],[-7.125664,39.6661],[-7.146607,39.65884],[-7.268826,39.66884],[-7.299557,39.65963],[-7.333546,39.64377],[-7.370796,39.65368],[-7.41869,39.65276],[-7.425393,39.66114],[-7.485981,39.66703],[-7.54369,39.66918],[-7.524867,39.62766],[-7.497387,39.58432],[-7.463494,39.57037],[-7.438688,39.53429],[-7.394287,39.52668],[-7.389969,39.49233],[-7.363802,39.48042],[-7.300163,39.46043],[-7.311043,39.43591],[-7.305234,39.41759],[-7.325055,39.3816],[-7.309119,39.33414],[-7.23709,39.27669],[-7.250007,39.25687],[-7.24308,39.2026],[-7.207901,39.18443],[-7.137337,39.16747],[-7.152443,39.12194],[-7.152532,39.11232],[-7.144718,39.10702],[-7.111249,39.09436],[-7.033652,39.11515],[-6.974794,39.07525],[-6.970482,39.03839],[-6.957264,39.02358],[-6.986618,38.9821],[-7.022495,38.94072],[-7.030049,38.92363],[-7.055283,38.90733],[-7.038117,38.87647],[-7.04979,38.8631],[-7.070046,38.85535],[-7.094854,38.821],[-7.130998,38.81736],[-7.155533,38.79851],[-7.161649,38.7852],[-7.193985,38.77041],[-7.220078,38.74418],[-7.239304,38.73895],[-7.26162,38.72489],[-7.269173,38.69891],[-7.276039,38.6386],[-7.261105,38.61312],[-7.269173,38.58843],[-7.287712,38.57447],[-7.305393,38.54333],[-7.315178,38.51835],[-7.324963,38.47523],[-7.308567,38.4683],[-7.332001,38.44525],[-7.338867,38.43436],[-7.300587,38.42495],[-7.284279,38.41742],[-7.274838,38.39643],[-7.263894,38.38191],[-7.233811,38.35431],[-7.172138,38.27751],[-7.149525,38.26393],[-7.144944,38.23924],[-7.110729,38.18625],[-7.084465,38.1656],[-7.065411,38.17667],[-7.04876,38.17816],[-7.021836,38.1827],[-7.004829,38.1998],[-6.969109,38.20123],[-6.952973,38.21296],[-6.943360879949375,38.204891343642906],[-6.943363,38.20489],[-6.941072,38.20297],[-6.97031,38.16965],[-6.97237,38.15994],[-6.960697,38.15224],[-6.962757,38.14023],[-6.961041,38.13604],[-6.965847,38.13361],[-6.991596,38.10377],[-7.000523,38.05052],[-7.005329,38.04431],[-7.007904,38.02403],[-7.023697,38.02605],[-7.056828,38.02037],[-7.067127,38.03498],[-7.077599,38.03579],[-7.099571,38.04688],[-7.119484,38.03511],[-7.13047,38.03011],[-7.13356,38.02227],[-7.126866,38.00469],[-7.146435,38.00455],[-7.166691,37.99738],[-7.18523,38.00374],[-7.203255,38.00469],[-7.226944,37.99319],[-7.245655,37.99305],[-7.26574,37.9802],[-7.254067,37.96369],[-7.256813,37.93865],[-7.263336,37.92511],[-7.284279,37.89883],[-7.298699,37.85778],[-7.329254,37.81792],[-7.422466,37.75999],[-7.450104,37.69795],[-7.458483,37.66085],[-7.46109,37.65325],[-7.46933,37.64985],[-7.466412,37.64251],[-7.471905,37.63598],[-7.473793,37.62715],[-7.48478,37.62538],[-7.484093,37.61777],[-7.487354,37.61314],[-7.490273,37.60662],[-7.505928,37.60388],[-7.499371,37.59302],[-7.503662,37.58839],[-7.505036,37.57955],[-7.515164,37.57384],[-7.517567,37.56921],[-7.52466,37.55333],[-7.511516,37.52181],[-7.492083,37.51954],[-7.492704,37.50539],[-7.484951,37.4957],[-7.477055,37.49284],[-7.467957,37.48862],[-7.47242,37.4814],[-7.470703,37.46886],[-7.458467,37.42509],[-7.452679,37.41898],[-7.464352,37.41421],[-7.463837,37.40671],[-7.442216,37.39151],[-7.440834,37.35733],[-7.447286,37.34549],[-7.444954,37.31202],[-7.429025,37.27275],[-7.437966,37.24958],[-7.437916,37.24932],[-7.43772,37.24786],[-7.418941,37.2344],[-7.417832,37.21283],[-7.409518,37.18382],[-7.399232,36.96599],[-7.377137020168797,36.94720624912017],[-8.389577,35.95769],[-9.611205,35.98587],[-15.09523,30.03107]]]}}
