{"type":"Feature","properties":{"sourceId":"papua"},"geometry":{"type":"Polygon","coordinates":[[[140.3349,-1.854482],[140.5085,-1.953689],[141.0126,-2.566397],[141.0017,-6.297641],[141.0207,-6.881843],[141.0217,-9.160827],[140.9779,-9.495116],[138.8507,-9.167173],[137.4829,-8.722213],[135.3625,-5.156593],[132.7588,-4.784463],[131.0339,-2.904633],[129.4794,-2.355898],[128.2819,-2.328458],[128.9603,-1.411598],[129.7211,-0.159299],[129.5563,0.889862],[130.58984846930502,1.9230663886936694],[132.7297,1.621407],[132.88169733584442,1.7422320728277827],[133.2925,1.678134],[134.6484,1.120545],[140.3349,-1.854482]]]}}
