{"type":"Feature","properties":{"sourceId":"podkarpackie"},"geometry":{"type":"Polygon","coordinates":[[[21.87966,50.80229],[21.88667,50.78553],[21.94642,50.77797],[21.97254,50.79347],[21.99483,50.79003],[22.05272,50.82591],[22.16552,50.80261],[22.16501,50.7754],[22.18757,50.77195],[22.21094,50.75643],[22.18006,50.70957],[22.18284,50.69974],[22.17359,50.68487],[22.15982,50.67437],[22.20586,50.67225],[22.22602,50.66497],[22.25196,50.63743],[22.25423,50.62715],[22.29016,50.6288],[22.35022,50.62005],[22.41839,50.58783],[22.46639,50.59772],[22.48646,50.58699],[22.52141,50.58883],[22.54035,50.57637],[22.54378,50.5475],[22.53203,50.54225],[22.53968,50.54016],[22.54229,50.51367],[22.57352,50.51495],[22.58271,50.50343],[22.57379,50.48798],[22.58796,50.48828],[22.59311,50.48171],[22.59047,50.47347],[22.57292,50.46677],[22.5694,50.45465],[22.55504,50.45507],[22.53154,50.44138],[22.51562,50.45362],[22.50129,50.44919],[22.46232,50.45562],[22.46454,50.4312],[22.45488,50.42709],[22.44825,50.41352],[22.4176,50.41563],[22.41407,50.40494],[22.43979,50.40498],[22.44291,50.39724],[22.45816,50.39124],[22.45863,50.37294],[22.48488,50.3595],[22.50631,50.3582],[22.50949,50.35184],[22.56391,50.36469],[22.59703,50.35528],[22.62464,50.36346],[22.69269,50.3604],[22.68967,50.34002],[22.61514,50.32509],[22.61691,50.3146],[22.70764,50.29819],[22.75089,50.30919],[22.82106,50.30797],[22.85443,50.30082],[22.88945,50.3074],[23.01677,50.29328],[23.04861,50.30957],[23.06393,50.32835],[23.08785,50.33622],[23.17977,50.40194],[23.22046,50.39334],[23.255,50.37008],[23.27687,50.38157],[23.3013,50.38527],[23.31498,50.3978],[23.34875,50.40701],[23.35675,50.41625],[23.39105,50.41008],[23.38814,50.3938],[23.37808,50.39341],[23.38813,50.38536],[23.3852,50.37446],[23.40756,50.37015],[23.41667,50.35712],[23.4414,50.34872],[23.42309,50.3105],[23.45831,50.3089],[23.47129,50.30065],[23.49458,50.30569],[23.52123,50.30128],[23.52006,50.26913],[23.54577,50.26356],[23.5536,50.25202],[23.55359,50.23626],[23.29601,50.08574],[22.98236,49.82352],[22.97194,49.79268],[22.80987,49.6752],[22.66827,49.52388],[22.71177,49.50075],[22.76123,49.36705],[22.75207,49.1992],[22.83978,49.12953],[22.9038,49.10512],[22.88824,49.06214],[22.90651,49.00343],[22.84886,48.98642],[22.77135,49.03473],[22.67411,49.02486],[22.58708,49.07926],[22.49325,49.07071],[22.40988,49.08709],[22.36085,49.1287],[22.22105,49.13775],[22.2095,49.16442],[22.01962,49.21408],[22.01573,49.26991],[21.9536,49.3311],[21.89993,49.33483],[21.83174,49.37362],[21.77292,49.34122],[21.70974,49.3974],[21.65439,49.40176],[21.62144,49.42871],[21.4362,49.39634],[21.40716999228637,49.404720750325964],[21.40673,49.44752],[21.41881,49.47917],[21.43328,49.49446],[21.38167,49.55157],[21.39001,49.5761],[21.34755,49.59432],[21.37412,49.63092],[21.35589,49.66671],[21.35859,49.69881],[21.31907,49.75765],[21.25825,49.77673],[21.33342,49.79288],[21.35913,49.82071],[21.30196,49.85388],[21.24074,49.86035],[21.24042,49.87146],[21.28768,49.88339],[21.29997,49.90778],[21.29451,49.93057],[21.18606,49.94203],[21.16257,49.98334],[21.20449,50.02811],[21.17557,50.05169],[21.21098,50.09494],[21.20369,50.12708],[21.1737,50.15558],[21.17514,50.22351],[21.19432,50.24011],[21.17011,50.2587],[21.20029,50.29256],[21.2331,50.30556],[21.219430017836377,50.351797397979546],[21.2229,50.35252],[21.23356,50.368],[21.25434,50.37393],[21.26021,50.38458],[21.27556,50.38442],[21.28353,50.38724],[21.2871,50.39548],[21.28659,50.4037],[21.30123,50.40794],[21.31454,50.41648],[21.36392,50.43382],[21.40341,50.43371],[21.44988,50.45293],[21.45718,50.4618],[21.45721,50.4691],[21.45104,50.48389],[21.45508,50.48768],[21.48515,50.49106],[21.55484,50.51447],[21.5872,50.51113],[21.60629,50.51566],[21.63247,50.54451],[21.66296,50.56949],[21.67473,50.60076],[21.71706,50.62688],[21.72528,50.63712],[21.74401,50.63804],[21.75066,50.64871],[21.75509,50.64818],[21.75964,50.64101],[21.78448,50.64116],[21.78623,50.65783],[21.79927,50.67604],[21.8196,50.68333],[21.82664,50.68918],[21.83195,50.6982],[21.83428,50.71493],[21.84878,50.73487],[21.84591,50.75689],[21.86448,50.78056],[21.86772,50.7983],[21.871715547510423,50.80482510276882],[21.87966,50.80229]]]}}
