{"type":"Feature","properties":{"sourceId":"polynesie-francaise"},"geometry":{"type":"Polygon","coordinates":[[[-139.6582,-4.915789],[-135.088,-8.407081],[-132.92541063148178,-21.60801300107801],[-133.0664,-21.59613],[-132.63565541837716,-24.042137361203167],[-142.1631,-31.54105],[-156.2696,-24.92628],[-156.2700287382706,-24.917455238937215],[-156.1425,-24.89417],[-156.3231,-21.40556],[-154.8056,-19.25722],[-158.1311,-15.86266],[-158.2149,-12.42739],[-155.4393,-11.35762],[-155.43931266187465,-11.357624880131736],[-155.4397,-11.35969],[-155.0535,-12.48762],[-152.8092,-13.83083],[-151.0575,-13.83833],[-147.9922,-11.97389],[-147.0336,-11.15904],[-147.13934281378707,-10.537766710674292],[-139.6582,-4.915789]]]}}
