{"type":"Feature","properties":{"sourceId":"praha"},"geometry":{"type":"Polygon","coordinates":[[[14.28849,50.07389],[14.28911,50.07586],[14.28437,50.0781],[14.28416,50.08105],[14.27502,50.08084],[14.27339,50.08562],[14.26779,50.08546],[14.26062,50.08715],[14.2606,50.09546],[14.25384,50.09652],[14.25206,50.10174],[14.24624,50.1025],[14.23635,50.10065],[14.22558,50.10005],[14.22442,50.10182],[14.22365,50.10379],[14.2339,50.10713],[14.23762,50.11207],[14.24796,50.11115],[14.2568,50.11509],[14.26131,50.11437],[14.27869,50.11956],[14.2869,50.11598],[14.29182,50.11846],[14.29663,50.12092],[14.29334,50.12459],[14.3024,50.13045],[14.30581,50.1304],[14.31617,50.1288],[14.32124,50.1156],[14.32759,50.11706],[14.33905,50.11732],[14.36001,50.11645],[14.35823,50.12006],[14.3549,50.12475],[14.35398,50.13786],[14.35555,50.14125],[14.36158,50.14666],[14.36602,50.14822],[14.37181,50.14827],[14.38494,50.14725],[14.39518,50.14224],[14.39666,50.1436],[14.39988,50.14825],[14.41389,50.14829],[14.42035,50.14981],[14.41975,50.15322],[14.42848,50.15456],[14.42756,50.15768],[14.43614,50.15919],[14.43685,50.15768],[14.452,50.15854],[14.46363,50.16007],[14.46333,50.16508],[14.4656,50.16585],[14.46638,50.17005],[14.47878,50.1703],[14.47869,50.17305],[14.50633,50.17201],[14.50856,50.17426],[14.51639,50.17518],[14.51676,50.17484],[14.51871,50.17528],[14.51899,50.17495],[14.52635,50.17661],[14.52678,50.17756],[14.53281,50.17734],[14.53298,50.16669],[14.53422,50.16208],[14.53978,50.16504],[14.54064,50.16526],[14.54255,50.16315],[14.54388,50.16413],[14.55049,50.16655],[14.56126,50.16199],[14.56321,50.15603],[14.56128,50.15513],[14.56345,50.15062],[14.56598,50.15196],[14.57306,50.15022],[14.57831,50.15088],[14.57861,50.15032],[14.58152,50.15143],[14.58387,50.15302],[14.58423,50.15375],[14.58725,50.15417],[14.5894,50.15443],[14.5941,50.15396],[14.59924,50.15429],[14.59914,50.15384],[14.59332,50.1476],[14.5879,50.14529],[14.58896,50.14409],[14.59171,50.1428],[14.59008,50.13975],[14.59285,50.13922],[14.59633,50.13301],[14.60121,50.12938],[14.60787,50.12794],[14.60863,50.12725],[14.62063,50.12966],[14.6217,50.12795],[14.63251,50.13008],[14.63396,50.12889],[14.6355,50.12714],[14.63561,50.12411],[14.63961,50.12431],[14.64096,50.12365],[14.64758,50.12429],[14.65304,50.12352],[14.6593,50.12272],[14.65973,50.12073],[14.65911,50.1178],[14.65687,50.10989],[14.65761,50.10663],[14.66086,50.10658],[14.66165,50.10523],[14.66521,50.10354],[14.66849,50.10407],[14.6728,50.10294],[14.67625,50.10186],[14.68016,50.10151],[14.68665,50.10098],[14.68999,50.10078],[14.69049,50.10062],[14.69125,50.09992],[14.68881,50.0988],[14.68888,50.09638],[14.69287,50.09553],[14.69662,50.09428],[14.70458,50.09176],[14.70585,50.09029],[14.70695,50.08706],[14.70499,50.08203],[14.70281,50.07641],[14.70187,50.07616],[14.70017,50.07197],[14.69698,50.07182],[14.69449,50.07175],[14.69089,50.07191],[14.68931,50.07113],[14.68354,50.06942],[14.67034,50.06566],[14.66711,50.0636],[14.659,50.06197],[14.65907,50.06107],[14.65227,50.06064],[14.65231,50.05945],[14.64617,50.05867],[14.64252,50.05715],[14.64043,50.05679],[14.64149,50.05486],[14.64128,50.04847],[14.64436,50.04358],[14.64476,50.04278],[14.654,50.04989],[14.65834,50.04697],[14.66134,50.04463],[14.66821,50.03815],[14.65746,50.03755],[14.65671,50.0309],[14.67001,50.01887],[14.66913,50.01317],[14.66587,50.01258],[14.66286,50.00821],[14.65782,50.00418],[14.6499,50.00837],[14.6455,50.00451],[14.63896,50.00575],[14.64199,50.00331],[14.6475,49.99868],[14.64025,49.99421],[14.62905,49.99522],[14.62252,49.99837],[14.61907,49.9973],[14.61637,49.99811],[14.61057,49.99828],[14.6083,50.0001],[14.60358,50.0017],[14.60143,50.0088],[14.59472,50.00693],[14.58849,50.00843],[14.58135,50.01076],[14.58184,50.01578],[14.57502,50.0119],[14.57206,50.00901],[14.56832,50.00719],[14.56682,50.00913],[14.56382,50.0095],[14.56249,50.01142],[14.55487,50.0108],[14.55467,50.01182],[14.55382,50.00956],[14.55094,50.00757],[14.54165,50.00855],[14.53551,50.01145],[14.52912,50.01037],[14.52197,50.00756],[14.53129,50.00058],[14.52472,49.99713],[14.51929,49.99697],[14.51948,49.99484],[14.51788,49.99421],[14.51704,49.99473],[14.51361,49.99442],[14.51393,49.99236],[14.50781,49.99192],[14.50721,49.99371],[14.50888,49.99396],[14.50702,49.99727],[14.48421,49.99233],[14.4847,49.99182],[14.48524,49.99011],[14.48487,49.98759],[14.48717,49.98772],[14.48741,49.98546],[14.47434,49.98303],[14.47423,49.98027],[14.46951,49.97956],[14.46659,49.98062],[14.46429,49.97259],[14.46241,49.97041],[14.4582,49.97154],[14.45509,49.97168],[14.45239,49.97199],[14.4491,49.97324],[14.44462,49.97353],[14.44247,49.96968],[14.43876,49.96765],[14.43305,49.9671],[14.42784,49.96417],[14.42308,49.96341],[14.41829,49.96331],[14.41102,49.96558],[14.40117,49.97016],[14.40026,49.96776],[14.39827,49.9616],[14.39505,49.95553],[14.39464,49.95328],[14.39548,49.94912],[14.39718,49.94481],[14.39685,49.94256],[14.39531,49.94151],[14.38917,49.94472],[14.38715,49.94923],[14.37999,49.94869],[14.37677,49.94577],[14.37171,49.94735],[14.37179,49.94998],[14.36874,49.95068],[14.36499,49.94809],[14.36108,49.94664],[14.34081,49.94697],[14.33744,49.94822],[14.33572,49.95132],[14.33239,49.95379],[14.32913,49.95542],[14.32647,49.95604],[14.32514,49.95713],[14.32465,49.95818],[14.32553,49.95988],[14.32626,49.96153],[14.32707,49.96342],[14.33008,49.96549],[14.33465,49.96767],[14.33834,49.96681],[14.34147,49.96606],[14.34417,49.96697],[14.34473,49.96818],[14.3454,49.97125],[14.34621,49.97264],[14.34593,49.97324],[14.34362,49.9747],[14.33718,49.97304],[14.33207,49.97078],[14.32714,49.97053],[14.32658,49.97118],[14.32682,49.97264],[14.32939,49.97558],[14.33203,49.97747],[14.33892,49.9807],[14.33694,49.98261],[14.33845,49.98484],[14.33518,49.98596],[14.33407,49.98697],[14.33488,49.98862],[14.34038,49.99028],[14.33937,49.99091],[14.336,49.99331],[14.32673,49.99083],[14.31782,49.98855],[14.30961,49.99374],[14.30714,49.99515],[14.30534,49.99719],[14.30004,49.99791],[14.29454,50.00244],[14.29911,50.00443],[14.30042,50.01222],[14.30371,50.01141],[14.30843,50.00778],[14.31079,50.00796],[14.31227,50.01276],[14.31443,50.01589],[14.31557,50.02091],[14.31467,50.02325],[14.30047,50.02445],[14.29785,50.02325],[14.29534,50.02471],[14.29023,50.02609],[14.28508,50.02892],[14.28107,50.03205],[14.27439,50.035],[14.26978,50.03964],[14.26794,50.04365],[14.26993,50.04646],[14.26744,50.04917],[14.26922,50.04966],[14.27047,50.05369],[14.26394,50.05211],[14.26186,50.05499],[14.25697,50.05405],[14.25444,50.05689],[14.25021,50.05646],[14.24701,50.05867],[14.24669,50.06253],[14.25783,50.06478],[14.25789,50.06701],[14.25721,50.06801],[14.25708,50.07202],[14.26959,50.07341],[14.2803,50.07382],[14.2827,50.07462],[14.28849,50.07389]]]}}
