{"type":"Feature","properties":{"sourceId":"philippines"},"geometry":{"type":"Polygon","coordinates":[[[119.90978417423383,21.529607645262747],[120.6771,20.72799],[121.65706826367229,21.529054603593412],[127.0742,21.52734],[127.07303623436749,5.333400602089229],[126.6208,5.948258],[125.7361,5.262461],[125.16376794875251,4.807643586877756],[120.0008,4.749364],[120.0003,4.382696],[119.0429132557511,4.4398722005549285],[119.0645,4.689801],[119.6683,5.263222],[118.85,6.076159],[118.3399,6.035943],[118.0014,6.316665],[118.055,6.971414],[117.4191,7.479582],[116.981,7.736849],[116.6501,7.704189],[116.60686214750908,7.666054299207065],[112.1663,7.666295],[112.1661761496006,8.492410603598696],[112.8955,7.667452],[113.2251,7.678352],[112.41671160704959,9.537987016867802],[113.07603643595387,10.952439035499335],[114.6423,11.35081],[113.71407067159414,12.321216264861711],[114.6546147356198,14.33896895921102],[117.4759,14.38467],[118.4373,15.32778],[117.2907,15.64366],[117.3435,19.12026],[116.93184287425156,19.22431499255429],[118.0067,21.53021],[119.90978417423383,21.529607645262747]]]}}
