{"type":"Feature","properties":{"sourceId":"quebec"},"geometry":{"type":"Polygon","coordinates":[[[-79.58496,51.59158],[-78.88184,51.98234],[-78.68958,52.39907],[-78.89283,52.65306],[-79.1977,53.52235],[-79.8404,54.70558],[-78.68409,54.98707],[-76.8274,56.50496],[-78.68683,58.62836],[-78.28583,60.78464],[-78.24463,62.33049],[-77.51954,62.6262],[-73.6908,62.53766],[-69.3567,61.16974],[-67.35755,58.52302],[-64.88612,60.40528],[-64.64526502549884,60.36128773216865],[-64.87976,60.27524],[-64.93195,60.06176],[-64.98688,59.58163],[-64.91547,58.91457],[-64.07776,58.7169],[-64.49524,58.21703],[-64.45954,58.05027],[-64.11621,57.77013],[-63.79761,57.64981],[-64.19037,56.71958],[-64.22333,56.33481],[-64.06678,56.0613],[-63.8855,55.99531],[-63.81684,55.4664],[-63.61908,55.01543],[-63.84155,54.96816],[-64.0503,54.66748],[-64.30024,54.7991],[-64.60785,54.81018],[-65.0528,55.00125],[-65.69,54.79119],[-65.80536,54.93819],[-66.01959,54.96973],[-66.79962,55.39627],[-67.49726,55.08466],[-67.78839,54.45088],[-67.87079,54.01423],[-67.66205,53.7617],[-67.32422,53.53541],[-67.01111,53.25864],[-67.4588,53.14677],[-67.34478,52.8601],[-66.87928,52.6514],[-66.44806,52.67971],[-66.54968,52.2984],[-66.37665,52.11157],[-65.66803,51.98319],[-65.45655,51.97135],[-65.43457,51.83917],[-64.50379,51.55366],[-64.27414,51.69469],[-64.1478,52.14192],[-64.10214,52.4131],[-64.1375,52.46751],[-64.14196,52.66431],[-63.83743,52.75126],[-63.6644,52.77619],[-63.40759,52.67014],[-63.83675,52.64181],[-64.04686,52.58553],[-64.10591,52.49992],[-64.10248,52.44931],[-64.04085,52.37198],[-63.84155,52.29168],[-63.85117,51.99503],[-57.11929,51.99334],[-57.12479,51.38207],[-57.7565,51.02412],[-60.75441,48.86472],[-60.56732839182766,47.765142550348706],[-60.41382,47.89793],[-61.37513,47.06638],[-61.46587133974975,46.94153916047333],[-63.09618792425472,47.60885533794892],[-62.88575,47.71716],[-63.34767,48.38075],[-64.4664,48.23565],[-65.1915,47.92371],[-65.85205,48.04504],[-66.18146,48.05262],[-66.3018,48.04091],[-66.34987,48.09138],[-66.4666,48.09551],[-66.51398,48.07785],[-66.5308,48.05399],[-66.65414,48.01973],[-66.67088,48.02047],[-66.6974,48.00853],[-66.72701,48.01131],[-66.74453,48.00496],[-66.76204,48.00407],[-66.77398,47.99855],[-66.85673,48.00569],[-66.9232,47.98922],[-66.94529,47.9747],[-67.05967,47.94081],[-67.13506,47.91985],[-67.24596,47.88722],[-67.28685,47.9038],[-67.34991,47.90073],[-67.36658,47.86205],[-67.57999,47.94441],[-67.59132,48.00233],[-68.12725,48.00256],[-68.12778,47.92132],[-68.38649,47.9189],[-68.38849,47.55583],[-68.57151,47.43165],[-68.80092,47.35379],[-69.04631182115682,47.303950329528654],[-69.03743,47.33545],[-69.0271,47.40602],[-69.03757,47.43087],[-69.17636,47.45822],[-69.22588,47.46222],[-69.75185,46.94358],[-69.99939,46.69584],[-70.05896,46.41952],[-70.09466,46.41218],[-70.21311,46.33863],[-70.30392,46.18019],[-70.25225,46.15154],[-70.31456,46.07192],[-70.3216,46.01985],[-70.31954,45.95998],[-70.26667,45.95748],[-70.26426,45.89825],[-70.37189,45.83645],[-70.42253,45.79506],[-70.39988,45.73746],[-70.55626,45.66996],[-70.6778,45.59002],[-70.75058,45.49504],[-70.63638,45.41847],[-70.6472,45.3819],[-70.75069,45.42932],[-70.79632,45.43601],[-70.83091,45.3956],[-70.81129,45.37722],[-70.86241,45.23308],[-70.91496,45.31316],[-70.94576,45.33973],[-71.01048,45.34961],[-71.08667618375576,45.30950674539171],[-71.08668,45.30951],[-71.1013,45.30181],[-71.13868,45.24907],[-71.22102,45.25977],[-71.27727,45.31002],[-71.36796,45.26879],[-71.38413,45.24537],[-71.44412,45.24057],[-71.45022,45.23643],[-71.4101,45.20853],[-71.44171,45.14015],[-71.43547,45.1264],[-71.50015,45.0707],[-71.51067,45.04765],[-71.50344,45.01529],[-72.09933,45.00732],[-72.64092,45.01724],[-73.0632,45.01919],[-73.34178992503304,45.01404833823236],[-73.34179,45.01405],[-73.85216,45.00462],[-74.14879,44.99345],[-74.49098,45.00335],[-74.65970298859396,45.00909595511156],[-74.6533,45.01639],[-74.56575,45.0392],[-74.48902,45.06528],[-74.41229,45.12974],[-74.30998,45.18654],[-74.46894,45.30315],[-74.41864,45.4405],[-74.37693,45.56743],[-74.47683,45.59734],[-74.60747,45.62436],[-74.62953,45.63901],[-74.7884,45.64429],[-74.8696,45.64321],[-74.93483,45.64801],[-74.96092,45.63709],[-74.98349,45.61719],[-75.08291,45.59476],[-75.23821,45.59043],[-75.38813,45.52966],[-75.47401,45.51862],[-75.57876,45.47831],[-75.60892,45.47478],[-75.63764,45.46787],[-75.68366,45.46067],[-75.69172,45.45522],[-75.69949,45.44658],[-75.70374,45.43851],[-75.70546,45.42722],[-75.70966,45.42368],[-75.71979,45.42169],[-75.72927,45.4195],[-75.75786,45.41407],[-75.7758,45.39543],[-75.80198,45.37801],[-75.82052,45.37675],[-75.84888,45.38082],[-75.89184,45.40424],[-75.96668,45.47626],[-76.00376,45.48685],[-76.09126,45.52397],[-76.20546,45.51958],[-76.23585,45.51152],[-76.2446,45.47325],[-76.36442,45.46182],[-76.43738,45.50683],[-76.61282,45.53906],[-76.65608,45.56406],[-76.665,45.62388],[-76.70792,45.66493],[-76.68079,45.68124],[-76.69315,45.72464],[-76.76285,45.73614],[-76.7601,45.85463],[-76.7783,45.87423],[-76.84593,45.89837],[-76.89331,45.901],[-76.9297,45.89646],[-76.93279,45.84722],[-76.91563,45.80655],[-76.98223,45.7886],[-77.01004,45.80727],[-77.08798,45.84148],[-77.19338,45.87113],[-77.23183,45.92608],[-77.27543,45.96308],[-77.26554,46.01394],[-77.55271,46.15881],[-77.68052,46.20302],[-77.7016,46.19069],[-78.12878,46.27924],[-78.40506,46.29847],[-78.60611,46.32425],[-78.70309,46.32571],[-78.72535,46.38694],[-78.87206,46.46156],[-78.97377,46.54665],[-79.00031,46.62878],[-79.0832,46.68765],[-79.10416,46.71819],[-79.14284,46.78691],[-79.16311,46.81921],[-79.16934,46.82531],[-79.17649,46.83148],[-79.21006,46.83255],[-79.2274,46.84642],[-79.22926,46.85663],[-79.24988,46.88296],[-79.27723,46.90166],[-79.3225,46.95113],[-79.34127,47.00955],[-79.38739,47.0417],[-79.43265,47.08538],[-79.43509,47.09829],[-79.43945,47.13211],[-79.42737,47.17573],[-79.43643,47.21059],[-79.41369,47.24778],[-79.47868,47.30379],[-79.51489,47.35595],[-79.5496,47.37946],[-79.58129,47.43256],[-79.5588,47.45158],[-79.54432,47.51263],[-79.51521,47.52452],[-79.50296,47.54455],[-79.51516,47.55422],[-79.50855,51.48909],[-79.55592950328814,51.48699900775746],[-79.58496,51.59158]]]}}
