{"type":"Feature","properties":{"sourceId":"queensland"},"geometry":{"type":"Polygon","coordinates":[[[142.0549,-9.48081],[142.0521,-9.231486],[142.1902,-9.166416],[142.3378,-9.234197],[142.552,-9.35346],[142.8651,-9.308742],[142.8514,-9.491646],[143.2963,-9.421205],[144.1026,-8.846906],[144.1406,-8.841629],[146.9258245587051,-15.488674426806664],[147.2295,-17.29661],[148.3714,-18.86705],[149.34493448011506,-18.97711327581776],[151.59277427175243,-20.00139261351139],[152.0643,-20.4229],[152.67036492313824,-20.492421308177523],[152.7978,-20.55049],[153.1830508574102,-21.894101598021322],[153.1576,-22.36819],[153.39924802164353,-22.720174255381174],[154.2005,-27.88593],[153.61808083585893,-28.144671135805112],[153.6073,-28.13898],[153.5413,-28.16892],[153.5358,-28.17527],[153.5346,-28.17735],[153.5312,-28.17506],[153.5271,-28.17341],[153.502,-28.16331],[153.4877,-28.15755],[153.4856,-28.15685],[153.4814,-28.15743],[153.4767,-28.15688],[153.4746,-28.15817],[153.4733,-28.16065],[153.4725,-28.16165],[153.4708,-28.16142],[153.4682,-28.1622],[153.4562,-28.17561],[153.4557,-28.17879],[153.4383,-28.18378],[153.4176,-28.19974],[153.3568,-28.24531],[153.3286,-28.23586],[153.2787,-28.22968],[153.2432,-28.24263],[153.231,-28.26099],[153.2075,-28.25302],[153.1864,-28.24571],[153.1761,-28.2439],[153.1567,-28.27898],[153.1627,-28.29251],[153.1536,-28.29508],[153.1209,-28.31652],[153.1077,-28.35342],[153.0472,-28.33563],[152.9647,-28.33119],[152.9335,-28.33317],[152.8799,-28.30565],[152.8481,-28.30749],[152.8295,-28.32004],[152.802,-28.34974],[152.7747,-28.34273],[152.7587,-28.35204],[152.7523,-28.35988],[152.7229,-28.34322],[152.6805,-28.32579],[152.6692,-28.30819],[152.6415,-28.30817],[152.6166,-28.26605],[152.5963,-28.28199],[152.597,-28.3065],[152.5788,-28.33021],[152.572,-28.32409],[152.5554,-28.31577],[152.5303,-28.30338],[152.5381,-28.26584],[152.5367,-28.25954],[152.5086,-28.2452],[152.4615,-28.25587],[152.4387,-28.29454],[152.4106,-28.29631],[152.4089,-28.31643],[152.4128,-28.33188],[152.384,-28.36427],[152.356,-28.36068],[152.3083,-28.35941],[152.2849,-28.39004],[152.2644,-28.38725],[152.2173,-28.44358],[152.1978,-28.43418],[152.1589,-28.42943],[152.118,-28.45819],[152.0678,-28.46464],[152.0628,-28.4834],[152.0442,-28.49438],[152.023,-28.51284],[152.0139,-28.52171],[151.9919,-28.52073],[151.9871,-28.50719],[151.9789,-28.49843],[151.9518,-28.51675],[151.9532,-28.56464],[151.9812,-28.58233],[151.9918,-28.61788],[151.9907,-28.62122],[151.9905,-28.62449],[151.9951,-28.62968],[152.0061,-28.66653],[152.0521,-28.68269],[152.0624,-28.6841],[152.0653,-28.69783],[152.0703,-28.7087],[152.0384,-28.73055],[152.0353,-28.7575],[152.0323,-28.81926],[152.0181,-28.83425],[152.0106,-28.85048],[152.0325,-28.8624],[152.0062,-28.90421],[151.9961,-28.89177],[151.9444,-28.92009],[151.9426,-28.92133],[151.9365,-28.92188],[151.9318,-28.92349],[151.9282,-28.92456],[151.9252,-28.92635],[151.9209,-28.92727],[151.9099,-28.9166],[151.8953,-28.91284],[151.8814,-28.91096],[151.8484,-28.90401],[151.8338,-28.91505],[151.8289,-28.95708],[151.8066,-28.94071],[151.7376,-28.86936],[151.7274,-28.86602],[151.7045,-28.86829],[151.6724,-28.90279],[151.5993,-28.92479],[151.5422,-28.9504],[151.4941,-29.01825],[151.4856,-29.05635],[151.4955,-29.06655],[151.4833,-29.08556],[151.4596,-29.09567],[151.4489,-29.12409],[151.4208,-29.14541],[151.3607,-29.17105],[151.3398,-29.17488],[151.3175,-29.16199],[151.3221,-29.13649],[151.3017,-29.11093],[151.2846,-29.10055],[151.2796,-29.07856],[151.295,-29.05072],[151.2859,-29.01925],[151.285,-28.95543],[151.2777,-28.93553],[151.2455,-28.92053],[151.2375,-28.90174],[151.2174,-28.90097],[151.2025,-28.88122],[151.1633,-28.86452],[151.1342,-28.85663],[151.0991,-28.83114],[151.0481,-28.83993],[151.0464,-28.79886],[151.031,-28.75518],[151.0126,-28.7378],[150.9774,-28.73018],[150.9539,-28.73264],[150.9286,-28.69887],[150.9096,-28.68506],[150.8552,-28.67493],[150.8208,-28.65685],[150.752,-28.63036],[150.7242,-28.63486],[150.6816,-28.65604],[150.6716,-28.64687],[150.6314,-28.67048],[150.5867,-28.65595],[150.554,-28.64935],[150.5253,-28.6506],[150.4436,-28.66053],[150.4172,-28.63087],[150.3741,-28.61841],[150.3694,-28.59895],[150.3647,-28.59017],[150.3505,-28.57453],[150.3374,-28.57355],[150.3274,-28.57055],[150.3231,-28.5662],[150.3216,-28.56119],[150.3215,-28.55873],[150.3212,-28.55787],[150.3207,-28.55721],[150.3202,-28.55686],[150.3195,-28.55631],[150.3188,-28.55601],[150.3181,-28.55569],[150.3173,-28.55554],[150.3162,-28.55547],[150.3141,-28.55535],[150.3128,-28.55489],[150.3113,-28.5526],[150.3099,-28.55089],[150.3082,-28.55006],[150.3042,-28.54885],[150.3011,-28.54857],[150.2995,-28.54714],[150.2975,-28.54441],[150.2969,-28.5414],[150.2959,-28.53947],[150.2938,-28.5379],[150.2912,-28.53707],[150.2891,-28.53703],[150.2867,-28.53824],[150.2836,-28.54163],[150.2806,-28.54242],[150.2761,-28.54128],[150.2726,-28.53934],[150.2699,-28.53936],[150.2656,-28.54054],[150.2331,-28.55305],[150.2079,-28.56864],[150.1771,-28.55229],[150.152,-28.54628],[150.0933,-28.56273],[150.0515,-28.58061],[150.0156,-28.57644],[149.9758,-28.6056],[149.9164,-28.60428],[149.8987,-28.61506],[149.866,-28.59826],[149.7208,-28.6055],[149.7048,-28.61502],[149.6947,-28.62745],[149.6774,-28.6275],[149.6646,-28.61195],[149.6369,-28.59193],[149.611,-28.59354],[149.6033,-28.58378],[149.5883,-28.56954],[149.5028,-28.57351],[149.4512,-28.59231],[149.3931,-28.67742],[149.388,-28.68835],[149.359,-28.68246],[149.2951,-28.70836],[149.278,-28.72719],[149.2618,-28.73396],[149.2449,-28.73824],[149.2309,-28.749],[149.2223,-28.75863],[149.1855,-28.7723],[149.169,-28.80241],[149.1367,-28.8037],[149.1343,-28.82438],[149.0965,-28.83096],[149.0775,-28.83911],[149.0539,-28.88312],[149.0552,-28.89624],[149.0289,-28.95063],[149.0088,-28.95536],[149.005,-28.9598],[148.9691,-28.97509],[148.9558,-28.99514],[141.0039219827032,-28.999085473956576],[141.0019,-25.99303],[138.00159831938768,-25.993584935574873],[137.9992,-16.52501],[140.4241,-13.4467],[139.27748134991384,-12.506401807730265],[140.2225,-9.557842],[140.92032391856858,-9.48623969646819],[140.9779,-9.495116],[140.97986347025756,-9.480130463266601],[141.5005,-9.426709],[142.0549,-9.48081]]]}}
