{"type":"Feature","properties":{"sourceId":"qinghai"},"geometry":{"type":"Polygon","coordinates":[[[89.67728,35.63498],[89.75693,35.83285],[89.54544,35.84454],[89.41154,35.9163],[89.39,35.96],[89.40124,36.06131],[89.9,36.13],[90.00137,36.29355],[90.17235,36.2487],[90.44632,36.15617],[90.74638,36.13122],[90.79,36.13],[90.84457,36.02856],[90.9359,36.06464],[90.9668,36.12568],[91.09108,36.1046],[91.08421,36.15063],[90.98,36.32],[90.99,36.5],[90.68,36.59],[90.69,36.85],[90.8535,36.92959],[91.25862,37.06668],[91.05,37.44],[90.89,37.48],[90.49988,37.72619],[90.45387,38.19988],[90.22659,38.24249],[90.12051,38.34327],[90.16136,38.37235],[90.16342,38.39173],[90.16582,38.39388],[90.11158,38.40114],[90.09888,38.42428],[90.10437,38.45251],[90.10265,38.49122],[90.29869,38.50761],[90.46177,38.56374],[90.62382,38.68069],[91.23596,38.77015],[91.84,38.92],[92.33078286846259,39.06045801750444],[92.34283,39.00425],[93.0954,39.13006],[93.16543,38.90386],[93.28766,38.87179],[93.72986,38.90065],[93.80813,38.85789],[93.71893,38.81858],[93.74908,38.74552],[93.91937,38.69087],[94.35882,38.74444],[94.48242,38.46004],[94.53323,38.31903],[94.66507,38.35997],[94.87655,38.37935],[95.06882,38.3815],[95.24872,38.27916],[95.52063,38.28239],[95.70328,38.35674],[95.8406,38.277],[96.04248,38.16372],[96.21139,38.13348],[96.33529,38.1421],[96.64905,38.19585],[96.68243,38.20797],[96.70652,38.46925],[97.09305,38.57072],[97.0134,38.88034],[97.03674,39.19182],[97.81483,38.92042],[98.09967,38.77443],[98.26035,38.87821],[98.26996,39.03945],[98.37976,39.00788],[98.45986,38.93251],[98.58856,38.9092],[98.77533,39.07251],[99.44755,38.59702],[99.50077,38.60909],[99.50592,38.5675],[99.52511,38.53299],[99.66591,38.42885],[99.76496,38.38979],[99.82489,38.34985],[100.1696,38.20366],[100.1843,38.2131],[100.1857,38.23306],[100.1727,38.3255],[100.2541,38.35269],[100.4253,38.26406],[100.5463,38.23052],[100.593,38.22273],[100.6279,38.25166],[100.8252,38.14276],[100.9115,38.1513],[100.8751,38.05242],[100.8916,38.00157],[100.922,37.99488],[100.9753,37.99346],[101.1758,37.84015],[101.3551,37.77652],[101.3886,37.78768],[101.4464,37.84829],[101.637,37.75125],[101.6456,37.70822],[101.8003,37.63512],[101.8632,37.65828],[101.9737,37.70827],[102.0268,37.60175],[102.1032,37.54715],[102.0829,37.4754],[102.3263,37.32952],[102.6267,37.11543],[102.4832,37.09298],[102.4571,37.00399],[102.4417,36.96635],[102.4642,36.9525],[102.5242,36.92787],[102.5539,36.91723],[102.5546,36.90378],[102.5821,36.86754],[102.6978,36.78179],[102.5869,36.73393],[102.5978,36.66143],[102.7311,36.5819],[102.7325,36.53171],[102.7517,36.46538],[102.8274,36.35163],[102.842,36.33089],[102.8746,36.33006],[102.894,36.32951],[102.8998,36.32038],[102.9108,36.31291],[102.921,36.297],[102.9416,36.28829],[102.9668,36.27915],[102.9903,36.26102],[103.0202,36.25341],[103.0183,36.23749],[102.9973,36.20605],[102.9438,36.1516],[102.9359,36.1064],[102.8763,36.0935],[102.8792,36.08143],[102.8918,36.06492],[102.9275,36.04854],[102.9644,36.04063],[102.9489,36.02647],[102.9503,36.01425],[102.9625,35.9944],[102.9429,35.96092],[102.9283,35.84732],[102.8416,35.86012],[102.7795,35.86401],[102.769,35.85706],[102.7522,35.84133],[102.75,35.83577],[102.7261,35.82171],[102.7127,35.81781],[102.6916,35.7986],[102.6786,35.76894],[102.6952,35.69969],[102.7555,35.61237],[102.7647,35.59213],[102.7951,35.57329],[102.8001,35.56016],[102.7879,35.56142],[102.6908,35.53376],[102.5733,35.55136],[102.5218,35.59004],[102.4969,35.5892],[102.4152,35.42291],[102.3071,35.43969],[102.2813,35.42151],[102.2689,35.30229],[102.3943,35.18279],[102.3328,35.16763],[102.2659,35.06822],[102.2127,35.06401],[102.1296,35.02297],[102.0633,34.96953],[102.0407,34.90001],[101.9596,34.90423],[101.9099,34.87973],[101.9089,34.75771],[101.9092,34.64281],[101.9165,34.58216],[101.9915,34.52384],[102.0341,34.53258],[102.0881,34.52384],[102.1471,34.49948],[102.1663,34.43125],[102.2391,34.35846],[102.1653,34.36299],[102.1301,34.28704],[102.062,34.30119],[102.0496,34.27226],[102.052,34.23962],[102.0105,34.23111],[101.9287,34.13312],[101.8807,34.14606],[101.8461,34.16607],[101.7564,34.12801],[101.7392,34.09418],[101.7059,34.1263],[101.6647,34.12687],[101.6575,34.16239],[101.5796,34.20414],[101.5401,34.21422],[101.3983,34.24331],[101.32,34.27764],[101.2864,34.2861],[101.2321,34.33692],[101.0474,34.35024],[100.9561,34.39133],[100.8957,34.3919],[100.8061,34.32274],[100.7589,34.19439],[100.7589,34.17146],[100.8703,34.04128],[100.986,33.8878],[101.1267,33.83093],[101.1705,33.78707],[101.15,33.67394],[101.1693,33.64978],[101.2347,33.66544],[101.4088,33.63643],[101.4433,33.67098],[101.5053,33.68647],[101.5507,33.67378],[101.6047,33.59374],[101.6089,33.5157],[101.6279,33.48413],[101.68995504871569,33.48413],[101.6277,33.40622],[101.6222,33.30873],[101.69,33.25],[101.6002,33.17779],[101.51,33.26],[101.41,33.27],[101.2363,33.2961],[101.1182,33.28807],[101.0838,33.18699],[101.08,32.89],[101.1772,32.73531],[101.0605,32.69718],[100.9328,32.62897],[100.7117,32.69487],[100.6694,32.67262],[100.62,32.59],[100.57,32.61],[100.53,32.69],[100.49,32.73],[100.45,32.74],[100.4041,32.77689],[100.3271,32.74801],[100.24,32.78],[100.1335,32.86575],[99.88,33.08],[99.73389,32.95337],[99.75,32.86],[99.72565,32.76996],[98.85,33.28],[98.65,33.71],[98.44711,33.95703],[98.43338,34.10498],[97.8,34.25],[97.64099,34.12772],[97.64374,34.06404],[97.31277,33.86357],[97.54898,33.22835],[97.46796,33.16974],[97.48169,33.00867],[97.35122,32.97181],[97.34161,32.90294],[97.37045,32.76649],[97.41302,32.68215],[97.61215,32.5607],[97.73021615885213,32.52300500972143],[97.67601,32.50455],[97.55241,32.50339],[97.41646,32.5445],[97.39105,32.453],[97.43843,32.38518],[97.42538,32.28307],[97.29475,32.25433],[97.2793,32.19871],[97.31638,32.13332],[97.31295,32.07297],[97.25218,32.07196],[97.23295,32.04431],[97.16446,32.02583],[97.02421,32.04824],[96.98833,32.06526],[96.96121,31.99381],[96.86783,31.96483],[96.78955,31.99934],[96.75522,31.98304],[96.85,31.88],[96.81,31.84],[96.86645,31.72408],[96.78749,31.65514],[96.72157,31.66332],[96.56845,31.7048],[96.39,31.8],[96.37001,31.9003],[96.24298,31.91021],[96.19,31.82],[96.27319,31.72174],[96.24229,31.60544],[96.15028,31.58673],[95.9539,31.78305],[95.81795,31.67442],[95.65384,31.76437],[95.53162,31.72349],[95.44716,31.80231],[95.33798,31.95682],[95.21919,32.27901],[95.0956,32.24126],[95.02007,32.3933],[94.90951,32.39852],[94.617,32.64574],[94.3753,32.68793],[94.18442,32.85883],[93.90564,32.85191],[93.40164,33.16285],[93.45245,33.61348],[93.16681,33.92627],[93.12286,34.13],[92.9512,34.0629],[92.78091,34.01169],[92.63122,33.86357],[92.48428,33.86015],[92.38403,33.8841],[92.35382,33.93653],[92.35519,34.00258],[91.93359,34.476],[91.45981,34.70211],[91.00525,34.73146],[90.93727,34.76136],[90.81093,34.85945],[90.67085,34.89156],[90.57815,34.9124],[90.33646,34.9231],[90.14557,34.85945],[89.78508,34.86002],[89.55,34.88],[89.55,35.08],[89.43008,35.23216],[89.49051,35.38513],[89.69581,35.45787],[89.67728,35.63498]]]}}
