{"type":"Feature","properties":{"sourceId":"qikiqtaaluk"},"geometry":{"type":"Polygon","coordinates":[[[-60.21607,82.0503],[-61.9629,81.78935],[-63.67677,81.2917],[-66.20727,80.78637],[-67.20011,80.66812],[-69.36769,79.7382],[-71.86482,78.7359],[-75.90901,77.3176],[-74.26767,76.35192],[-63.89657,74.2359],[-57.83212,67.27208],[-53.98957,62.90261],[-53.99831,61.97204],[-63.820914924576186,60.467021210968],[-63.99536,60.50864],[-64.56116,60.39215],[-64.64526502549884,60.36128773216865],[-64.88612,60.40528],[-67.35755,58.52302],[-69.3567,61.16974],[-73.6908,62.53766],[-77.51954,62.6262],[-78.24463,62.33049],[-78.28583,60.78464],[-78.68683,58.62836],[-76.8274,56.50496],[-78.68409,54.98707],[-79.8404,54.70558],[-79.1977,53.52235],[-78.89283,52.65306],[-78.68958,52.39907],[-78.88184,51.98234],[-79.58496,51.59158],[-79.55592950328814,51.48699900775746],[-80.00206,51.46731],[-82.17948,53.00439],[-82.00015,53.22226],[-81.95112,55.41636],[-87.93132,57.50826],[-88.9079355524582,56.90253759699548],[-88.12183,57.5548],[-88.88990764423491,57.953233266082],[-88.84434,57.99163],[-88.42022,58.28247],[-80.03082,62.9163],[-80.01994,63.91496],[-80.31211,64.10859],[-81.54556,64.92318],[-81.99926,65.21124],[-82.10068,65.2721],[-82.45522,65.48717],[-83.18854,65.9249],[-83.39388,66.04812],[-84.13655,66.47821],[-84.52349,66.69275],[-84.84405,66.87098],[-84.86525,66.88223],[-84.88382,66.89252],[-85.057,67.00034],[-88.98447956297045,67.00034],[-88.98891,67.08876],[-89.01554,68.25814],[-89.01903,68.77402],[-88.9963,69.95875],[-89.57196,70.33938],[-90.56233,70.96353],[-91.55162,71.53199],[-91.99922,71.77638],[-92.42107,72.00024],[-93.18857,72.14007],[-93.88224,72.25958],[-94.36953,72.34087],[-94.41887,72.34914],[-94.47988,72.35928],[-95.07641,72.45879],[-96.05397,72.61529],[-96.87957,72.74287],[-97.32786,72.81009],[-98.04442,72.9147],[-98.74553,73.01364],[-99.5169,73.1158],[-100.1338,73.19628],[-100.6855,73.26619],[-100.7638,73.27542],[-100.8592,73.28702],[-101.5075,73.3632],[-102.0321,73.42512],[-102.4301,73.45276],[-103.7996,73.56916],[-103.9998,73.58491],[-104.9575,73.65746],[-105.7332,73.71335],[-106.3086,73.75301],[-107.7893,73.83599],[-107.9998,73.84696],[-109.1341,73.9025],[-109.8323,73.93416],[-110.0023,73.93962],[-109.88907844141582,73.93598358994196],[-109.7807,79.19664],[-110.00285964955776,79.4777201528367],[-109.7951,84.32633],[-56.47991,84.2365],[-54.82473,83.07464],[-60.21607,82.0503]]]}}
