{"type":"Feature","properties":{"sourceId":"rheinland-pfalz"},"geometry":{"type":"MultiPolygon","coordinates":[[[[7.629054,49.05089],[7.625067,49.066],[7.598006,49.07856],[7.574998,49.07389],[7.548047,49.07928],[7.524042,49.0962],[7.510832,49.11763],[7.500473,49.12124],[7.495797,49.13018],[7.483102,49.1335],[7.484419,49.1412],[7.49376,49.14777],[7.489537,49.15329],[7.48491,49.16175],[7.457976,49.15856],[7.426129,49.16247],[7.430451,49.17322],[7.415105,49.17414],[7.367616,49.16871],[7.370448,49.16201],[7.3704479304182,49.16200989651698],[7.370143,49.16273],[7.352686,49.16358],[7.339382,49.18546],[7.319813,49.19225],[7.303162,49.20818],[7.305651,49.22281],[7.294664,49.22942],[7.308569,49.25094],[7.324533,49.24629],[7.346764,49.27184],[7.344532,49.28063],[7.365475,49.27761],[7.375431,49.27985],[7.388649,49.29429],[7.383413,49.29698],[7.396974,49.3146],[7.404098,49.3367],[7.406287,49.3424],[7.404699,49.34671],[7.399807,49.3532],[7.404442,49.35633],[7.403498,49.37259],[7.395,49.37243],[7.36805,49.36538],[7.370453,49.37483],[7.356205,49.38103],[7.324018,49.38126],[7.306337,49.38779],[7.292004,49.41952],[7.258873,49.42951],[7.256727,49.44101],[7.252951,49.44564],[7.28754,49.45552],[7.302904,49.46628],[7.306595,49.47476],[7.297497,49.48385],[7.285051,49.48647],[7.288141,49.49935],[7.285051,49.50983],[7.288999,49.51273],[7.28857,49.51663],[7.297583,49.51685],[7.30814,49.51897],[7.310629,49.52337],[7.304277,49.53629],[7.280846,49.53874],[7.27046,49.58495],[7.261619,49.58568],[7.250976,49.57505],[7.241621,49.57444],[7.220678,49.56664],[7.210464,49.57833],[7.18729,49.57883],[7.180509,49.58601],[7.175016,49.6022],[7.152958,49.60465],[7.144976,49.6037],[7.138538,49.59758],[7.120943,49.59719],[7.103348,49.6057],[7.061291,49.63112],[7.028589,49.64146],[7.012281,49.63056],[6.991253,49.63651],[6.944647,49.63701],[6.931429,49.63212],[6.930571,49.61994],[6.895981,49.61683],[6.855391,49.60833],[6.831951,49.58735],[6.814442,49.59296],[6.801653,49.58913],[6.743116,49.55857],[6.733932,49.56141],[6.706295,49.55412],[6.689644,49.53763],[6.685438,49.5491],[6.66235,49.54431],[6.652737,49.55178],[6.650076,49.55016],[6.645956,49.54231],[6.62982,49.54248],[6.615915,49.53635],[6.590289,49.51793],[6.581325,49.53139],[6.564503,49.5412],[6.538925,49.54008],[6.518927,49.53145],[6.516008,49.53551],[6.511288,49.5373],[6.495752,49.53273],[6.47438,49.54476],[6.429577,49.54994],[6.394129,49.54949],[6.382422335739727,49.55265548330145],[6.3837,49.55503],[6.384001,49.55851],[6.359239,49.57265],[6.369753,49.57783],[6.377735,49.57516],[6.382456,49.5761],[6.384859,49.57883],[6.383614,49.58203],[6.375976,49.58787],[6.376705,49.59149],[6.386447,49.59889],[6.391725,49.59869],[6.400266,49.60095],[6.404257,49.60431],[6.412411,49.61268],[6.419277,49.61574],[6.423526,49.62114],[6.433182,49.6392],[6.440349,49.64982],[6.442511,49.65591],[6.441336,49.65952],[6.436272,49.66154],[6.428161,49.66277],[6.432023,49.66802],[6.445241,49.6746],[6.455884,49.68474],[6.461248,49.69076],[6.470475,49.69259],[6.481762,49.69653],[6.502426,49.71159],[6.506588,49.71174],[6.507726,49.71313],[6.50749,49.71664],[6.496117,49.72445],[6.498992,49.7262],[6.504357,49.72485],[6.510558,49.71947],[6.517789,49.72186],[6.518862,49.72456],[6.512768,49.72782],[6.507266,49.72938],[6.503069,49.73305],[6.504014,49.74548],[6.50146,49.75068],[6.503906,49.75413],[6.516437,49.75787],[6.520516,49.76134],[6.520563,49.76818],[6.510687,49.77511],[6.517682,49.78121],[6.517982,49.78381],[6.506782,49.78933],[6.521459,49.79603],[6.530829,49.80116],[6.532249,49.80686],[6.529808,49.81048],[6.521072,49.81442],[6.517811,49.81284],[6.51485,49.80513],[6.511459,49.80315],[6.507511,49.80982],[6.495452,49.81334],[6.49086,49.81232],[6.48468,49.81539],[6.482191,49.81924],[6.47057,49.82385],[6.463051,49.81985],[6.45366,49.81275],[6.443868,49.81224],[6.442451,49.81531],[6.434984,49.81345],[6.43097,49.81129],[6.428204,49.81188],[6.427045,49.81661],[6.402203,49.82098],[6.368723,49.8485],[6.365762,49.85171],[6.339366,49.8507],[6.336561,49.83998],[6.327406,49.83673],[6.321577,49.8409],[6.322331,49.84618],[6.323791,49.85171],[6.322374,49.85381],[6.31495,49.86087],[6.315324,49.8673],[6.311388,49.87094],[6.306796,49.87069],[6.297699,49.86673],[6.293278,49.87033],[6.292934,49.87508],[6.289201,49.87605],[6.287613,49.87594],[6.284137,49.87885],[6.281126,49.87957],[6.27594,49.87768],[6.261907,49.88192],[6.257809,49.88724],[6.247358,49.89588],[6.234398,49.90049],[6.233067,49.90727],[6.231823,49.91039],[6.236032,49.91355],[6.229935,49.92183],[6.219133,49.92354],[6.22635,49.92766],[6.228241,49.93726],[6.22044,49.94369],[6.225023,49.95039],[6.212689,49.9514],[6.207066,49.95672],[6.199783,49.95352],[6.195216,49.96839],[6.19101,49.97079],[6.18144,49.96765],[6.17981,49.96422],[6.182814,49.95492],[6.179295,49.95412],[6.17702,49.96237],[6.170926,49.96353],[6.166506,49.97148],[6.170353,49.98376],[6.173694,49.98321],[6.173329,49.98559],[6.16333,49.98779],[6.156247,49.98867],[6.151614,49.99472],[6.145906,49.99717],[6.147923,50.00195],[6.150498,50.00653],[6.151702,50.01113],[6.139343,50.01116],[6.137135,50.01442],[6.148207,50.02307],[6.130772,50.02981],[6.136608,50.04178],[6.123611,50.06323],[6.115631,50.05817],[6.114444,50.06139],[6.121171,50.064],[6.131858,50.07348],[6.126335,50.07817],[6.121939,50.09059],[6.13616,50.09163],[6.131085,50.09964],[6.138082,50.10263],[6.135554,50.11899],[6.140929,50.1305],[6.135232900938857,50.1327106336419],[6.137881,50.13505],[6.13854,50.13635],[6.148776,50.14093],[6.147289,50.14614],[6.129474,50.1488],[6.128993,50.15054],[6.130732,50.1574],[6.140082,50.15733],[6.131864,50.16888],[6.132227,50.17016],[6.133097,50.17106],[6.144425,50.18042],[6.180443,50.18334],[6.18036,50.18359],[6.183067,50.18378],[6.17733,50.19274],[6.174706,50.20066],[6.173969,50.21064],[6.169571,50.21305],[6.161098,50.21942],[6.166937,50.23004],[6.167865,50.23075],[6.169209,50.23417],[6.170094,50.23578],[6.171981,50.23685],[6.193317,50.23908],[6.200669,50.25149],[6.211925,50.25747],[6.230175,50.26304],[6.258945,50.26959],[6.278459,50.27252],[6.278526,50.27301],[6.281624,50.27305],[6.278913,50.27584],[6.280403,50.28671],[6.283009,50.29292],[6.285336,50.29668],[6.295691,50.31333],[6.308274,50.32281],[6.316627,50.32436],[6.3307,50.32672],[6.338947,50.32371],[6.3438,50.31925],[6.354192,50.31813],[6.358797,50.31645],[6.382171,50.32333],[6.391522,50.32264],[6.3946926233301875,50.323969021594706],[6.40254,50.32185],[6.427049,50.32088],[6.430778,50.32431],[6.42786,50.33461],[6.404514,50.35849],[6.414127,50.36616],[6.42889,50.36156],[6.455498,50.35871],[6.446915,50.33878],[6.450691,50.33297],[6.485823,50.3373],[6.519055,50.35537],[6.571805,50.37275],[6.620609,50.37182],[6.618295,50.35203],[6.643647,50.34209],[6.672748,50.36469],[6.697962,50.33496],[6.81458,50.3617],[6.776287,50.39235],[6.786554,50.41969],[6.770454,50.43623],[6.747505,50.44119],[6.769221,50.45187],[6.761488,50.47508],[6.783472,50.48556],[6.84856,50.45295],[6.876765,50.45304],[6.916494,50.47739],[6.898372,50.52132],[6.933425,50.53289],[6.931005,50.55471],[6.977052,50.55437],[7.009857,50.56847],[7.050641,50.60038],[7.071425,50.58628],[7.099322,50.58343],[7.152822,50.59965],[7.192612,50.62333],[7.196903,50.64396],[7.201281,50.64788],[7.208576,50.64848],[7.21055,50.62235],[7.216473,50.62246],[7.218704,50.62616],[7.237244,50.62698],[7.257242,50.62349],[7.347663,50.63835],[7.360635,50.64851],[7.373692,50.67853],[7.370077,50.70694],[7.388467,50.71191],[7.437903,50.7075],[7.561595,50.74014],[7.582197,50.73703],[7.595372,50.74205],[7.596574,50.75028],[7.599449,50.76328],[7.617044,50.76882],[7.641892,50.76811],[7.655883,50.76746],[7.663994,50.77259],[7.660818,50.77829],[7.660861,50.78125],[7.669873,50.78404],[7.67292,50.78038],[7.678671,50.78065],[7.684336,50.79411],[7.677812,50.80349],[7.680302,50.81006],[7.669315,50.81738],[7.680387,50.81911],[7.702103,50.82491],[7.731972,50.84627],[7.757635,50.84242],[7.765274,50.8441],[7.767508,50.85714],[7.761841,50.90152],[7.746949,50.91667],[7.78842,50.93324],[7.788420003350289,50.93324074543932],[7.799363,50.93761],[7.842514,50.92329],[7.832136,50.90823],[7.823628,50.88224],[7.881466,50.87076],[7.908149,50.83926],[7.961154,50.84675],[7.966627,50.84117],[7.96586,50.79053],[7.967148,50.78567],[7.963285,50.78507],[7.965345,50.78005],[7.967319,50.77414],[7.977877,50.76328],[8.034623,50.72096],[8.037017,50.69052],[8.097207,50.6997],[8.125454550344983,50.68032945025963],[8.114204,50.67043],[8.113575,50.66578],[8.144302,50.63389],[8.140526,50.61505],[8.156662,50.59958],[8.142242,50.55216],[8.121815,50.5346],[8.102684,50.53104],[8.068771,50.5364],[8.063621,50.54709],[8.047142,50.55118],[8.036928,50.55004],[7.998819,50.51643],[7.987575,50.50999],[7.988691,50.503],[7.993326,50.49798],[7.984142,50.49367],[7.991009,50.47581],[8.01281,50.46133],[8.01341,50.45242],[8.007746,50.44461],[7.991352,50.44258],[7.991266,50.43389],[7.988176,50.42252],[7.981825,50.41043],[8.010492,50.40198],[8.025942,50.40193],[8.021779,50.38729],[8.038602,50.38661],[8.044181,50.38677],[8.045254,50.38168],[8.061561,50.37678],[8.06757,50.3678],[8.077869,50.34749],[8.096151,50.33302],[8.109026,50.32256],[8.10688,50.31472],[8.120871,50.30272],[8.126879,50.28945],[8.12499,50.27711],[8.11203,50.26038],[8.104734,50.25829],[8.078298,50.25862],[8.066368,50.26965],[8.038645,50.26998],[8.050833,50.2449],[8.057442,50.23616],[8.058965,50.23461],[8.058987,50.23354],[8.04328,50.22437],[8.038044,50.21651],[8.03401,50.21349],[8.011522,50.21657],[7.995043,50.22827],[7.948694,50.20877],[7.919598,50.20591],[7.914019,50.19333],[7.888269,50.18124],[7.890072,50.17343],[7.886124,50.16854],[7.93436,50.14413],[7.931871,50.10263],[7.925777,50.09966],[7.917967,50.10374],[7.905779,50.1192],[7.884321,50.11139],[7.855911,50.1236],[7.839947,50.10137],[7.841406,50.0876],[7.837372,50.07863],[7.803898,50.07962],[7.780981,50.05488],[7.786388,50.05179],[7.796516,50.0454],[7.8057,50.04275],[7.814627,50.03983],[7.822952,50.03167],[7.8263,50.02996],[7.832308,50.02368],[7.838058,50.02087],[7.85634,50.01315],[7.861147,50.00768],[7.865095,49.99632],[7.864666,49.98915],[7.86973,49.9807],[7.875322,49.97672],[7.887926,49.97435],[7.907581,49.97673],[7.925005,49.97805],[7.930412,49.97739],[7.947922,49.97789],[7.968693,49.98087],[7.997875,49.99025],[8.004999,49.99648],[8.018045,50.0009],[8.029203,50.00344],[8.043623,50.01028],[8.057098,50.01232],[8.072805,50.0148],[8.09761,50.0196],[8.115463,50.02318],[8.135719,50.02864],[8.149967,50.03052],[8.164472,50.03498],[8.209705,50.04071],[8.239231,50.0363],[8.267727,50.02252],[8.279056,50.00873],[8.292274,49.99693],[8.318538,49.98192],[8.339825,49.96392],[8.361812,49.91331],[8.344578,49.88821],[8.359566,49.86676],[8.384113,49.86156],[8.391323,49.85636],[8.38892,49.84651],[8.382225,49.82641],[8.405657,49.8026],[8.418947,49.77813],[8.432436,49.76868],[8.472176,49.77134],[8.480072,49.76779],[8.483677,49.76208],[8.48196,49.7577],[8.445173,49.72016],[8.390848,49.70611],[8.363124,49.69278],[8.360501,49.67884],[8.372865,49.66138],[8.38935,49.62451],[8.408832,49.61213],[8.420678330149158,49.59057713874159],[8.417351,49.58993],[8.405672,49.55351],[8.440153,49.4878],[8.454613,49.46937],[8.435148,49.46069],[8.436817,49.44696],[8.464624,49.439],[8.500217,49.4343],[8.482977,49.40264],[8.462399,49.39287],[8.454613,49.37622],[8.48965,49.36716],[8.462399,49.34434],[8.444046,49.33166],[8.444046,49.31426],[8.469629,49.30701],[8.47964,49.29504],[8.466292,49.29431],[8.442378,49.28162],[8.409009,49.25912],[8.381765,49.24121],[8.383821,49.21301],[8.362435,49.17175],[8.353387,49.10233],[8.308333,49.05907],[8.290483,49.0043],[8.231797888234889,48.97011850919108],[8.226226,48.97706],[8.196405,48.97762],[8.184986,48.97879],[8.169966,48.97968],[8.138165,48.97993],[8.135805,48.98154],[8.12366,48.98712],[8.071046,48.99776],[8.064694,49.00635],[8.049717,49.01536],[7.999206,49.02937],[7.979164,49.02982],[7.967405,49.04338],[7.95114,49.04769],[7.946634,49.05604],[7.933797,49.05955],[7.88784,49.05058],[7.863636,49.03967],[7.812567,49.06189],[7.794199,49.06746],[7.762356,49.05452],[7.696609,49.05992],[7.641334,49.05576],[7.636925,49.0641],[7.632046,49.05629],[7.6326086324547635,49.049927406154964],[7.629054,49.05089]]],[[[6.373506,50.35365],[6.3735061878668935,50.35365063911336],[6.396627,50.34639],[6.373506,50.35365]]]]}}
