{"type":"Feature","properties":{"sourceId":"rutland"},"geometry":{"type":"Polygon","coordinates":[[[-0.732831,52.53468],[-0.743066,52.53857],[-0.744981,52.5425],[-0.742323,52.54717],[-0.74331,52.55085],[-0.752964,52.5613],[-0.760743,52.56404],[-0.765089,52.57009],[-0.764017,52.57456],[-0.766918,52.58026],[-0.77473,52.58345],[-0.786884,52.59381],[-0.800032,52.59581],[-0.816796,52.59235],[-0.822125,52.59601],[-0.820115,52.60185],[-0.82042,52.61048],[-0.812444,52.61522],[-0.810053,52.62042],[-0.812163,52.62618],[-0.806998,52.63547],[-0.811179,52.64024],[-0.810891,52.64472],[-0.79106,52.66798],[-0.786503,52.66892],[-0.78471,52.67254],[-0.788215,52.6917],[-0.796728,52.69604],[-0.798641,52.70083],[-0.803627,52.70278],[-0.805648,52.70784],[-0.822934,52.71525],[-0.818457,52.72593],[-0.813915,52.73032],[-0.805675,52.73337],[-0.80172,52.7379],[-0.791504,52.74146],[-0.781845,52.74206],[-0.776842,52.74513],[-0.767919,52.74498],[-0.76248,52.74098],[-0.749961,52.7385],[-0.722937,52.74186],[-0.718712,52.74591],[-0.701224,52.74757],[-0.687285,52.75409],[-0.684017,52.75779],[-0.675148,52.75915],[-0.660341,52.7573],[-0.61013,52.76109],[-0.607683,52.76047],[-0.6033,52.75236],[-0.589212,52.75504],[-0.572271,52.75427],[-0.566545,52.74687],[-0.559541,52.74665],[-0.539983,52.73974],[-0.537507,52.7346],[-0.539265,52.72722],[-0.536422,52.72379],[-0.51276,52.721],[-0.503313,52.71411],[-0.494172,52.71164],[-0.46537,52.71148],[-0.461411,52.70942],[-0.45091,52.71078],[-0.430579,52.70674],[-0.427654,52.70331],[-0.427868,52.69724],[-0.433014,52.68308],[-0.44526,52.67759],[-0.455607,52.66929],[-0.489767,52.66318],[-0.493908,52.65937],[-0.508263,52.65756],[-0.509686,52.6549],[-0.508654,52.65206],[-0.493977,52.63961],[-0.499206,52.638],[-0.51326,52.64153],[-0.517655,52.64028],[-0.523353,52.63351],[-0.531474,52.63016],[-0.536365,52.6247],[-0.538586,52.61662],[-0.546865,52.61071],[-0.546338,52.60661],[-0.548743,52.60109],[-0.541688,52.59613],[-0.543577,52.59177],[-0.557222,52.59309],[-0.560707,52.58614],[-0.564127,52.58465],[-0.574195,52.58479],[-0.581771,52.58852],[-0.588802,52.58546],[-0.60102,52.58742],[-0.637066,52.57075],[-0.645622,52.57146],[-0.666167,52.56484],[-0.672113,52.55783],[-0.676834,52.5566],[-0.683744,52.54827],[-0.693375,52.54369],[-0.695393,52.53793],[-0.702063,52.5312],[-0.71421,52.52355],[-0.721866,52.52489],[-0.732831,52.53468]]]}}
