{"type":"Feature","properties":{"sourceId":"rwanda"},"geometry":{"type":"Polygon","coordinates":[[[29.04193,-2.748188],[28.98408,-2.699492],[28.96726,-2.705322],[28.94365,-2.695119],[28.91722,-2.682602],[28.8949,-2.661081],[28.89413,-2.651907],[28.90263,-2.64642],[28.89542,-2.597977],[28.891,-2.559692],[28.87756,-2.551653],[28.8704,-2.541514],[28.86128,-2.531996],[28.86098,-2.524193],[28.86673,-2.514847],[28.87284,-2.50863],[28.88743,-2.503485],[28.8913,-2.488908],[28.88958,-2.47656],[28.86512,-2.449977],[28.8593,-2.417353],[28.90658,-2.363227],[28.99697,-2.285389],[29.08825,-2.266933],[29.14545,-2.103564],[29.11754,-1.93624],[29.12673,-1.857492],[29.24171,-1.700176],[29.24437,-1.696884],[29.24267,-1.667705],[29.25058,-1.662393],[29.25977,-1.648408],[29.26706,-1.62859],[29.33521,-1.543735],[29.35856,-1.50667],[29.50055,-1.42373],[29.55701,-1.378592],[29.67229,-1.37288],[29.72953,-1.330988],[29.76041,-1.335728],[29.78477,-1.356785],[29.82172,-1.299392],[29.85009,-1.314654],[29.89277,-1.350844],[29.92205,-1.470307],[30.01653,-1.404338],[30.06878,-1.369416],[30.1159,-1.366627],[30.16229,-1.267991],[30.20663,-1.26309],[30.34562,-1.055208],[30.4395,-1.03831],[30.47665,-1.045707],[30.48582,-1.119371],[30.51875,-1.168976],[30.619,-1.342306],[30.68724,-1.388485],[30.74487,-1.438594],[30.75609,-1.521014],[30.84932,-1.648186],[30.83191,-1.696382],[30.8416,-1.813096],[30.81927,-1.936436],[30.90864,-2.07527],[30.86673,-2.312864],[30.83472,-2.361913],[30.76714,-2.401268],[30.65983,-2.423183],[30.60821,-2.41083],[30.56889,-2.429138],[30.50748,-2.410181],[30.46441,-2.373564],[30.44862,-2.334271],[30.43038,-2.338718],[30.40222,-2.322008],[30.37788,-2.356589],[30.30369,-2.381636],[30.25463,-2.379915],[30.22819,-2.358647],[30.19095,-2.434283],[30.13387,-2.447485],[30.08766,-2.428387],[30.02587,-2.357325],[29.96823,-2.343129],[29.95476,-2.368815],[29.97815,-2.477728],[29.95051,-2.506774],[29.93138,-2.559862],[29.94221,-2.637503],[29.92622,-2.70747],[29.88453,-2.762334],[29.832,-2.783938],[29.75681,-2.813771],[29.706,-2.82543],[29.66171,-2.79594],[29.54292,-2.836403],[29.51305,-2.832288],[29.44125,-2.808246],[29.36508,-2.848747],[29.3292,-2.745016],[29.31852,-2.691729],[29.27719,-2.630987],[29.22157,-2.63476],[29.12973,-2.615039],[29.08544,-2.598748],[29.06502,-2.610752],[29.06462,-2.690837],[29.05918,-2.710723],[29.04193,-2.748188]]]}}
