{"type":"Feature","properties":{"sourceId":"rhone-alpes"},"geometry":{"type":"Polygon","coordinates":[[[6.61406,45.11828],[6.592213,45.11657],[6.577636,45.11939],[6.565736,45.11136],[6.563502,45.10328],[6.538918,45.09652],[6.530104,45.09635],[6.518286,45.10277],[6.509098,45.1041],[6.48706,45.09173],[6.488439,45.07706],[6.492217,45.06786],[6.488623,45.05448],[6.4539,45.04924],[6.442499,45.05264],[6.434801,45.06063],[6.422096,45.05777],[6.405692,45.06197],[6.395163,45.05869],[6.363806,45.06789],[6.362941,45.0731],[6.370729,45.08354],[6.368329,45.09166],[6.359635,45.10347],[6.336564,45.11569],[6.317773,45.10965],[6.294396,45.10609],[6.273386,45.1139],[6.263845,45.12203],[6.247546,45.11722],[6.241696,45.11072],[6.234179,45.10876],[6.232489,45.10524],[6.247007,45.06975],[6.241547,45.06549],[6.22226,45.06191],[6.217819,45.0468],[6.212815,45.04216],[6.210497,45.03142],[6.204464,45.02188],[6.20495,45.0155],[6.212746,45.01084],[6.247482,44.99996],[6.307843,45.00744],[6.320058,45.00613],[6.325076,45.00122],[6.325925,44.99747],[6.318911,44.98292],[6.325092,44.97395],[6.332223,44.97026],[6.326594,44.95881],[6.326893,44.95374],[6.331808,44.94972],[6.356262,44.94499],[6.359042,44.9417],[6.357771,44.92533],[6.360214,44.91627],[6.358133,44.90006],[6.360534,44.89375],[6.35155,44.87771],[6.355704,44.86284],[6.355191,44.85311],[6.333184,44.84735],[6.324449,44.85155],[6.30436,44.86993],[6.290268,44.87181],[6.26595,44.8675],[6.256352,44.85286],[6.246556,44.84935],[6.228858,44.84857],[6.197836,44.856],[6.189547,44.85142],[6.179502,44.85329],[6.166888,44.85051],[6.160407,44.8526],[6.155857,44.859],[6.13185,44.86055],[6.111634,44.84106],[6.105514,44.84163],[6.098158,44.83833],[6.091232,44.83147],[6.072429,44.82413],[6.06796,44.81858],[6.056842,44.81365],[6.043372,44.82153],[6.030641,44.83381],[6.018921,44.8335],[6.006428,44.81787],[5.979277,44.81553],[5.959533,44.80662],[5.959496,44.80285],[5.96345,44.79929],[5.980372,44.79171],[5.982777,44.78098],[5.956342,44.76934],[5.952643,44.75735],[5.939481,44.76009],[5.919409,44.74957],[5.909315,44.75514],[5.900467,44.75536],[5.892807,44.75212],[5.888613,44.74582],[5.88149,44.74446],[5.850612,44.74751],[5.83633,44.75555],[5.830241,44.75549],[5.828629,44.75149],[5.830995,44.74069],[5.820743,44.73078],[5.812758,44.71003],[5.815742,44.70646],[5.828514,44.70233],[5.832414,44.6887],[5.827604,44.68369],[5.80389,44.67287],[5.799977,44.66195],[5.791626,44.65108],[5.772928,44.65094],[5.759187,44.65484],[5.755931,44.6524],[5.75491,44.64653],[5.742571,44.64454],[5.739894,44.63855],[5.7284,44.63672],[5.71332,44.6405],[5.706458,44.63967],[5.680048,44.6489],[5.669352,44.64604],[5.652212,44.65047],[5.644352,44.64851],[5.644363,44.62869],[5.652134,44.61895],[5.649571,44.61057],[5.647548,44.60733],[5.639789,44.60531],[5.628694,44.58582],[5.61952,44.58037],[5.61678,44.57161],[5.606229,44.56148],[5.601359,44.54652],[5.615361,44.53681],[5.628981,44.53664],[5.654726,44.51688],[5.664295,44.50757],[5.667107,44.50109],[5.65081,44.49655],[5.641807,44.49944],[5.631325,44.4984],[5.627953,44.49437],[5.626972,44.48302],[5.612814,44.46721],[5.604069,44.46294],[5.59548,44.46398],[5.570144,44.47326],[5.558712,44.47103],[5.544881,44.47961],[5.518866,44.48799],[5.481217,44.48864],[5.468686,44.49713],[5.461081,44.49549],[5.470405,44.4733],[5.463362,44.46569],[5.467824,44.45121],[5.479678,44.44501],[5.497849,44.44067],[5.500636,44.43665],[5.495282,44.42646],[5.487486,44.42567],[5.477149,44.41714],[5.439088,44.43078],[5.424352,44.425],[5.425067,44.41931],[5.434618,44.41398],[5.445159,44.39249],[5.444718,44.3722],[5.46562,44.36844],[5.472155,44.35449],[5.482569,44.35264],[5.493348,44.3416],[5.521419,44.35356],[5.530268,44.34596],[5.541386,44.3445],[5.542034,44.3365],[5.548086,44.33322],[5.560627,44.33804],[5.578748,44.33493],[5.616065,44.33494],[5.623663,44.33793],[5.630557,44.33617],[5.634645,44.32725],[5.621613,44.31859],[5.619048,44.3135],[5.626326,44.30557],[5.63767,44.30308],[5.644383,44.29614],[5.644285,44.2923],[5.636343,44.28816],[5.635906,44.28385],[5.651255,44.27274],[5.675327,44.2781],[5.68936,44.26626],[5.676048,44.2519],[5.679153,44.23976],[5.685985,44.23568],[5.680113,44.21332],[5.68905,44.19796],[5.688912,44.19393],[5.675606,44.18644],[5.656215,44.18589],[5.649766,44.1739],[5.651822,44.17005],[5.684252,44.16538],[5.67987,44.144],[5.630186,44.14871],[5.629165,44.1581],[5.633592,44.16661],[5.625555,44.17304],[5.614862,44.17568],[5.607049,44.18724],[5.580192,44.18551],[5.569108,44.17375],[5.574888,44.16512],[5.585128,44.15874],[5.580802,44.15059],[5.56876,44.1455],[5.554648,44.14629],[5.543672,44.13137],[5.51608,44.12272],[5.505379,44.11398],[5.494046,44.11274],[5.453477,44.1171],[5.448279,44.12059],[5.44482,44.1336],[5.434364,44.13902],[5.432027,44.14689],[5.423869,44.1468],[5.415771,44.15194],[5.397453,44.14945],[5.381724,44.15353],[5.380016,44.16196],[5.383635,44.18291],[5.379384,44.19023],[5.378739,44.1992],[5.357857,44.21004],[5.348845,44.20803],[5.337338,44.20109],[5.318495,44.20663],[5.307978,44.20606],[5.302671,44.20298],[5.289575,44.21277],[5.249187,44.22859],[5.243116,44.22649],[5.238795,44.21093],[5.207459,44.21102],[5.190639,44.21658],[5.175392,44.21784],[5.154109,44.22804],[5.146966,44.23604],[5.157709,44.24591],[5.159108,44.25375],[5.155921,44.26357],[5.146034,44.26774],[5.144445,44.2748],[5.147178,44.28261],[5.1658,44.2943],[5.168722,44.30644],[5.16528,44.31105],[5.158645,44.30886],[5.156203,44.29989],[5.120554,44.2847],[5.108602,44.27483],[5.097326,44.27941],[5.075454,44.28187],[5.067674,44.28954],[5.064056,44.30077],[5.057569,44.30347],[5.023233,44.29327],[5.005008,44.28423],[4.977243,44.28026],[4.940532,44.26513],[4.934246,44.25984],[4.904869,44.25745],[4.89953,44.25431],[4.890789,44.25947],[4.878076,44.25816],[4.870133,44.25338],[4.867434,44.24749],[4.845805,44.23833],[4.841985,44.23327],[4.826339,44.22586],[4.817248,44.22719],[4.811513,44.2322],[4.809591,44.25776],[4.801543,44.26888],[4.80193,44.29263],[4.799457,44.30007],[4.788133,44.30566],[4.779744,44.31474],[4.770647,44.31487],[4.759964,44.32267],[4.721917,44.32408],[4.712224,44.31796],[4.682899,44.31779],[4.657491,44.32373],[4.652849,44.3127],[4.656172,44.29855],[4.653981,44.27619],[4.652004805755315,44.27023991091987],[4.651685,44.27117],[4.643257,44.2773],[4.640343,44.28377],[4.629413,44.28674],[4.618683,44.28323],[4.605669,44.29383],[4.587945,44.29725],[4.577267,44.30365],[4.562458,44.30393],[4.550985,44.31779],[4.549942,44.32814],[4.533359,44.32595],[4.526301,44.33158],[4.517243,44.33367],[4.506593,44.34651],[4.501577,44.34615],[4.496002,44.34081],[4.48262,44.34009],[4.476155,44.34423],[4.464396,44.34561],[4.453629,44.34245],[4.44907,44.33377],[4.44539,44.29547],[4.439092,44.28749],[4.4335,44.29399],[4.420578,44.28986],[4.402492,44.29108],[4.39786,44.29359],[4.395121,44.30581],[4.405704,44.33311],[4.393476,44.3485],[4.387053,44.34963],[4.367508,44.34227],[4.324319,44.34052],[4.323623,44.33177],[4.315725,44.32305],[4.301328,44.31708],[4.29043,44.31909],[4.286666,44.31686],[4.286505,44.29364],[4.274581,44.2767],[4.2556,44.26779],[4.242107,44.27262],[4.216004,44.29304],[4.188721,44.30179],[4.17897,44.31986],[4.173391,44.32057],[4.16165,44.31503],[4.145922,44.31654],[4.143692,44.32908],[4.130546,44.33924],[4.125149,44.33976],[4.113431,44.33274],[4.093511,44.33715],[4.082164,44.33151],[4.073923,44.33201],[4.058887,44.32316],[4.051189,44.32353],[4.047644,44.32888],[4.05698,44.33659],[4.055182,44.34631],[4.060035,44.36362],[4.055741,44.36926],[4.054738,44.38035],[4.046465,44.38848],[4.050101,44.39183],[4.065632,44.39198],[4.072133,44.40499],[4.05905,44.41556],[4.046063,44.42191],[4.048768,44.43279],[4.038763,44.44793],[4.02679,44.44876],[4.016805,44.45654],[4.00544,44.45949],[3.990104,44.47534],[3.991019,44.50489],[3.986807,44.50936],[3.981248,44.52385],[3.975055,44.52813],[3.969684,44.53702],[3.956707,44.56868],[3.946692,44.57603],[3.924934,44.57494],[3.920081,44.57999],[3.920042,44.58984],[3.909034,44.59628],[3.909553,44.61069],[3.905294,44.61513],[3.897748,44.61716],[3.895739,44.6214],[3.900096,44.64543],[3.893,44.65779],[3.887102,44.66133],[3.877251,44.67972],[3.879579,44.68598],[3.886123,44.69134],[3.886768,44.69779],[3.874563,44.70096],[3.874642,44.70837],[3.86684,44.71505],[3.867871,44.72404],[3.88012,44.7317],[3.87913,44.73992],[3.8660078578586057,44.745037113624214],[3.872752,44.75256],[3.878,44.75378],[3.894245,44.74882],[3.901578,44.75168],[3.900397,44.75711],[3.902922,44.7613],[3.914979,44.76278],[3.926488,44.76784],[3.924595,44.77585],[3.926375,44.78314],[3.9298,44.78948],[3.939841,44.79549],[3.944544,44.80716],[3.944726,44.81602],[3.950164,44.82277],[3.959536,44.82509],[3.969343,44.81526],[3.980315,44.80939],[3.987223,44.80874],[3.99102,44.81047],[3.992979,44.818],[4.001072,44.8173],[4.00738,44.82513],[4.013959,44.82456],[4.029963,44.83082],[4.031491,44.83848],[4.026677,44.84578],[4.028151,44.85728],[4.038282,44.8697],[4.046893,44.86761],[4.05497,44.86972],[4.070507,44.86422],[4.092886,44.86784],[4.113832,44.87617],[4.133681,44.87107],[4.160762,44.87241],[4.165836,44.8789],[4.180201,44.8843],[4.183579,44.88935],[4.186356,44.906],[4.20569,44.92474],[4.218886,44.9327],[4.225672,44.94783],[4.223888,44.95581],[4.227503,44.96204],[4.237003,44.96477],[4.253483,44.95636],[4.279546,44.96417],[4.294634,44.96411],[4.303924,44.96854],[4.313462,44.9695],[4.316021,44.97148],[4.315784,44.98017],[4.309589,44.98769],[4.294309,44.99652],[4.295094,45.00483],[4.308325,45.02085],[4.318879,45.02768],[4.341234,45.02336],[4.347471,45.02636],[4.352664,45.02549],[4.360611,45.03175],[4.38165,45.03527],[4.384882,45.04607],[4.379402,45.05657],[4.361306,45.05877],[4.350849,45.0694],[4.352891,45.0734],[4.36254,45.07866],[4.364207,45.08481],[4.368831,45.08762],[4.366515,45.09398],[4.368848,45.09891],[4.374518,45.10147],[4.387156,45.09924],[4.40154,45.10422],[4.402257,45.11997],[4.378413,45.12726],[4.376587,45.13081],[4.379913,45.1384],[4.388108,45.14014],[4.395866,45.13656],[4.409266,45.13824],[4.418651,45.13598],[4.42609,45.12785],[4.42419,45.11641],[4.435237,45.10632],[4.443429,45.10996],[4.447145,45.11626],[4.458719,45.11686],[4.459944,45.12346],[4.450312,45.13201],[4.446313,45.14527],[4.451447,45.1613],[4.458473,45.16543],[4.462468,45.17261],[4.47398,45.17715],[4.482391,45.19351],[4.48094,45.21095],[4.488827,45.21446],[4.492907,45.22344],[4.48528,45.23815],[4.474381,45.24198],[4.469726,45.24997],[4.446223,45.26329],[4.434336,45.2778],[4.417228,45.27746],[4.400179,45.27194],[4.384106,45.26284],[4.378498,45.26588],[4.366269,45.26588],[4.359784,45.27809],[4.373836,45.30239],[4.35397,45.30694],[4.340831,45.31817],[4.348556,45.32598],[4.369497,45.33561],[4.360751,45.35265],[4.34905,45.36359],[4.33642,45.37016],[4.317837,45.37339],[4.307218,45.37367],[4.303785,45.37055],[4.293969,45.36976],[4.28884,45.3643],[4.276567,45.36366],[4.273442,45.36639],[4.272158,45.377],[4.258235,45.37614],[4.251069,45.38447],[4.233544,45.39137],[4.225087,45.39223],[4.215658,45.38758],[4.198464,45.38641],[4.178034,45.39527],[4.144582,45.38685],[4.141845,45.38297],[4.150873,45.37382],[4.14908,45.36894],[4.119206,45.37198],[4.110116,45.36821],[4.102949,45.36144],[4.080139,45.36068],[4.072776,45.3525],[4.073219,45.34325],[4.068648,45.34032],[4.064364,45.34233],[4.059067,45.3523],[4.044125,45.35829],[4.035659,45.35627],[4.030707,45.3519],[4.020127,45.35185],[4.018867,45.34294],[4.013687,45.34117],[4.005052,45.35688],[3.997351,45.35978],[3.98444,45.37602],[3.973848,45.3784],[3.959466,45.37391],[3.948039,45.37882],[3.934499,45.37345],[3.930211,45.36371],[3.913425,45.35582],[3.911536,45.35162],[3.914785,45.34345],[3.907889,45.33999],[3.895553,45.37009],[3.898181,45.38141],[3.894493,45.39167],[3.896151,45.3984],[3.903512,45.40735],[3.91154,45.41037],[3.914309,45.4178],[3.93784,45.42737],[3.963023,45.43257],[3.96754,45.44267],[3.976757,45.44642],[3.974117,45.45425],[3.975776,45.46029],[3.970044,45.47047],[3.972374,45.47434],[3.985378,45.48115],[3.988074,45.48577],[3.986824,45.49648],[3.964839,45.50697],[3.956704,45.53211],[3.949964,45.54374],[3.95672,45.5529],[3.95672,45.55676],[3.947515,45.56405],[3.936647,45.58034],[3.91847,45.59002],[3.909024,45.59992],[3.884116,45.60502],[3.86508,45.61706],[3.864022,45.62351],[3.859583,45.62699],[3.838342,45.62927],[3.82637,45.63422],[3.819553,45.64867],[3.804485,45.66137],[3.796716,45.67644],[3.779755,45.69389],[3.779501,45.69876],[3.785472,45.70777],[3.781095,45.71831],[3.782531,45.72628],[3.77151,45.73022],[3.76004,45.7483],[3.750656,45.7495],[3.745636,45.74679],[3.733656,45.75378],[3.733016,45.75855],[3.741214,45.76644],[3.732963,45.77673],[3.711252,45.78593],[3.702015,45.78558],[3.698423,45.7892],[3.699577,45.79337],[3.713624,45.79787],[3.72399,45.81233],[3.723825,45.81952],[3.730893,45.83111],[3.724576,45.84963],[3.73051,45.85471],[3.731616,45.86562],[3.741275,45.87106],[3.756834,45.88613],[3.74212,45.91037],[3.732077,45.91465],[3.725386,45.92365],[3.696576,45.93462],[3.696511,45.94601],[3.708467,45.95618],[3.70611,45.96643],[3.714814,45.97114],[3.735125,45.96422],[3.747022,45.96449],[3.760569,45.9759],[3.77193,45.97321],[3.77597,45.96914],[3.788078,45.97063],[3.799473,45.98041],[3.824915,45.98577],[3.8275,45.99322],[3.834147,45.99942],[3.828973,46.00345],[3.824714,46.01419],[3.818684,46.02012],[3.816054,46.04011],[3.811272,46.04513],[3.809044,46.05376],[3.811005,46.06193],[3.817162,46.0676],[3.82231,46.0791],[3.825113,46.09043],[3.799857,46.11574],[3.799739,46.12393],[3.804634,46.13104],[3.794209,46.15041],[3.796443,46.15382],[3.809437,46.15964],[3.811079,46.16455],[3.792701,46.18778],[3.792166,46.19902],[3.798875,46.20775],[3.78685,46.22237],[3.774715,46.2304],[3.772068,46.23737],[3.781721,46.24108],[3.803246,46.23615],[3.809483,46.2419],[3.808176,46.25154],[3.811329,46.25497],[3.859462,46.26136],[3.869017,46.26019],[3.87837,46.27118],[3.9004372249548025,46.273783211655285],[3.903918,46.27132],[3.906714,46.25695],[3.903728,46.25229],[3.906533,46.2474],[3.904564,46.24223],[3.898524,46.24211],[3.895855,46.23845],[3.896308,46.22648],[3.889243,46.21527],[3.889773,46.21314],[3.898283,46.20879],[3.911533,46.20597],[3.917679,46.20138],[3.933569,46.2049],[3.96925,46.20108],[3.971106,46.19902],[3.971556,46.19277],[3.96989,46.18995],[3.972173,46.18518],[3.976637,46.18319],[3.978547,46.17742],[3.989792,46.16766],[3.994892,46.17103],[4.0027,46.1692],[4.019539,46.17096],[4.031083,46.16783],[4.033985,46.17186],[4.052361,46.18019],[4.059952,46.18688],[4.070016,46.18532],[4.077263,46.18926],[4.09449,46.19185],[4.103287,46.19678],[4.129541,46.18037],[4.133221,46.17603],[4.164234,46.17187],[4.187003,46.17313],[4.189887,46.17565],[4.185982,46.18217],[4.187045,46.18682],[4.205866,46.19312],[4.219113,46.18362],[4.224782,46.17657],[4.233502,46.17849],[4.244428,46.18644],[4.254467,46.18471],[4.258848,46.17889],[4.258943,46.1761],[4.254017,46.16928],[4.247609,46.16784],[4.249085,46.15744],[4.280892,46.15484],[4.288194,46.15957],[4.292032,46.16913],[4.294482,46.171],[4.305882,46.17293],[4.315777,46.16921],[4.323168,46.17779],[4.328708,46.18125],[4.336727,46.1799],[4.343239,46.18487],[4.347628,46.18598],[4.358267,46.18067],[4.36233,46.18054],[4.374719,46.18565],[4.375233,46.18748],[4.367534,46.19875],[4.370312,46.20237],[4.374708,46.2037],[4.376479,46.20996],[4.387529,46.21146],[4.39027,46.21345],[4.388368,46.23044],[4.3936,46.23584],[4.389829,46.24618],[4.393676,46.25122],[4.392134,46.25786],[4.395043,46.26394],[4.398229,46.26646],[4.399529,46.28234],[4.410066,46.29379],[4.423403,46.29388],[4.428013,46.29911],[4.431012,46.3001],[4.435405,46.29815],[4.439026,46.29194],[4.451842,46.29527],[4.458733,46.29468],[4.471856,46.28422],[4.479311,46.28315],[4.48698,46.28547],[4.498614,46.27374],[4.503685,46.26593],[4.52286,46.2693],[4.537323,46.26867],[4.546489,46.27278],[4.549539,46.28254],[4.554403,46.28505],[4.555624,46.28966],[4.560628,46.29349],[4.568218,46.29171],[4.571203,46.2864],[4.571899,46.27517],[4.582293,46.26868],[4.612218,46.26569],[4.618511,46.26365],[4.62328,46.26958],[4.622386,46.28238],[4.628871,46.28739],[4.637047,46.28946],[4.637736,46.29759],[4.639771,46.29955],[4.652874,46.30242],[4.663947,46.29397],[4.68164,46.30148],[4.68861,46.3003],[4.691012,46.29865],[4.693982,46.2911],[4.697397,46.2898],[4.706859,46.27993],[4.706921,46.27505],[4.701022,46.27016],[4.69361,46.2729],[4.686033,46.26786],[4.679509,46.26922],[4.678032,46.25854],[4.687628,46.24825],[4.693395,46.24724],[4.699171,46.25007],[4.706674,46.24855],[4.717903,46.24248],[4.720242,46.23914],[4.725307,46.23944],[4.729351,46.23546],[4.729977,46.23251],[4.728207,46.23008],[4.720623,46.2307],[4.718042,46.22788],[4.719718,46.22074],[4.727758,46.21598],[4.727579,46.21104],[4.719589,46.20125],[4.718952,46.19395],[4.726581,46.17849],[4.758231,46.1708],[4.764368,46.17456],[4.780655,46.17557],[4.781615,46.18814],[4.795123,46.20209],[4.794051,46.20898],[4.795485,46.2174],[4.802269,46.2295],[4.810229,46.23847],[4.812945,46.26028],[4.825944,46.27256],[4.834103,46.29958],[4.853964,46.32775],[4.853183,46.35664],[4.860813,46.36883],[4.873077,46.38135],[4.890249,46.40384],[4.88935,46.41372],[4.892717,46.42681],[4.893415,46.44053],[4.900652,46.44961],[4.911379,46.45657],[4.915388,46.46124],[4.917499,46.47218],[4.915964,46.48636],[4.926792,46.49628],[4.934913,46.51194],[4.941168,46.51018],[4.943113,46.50415],[4.951526,46.49855],[4.955432,46.50355],[4.960054,46.50584],[4.970329,46.50471],[4.973783,46.5135],[4.982908,46.51427],[4.990874,46.51106],[5.000208,46.51053],[5.007315,46.50763],[5.012262,46.5001],[5.024432,46.49496],[5.028484,46.49079],[5.040828,46.4898],[5.055975,46.48252],[5.076788,46.48468],[5.096111,46.4965],[5.110252,46.49005],[5.115242,46.49167],[5.11892,46.496],[5.137612,46.50125],[5.141739,46.50671],[5.155658,46.5062],[5.166871,46.50189],[5.16843,46.50446],[5.167573,46.51004],[5.172304,46.51206],[5.181802,46.50818],[5.196397,46.50604],[5.204632,46.49211],[5.204228,46.48708],[5.208987,46.48296],[5.208819,46.47841],[5.214068,46.47212],[5.214207,46.46758],[5.223843,46.46725],[5.236515,46.45605],[5.241059,46.45911],[5.245008,46.45852],[5.253522,46.45391],[5.255995,46.44891],[5.266392,46.44961],[5.283979,46.44448],[5.291394,46.44859],[5.305748,46.44434],[5.309387,46.44489],[5.310555512150735,46.445345452849224],[5.315835,46.43646],[5.31698,46.42981],[5.308563,46.42562],[5.304453,46.41954],[5.298169,46.41661],[5.297636,46.41269],[5.314644,46.4078],[5.33363,46.39602],[5.339252,46.40024],[5.347392,46.3981],[5.352054,46.39183],[5.361566,46.38941],[5.369745,46.3844],[5.370599,46.37841],[5.363315,46.37343],[5.36132,46.36912],[5.367467,46.36751],[5.374479,46.36077],[5.372027,46.35197],[5.378874,46.34505],[5.400196,46.33657],[5.403458,46.32634],[5.40382,46.30971],[5.409561,46.30854],[5.411869,46.30978],[5.414991,46.31624],[5.417869,46.33748],[5.420613,46.3405],[5.423394,46.34011],[5.42949,46.3331],[5.436606,46.31456],[5.45621,46.31632],[5.460697,46.3213],[5.465508,46.321],[5.468241,46.31637],[5.471593,46.31451],[5.472283,46.31074],[5.464561,46.29315],[5.45768,46.29108],[5.45531,46.27427],[5.4733,46.26325],[5.492332,46.26719],[5.500048,46.26704],[5.511108,46.2633],[5.520937,46.26313],[5.541825,46.26855],[5.559116,46.28159],[5.566082,46.29207],[5.578136,46.29276],[5.587683,46.29124],[5.595979,46.29448],[5.599408,46.29789],[5.603579,46.30691],[5.608531,46.31066],[5.612306,46.31942],[5.634079,46.32998],[5.644289,46.34126],[5.647859,46.33951],[5.648887,46.33559],[5.648536,46.33183],[5.644103,46.32648],[5.645728,46.32306],[5.668045,46.32295],[5.674564,46.31781],[5.681331,46.3162],[5.685062,46.30948],[5.713287,46.30707],[5.717758,46.29438],[5.713309,46.28066],[5.718478,46.27101],[5.718881,46.26364],[5.725991,46.25975],[5.766923,46.26681],[5.827036,46.26008],[5.852381,46.26037],[5.863746,46.26857],[5.869637,46.26363],[5.879579,46.26834],[5.893954,46.28405],[5.909595,46.28278],[5.917611,46.29355],[5.92343,46.31041],[5.942347,46.30788],[5.955516,46.32678],[5.966129,46.33721],[5.967637,46.34137],[5.981132,46.35404],[5.985209,46.3621],[6.015278,46.37535],[6.021689,46.38175],[6.032892,46.38693],[6.056782,46.41495],[6.061838171864117,46.41514627694606],[6.095271,46.40657],[6.104739,46.39677],[6.11631,46.39484],[6.14861,46.37473],[6.15799,46.37493],[6.166257,46.36728],[6.153852,46.35109],[6.135798,46.34083],[6.133261,46.33163],[6.117187,46.31399],[6.117,46.29855],[6.099477,46.28581],[6.100666,46.27717],[6.115142,46.26298],[6.119519,46.25151],[6.101575,46.23917],[6.087112,46.24908],[6.069689,46.24347],[6.063037,46.24712],[6.047502,46.2411],[6.043543,46.23703],[6.033059,46.2415],[6.011324,46.23163],[6.000724,46.22257],[5.991368,46.22376],[5.98403,46.21851],[5.972443,46.21672],[5.961885,46.19733],[5.992098,46.18328],[5.987549,46.17415],[5.980511,46.17478],[5.9624,46.14455],[5.964374,46.13899],[5.954418,46.13251],[5.955706,46.12733],[5.97476,46.13036],[5.989437,46.14166],[6.022139,46.14018],[6.0357,46.13274],[6.048574,46.14077],[6.052952,46.14987],[6.075182,46.14803],[6.090803,46.15076],[6.09724,46.14279],[6.128483,46.13917],[6.136808,46.1412],[6.145906,46.14437],[6.159553,46.15237],[6.176848,46.15802],[6.19041,46.1664],[6.188307,46.17823],[6.199293,46.1831],[6.216674,46.19504],[6.23487,46.20556],[6.246586,46.20354],[6.277742,46.21539],[6.296926,46.22569],[6.31216,46.24406],[6.311045,46.25691],[6.297269,46.25763],[6.298412,46.26895],[6.269159,46.25015],[6.250877,46.26374],[6.240406,46.28088],[6.25474,46.28866],[6.24959,46.30289],[6.22324,46.31356],[6.260833,46.35759],[6.423404,46.41197],[6.811611,46.42529],[6.803026,46.3946],[6.800108,46.38625],[6.803347,46.3812],[6.791439,46.3692],[6.772556,46.36553],[6.76778,46.35444],[6.783457,46.33075],[6.798366,46.31789],[6.827882,46.30007],[6.847315,46.28842],[6.856214,46.28872],[6.858565,46.26728],[6.819692,46.23346],[6.801101,46.2059],[6.808813,46.18255],[6.788943,46.1633],[6.787423,46.15311],[6.793889,46.13741],[6.814317,46.12625],[6.838999,46.13075],[6.849565,46.12388],[6.893169,46.11953],[6.879714,46.09589],[6.887118,46.075],[6.875309,46.06776],[6.865885,46.04772],[6.892236,46.03924],[6.912852,46.04912],[6.929143,46.06334],[6.933659,46.05319],[6.948834,46.04823],[6.960655,46.02862],[6.981983,46.00424],[7.018507,45.97878],[6.996746,45.96905],[7.032134,45.94941],[7.033597,45.92172],[7.05783130876955,45.89950696774211],[6.940965,45.83551],[6.82003,45.81591],[6.829337,45.71123],[7.012493,45.64465],[7.009821,45.52013],[7.110975,45.47131],[7.19206,45.40674],[7.139578,45.30455],[7.144923,45.25531],[7.080046,45.20884],[6.980034,45.20287],[6.951246,45.16805],[6.895852,45.13346],[6.847371,45.1246],[6.78635,45.15017],[6.646707,45.10058],[6.626597,45.10753],[6.61406,45.11828]]]}}
