{"type":"Feature","properties":{"sourceId":"romania"},"geometry":{"type":"Polygon","coordinates":[[[22.90126,47.9857],[22.91374,48.03919],[23.0676,48.03576],[23.09438,48.10136],[23.15137,48.14049],[23.27812,48.12222],[23.31847,48.06995],[23.47724,48.00003],[23.53314,48.04445],[23.81056,48.00979],[23.86076,47.9367],[23.87844,47.94544],[23.93732,47.95108],[23.94281,47.962],[23.97251,47.97062],[24.00959,47.96935],[24.06263,47.95521],[24.10109,47.93791],[24.11241,47.91801],[24.15979,47.91738],[24.16443,47.92175],[24.19876,47.91761],[24.31446,47.92785],[24.42947,47.97407],[24.57058,47.97636],[24.63203,47.95452],[24.70962,47.85786],[24.83047,47.83044],[24.89811,47.73471],[25.09964,47.76102],[25.23079,47.89977],[25.30907,47.91749],[25.62904,47.95314],[25.86559,47.97384],[26.18351,48.00807],[26.20892,48.0533],[26.26213,48.0868],[26.32702,48.18646],[26.37543,48.20271],[26.43791,48.20683],[26.45954,48.21735],[26.55052,48.22879],[26.58863,48.25006],[26.624469365880678,48.26279974003164],[26.62871,48.25903],[26.66571,48.24554],[26.70587,48.25097],[26.7239,48.24457],[26.78123,48.23942],[26.81402,48.24571],[26.82466,48.2249],[26.85144,48.22387],[26.89711,48.18074],[26.91582,48.17708],[26.94397,48.19298],[26.94826,48.18543],[26.92354,48.16906],[26.93865,48.15922],[26.97384,48.15853],[26.94757,48.15131],[26.94757,48.13734],[26.96165,48.12829],[26.99976,48.11924],[27.02911,48.11843],[27.03873,48.10376],[27.02053,48.09127],[27.03478,48.06913],[27.06671,48.05754],[27.08113,48.04825],[27.07735,48.03746],[27.08851,48.02771],[27.08628,48.00818],[27.11288,47.99096],[27.14516,47.98797],[27.13503,47.96292],[27.16181,47.94625],[27.13486,47.91841],[27.19648,47.83863],[27.21691,47.83079],[27.21245,47.81661],[27.26841,47.74625],[27.24798,47.719],[27.29193,47.65995],[27.31167,47.65001],[27.31347,47.6418],[27.37029,47.59661],[27.40136,47.58185],[27.42308,47.57936],[27.41458,47.5716],[27.42059,47.55342],[27.45329,47.51372],[27.4526,47.50607],[27.47406,47.48345],[27.56075,47.45491],[27.54942,47.43413],[27.55354,47.42309],[27.5647,47.42089],[27.57259,47.41798],[27.56109,47.39335],[27.5695,47.36371],[27.58787,47.36173],[27.59422,47.34551],[27.60564,47.33481],[27.58478,47.3333],[27.57671,47.33021],[27.59684,47.31503],[27.61156,47.31672],[27.6325,47.30112],[27.68623,47.28226],[27.70838,47.28854],[27.70941,47.29437],[27.72469,47.2918],[27.7434,47.24113],[27.75301,47.22959],[27.77327,47.21922],[27.77361,47.20184],[27.78545,47.20196],[27.77601,47.14011],[27.8191,47.13486],[27.83558,47.12715],[27.82064,47.12329],[27.82665,47.11512],[27.85343,47.10507],[27.87815,47.09128],[27.89652,47.07117],[27.94682,47.04486],[28.04724,46.99758],[28.06458,46.99325],[28.07934,46.90079],[28.0953,46.87029],[28.10491,46.84376],[28.1159,46.81216],[28.14697,46.79301],[28.18577,46.71892],[28.20568,46.68542],[28.24362,46.61325],[28.22096,46.57999],[28.22405,46.56323],[28.20534,46.50324],[28.23538,46.42839],[28.17899,46.35238],[28.18319,46.30603],[28.14079,46.29049],[28.10715,46.2435],[28.1032,46.21393],[28.1262,46.16212],[28.08758,46.0718],[28.08363,46.00769],[28.09599,45.97907],[28.11092,45.93623],[28.11899,45.92584],[28.11144,45.89527],[28.10234,45.85953],[28.10612,45.79266],[28.15384,45.66397],[28.07762,45.60779],[28.18388,45.47012],[28.21478,45.46164],[28.222487301439383,45.47034102085403],[28.2383,45.46808],[28.28156,45.45182],[28.291,45.43339],[28.29597,45.39893],[28.34816,45.32753],[28.69938,45.23549],[28.77731,45.33429],[28.81302,45.34249],[28.84495,45.32198],[28.87138,45.32053],[28.93009,45.28697],[28.95412,45.33115],[29.24355,45.44159],[29.28097,45.4305],[29.32217,45.45242],[29.4334,45.44929],[29.55425,45.41291],[29.61021,45.38736],[29.67304,45.33767],[29.70992,45.22089],[29.96098,45.19214],[30.27896,45.00665],[28.895144171987184,43.742771387902685],[28.44944,43.74034],[28.23478,43.76852],[27.999,43.84517],[27.94922,43.98577],[27.91798,44.01109],[27.84107,43.96885],[27.71627,43.95946],[27.67748,44.0317],[27.64349,44.05145],[27.60847,44.01566],[27.46943,44.02516],[27.40213,44.01529],[27.35922,44.06132],[27.29622,44.07698],[27.28661,44.11027],[27.27293,44.1354],[27.19966,44.12681],[27.14069,44.14465],[27.04302,44.15044],[26.91509,44.14712],[26.76008,44.08684],[26.69935,44.08154],[26.63515,44.06206],[26.54915,44.06181],[26.37792,44.0509],[26.20052,43.996],[26.13841,43.99266],[26.09806,43.97306],[26.04938,43.91466],[25.94799,43.86226],[25.86816,43.7818],[25.80034,43.74809],[25.76929,43.71243],[25.66778,43.69759],[25.55924,43.65418],[25.48442,43.65224],[25.39275,43.62315],[25.36039,43.62756],[25.34589,43.63564],[25.25946,43.68767],[25.17002,43.70511],[25.09913,43.6896],[25.00025,43.73253],[24.95253,43.73327],[24.91922,43.72472],[24.90086,43.71392],[24.8806,43.71169],[24.81073,43.72074],[24.7383,43.69366],[24.6236,43.75097],[24.50449,43.76973],[24.40458,43.73935],[24.34529,43.70699],[24.17463,43.69136],[23.97714,43.75143],[23.85798,43.76595],[23.77467,43.80992],[23.70287,43.8147],[23.618,43.80148],[23.51192,43.84616],[23.42988,43.85908],[23.2659,43.85478],[23.13432,43.81403],[23.0583,43.80569],[22.90263,43.83651],[22.8664,43.84952],[22.85096,43.8752],[22.8919,43.98577],[22.92932,43.99862],[22.97207,44.00356],[23.01258,44.01022],[23.05285,44.05048],[23.05399,44.07579],[23.00256,44.10386],[22.92092,44.11074],[22.75716,44.20259],[22.69552,44.20817],[22.679003371241873,44.21705289277748],[22.67681,44.2329],[22.69106,44.25073],[22.69121,44.27774],[22.65329,44.29658],[22.5745,44.30493],[22.56111,44.31415],[22.5297,44.34104],[22.50807,44.37884],[22.50395,44.42054],[22.49554,44.42716],[22.46344,44.46258],[22.46927,44.47826],[22.52472,44.46907],[22.55922,44.48328],[22.56231,44.49859],[22.56602,44.53142],[22.58017,44.5451],[22.60574,44.55023],[22.63383,44.54405],[22.69356,44.51118],[22.76019,44.5355],[22.7713,44.54147],[22.75953,44.56616],[22.6811,44.62298],[22.62978,44.61626],[22.60094,44.62481],[22.5079,44.69441],[22.47028,44.71969],[22.42853,44.71335],[22.38377,44.68037],[22.3292,44.67952],[22.27238,44.6286],[22.22362,44.56259],[22.17625,44.48328],[22.13476,44.477],[22.08745,44.50402],[22.03377,44.58729],[21.9972,44.63617],[21.78829,44.66621],[21.6263,44.67466],[21.61285,44.73478],[21.59225,44.76307],[21.55689,44.77526],[21.40056,44.78468],[21.37313,44.82587],[21.36772,44.86268],[21.4381,44.86487],[21.48823,44.86609],[21.56926,44.88523],[21.5516,44.93448],[21.42056,44.98553],[21.36662,45.02009],[21.46042,45.03763],[21.48651,45.09219],[21.53458,45.13677],[21.53458,45.16195],[21.48445,45.19583],[21.405,45.23261],[21.23805,45.25196],[21.19434,45.29421],[21.1837,45.33718],[21.09985,45.30133],[21.068,45.33429],[20.99491,45.34824],[20.92192,45.41821],[20.86965,45.4308],[20.88235,45.44598],[20.88201,45.45363],[20.86784,45.46735],[20.83596,45.48251],[20.77636,45.48504],[20.84024,45.53552],[20.80166,45.58765],[20.81909,45.7492],[20.82458,45.77638],[20.78236,45.78812],[20.77164,45.75703],[20.70433,45.75733],[20.68368,45.79973],[20.66391,45.83024],[20.61413,45.86706],[20.58598,45.87639],[20.5719,45.91271],[20.5125,45.90315],[20.48538,45.95592],[20.44933,45.97335],[20.40642,45.96786],[20.34767,46.04836],[20.2849,46.11892],[20.27856789209224,46.12182583034124],[20.30823,46.14464],[20.47199,46.13203],[20.51319,46.17698],[20.58975,46.14702],[20.63885,46.11966],[20.68382,46.13584],[20.71129,46.15653],[20.76656,46.20193],[20.94372,46.25893],[21.06766,46.2283],[21.10199,46.25608],[21.17718,46.2931],[21.21597,46.35522],[21.29768,46.38696],[21.33099,46.45654],[21.27468,46.50028],[21.32584,46.57633],[21.33305,46.62468],[21.41201,46.6136],[21.46145,46.64826],[21.5332,46.7168],[21.60496,46.85784],[21.68598,46.9519],[21.70074,47.00695],[21.6671,47.03199],[21.79172,47.10145],[21.86863,47.18645],[21.85867,47.23705],[21.8858,47.26129],[22.01729,47.37208],[22.04029,47.41043],[22.04029,47.45131],[22.05608,47.52022],[22.18311,47.5888],[22.2583,47.68874],[22.33314,47.74856],[22.43374,47.73309],[22.45983,47.79332],[22.5436,47.7691],[22.61295,47.76679],[22.68436,47.78571],[22.77981,47.83736],[22.85293,47.90576],[22.90649,47.95062],[22.90186,47.96843],[22.881462791104703,47.9765953066115],[22.90126,47.9857]]]}}
