{"type":"Feature","properties":{"sourceId":"solomon-islands"},"geometry":{"type":"Polygon","coordinates":[[[173.4763,-12.8086],[173.3134,-13.265],[173.0864,-13.69038],[172.7916,-14.08778],[172.4507,-14.42873],[172.0596,-14.72056],[171.6267,-14.95522],[171.4126,-14.84639],[170.8892,-14.53441],[170.5564,-14.30458],[170.0583,-13.92723],[169.64309067264838,-13.772164500594943],[168.4491,-13.0418],[167.8201,-12.29626],[166.66937151155793,-12.40047532063493],[166.0908,-12.29162],[165.5863,-12.29294],[165.0048,-12.3832],[164.5746,-12.49247],[164.1541,-12.62827],[163.8051,-13.25193],[163.5578,-13.63409],[163.4496,-14.28242],[163.3086,-14.78754],[163.1667,-14.83417],[160.2483,-16.12694],[158.7608,-15.73528],[157.7167,-14.68333],[157.0298,-14.09231],[157.6008,-12.43639],[157.1611,-11.37389],[154.5856,-8.135],[155.1122,-7.246667],[155.5083,-6.958333],[155.6936,-6.925833],[155.8905,-6.858382],[155.9413,-6.817668],[156.0397,-6.658333],[156.0358,-6.55],[158.2353,-4.871667],[160.4803,-4.751389],[162.8104,-4.139945],[162.9509,-4.573012],[163.0329,-5.029992],[163.4444,-5.07394],[163.8482,-5.16829],[164.2849,-5.331133],[164.6392,-5.509989],[164.98,-5.736934],[165.2968,-6.009314],[165.5719,-6.311745],[165.8084,-6.645142],[166.0999,-6.543867],[166.3977,-6.470075],[166.7082,-6.422843],[167.0162,-6.404742],[167.33,-6.415272],[167.6402,-6.454668],[167.948,-6.523365],[168.2421,-6.618179],[168.5191,-6.735355],[168.7824,-6.87513],[169.0287,-7.034952],[169.2748,-7.22671],[169.5866,-7.506819],[169.7992,-7.729893],[170.0055,-7.99213],[170.1837,-8.271368],[170.6218,-8.343538],[171.0487,-8.472736],[171.4561,-8.657036],[171.8347,-8.892104],[172.0863,-9.09029],[172.6391,-9.589967],[172.9005,-9.893008],[173.1212,-10.2193],[173.3162,-10.60012],[173.4623,-11.00404],[173.5556,-11.42483],[173.5934,-11.84453],[173.5252,-12.60633],[173.4763,-12.8086]]]}}
