{"type":"Feature","properties":{"sourceId":"suriname"},"geometry":{"type":"Polygon","coordinates":[[[-55.99764,1.816773],[-56.25039,1.864542],[-56.34313,1.921879],[-56.41772,1.91488],[-56.56916,2.009776],[-56.70038,2.015629],[-56.83061,2.195734],[-56.94858,2.39309],[-57.07243,2.629155],[-57.07798,2.679121],[-57.22042,2.843768],[-57.29915,3.13559],[-57.29561,3.323305],[-57.60553,3.327583],[-57.67108,3.365505],[-57.67987,3.401309],[-57.71901,3.547759],[-57.84921,3.658481],[-58.06194,4.007471],[-58.08461,4.16518],[-57.93505,4.830635],[-57.84782,4.940708],[-57.69254,5.0243],[-57.33653,5.093172],[-57.35177,5.328944],[-57.27361,5.486435],[-57.15261,5.678027],[-57.13084,5.952517],[-56.5033,7.761698],[-53.32819,6.874677],[-53.63919046334689,6.319219261146324],[-53.75498,6.370288],[-54.01222,5.707548],[-54.03498,5.638536],[-54.01698,5.555199],[-54.20089,5.321311],[-54.30499,5.246102],[-54.41466,5.088314],[-54.44721,5.019614],[-54.45361,4.942628],[-54.48841,4.911386],[-54.47811,4.858707],[-54.47365,4.724937],[-54.44492,4.70928],[-54.44953,4.653595],[-54.43,4.592343],[-54.46213,4.507816],[-54.44416,4.41518],[-54.3964,4.175225],[-54.3422,4.140715],[-54.36933,4.030742],[-54.29457,3.922651],[-54.19384,3.793688],[-54.13166,3.779185],[-54.0881,3.670697],[-54.05651,3.628896],[-53.99417,3.595867],[-54.02296,3.542185],[-54.03088,3.424231],[-54.06434,3.391033],[-54.0812,3.314832],[-54.13513,3.293397],[-54.20105,3.210104],[-54.23126,3.117891],[-54.21345,2.847944],[-54.38095,2.549361],[-54.62299,2.331891],[-54.61325318171229,2.3183083764362973],[-54.64462,2.30362],[-54.70885,2.326179],[-54.72694,2.385158],[-54.75063,2.456178],[-54.80571,2.42059],[-54.87582,2.427069],[-54.94575,2.507575],[-54.95985,2.578709],[-54.99865,2.586305],[-55.1012,2.511065],[-55.38597,2.403657],[-55.72353,2.38574],[-55.75677,2.39941],[-55.91307,2.503403],[-55.98469,2.451561],[-55.97294,2.416407],[-56.01006,2.333877],[-55.99094,2.175963],[-55.89111,2.048904],[-55.89114,1.881292],[-55.99764,1.816773]]]}}
