{"type":"Feature","properties":{"sourceId":"shikoku"},"geometry":{"type":"Polygon","coordinates":[[[132.0682,33.17536],[131.7698,33.46623],[132.0822,33.61695],[132.4146,33.77217],[132.4454,33.88433],[132.4473,33.88687],[132.4855,33.92575],[132.497,33.95622],[132.4716,33.96833],[132.4606,34.00974],[132.7297,34.14771],[132.7907,34.09977],[132.8778,34.14708],[132.8701,34.17956],[132.8595,34.1911],[132.8597,34.20119],[132.8745,34.20305],[132.9268,34.21003],[132.928,34.21382],[132.9232,34.2245],[132.9552,34.30344],[132.9655,34.30728],[132.992,34.29737],[133.0021,34.3036],[133.0142,34.31486],[133.0399,34.31325],[133.0461,34.30212],[133.0625,34.28325],[133.0567,34.2733],[133.0572,34.26929],[133.0639,34.26259],[133.0675,34.25338],[133.1123,34.25437],[133.1233,34.26955],[133.1513,34.28709],[133.1537,34.2953],[133.1672,34.29546],[133.1736,34.2923],[133.18,34.28125],[133.1938,34.27249],[133.2014,34.27669],[133.2048,34.28586],[133.2086,34.29049],[133.2153,34.29361],[133.2233,34.30591],[133.2369,34.31408],[133.2851,34.33007],[133.5198,34.28481],[133.5625,34.31272],[133.6026,34.37674],[133.5774,34.42388],[133.6496,34.4728],[133.7609,34.40998],[133.7712,34.4173],[133.7836,34.42208],[133.7854,34.42841],[133.7925,34.43229],[133.7994,34.43304],[133.8112,34.43002],[133.8149,34.4224],[133.8236,34.42556],[133.8298,34.41687],[133.8367,34.42021],[133.9489,34.44584],[133.9489,34.46363],[133.9416,34.47311],[133.9435,34.47821],[133.9663,34.49345],[133.9641,34.51157],[133.9715,34.52259],[133.9792,34.52447],[133.9835,34.52171],[133.9916,34.50534],[133.9981,34.49803],[134.01,34.49973],[134.0147,34.49817],[134.0223,34.50753],[134.0558,34.53424],[134.3285,34.65151],[134.5965,34.46999],[134.6051,34.33656],[134.6077,34.32977],[134.6579,34.24405],[134.9598,33.99869],[135.1794,32.91651],[132.1901,32.22959],[132.082,33.1727],[132.0682,33.17536]]]}}
