{"type":"Feature","properties":{"sourceId":"sud"},"geometry":{"type":"Polygon","coordinates":[[[17.50777,38.46807],[16.70083,37.80152],[15.47762,37.80338],[15.45472,37.83514],[15.58389,38.22885],[15.67646,38.28534],[15.70054,38.40924],[15.39027,39.4749],[13.445365098409056,40.85275707250487],[13.77575,41.23102],[13.83467,41.24388],[13.84744,41.26197],[13.84254,41.27513],[13.88542,41.28416],[13.89606,41.29404],[13.90187,41.31355],[13.88538,41.33574],[13.88202,41.36879],[13.89577,41.40221],[13.88417,41.41461],[13.9045,41.41567],[13.96343,41.4537],[13.98242,41.45672],[13.99995,41.48114],[13.99112,41.49818],[14.03322,41.51871],[14.02638,41.53685],[14.03107,41.56264],[14.01056,41.57679],[14.01903,41.588],[14.01844,41.61139],[13.99032,41.66546],[13.94044,41.69743],[13.9251,41.72256],[13.89891,41.74059],[13.86412,41.73832],[13.81279,41.76154],[13.78876,41.75283],[13.77235,41.75653],[13.73296,41.80533],[13.70307,41.79731],[13.6623,41.81872],[13.64257,41.81662],[13.62868,41.79152],[13.57398,41.76676],[13.54634,41.77056],[13.53009,41.77854],[13.50884,41.80803],[13.47225,41.81552],[13.45418,41.82995],[13.40688,41.84453],[13.38168,41.82873],[13.37231,41.87186],[13.39138,41.90542],[13.36933,41.93035],[13.34659,41.93133],[13.31131,41.9606],[13.28938,41.96041],[13.14265,42.0239],[13.10241,42.03508],[13.08823,42.01888],[13.05981,42.02611],[13.03599,42.05647],[13.02908,42.08129],[13.04374,42.11104],[13.09242,42.13974],[13.10393,42.1685],[13.12617,42.16781],[13.16835,42.14468],[13.19064,42.15055],[13.24549,42.12121],[13.30844,42.13224],[13.33615,42.15786],[13.38812,42.18066],[13.37714,42.1957],[13.3472,42.20699],[13.34901,42.22011],[13.33865,42.23072],[13.28736,42.24593],[13.24836,42.27797],[13.23185,42.32612],[13.17384,42.35832],[13.19509,42.37683],[13.20098,42.39576],[13.13569,42.44512],[13.18595,42.4773],[13.18566,42.51578],[13.16802,42.53172],[13.20196,42.57731],[13.24529,42.56651],[13.27592,42.57567],[13.29315,42.56319],[13.38644,42.57636],[13.40138,42.58873],[13.39998,42.60912],[13.41774,42.64183],[13.40976,42.65161],[13.37322,42.66023],[13.36168,42.68327],[13.39404,42.68012],[13.4247,42.69499],[13.44033,42.6923],[13.45201,42.72381],[13.48347,42.72476],[13.51071,42.74429],[13.51293,42.77172],[13.54217,42.80247],[13.57285,42.79303],[13.61933,42.80424],[13.6565,42.79742],[13.70371,42.81682],[13.72425,42.84649],[13.92574,42.89018],[13.942222177861975,42.90033011569739],[18.16397,41.24657],[19.12499,40.148],[17.50777,38.46807]]]}}
