{"type":"Feature","properties":{"sourceId":"sichuan"},"geometry":{"type":"Polygon","coordinates":[[[97.48169,33.00867],[97.46796,33.16974],[97.54898,33.22835],[97.31277,33.86357],[97.64374,34.06404],[97.64099,34.12772],[97.8,34.25],[98.43338,34.10498],[98.44711,33.95703],[98.65,33.71],[98.85,33.28],[99.72565,32.76996],[99.75,32.86],[99.73389,32.95337],[99.88,33.08],[100.1335,32.86575],[100.24,32.78],[100.3271,32.74801],[100.4041,32.77689],[100.45,32.74],[100.49,32.73],[100.53,32.69],[100.57,32.61],[100.62,32.59],[100.6694,32.67262],[100.7117,32.69487],[100.9328,32.62897],[101.0605,32.69718],[101.1772,32.73531],[101.08,32.89],[101.0838,33.18699],[101.1182,33.28807],[101.2363,33.2961],[101.41,33.27],[101.51,33.26],[101.6002,33.17779],[101.69,33.25],[101.6222,33.30873],[101.6277,33.40622],[101.68995504871569,33.48413],[101.7349,33.48413],[101.8659,33.57659],[101.8975,33.48787],[101.9195,33.44433],[101.8728,33.38014],[101.8689,33.32922],[101.8065,33.29122],[101.771,33.27934],[101.7547,33.24903],[101.8331,33.19166],[101.8128,33.12061],[101.8686,33.09424],[101.9885,33.1956],[102.0822,33.18756],[102.1258,33.26883],[102.1785,33.20611],[102.223,33.23007],[102.2113,33.3334],[102.27,33.4025],[102.3668,33.37549],[102.4485,33.44835],[102.4796,33.44726],[102.4853,33.46123],[102.4722,33.47928],[102.4805,33.54397],[102.4417,33.58574],[102.345,33.6219],[102.3511,33.74131],[102.1832,33.954],[102.3974,33.96928],[102.4413,34.06397],[102.6048,34.09219],[102.6363,34.08451],[102.6562,34.06518],[102.669,34.11209],[102.6576,34.18227],[102.704,34.1959],[102.7853,34.2365],[102.796,34.26849],[102.8588,34.26828],[102.8764,34.2939],[102.9271,34.2939],[102.9802,34.17853],[103.1145,34.16394],[103.119,34.11692],[103.1496,34.09873],[103.1771,34.0811],[103.1263,34.07314],[103.1125,34.04526],[103.1456,34.022],[103.1089,33.97315],[103.1467,33.79701],[103.3356,33.73406],[103.4994,33.74261],[103.5125,33.6735],[103.553,33.66408],[103.573,33.69407],[103.6368,33.70178],[103.6601,33.67293],[103.7624,33.65235],[104.0584,33.66578],[104.3631,33.12],[104.3241,33.04551],[104.3612,32.96547],[104.2809,32.95798],[104.2601,32.90112],[104.2919,32.82153],[104.3535,32.81273],[104.4541,32.73235],[104.7322,32.62562],[104.8692,32.59438],[105.0662,32.63703],[105.0978,32.58438],[105.293,32.65152],[105.4512,32.73444],[105.4578,32.7548],[105.4554,32.76649],[105.4494,32.7714],[105.4463,32.77042],[105.4415,32.76461],[105.4414,32.77306],[105.437,32.77692],[105.4278,32.77551],[105.4244,32.77829],[105.4242,32.78464],[105.4193,32.79474],[105.4153,32.80712],[105.3973,32.83532],[105.3929,32.88088],[105.4065,32.88694],[105.4262,32.9296],[105.48035313775897,32.91306513187024],[105.4801,32.91519],[105.4835,32.88665],[105.5086,32.85046],[105.5261,32.79261],[105.5403,32.788],[105.5463,32.73473],[105.5584,32.72534],[105.5937,32.70079],[105.6217,32.70223],[105.7347,32.75335],[105.7793,32.74772],[105.8256,32.76635],[105.8315,32.81209],[105.9166,32.83214],[105.9265,32.82551],[106.0033,32.82219],[106.0294,32.84671],[106.0723,32.81469],[106.0479,32.76765],[106.073,32.74693],[106.1057,32.72448],[106.1605,32.69371],[106.2244,32.68909],[106.2776,32.66655],[106.3308,32.67377],[106.3542,32.6599],[106.3878,32.61162],[106.4084,32.61248],[106.4568,32.63273],[106.5097,32.65585],[106.6481,32.681],[106.7243,32.72693],[106.7813,32.69544],[106.8187,32.69776],[106.8554,32.72404],[106.9145,32.70151],[107.036,32.70758],[107.0508,32.6758],[107.0779,32.6625],[107.085,32.605],[107.0669,32.53697],[107.0899,32.51497],[107.1177,32.47704],[107.1727,32.46487],[107.2152,32.41909],[107.2688,32.39881],[107.3776,32.53263],[107.4147,32.53234],[107.4212,32.47559],[107.448,32.41475],[107.4751,32.41794],[107.5132,32.37474],[107.6437,32.40721],[107.6681,32.39649],[107.7117,32.32254],[107.7402,32.32892],[107.7958,32.24533],[107.8596,32.19682],[107.9709,32.14364],[107.9898,32.14015],[108.0217,32.17765],[108.0268,32.21251],[108.0749,32.22878],[108.1209,32.21338],[108.155,32.22],[108.1858,32.21687],[108.235,32.255],[108.3221,32.22587],[108.355,32.245],[108.465,32.255],[108.4945,32.24039],[108.4990403701518,32.20625709968233],[108.3976,32.20234],[108.3588,32.17736],[108.3726,32.1544],[108.4052,32.13361],[108.4436,32.07617],[108.4242,32.06468],[108.4085,32.07458],[108.3733,32.08228],[108.3341,32.07181],[108.3527,32.03777],[108.3317,32.03384],[108.2598,31.98828],[108.2522,31.96658],[108.2788,31.91385],[108.3055,31.90219],[108.3384,31.85904],[108.376,31.84986],[108.3888,31.82452],[108.4195,31.80914],[108.4466,31.80914],[108.4431,31.78626],[108.5207,31.75835],[108.4977,31.73649],[108.5082,31.69779],[108.5219,31.67486],[108.4562,31.63672],[108.4285,31.63526],[108.3824,31.59279],[108.3763,31.57678],[108.3723,31.5721],[108.3446,31.55111],[108.3342,31.54175],[108.3275,31.5138],[108.2219,31.51051],[108.1854,31.49587],[108.1835,31.46681],[108.2116,31.46308],[108.1971,31.40903],[108.1441,31.37782],[108.1537,31.36141],[108.1783,31.33839],[108.0854,31.2765],[108.0892,31.27012],[108.0767,31.26476],[108.0671,31.26601],[108.0141,31.24818],[108.0266,31.2186],[108.0525,31.21831],[108.0793,31.20487],[108.0445,31.15391],[108.0227,31.13731],[108.0073,31.11894],[108.003,31.111],[108.0213,31.0629],[108.0308,31.04393],[107.9982,31.02719],[107.9367,30.9938],[107.9311,30.96981],[107.9314,30.93683],[107.9427,30.92108],[107.9812,30.90708],[107.9498,30.88573],[107.8411,30.79685],[107.8147,30.8172],[107.7826,30.82428],[107.7593,30.82428],[107.7552,30.83286],[107.7538,30.84292],[107.7517,30.84977],[107.7573,30.86462],[107.7385,30.88562],[107.7108,30.89306],[107.6768,30.86971],[107.6323,30.8189],[107.6142,30.84196],[107.573,30.85493],[107.5107,30.86142],[107.4913,30.85051],[107.4712,30.84137],[107.487,30.81543],[107.4798,30.81351],[107.4542,30.78904],[107.4406,30.78056],[107.4387,30.77208],[107.4341,30.76337],[107.4166,30.74772],[107.4496,30.6797],[107.5058,30.64493],[107.4207,30.55177],[107.3357,30.43151],[107.3345,30.40249],[107.3282,30.38428],[107.2945,30.35466],[107.2779,30.33303],[107.252,30.28279],[107.2476,30.26222],[107.2387,30.25054],[107.2251,30.22889],[107.2155,30.22021],[107.1928,30.19625],[107.1394,30.14728],[107.1018,30.119],[107.1007,30.11187],[107.1027,30.10303],[107.0936,30.09865],[107.0817,30.09925],[107.0764,30.10326],[107.0676,30.0861],[107.0687,30.05535],[107.05,30.05112],[107.0484,30.05654],[107.037,30.0604],[107.0266,30.03856],[107.0114,30.05535],[107.0044,30.05632],[106.9829,30.0887],[106.9756,30.08907],[106.9647,30.08566],[106.9442,30.06635],[106.9419,30.04859],[106.9107,30.03782],[106.9079,30.02875],[106.9001,30.03462],[106.8805,30.03908],[106.8329,30.05349],[106.8244,30.03982],[106.8178,30.03388],[106.8102,30.03529],[106.7945,30.03403],[106.7865,30.02447],[106.7669,30.02132],[106.7639,30.02875],[106.7566,30.02838],[106.7525,30.0234],[106.7269,30.03239],[106.725,30.05721],[106.697,30.07957],[106.6995,30.09546],[106.6992,30.12174],[106.6873,30.12152],[106.6865,30.1282],[106.6717,30.13006],[106.6747,30.16279],[106.6518,30.17385],[106.6435,30.19544],[106.6334,30.19562],[106.6291,30.22362],[106.6154,30.23682],[106.6418,30.24973],[106.6257,30.27767],[106.6097,30.29754],[106.5812,30.30739],[106.5668,30.30951],[106.5548,30.32155],[106.5412,30.31577],[106.5391,30.30198],[106.5223,30.30724],[106.5009,30.29457],[106.4898,30.30406],[106.4705,30.31162],[106.4369,30.3131],[106.4029,30.27893],[106.4139,30.25944],[106.3999,30.24735],[106.3853,30.26003],[106.378,30.25736],[106.3747,30.25165],[106.3432,30.2475],[106.3265,30.23951],[106.3286,30.23148],[106.2961,30.24384],[106.2875,30.22221],[106.268,30.22199],[106.2376,30.20938],[106.2279,30.21799],[106.204,30.20968],[106.1985,30.22741],[106.2013,30.23916],[106.1851,30.24458],[106.1743,30.30372],[106.1683,30.30954],[106.1572,30.31554],[106.1529,30.31688],[106.1414,30.31814],[106.1387,30.31599],[106.1357,30.31721],[106.1333,30.31884],[106.1309,30.32003],[106.1294,30.32462],[106.1292,30.32747],[106.1191,30.32814],[106.0884,30.32781],[106.0872,30.3494],[106.053,30.35007],[106.0283,30.37791],[105.9933,30.38087],[105.9653,30.38287],[105.9147,30.39901],[105.9024,30.41019],[105.8587,30.41404],[105.8501,30.40419],[105.8262,30.43941],[105.8168,30.4409],[105.7857,30.43299],[105.7559,30.39464],[105.746,30.35999],[105.7274,30.33718],[105.7034,30.32547],[105.7035,30.30495],[105.7075,30.28405],[105.7267,30.27338],[105.7165,30.26752],[105.7159,30.25566],[105.7124,30.25877],[105.7107,30.25999],[105.7044,30.26196],[105.6893,30.26048],[105.6664,30.26781],[105.6427,30.27686],[105.6232,30.27938],[105.6179,30.27534],[105.6059,30.25747],[105.615,30.23783],[105.6418,30.21205],[105.6281,30.19106],[105.5582,30.18665],[105.5534,30.18479],[105.5433,30.18409],[105.5311,30.16761],[105.532,30.15481],[105.5433,30.14869],[105.5528,30.14602],[105.5693,30.12702],[105.575,30.12646],[105.5776,30.12711],[105.5922,30.11024],[105.6317,30.10199],[105.6362,30.074],[105.6696,30.06419],[105.6818,30.04086],[105.7441,30.02377],[105.7396,30.00876],[105.7273,30.00214],[105.7193,29.9872],[105.7127,29.94363],[105.6983,29.92764],[105.7085,29.91551],[105.7062,29.90335],[105.7126,29.8955],[105.7326,29.89416],[105.7278,29.8904],[105.7295,29.88672],[105.7269,29.87243],[105.7309,29.86573],[105.7157,29.86007],[105.7107,29.84943],[105.6969,29.84898],[105.688,29.85643],[105.6749,29.85814],[105.6673,29.85403],[105.6617,29.84727],[105.6526,29.84729],[105.6475,29.84457],[105.6394,29.84295],[105.6145,29.85047],[105.5789,29.8224],[105.5607,29.74426],[105.5457,29.74107],[105.5387,29.73673],[105.523,29.70468],[105.5034,29.71087],[105.4895,29.72421],[105.4748,29.72048],[105.4672,29.70848],[105.4718,29.68231],[105.4167,29.69178],[105.3845,29.6797],[105.3778,29.67195],[105.3874,29.65427],[105.3709,29.64696],[105.3744,29.62711],[105.3549,29.63562],[105.3062,29.60652],[105.3066,29.58531],[105.283,29.56629],[105.2908,29.53545],[105.3163,29.47831],[105.3206,29.44782],[105.3323,29.44139],[105.3625,29.44752],[105.3668,29.42315],[105.4266,29.40592],[105.4361,29.39369],[105.4291,29.38352],[105.4122,29.35141],[105.4154,29.31245],[105.4578,29.32068],[105.4526,29.29029],[105.4684,29.28282],[105.5166,29.26574],[105.5602,29.27472],[105.5757,29.27143],[105.6372,29.27547],[105.6308,29.25555],[105.6425,29.25256],[105.665,29.25405],[105.6825,29.28251],[105.6931,29.25615],[105.7003,29.20402],[105.7034,29.17645],[105.7225,29.13627],[105.7225,29.09968],[105.7465,29.06982],[105.7361,29.04184],[105.7544,29.02082],[105.7549,28.9905],[105.7944,28.95941],[105.7868,28.95145],[105.79,28.93605],[105.8289,28.94184],[105.8442,28.93117],[105.9077,28.89984],[105.9147,28.90871],[105.91,28.91833],[105.9493,28.94747],[105.966,28.96827],[105.9711,28.95971],[105.9984,28.97165],[106.0119,28.95393],[106.0218,28.94973],[106.0363,28.95641],[106.0321,28.93973],[106.0309,28.91382],[106.0436,28.90833],[106.0682,28.91712],[106.0879,28.90131],[106.1143,28.89826],[106.1769,28.91464],[106.1954,28.90736],[106.2521,28.85002],[106.2329,28.82129],[106.2465,28.78737],[106.2674,28.77165],[106.2653,28.73922],[106.3006,28.67402],[106.2965,28.65248],[106.2989,28.64269],[106.3212,28.63772],[106.3144,28.6231],[106.326,28.55301],[106.3334,28.53477],[106.36704655604085,28.524239694564738],[106.3664,28.51923],[106.3656,28.48589],[106.3316,28.49366],[106.2887,28.54216],[106.2277,28.57955],[106.1983,28.57894],[106.172,28.61806],[106.165,28.63809],[106.1407,28.64977],[106.1321,28.6445],[106.1143,28.65143],[106.1034,28.63922],[106.0818,28.69608],[106.0444,28.69684],[106.0085,28.74817],[105.9748,28.7499],[105.9677,28.76841],[105.9606,28.76638],[105.96,28.75216],[105.9486,28.72883],[105.9506,28.71852],[105.9278,28.70685],[105.9265,28.69435],[105.9137,28.68005],[105.8837,28.67621],[105.8849,28.65941],[105.8931,28.65346],[105.8888,28.63809],[105.8887,28.62755],[105.8863,28.62469],[105.8932,28.61331],[105.8762,28.60351],[105.8684,28.60992],[105.7816,28.61549],[105.765,28.62],[105.7403,28.6222],[105.7329,28.62122],[105.7314,28.6124],[105.722,28.60736],[105.7104,28.59123],[105.6958,28.59666],[105.6939,28.59666],[105.6881,28.59447],[105.6868,28.5861],[105.687,28.57193],[105.6833,28.56862],[105.6771,28.55859],[105.6747,28.54638],[105.6193,28.52285],[105.6195,28.50234],[105.6049,28.48122],[105.6047,28.45496],[105.6057,28.44107],[105.6339,28.41088],[105.6452,28.35107],[105.6315,28.32524],[105.6349,28.30997],[105.718,28.27037],[105.7407,28.27611],[105.7439,28.30604],[105.815,28.3065],[105.8407,28.25586],[105.8713,28.24255],[105.8486,28.16449],[105.8732,28.12279],[105.8903,28.12044],[105.9371,28.13376],[105.9559,28.1355],[105.9756,28.10742],[106.0016,28.11711],[106.021,28.10893],[106.0333,28.10681],[106.0397,28.10863],[106.0269,28.13183],[106.0321,28.13739],[106.0343,28.14122],[106.0423,28.14171],[106.0485,28.14417],[106.0587,28.14625],[106.0639,28.15003],[106.0675,28.15355],[106.087,28.16373],[106.1074,28.16505],[106.1208,28.1691],[106.1339,28.16475],[106.1408,28.16547],[106.1681,28.15264],[106.1776,28.1461],[106.1864,28.14027],[106.2032,28.13649],[106.2036,28.12555],[106.2084,28.12082],[106.2216,28.11775],[106.2251,28.10246],[106.2482,28.09197],[106.2515,28.07948],[106.235,28.04168],[106.235,28.01],[106.2903,27.98985],[106.3106,27.95802],[106.2872,27.92162],[106.2934,27.90099],[106.3174,27.87307],[106.3085,27.83968],[106.267,27.79231],[106.2028,27.76984],[106.1266,27.78897],[106.0586,27.7832],[105.9844,27.75525],[105.9319,27.73763],[105.9199,27.75708],[105.8649,27.7434],[105.8406,27.71484],[105.8035,27.72152],[105.7736,27.72791],[105.7149,27.71058],[105.696,27.69356],[105.6583,27.68968],[105.6347,27.67387],[105.6048,27.72441],[105.5832,27.72585],[105.5735,27.72684],[105.5573,27.73763],[105.5483,27.76034],[105.5072,27.77318],[105.4985,27.7731],[105.4933,27.7753],[105.4882,27.78252],[105.4416,27.78199],[105.4174,27.77379],[105.3915,27.76649],[105.3664,27.76072],[105.3465,27.75282],[105.3201,27.73307],[105.2961,27.70177],[105.30449272139101,27.712715507480794],[105.2919,27.7194],[105.2974,27.76376],[105.2854,27.79079],[105.3156,27.81145],[105.3132,27.82602],[105.2573,27.83756],[105.249,27.90372],[105.2813,27.92344],[105.295,27.98],[105.2411,28.01895],[105.2,28.015],[105.1838,28.07531],[105.1114,28.08591],[105.0468,28.10924],[105.0,28.09],[104.97,28.085],[104.95,28.065],[104.9627,28.04744],[104.9603,28.02047],[104.9273,27.99137],[104.88,27.965],[104.885,27.95],[104.87,27.935],[104.85,27.925],[104.8034,27.91677],[104.7697,27.8928],[104.7533,27.89219],[104.7557,27.90797],[104.7234,27.90979],[104.675,27.905],[104.625,27.875],[104.5926,27.8582],[104.5747,27.84818],[104.562,27.87034],[104.551,27.89158],[104.51,27.905],[104.4189,27.95347],[104.3612,28.01986],[104.3584,28.04259],[104.3832,28.05108],[104.3986,28.06713],[104.41,28.085],[104.436,28.10439],[104.455,28.11],[104.4494,28.14557],[104.4611,28.15949],[104.4707,28.17977],[104.4522,28.1831],[104.4099,28.18582],[104.4573,28.22062],[104.4621,28.25177],[104.4539,28.27868],[104.4127,28.2805],[104.3938,28.32735],[104.3715,28.34246],[104.3464,28.34729],[104.3114,28.32131],[104.295,28.355],[104.2709,28.40197],[104.2664,28.45088],[104.28,28.49],[104.2498,28.52904],[104.3253,28.54125],[104.3263,28.55569],[104.3547,28.55855],[104.3567,28.56063],[104.3586,28.56862],[104.3748,28.59658],[104.4147,28.59914],[104.4266,28.62815],[104.4184,28.6335],[104.4097,28.64126],[104.4,28.64616],[104.388,28.64796],[104.3722,28.65542],[104.365,28.65685],[104.3327,28.64872],[104.3008,28.64269],[104.2778,28.64299],[104.2465,28.67252],[104.1535,28.65535],[104.0972,28.62853],[104.0628,28.63576],[103.955,28.61919],[103.9392,28.63636],[103.9145,28.6451],[103.8874,28.6439],[103.8785,28.66589],[103.8671,28.67703],[103.8421,28.68276],[103.828,28.66288],[103.8225,28.64028],[103.81,28.62],[103.815,28.595],[103.7906,28.57005],[103.7823,28.53627],[103.7762,28.52451],[103.8129,28.48107],[103.816,28.44937],[103.8534,28.38687],[103.8462,28.35394],[103.8586,28.334],[103.8634,28.30982],[103.829,28.29864],[103.8102,28.27687],[103.7848,28.26659],[103.7652,28.24482],[103.7309,28.24421],[103.7082,28.20942],[103.698,28.23819],[103.677,28.2424],[103.6363,28.26772],[103.6303,28.2672],[103.611,28.24814],[103.5843,28.24088],[103.5688,28.23665],[103.5341,28.18794],[103.5046,28.15798],[103.4425,28.12377],[103.45,28.09864],[103.4229,28.07834],[103.4181,28.04805],[103.4428,28.01956],[103.4833,28.02865],[103.4926,27.9753],[103.531,27.96014],[103.497,27.91798],[103.5001,27.83604],[103.4744,27.80051],[103.4552,27.78715],[103.4068,27.73672],[103.3958,27.72639],[103.3638,27.71666],[103.32,27.685],[103.26,27.645],[103.2856,27.6008],[103.2756,27.57707],[103.233,27.58559],[103.2107,27.57372],[103.2028,27.55181],[103.1853,27.54024],[103.1372,27.46411],[103.1335,27.43273],[103.1084,27.41292],[103.0861,27.41018],[103.0524,27.41871],[103.0174,27.38823],[102.9848,27.37726],[102.9591,27.4178],[102.9385,27.42816],[102.8768,27.2959],[102.8822,27.24822],[102.8983,27.23754],[102.8973,27.19998],[102.9,27.17311],[102.9052,27.13034],[102.8935,27.09245],[102.8808,27.06249],[102.8729,27.04231],[102.8643,27.02732],[102.8873,27.0102],[102.8914,26.98542],[102.8811,26.96094],[102.8846,26.90584],[102.9476,26.83908],[102.9697,26.80599],[102.9778,26.77351],[102.9888,26.74132],[102.9948,26.72093],[103.0018,26.70866],[102.9989,26.67952],[103.0203,26.66618],[103.0219,26.60925],[103.0154,26.5962],[103.0152,26.58761],[103.0382,26.54846],[103.0463,26.52803],[103.036,26.5076],[103.026,26.49408],[102.995,26.51],[102.97,26.495],[102.975,26.45],[102.9771,26.40901],[102.965,26.405],[102.98,26.35673],[102.9277,26.34658],[102.875,26.39],[102.86,26.38],[102.85,26.355],[102.83,26.335],[102.775,26.32],[102.75,26.295],[102.725,26.29],[102.645,26.35],[102.5629,26.37711],[102.5313,26.35496],[102.49,26.35],[102.43,26.325],[102.3885,26.30388],[102.345,26.27],[102.305,26.25],[102.24,26.24],[102.225,26.225],[102.225,26.205],[102.195,26.18],[102.175,26.18],[102.14,26.135],[102.12,26.125],[102.09,26.09],[102.0238,26.11352],[101.96,26.11],[101.94,26.135],[101.92,26.135],[101.895,26.125],[101.8591,26.06789],[101.84,26.1],[101.815,26.13],[101.815,26.145],[101.8227,26.16838],[101.7924,26.17639],[101.7615,26.22075],[101.7039,26.25771],[101.6338,26.24169],[101.61,26.285],[101.615,26.3],[101.6647,26.3045],[101.67,26.33],[101.6675,26.35742],[101.6414,26.36542],[101.655,26.41],[101.5178,26.5056],[101.469,26.5099],[101.4385,26.54892],[101.4096,26.5549],[101.4048,26.5764],[101.4007,26.60388],[101.4393,26.59758],[101.4623,26.60771],[101.4721,26.63442],[101.4829,26.67599],[101.4696,26.69946],[101.515,26.725],[101.515,26.74],[101.525,26.74],[101.535,26.77],[101.53,26.78],[101.485,26.805],[101.445,26.805],[101.435,26.795],[101.43,26.76],[101.41,26.75],[101.3887,26.76768],[101.3935,26.80385],[101.42,26.83],[101.385,26.885],[101.335,26.905],[101.28,26.925],[101.275,26.93],[101.285,26.965],[101.25,26.98],[101.235,27.005],[101.165,27.045],[101.1597,27.11781],[101.175,27.135],[101.1755,27.1612],[101.1714,27.2067],[101.1134,27.21953],[101.075,27.22],[101.044,27.26134],[101.0316,27.3065],[101.0265,27.34493],[100.955,27.48],[100.9197,27.48056],[100.925,27.55],[100.9,27.59],[100.88,27.6],[100.87,27.615],[100.8435,27.68748],[100.7937,27.69447],[100.7793,27.75009],[100.7573,27.7753],[100.7388,27.78168],[100.734,27.7914],[100.7117,27.81236],[100.7223,27.84545],[100.7244,27.86275],[100.72,27.88],[100.72,27.895],[100.6894,27.92556],[100.675,27.94],[100.63,27.93],[100.5527,27.84211],[100.4816,27.87004],[100.4353,27.87732],[100.4,27.86],[100.39,27.845],[100.36,27.795],[100.355,27.78],[100.335,27.775],[100.325,27.76],[100.31,27.81],[100.325,27.825],[100.3217,27.87672],[100.24,27.895],[100.2,27.915],[100.1953,27.9653],[100.106,28.04896],[100.045,28.155],[100.05,28.17],[100.135,28.19],[100.1842,28.23816],[100.191,28.25933],[100.1625,28.28851],[100.2,28.31],[100.195,28.34],[100.0786,28.38657],[100.0834,28.42945],[100.0765,28.44515],[100.01,28.495],[100.0,28.54],[99.985,28.55],[99.98,28.575],[99.955,28.605],[99.89,28.63],[99.85405,28.6677],[99.79843,28.70685],[99.75,28.725],[99.73732,28.74358],[99.73251,28.86211],[99.68,28.84],[99.62,28.835],[99.52,28.7],[99.38644,28.5604],[99.38,28.46],[99.40842,28.40469],[99.39,28.355],[99.375,28.305],[99.40962,28.28655],[99.38541,28.24255],[99.38138,28.18613],[99.34224,28.22152],[99.30885,28.2323],[99.30791,28.24504],[99.2934,28.29985],[99.2292,28.35908],[99.18766,28.40378],[99.19556,28.49525],[99.18663,28.53024],[99.18423,28.57156],[99.18972,28.58452],[99.16775,28.64088],[99.165,28.66],[99.14577,28.68938],[99.15,28.705],[99.14097,28.73726],[99.135,28.765],[99.1238,28.78571],[99.125,28.805],[99.125,28.855],[99.13307,28.90871],[99.13616,28.95588],[99.13582,28.99373],[99.12826,29.06817],[99.12449,29.16685],[99.12414,29.19053],[99.12586,29.2181],[99.10973,29.23518],[99.10073235588193,29.23389154597591],[99.06097,29.29239],[99.03763,29.44139],[99.04175,29.55494],[98.98064,29.64808],[98.98544,29.76617],[99.04175,29.91269],[98.96965,30.16472],[98.95454,30.37584],[98.92914,30.52427],[98.92021,30.58354],[98.89635,30.70022],[98.95454,30.73416],[98.95351,30.75172],[98.94819,30.76868],[98.9094,30.78019],[98.88554,30.79553],[98.87249,30.80865],[98.87524,30.82265],[98.8706,30.82752],[98.85876,30.82855],[98.85378,30.83533],[98.85138,30.84683],[98.83781,30.85744],[98.8308,30.86083],[98.82337,30.86643],[98.82028,30.87298],[98.81344,30.87521],[98.80992,30.87584],[98.80692,30.87733],[98.80146,30.879],[98.79614,30.88177],[98.79404,30.88342],[98.79104,30.88587],[98.75868,30.9009],[98.78975,30.98938],[98.71216,31.05882],[98.70306,31.11439],[98.6701,31.157],[98.60058,31.1852],[98.59852,31.19401],[98.60264,31.29469],[98.6356,31.34572],[98.7022,31.3378],[98.7719,31.28207],[98.85773,31.38237],[98.70873,31.50334],[98.5556,31.64958],[98.40935,31.83002],[98.39458,31.91195],[98.30257,32.1134],[98.21262,32.23139],[98.0801,32.39388],[97.99187,32.45705],[97.80888,32.49789],[97.61215,32.5607],[97.41302,32.68215],[97.37045,32.76649],[97.34161,32.90294],[97.35122,32.97181],[97.48169,33.00867]]]}}
