{"type":"Feature","properties":{"sourceId":"siberian-fed-district"},"geometry":{"type":"Polygon","coordinates":[[[70.42053,81.87793],[147.7133,81.88747],[147.6959,81.83451],[113.5924,74.80546],[112.9444,74.78005],[112.3812,74.56058],[110.9636,74.33059],[111.8575,74.20645],[111.9467,74.15644],[111.9877,73.99607],[111.9011,73.90004],[111.2383,73.73032],[111.3472,73.68709],[111.38,73.59686],[111.3311,73.53369],[110.9181,73.46834],[110.6807,73.34994],[110.7191,73.25493],[110.9261,73.20556],[110.9948,72.92978],[110.8366,72.82345],[110.813,72.74393],[111.3338,72.59431],[111.3926,72.53363],[111.345,72.41709],[111.601,72.40956],[111.7991,72.24778],[112.0622,72.19016],[112.0984,71.49683],[112.7668,71.33055],[112.8128,71.24257],[112.7885,71.18474],[112.6323,71.02178],[112.2489,70.91178],[112.0755,70.96194],[111.9454,70.88413],[111.5497,70.84563],[111.3892,70.77231],[110.8632,70.6927],[110.6292,70.69147],[110.5176,70.62176],[110.2392,70.56515],[110.3835,70.48504],[110.4087,70.43027],[110.3699,70.33887],[109.7168,70.2818],[109.6341,70.18472],[109.4847,70.13703],[109.5875,70.10813],[109.6337,70.00489],[109.5026,69.89109],[109.4617,69.77653],[109.321,69.68672],[108.9407,69.6809],[108.8416,69.74397],[108.2911,69.76122],[108.1233,69.70015],[107.9799,69.58445],[107.6244,69.56986],[106.8557,69.43234],[106.5002,69.48456],[106.3714,69.39233],[106.99,68.89247],[107.0118,68.24696],[106.9641,67.64609],[106.9028,67.30436],[106.7588,67.17972],[106.4746,67.17613],[106.1415,67.07361],[106.062,66.99661],[106.2838,66.85109],[106.3327,66.73222],[106.4205,66.46039],[106.2249,66.32576],[106.2226,66.25129],[106.3861,66.22834],[106.5915,66.0512],[106.5572,65.74444],[106.8001,65.62298],[106.9874,65.5967],[107.058,65.50999],[106.8754,65.30948],[106.5959,65.29066],[106.5647,65.14059],[106.4306,65.12479],[106.1824,65.0034],[106.266,64.93793],[106.2813,64.82282],[105.9482,64.73651],[105.9105,64.60072],[106.0477,64.62555],[106.2125,64.5264],[106.4544,64.54909],[106.5256,64.61838],[106.6485,64.62432],[106.7823,64.52262],[106.9497,64.52156],[107.2971,64.42623],[107.3595,64.36433],[107.6405,64.40263],[107.9807,64.28591],[108.1641,64.37025],[108.5145,64.39596],[108.6613,64.29773],[108.6863,64.14999],[108.8348,64.07052],[108.8893,63.85198],[108.7025,63.73546],[108.402,63.71843],[109.1068,63.66414],[109.4869,63.41917],[109.6215,63.00925],[109.7721,62.84309],[109.7245,62.755],[109.5787,62.70752],[109.4641,62.55784],[109.931,62.52251],[110.0855,62.32361],[110.0645,62.11505],[109.7077,61.8617],[109.7047,61.8097],[109.9494,61.5948],[109.9468,61.41171],[110.1305,61.36827],[110.2462,61.26706],[110.4095,61.29732],[110.5423,61.26818],[110.6263,61.1902],[110.6349,61.08266],[110.5462,60.94059],[110.3882,60.82821],[110.3517,60.63993],[110.0472,60.44944],[110.0173,60.35867],[109.8124,60.16313],[109.8393,59.99318],[109.733,59.81989],[109.6111,59.74605],[109.6201,59.62066],[109.4318,59.47874],[109.4387,59.41048],[109.5635,59.37759],[109.6193,59.27023],[109.8456,59.09995],[110.1841,59.08068],[110.4372,59.14659],[110.4919,59.25282],[110.6819,59.364],[111.1821,59.30868],[111.2819,59.36577],[111.4577,59.38287],[111.6327,59.32158],[111.8909,59.39586],[112.1569,59.5838],[112.279,59.62038],[112.3757,59.57438],[112.4293,59.43171],[112.665,59.4083],[112.7307,59.35224],[112.713,59.22687],[112.6569,59.1854],[112.6879,59.1629],[112.9042,59.24385],[113.2483,59.26418],[113.3494,59.33066],[113.3461,59.43155],[113.5031,59.56695],[113.5621,59.68073],[114.1325,59.85553],[114.3961,60.03175],[114.4265,60.1226],[114.5404,60.21953],[114.6947,60.28395],[114.9579,60.31088],[115.0244,60.46712],[115.1768,60.5713],[115.6972,60.64027],[116.228,60.49502],[116.61,60.47013],[116.7091,60.38039],[116.9876,60.27147],[117.0995,60.12973],[117.2671,60.14685],[117.3885,60.10469],[117.4421,59.99783],[117.3105,59.90084],[117.2924,59.61485],[117.5371,59.58693],[117.7792,59.65447],[117.8672,59.59486],[117.9996,59.71594],[118.2531,59.74105],[118.3872,59.70063],[118.4583,59.59554],[118.807,59.50501],[118.9234,59.31781],[118.792,59.16128],[118.9051,59.09731],[118.9557,59.00213],[118.9386,58.66958],[119.1589,58.59453],[119.2185,58.50738],[119.1885,58.38183],[119.2802,58.13934],[119.1908,57.79745],[119.2677,57.69428],[119.4266,57.71086],[119.5851,57.63155],[119.5234,57.46553],[119.7738,57.21349],[119.7559,57.11452],[119.7026,57.08116],[119.8429,57.05452],[119.9373,56.93085],[119.8811,56.7873],[119.9649,56.71735],[119.9654,56.62756],[120.0083,56.58678],[120.2926,56.55672],[120.3739,56.45841],[120.6189,56.31907],[120.6109,56.21329],[120.5314,56.15956],[120.2175,56.1128],[120.1853,56.09558],[120.2183,56.03074],[120.4117,55.98664],[120.8676,56.11818],[121.2142,56.12808],[121.2877,56.09028],[121.4191,55.85962],[121.4513,55.60962],[121.5681,55.62047],[121.7484,55.72003],[121.887,55.7125],[122.0606,55.56115],[122.0695,55.29025],[122.1215,55.17276],[122.0443,55.08861],[122.032,54.94706],[121.9515,54.88733],[122.0201,54.77923],[122.0278,54.65228],[122.1876,54.55363],[122.2335,54.45402],[122.2022,54.36174],[122.1245,54.31855],[121.9127,54.28796],[121.8281,54.3176],[121.8682,54.16728],[121.7846,54.06357],[121.902,54.0259],[122.0181,53.88055],[122.0605,53.63235],[122.14973373317639,53.51908148594929],[121.458,53.45024],[121.46866203526113,53.38209096199838],[121.4069,53.44515],[120.8545,53.39018],[119.9398,52.8255],[119.9657,52.53243],[120.5543,52.49332],[120.6539,52.15337],[120.0155,51.75303],[119.1883,50.65497],[119.0179,50.39327],[119.1997,50.16015],[117.7768,49.62775],[116.6631,49.92947],[116.65657506571759,49.92025760968217],[116.6337,49.93965],[116.1677,50.06098],[115.7396,49.89021],[115.3029,49.97684],[115.0165,50.20289],[114.3169,50.31741],[113.4544,49.97861],[113.1976,49.86189],[112.8007,49.5564],[112.4808,49.54214],[109.9127,49.27856],[107.9709,49.96447],[106.8228,50.30864],[106.5121,50.35598],[106.4853,50.32756],[106.2964,50.32028],[106.0968,50.36059],[106.0763,50.40306],[105.8484,50.44976],[105.3507,50.49782],[103.3993,50.23852],[103.2954,50.33098],[102.6354,50.49961],[102.1652,51.1465],[102.2388,51.39064],[100.6365,51.74776],[98.87695,52.19582],[98.03207,51.48867],[97.76458,51.01894],[97.96126,50.6586],[98.24323,50.38599],[98.06502,50.09985],[97.26773,49.93358],[95.52203,50.10405],[94.68421,50.12987],[94.3045,50.64701],[93.51746,50.67875],[92.46502,50.96754],[90.36682,50.26182],[88.13507,49.49846],[87.85297173848093,49.256858524177],[87.85186,49.26201],[86.97544260101131,49.23692797420463],[87.35264094387466,49.247722943104826],[87.0633,49.27301],[86.82844,49.63133],[86.81562,49.82832],[86.56874,49.84005],[86.53848,49.73819],[86.3743,49.63073],[86.12941,49.55538],[85.60608,49.64742],[85.38264,49.66397],[85.2886,49.64444],[85.24649,49.7497],[85.11319,49.88938],[85.02996,49.92122],[85.07166,50.06604],[84.677,50.22706],[84.32061,50.29085],[84.28774,50.5248],[84.01422,50.79933],[83.8466,50.9002],[83.45785,51.03545],[83.09279,51.03182],[82.69884,50.94705],[82.6879,50.85316],[82.55066,50.7679],[82.35801,50.80627],[82.16879,50.75992],[81.7614,50.856],[81.67055,50.77903],[81.54258,50.77413],[81.44616,50.99356],[81.13301,50.994],[81.22087,51.14714],[81.17196,51.23352],[80.65711,51.34231],[80.56385,51.22839],[80.42507,51.22675],[80.38823,51.11772],[80.44591,50.98836],[80.02815,50.87736],[79.21974,51.94381],[77.94492,53.30733],[76.59825,54.04828],[76.86109,54.14803],[77.0283,54.41545],[76.96341,54.49444],[76.24551,54.38342],[75.3147,54.08076],[75.37153,54.01375],[75.01417,53.84809],[74.76683,53.84533],[74.44044,53.71094],[74.38092,53.60443],[73.8925,53.67522],[73.80133,53.6063],[73.64645,53.63137],[73.50096,53.5187],[73.28805,53.57786],[73.41393,53.76064],[73.4838,53.79152],[73.4828,53.85422],[73.72341,53.83947],[73.81749,54.07372],[73.60252,54.09431],[73.33432,53.96912],[73.14441,53.99819],[73.03226,54.11368],[72.34961,54.20066],[72.3758,54.25993],[72.22049,54.37691],[71.97748,54.38561],[71.96939,54.26529],[71.70521,54.29203],[71.63417,54.16139],[71.25765,54.21843],[71.34585,54.67851],[71.02939,54.88182],[71.06639,55.09177],[70.84129,55.30917],[70.44258,55.30312],[70.54671545444042,55.30470014471512],[70.58413,55.39489],[70.84458,55.56377],[70.72892,55.71558],[70.89469,55.78217],[71.01761,56.37673],[71.18927,56.54614],[71.58817,56.58632],[71.76791,56.7556],[71.68333,56.97805],[71.03601,57.46357],[70.6041,57.36976],[70.77788,57.55839],[70.51712,57.88933],[70.90297,58.43011],[71.13846,58.33811],[71.11854,58.06139],[71.22966,57.96081],[71.97228,58.02081],[72.17491,57.92142],[72.81374,57.9047],[73.16761,58.06094],[74.20922,58.04339],[74.6383,58.19504],[75.75581,58.89317],[75.78831,59.15079],[75.95055,59.28661],[76.22638,59.43819],[76.71823,59.4977],[76.95307,60.24189],[76.89891,60.38482],[77.14693,60.47198],[77.19985,60.75688],[77.97075,60.65165],[79.1844,60.72568],[79.41251,60.5443],[80.73826,60.70583],[81.10527,60.5485],[81.84391,60.54657],[82.16639,60.42499],[83.16024,60.92782],[83.47777,60.93495],[83.9681,60.74441],[84.26502,60.76935],[85.71185,61.1916],[85.79921,61.344],[86.0353,61.40525],[86.03032,61.60373],[84.72775,61.89125],[84.57007,62.14652],[85.70208,63.00179],[85.64725,63.16632],[85.78263,63.40361],[85.37011,63.58698],[85.57723,63.84148],[86.04864,64.01091],[86.0952,64.29698],[85.92048,64.81187],[85.57529,64.94514],[85.20624,64.88117],[84.92911,65.04453],[84.47061,65.01438],[84.45363,65.12918],[84.64508,65.25307],[84.56357,65.55135],[84.35709,65.7552],[84.02754,65.87344],[83.63465,65.87515],[83.45073,66.03964],[83.61089,66.11199],[83.60482,66.24964],[83.17878,66.48977],[83.37462,66.57206],[83.39959,66.71367],[83.17888,66.91568],[82.39192,67.23146],[82.47075,67.57831],[81.97481,67.86166],[82.41942,67.86932],[82.47775,68.05806],[82.76508,68.28601],[82.76924,68.52969],[82.96234,68.66911],[82.89091,68.80909],[82.63871,68.89873],[82.5184,69.22514],[82.04108,69.28265],[82.02901,69.40952],[81.72801,69.54497],[81.52011,69.35681],[80.99839,69.30523],[80.77951,69.40629],[79.93574,69.44896],[79.17665,69.85788],[80.28764,70.33453],[80.81903,70.28864],[80.95712,70.37284],[80.9076,70.65905],[80.63415,71.11875],[79.39771,71.40231],[79.46224,71.50574],[80.1924,71.58847],[80.24281,71.75289],[80.45135,71.82049],[80.4507,71.93242],[79.83416,72.12584],[78.75716,72.25914],[78.66843,72.36035],[78.70631,72.55708],[77.86196,73.08611],[77.77675,73.71675],[77.58325959119884,73.74878323777075],[70.42053,81.87793]]]}}
