{"type":"Feature","properties":{"sourceId":"staffordshire"},"geometry":{"type":"Polygon","coordinates":[[[-2.291177,52.46041],[-2.297026,52.47332],[-2.303949,52.48008],[-2.30964,52.4826],[-2.314073,52.48916],[-2.307992,52.49994],[-2.298845,52.50512],[-2.291375,52.5135],[-2.267717,52.52321],[-2.266715,52.52589],[-2.269548,52.5319],[-2.261549,52.54278],[-2.266687,52.548],[-2.283758,52.55205],[-2.282408,52.55434],[-2.265417,52.56385],[-2.264433,52.56775],[-2.26604,52.57072],[-2.281117,52.58317],[-2.295147,52.58385],[-2.302772,52.59043],[-2.308448,52.58978],[-2.321687,52.59231],[-2.325996,52.59974],[-2.324351,52.61222],[-2.322389,52.61514],[-2.315791,52.61606],[-2.31212,52.61457],[-2.307472,52.60909],[-2.300298,52.60866],[-2.296562,52.61018],[-2.28117,52.60789],[-2.268163,52.61199],[-2.255755,52.61267],[-2.247318,52.62896],[-2.2389,52.63671],[-2.235828,52.64451],[-2.239016,52.65387],[-2.249026,52.65682],[-2.241839,52.662],[-2.240898,52.66464],[-2.245928,52.67869],[-2.249271,52.68086],[-2.262094,52.68158],[-2.273559,52.6785],[-2.303386,52.68177],[-2.310661,52.69197],[-2.320861,52.69465],[-2.325831,52.70502],[-2.312979,52.72041],[-2.317006,52.72645],[-2.317524,52.74415],[-2.325156,52.74927],[-2.331349,52.75036],[-2.334153,52.75692],[-2.34234,52.76042],[-2.347,52.76473],[-2.350414,52.76502],[-2.355469,52.7704],[-2.369971,52.77632],[-2.371935,52.78224],[-2.379306,52.78294],[-2.385804,52.78857],[-2.386235,52.79185],[-2.375849,52.79814],[-2.380402,52.81103],[-2.41736,52.8263],[-2.416218,52.83002],[-2.408624,52.83553],[-2.398752,52.83513],[-2.395644,52.83712],[-2.389999,52.86236],[-2.382192,52.86907],[-2.383996,52.87622],[-2.381597,52.88237],[-2.38228,52.8852],[-2.388319,52.88754],[-2.396128,52.88793],[-2.411338,52.88605],[-2.425899,52.88073],[-2.440563,52.87937],[-2.444683,52.87305],[-2.446509,52.87274],[-2.458609,52.87841],[-2.458518,52.88447],[-2.466672,52.89203],[-2.47182,52.90617],[-2.461736,52.91096],[-2.457671,52.91679],[-2.458207,52.92096],[-2.456403,52.92549],[-2.446637,52.93042],[-2.437851,52.94479],[-2.425147,52.95072],[-2.412348,52.94809],[-2.40855,52.94897],[-2.407456,52.95391],[-2.409431,52.95728],[-2.41506,52.95978],[-2.414073,52.96269],[-2.401598,52.96273],[-2.393975,52.95414],[-2.391328,52.95367],[-2.388346,52.955],[-2.381032,52.96405],[-2.380729,52.96671],[-2.38361,52.9711],[-2.38125,52.97619],[-2.375073,52.97638],[-2.372128,52.97993],[-2.380232,52.99109],[-2.379755,52.99546],[-2.380754861463572,52.99661958662517],[-2.380051,52.99672],[-2.378294,53.00089],[-2.380063,53.00714],[-2.373855,53.00913],[-2.368768,53.01454],[-2.380511,53.02568],[-2.378099,53.02781],[-2.382697,53.0333],[-2.382763,53.03883],[-2.379344,53.05095],[-2.357066,53.0531],[-2.354058,53.05683],[-2.346712,53.05471],[-2.329568,53.0694],[-2.327525,53.07514],[-2.317837,53.0796],[-2.303786,53.0812],[-2.293111,53.07665],[-2.277066,53.07963],[-2.27303,53.0847],[-2.256638,53.08839],[-2.252279,53.09181],[-2.245708,53.08872],[-2.236329,53.09989],[-2.221955,53.10251],[-2.220245,53.10659],[-2.175775,53.14399],[-2.158862,53.15131],[-2.153381,53.1577],[-2.140328,53.15534],[-2.142819,53.17292],[-2.139614,53.18223],[-2.134532,53.18149],[-2.129965,53.17387],[-2.121,53.1728],[-2.114129,53.16736],[-2.101319,53.16726],[-2.09247,53.1711],[-2.087649,53.16821],[-2.078079,53.16873],[-2.056763,53.17523],[-2.056578,53.17993],[-2.051158,53.18269],[-2.051799,53.18604],[-2.045979,53.19104],[-2.028825,53.19167],[-2.018071,53.18736],[-1.999186,53.19237],[-1.98558,53.2115],[-1.9860524637783508,53.21319945204964],[-1.96356,53.22346],[-1.962365,53.21836],[-1.955431,53.2114],[-1.938216,53.21014],[-1.923675,53.20173],[-1.908517,53.19689],[-1.890559,53.19745],[-1.875516,53.19346],[-1.834348,53.17184],[-1.831449,53.16652],[-1.814573,53.15295],[-1.818568,53.14997],[-1.823507,53.13619],[-1.812225,53.12834],[-1.811026,53.12278],[-1.802009,53.11382],[-1.788619,53.1076],[-1.789614,53.10477],[-1.785675,53.1027],[-1.788054,53.10008],[-1.786764,53.09383],[-1.793452,53.09281],[-1.795939,53.08826],[-1.790928,53.08059],[-1.79236,53.07598],[-1.785979,53.06625],[-1.787162,53.06232],[-1.780274,53.05903],[-1.785507,53.05577],[-1.786289,53.04931],[-1.779708,53.04153],[-1.769063,53.04251],[-1.760976,53.03743],[-1.76319,53.03294],[-1.7589,53.02924],[-1.764047,53.0262],[-1.765433,53.02133],[-1.759529,53.01699],[-1.763205,53.01643],[-1.767772,53.00957],[-1.766001,53.00113],[-1.771944,52.99763],[-1.790796,52.99396],[-1.797366,52.98743],[-1.805864,52.98679],[-1.806241,52.98206],[-1.828241,52.97802],[-1.831884,52.97145],[-1.829289,52.96243],[-1.83618,52.9549],[-1.830593,52.94834],[-1.836415,52.94674],[-1.855129,52.93221],[-1.857176,52.92017],[-1.849845,52.91916],[-1.849217,52.90827],[-1.834391,52.90013],[-1.836908,52.89148],[-1.834401,52.88602],[-1.823814,52.88098],[-1.810855,52.87895],[-1.801165,52.88439],[-1.788238,52.8783],[-1.783326,52.88226],[-1.77791,52.88173],[-1.774463,52.8775],[-1.753102,52.87267],[-1.752753,52.86716],[-1.742169,52.86801],[-1.737178,52.86409],[-1.7321954946689806,52.86449833377023],[-1.731579,52.86417],[-1.7311697869232505,52.864165956392526],[-1.730945,52.86098],[-1.726183,52.85818],[-1.71196,52.86309],[-1.692353,52.86401],[-1.687052,52.86107],[-1.670144,52.85916],[-1.667592,52.85313],[-1.657517,52.85472],[-1.654274,52.85077],[-1.647163,52.85011],[-1.643444,52.85418],[-1.639662,52.85359],[-1.63316,52.8512],[-1.631244,52.84586],[-1.617827,52.84363],[-1.608494,52.83292],[-1.600141,52.8304],[-1.612358,52.81571],[-1.593073,52.80797],[-1.591961,52.80064],[-1.610546,52.79637],[-1.615403,52.78843],[-1.612838,52.78323],[-1.619521,52.78683],[-1.627028,52.78187],[-1.63863,52.78813],[-1.651811,52.7813],[-1.666099,52.78643],[-1.6724,52.78132],[-1.672165,52.77411],[-1.683961,52.77063],[-1.686864,52.76105],[-1.703773,52.75397],[-1.70929,52.74559],[-1.706378,52.73903],[-1.700771,52.73957],[-1.707315,52.73167],[-1.703169,52.72671],[-1.678399,52.72549],[-1.657937,52.71975],[-1.660985,52.71345],[-1.656347,52.70656],[-1.657143,52.69774],[-1.648297,52.69655],[-1.63757,52.69783],[-1.635514,52.70029],[-1.623963,52.69894],[-1.6226451296930258,52.7002937507691],[-1.61435,52.7018],[-1.6120697493868983,52.70104374024756],[-1.613048,52.69808],[-1.607695,52.6955],[-1.599763,52.69588],[-1.5943018522406007,52.700344960843516],[-1.587034,52.69437],[-1.5893235217376747,52.688095437575655],[-1.589663,52.68823],[-1.604861,52.67978],[-1.607113,52.67739],[-1.615971,52.67287],[-1.617224,52.66964],[-1.64574,52.65808],[-1.643478,52.65056],[-1.636868,52.64397],[-1.643366,52.64108],[-1.639814,52.63725],[-1.643483,52.63162],[-1.640519,52.62604],[-1.643698,52.62401],[-1.645091,52.62058],[-1.637596,52.61863],[-1.640837,52.61487],[-1.640826,52.60872],[-1.653359,52.59825],[-1.661448,52.59568],[-1.665873,52.59662],[-1.685896,52.59435],[-1.697369,52.59195],[-1.704039,52.59164],[-1.717756,52.59009],[-1.72318,52.58895],[-1.738488,52.59421],[-1.742124,52.59531],[-1.76863,52.5901],[-1.776538,52.59318],[-1.7872528076954548,52.58910224334302],[-1.787866,52.59148],[-1.794973,52.60096],[-1.816906,52.60872],[-1.816256,52.6147],[-1.819255,52.61986],[-1.825266,52.61808],[-1.828299,52.61042],[-1.848863,52.6065],[-1.855222,52.60299],[-1.8565075851972295,52.59735017221905],[-1.8612176887871785,52.59223706511338],[-1.863553,52.59019],[-1.873054,52.58689],[-1.875685,52.58817],[-1.890141,52.59985],[-1.882942,52.61011],[-1.883831,52.6163],[-1.911128,52.63475],[-1.902035,52.64214],[-1.915457,52.64954],[-1.906311,52.65344],[-1.912191,52.66048],[-1.923057,52.6577],[-1.934337,52.66342],[-1.940136,52.65824],[-1.943766,52.65841],[-1.953281,52.66414],[-1.960794,52.6643],[-1.961704,52.66189],[-1.956274,52.65411],[-1.961456,52.65334],[-1.961742,52.64492],[-1.965725,52.64194],[-1.986847,52.64196],[-1.990568,52.63924],[-2.017187,52.63583],[-2.020853,52.63397],[-2.019285,52.63039],[-2.024651,52.62681],[-2.037149,52.62358],[-2.033727,52.61876],[-2.055643,52.6238],[-2.070042,52.61986],[-2.069669,52.61476],[-2.082255,52.61399],[-2.087978,52.62142],[-2.094257,52.62237],[-2.099683,52.63702],[-2.130907,52.6393],[-2.13935,52.63013],[-2.156505,52.63199],[-2.156959,52.62563],[-2.169843,52.62159],[-2.171012,52.61305],[-2.175057,52.61074],[-2.193046,52.60981],[-2.19572,52.60618],[-2.190938,52.59035],[-2.208211,52.58808],[-2.204814,52.57723],[-2.190562,52.57545],[-2.189112,52.57197],[-2.180013,52.57187],[-2.176425,52.55247],[-2.150513,52.55242],[-2.141442,52.55576],[-2.135417,52.55326],[-2.142089,52.54817],[-2.143046,52.53718],[-2.151155,52.53222],[-2.154364,52.52692],[-2.145104,52.51986],[-2.155086,52.51537],[-2.165597,52.51604],[-2.190996,52.51023],[-2.194624,52.50235],[-2.190641,52.49867],[-2.192902,52.49398],[-2.182461,52.49087],[-2.17829,52.47336],[-2.170256,52.47053],[-2.175737,52.46451],[-2.178922,52.45297],[-2.1661432744938263,52.42990715910646],[-2.168884,52.42603],[-2.185387,52.42747],[-2.191704,52.42558],[-2.196801,52.42894],[-2.208448,52.43087],[-2.217537,52.43655],[-2.258168,52.43846],[-2.262621,52.44193],[-2.268269,52.44019],[-2.273484,52.4412],[-2.284883,52.44586],[-2.287449,52.4507],[-2.284868,52.45487],[-2.287471,52.4565],[-2.2920481746720207,52.4542623767519],[-2.291177,52.46041]]]}}
