{"type":"Feature","properties":{"sourceId":"south-fed-district"},"geometry":{"type":"Polygon","coordinates":[[[37.62322,46.88217],[38.11227,46.91138],[38.23594,46.98468],[38.17948,47.11301],[38.17056,47.33226],[38.24691,47.42509],[38.2375,47.56339],[38.32055,47.6572],[38.72452,47.75158],[38.74584,47.84248],[38.87402,47.9262],[39.71582,47.88397],[39.76046,47.97173],[39.73231,48.06436],[39.8875,48.22399],[39.79541,48.28809],[39.79521,48.35044],[39.85571,48.39424],[39.79789,48.45847],[39.80232,48.52768],[39.66738,48.53953],[39.61548,48.58986],[39.65966,48.74513],[39.75439,48.87157],[39.64642,48.95187],[39.62763,49.06151],[39.89786,49.11549],[40.1341,49.31827],[39.98036,49.44172],[39.99489,49.54761],[39.99011,49.54666],[40.13577,49.62492],[40.15677,49.64995],[40.28125,49.63551],[40.37781,49.59525],[40.5377,49.58663],[40.57156,49.62911],[40.60865,49.64501],[40.63494,49.68061],[40.76609,49.67503],[40.79343,49.70856],[40.9199,49.71034],[41.00731,49.80446],[41.03738,49.80996],[41.03349,49.86849],[41.08003,49.95225],[41.18813,50.01824],[41.29064,50.02935],[41.30107,50.04875],[41.31939,50.05487],[41.33366,50.07495],[41.3737,50.08712],[41.37518,50.11107],[41.36629,50.12266],[41.28727,50.15537],[41.28169,50.16617],[41.34603,50.22133],[41.3824,50.2089],[41.37641,50.23255],[41.4138,50.25064],[41.51086,50.36248],[41.48863,50.41651],[41.41263,50.49904],[41.48142,50.56868],[41.52088,50.58017],[41.51356,50.59833],[41.44438,50.59929],[41.34068,50.70573],[41.27228,50.74183],[41.16686,50.76676],[41.1618,50.77968],[41.38906,50.84952],[41.412,50.84569],[41.41096,50.89212],[41.42135,50.91853],[41.46795,50.95654],[41.50921,50.96255],[41.52647,50.95513],[41.53568,50.96651],[41.61001,50.99096],[41.70791,51.01365],[41.74737,51.01408],[41.78057,51.042],[41.78918,51.08296],[41.85318,51.1652],[41.92688,51.20197],[41.96896,51.20264],[41.99071,51.18436],[42.0887,51.15603],[42.17408,51.14405],[42.2942,51.14518],[42.42048,51.16861],[42.44086,51.15309],[42.55142,51.1527],[42.59084,51.16079],[42.64135,51.22335],[42.6756,51.24523],[42.71042,51.2554],[42.75246,51.2446],[42.8537,51.25262],[43.14005,51.13073],[43.18797,51.12025],[43.3275,51.0206],[43.3577,51.00775],[43.419,51.04171],[43.43618,51.03679],[43.55998,51.06832],[43.66213,51.06478],[43.67726,51.07708],[43.66609,51.10504],[43.6537,51.1122],[43.67054,51.12892],[43.69669,51.11698],[43.7864,51.12876],[43.86197,51.11162],[43.87832,51.1193],[43.9093,51.16454],[43.92165,51.16951],[43.95958,51.15592],[44.02473,51.16469],[44.03057,51.08117],[44.04455,51.08261],[44.05529,51.10979],[44.09389,51.10731],[44.11595,51.13269],[44.1453,51.12499],[44.14568,51.1112],[44.17959,51.10334],[44.20499,51.13222],[44.2068,51.19259],[44.22912,51.20686],[44.28223,51.20364],[44.29057,51.19364],[44.34519,51.18312],[44.38629,51.19839],[44.42599,51.18902],[44.44129,51.19604],[44.45186,51.21793],[44.47912,51.21877],[44.51198,51.20565],[44.5721,51.13343],[44.59083,51.12822],[44.61847,51.13543],[44.60719,51.16607],[44.64234,51.18624],[44.75696,51.15822],[44.78613,51.15796],[44.82463,51.17234],[44.83893,51.16728],[44.86576,51.17905],[44.90276,51.16776],[44.90402,51.12261],[44.93711,51.11612],[44.95062,51.12968],[44.97705,51.13088],[44.99541,51.15443],[45.07202,51.12603],[45.08756,51.08608],[45.22436,51.0466],[45.22331,51.02537],[45.21007,51.01283],[45.22601,50.98025],[45.21496,50.9665],[45.26219,50.94313],[45.26552,50.93342],[45.31196,50.9173],[45.33384,50.86166],[45.32027,50.80677],[45.29287,50.76403],[45.28518,50.71433],[45.24175,50.70002],[45.22719,50.67442],[45.2254,50.65543],[45.20815,50.62977],[45.20545,50.59452],[45.37628,50.59774],[45.40377,50.62113],[45.49369,50.61078],[45.50476,50.589],[45.53857,50.56148],[45.54984,50.57203],[45.54654,50.59041],[45.56492,50.59769],[45.68467,50.58413],[45.69812,50.58952],[45.67114,50.66999],[45.71004,50.74345],[45.74473,50.76533],[45.84226,50.76418],[45.89796,50.75635],[45.99394,50.69682],[46.0388,50.6943],[46.04517,50.67349],[46.09726,50.67045],[46.09809,50.61377],[46.07371,50.598],[46.07797,50.53488],[46.26885,50.53564],[46.26778,50.57212],[46.27639,50.58094],[46.3439,50.58152],[46.35424,50.56406],[46.44385,50.55566],[46.43489,50.58636],[46.4534,50.60371],[46.45176,50.62139],[46.46829,50.63414],[46.49107,50.64232],[46.51095,50.63175],[46.51384,50.64726],[46.53824,50.65211],[46.55011,50.62997],[46.55909,50.63176],[46.56077,50.69374],[46.57985,50.71909],[46.62502,50.69009],[46.67388,50.69626],[46.71816,50.71929],[46.73456,50.70701],[46.74551,50.66933],[46.75761,50.66037],[46.77901,50.65082],[46.86207,50.64666],[46.85775,50.61912],[46.82508,50.60222],[46.82026,50.58791],[46.87631,50.58278],[46.87901,50.53547],[46.92203,50.52865],[46.92308,50.49827],[47.02491,50.49724],[47.03889,50.51768],[47.20861,50.51647],[47.21303,50.44076],[47.244,50.43268],[47.24795,50.37984],[47.27309,50.38706],[47.43512,50.38476],[47.46418,50.34623],[47.36594,50.27447],[47.38377,50.05208],[47.19074,49.88336],[46.94498,49.81672],[46.85039,49.38503],[47.0187,49.27955],[47.09872,49.14378],[47.0122,48.9948],[46.80537,48.89006],[46.59034,48.46934],[47.15755,48.3071],[47.17553,48.15345],[47.26121,48.07877],[47.14475,47.95903],[47.22767,47.87353],[47.23594,47.80066],[47.35203,47.76545],[47.41085,47.8885],[47.66885,47.80996],[48.04813,47.81218],[48.23329,47.7388],[48.46943,47.47112],[48.56782,47.43402],[49.04755,46.75114],[48.92563,46.6427],[48.62393,46.65237],[49.19315,46.4275],[49.52308,46.24281],[49.71829,46.23479],[49.93666,46.04634],[49.11256,45.65282],[49.01144,45.47855],[48.86567,45.38544],[48.67183,45.35084],[48.27987,45.40203],[48.05696,45.24572],[47.64786,45.15848],[47.37402,44.72638],[47.34353179537412,44.72071578798627],[47.29469,44.72149],[46.98003,44.76927],[46.89843,44.81492],[46.88556,44.81308],[46.865,44.80251],[46.82702,44.81112],[46.81162,44.80994],[46.80485,44.80441],[46.80744,44.79356],[46.82059,44.78813],[46.82075,44.77844],[46.8308,44.76859],[46.82813,44.76517],[46.8189,44.76347],[46.81565,44.76561],[46.81508,44.77258],[46.8004,44.77985],[46.79718,44.78592],[46.76077,44.80148],[46.76419,44.80809],[46.77551,44.81836],[46.77443,44.82609],[46.77162,44.82863],[46.74036,44.83861],[46.71917,44.84199],[46.71331,44.84566],[46.69211,44.84912],[46.67814,44.86153],[46.65861,44.86234],[46.64276,44.86701],[46.63448,44.86537],[46.58732,44.89195],[46.57134,44.91026],[46.50514,44.93719],[46.48507,44.93369],[46.47105,44.93877],[46.44917,44.94212],[46.43449,44.94176],[46.42717,44.93756],[46.38292,44.9503],[46.36889,44.94957],[46.35956,44.94502],[46.34794,44.9538],[46.3258,44.95288],[46.25039,44.96848],[46.24007,44.97393],[46.22675,44.9759],[46.199,44.96156],[46.16204,44.96606],[46.15582,44.96187],[46.11713,44.97279],[46.08304,44.97165],[46.07682,44.96855],[46.06716,44.97425],[46.03264,44.98362],[46.01638,44.98269],[45.9994,44.99028],[45.98306,44.99207],[45.96841,44.9841],[45.9489,44.98929],[45.93054,44.98772],[45.88175,44.99099],[45.87452,44.98869],[45.86883,44.99043],[45.84686,44.98888],[45.81436,44.99466],[45.79198,44.99004],[45.7934,44.9783],[45.78305,44.97185],[45.74967,44.97826],[45.73452,44.97584],[45.71572,44.97725],[45.7106,44.9812],[45.71781,44.99822],[45.59169,45.12004],[45.59291,45.12558],[45.59092,45.12866],[45.35251,45.22107],[45.13748,45.30884],[44.89946,45.38912],[44.89504,45.40581],[44.87895,45.4084],[44.87271,45.41438],[44.8394,45.43061],[44.83147,45.44011],[44.80507,45.4342],[44.79774,45.4299],[44.7884,45.43318],[44.76255,45.43387],[44.74433,45.43768],[44.72512,45.44776],[44.71327,45.44821],[44.70014,45.45347],[44.63384,45.467],[44.60045,45.48089],[44.58847,45.49743],[44.57619,45.50879],[44.57024,45.50908],[44.5544,45.50296],[44.54754,45.50615],[44.5394,45.50279],[44.53438,45.50781],[44.5142,45.5134],[44.49658,45.50483],[44.4715,45.50634],[44.45277,45.51003],[44.41112,45.5268],[44.38331,45.54232],[44.36967,45.54603],[44.36846,45.55196],[44.36422,45.55497],[44.3536,45.55603],[44.33541,45.55294],[44.31781,45.55551],[44.29953,45.57139],[44.28209,45.57674],[44.2762,45.59164],[44.23655,45.60173],[44.21619,45.61691],[44.20777,45.6195],[44.17518,45.6449],[44.17339,45.65036],[44.13404,45.69299],[44.12205,45.73604],[44.1088,45.74026],[44.09644,45.76753],[44.09198,45.78669],[44.09336,45.79829],[44.07276,45.804],[44.06427,45.81346],[44.05673,45.8108],[44.04508,45.821],[44.03609,45.84092],[44.03812,45.85083],[44.01907,45.87288],[44.00345,45.88312],[43.98383,45.89283],[43.97324,45.89223],[43.93121,45.90271],[43.93428,45.91127],[43.92982,45.92626],[43.92329,45.93329],[43.92183,45.94558],[43.91712,45.94894],[43.90369,45.95128],[43.89301,45.94786],[43.84727,45.96033],[43.8244,45.96207],[43.81872,45.96014],[43.81414,45.96222],[43.80916,45.96045],[43.78955,45.96612],[43.78754,45.97001],[43.7766,45.97594],[43.76631,45.97482],[43.75,45.98159],[43.73359,45.98141],[43.72282,45.98561],[43.69226,45.9826],[43.67698,45.98621],[43.64439,45.98322],[43.63676,45.99058],[43.62839,45.9885],[43.62271,45.99404],[43.61765,45.99293],[43.61212,45.98553],[43.60604,45.98397],[43.59381,45.99183],[43.58895,45.99067],[43.5862,45.985],[43.56948,45.98221],[43.51202,45.9922],[43.46967,45.99218],[43.40599,46.01977],[43.36218,46.03543],[43.31277,46.09168],[43.29979,46.09995],[43.25828,46.11335],[43.21916,46.1152],[43.19328,46.12057],[43.16519,46.13166],[43.07088,46.15433],[43.03375,46.16665],[43.00286,46.17227],[42.98054,46.18485],[42.96429,46.19838],[42.93264,46.23881],[42.91361,46.23914],[42.88124,46.21206],[42.86958,46.21074],[42.85629,46.20365],[42.85205,46.20524],[42.84703,46.20342],[42.83663,46.18968],[42.85186,46.18361],[42.85294,46.175],[42.73707,46.09422],[42.67112,46.09271],[42.5562,46.01123],[42.44764,45.99316],[42.32212,45.97464],[42.32256,46.04156],[42.33263,46.1346],[42.33049,46.13796],[42.32218,46.13844],[42.16898,46.11229],[42.16474,46.06909],[42.17649,46.06553],[42.17345,46.04398],[42.16062,46.03882],[42.14874,45.94667],[42.10307,45.9381],[42.08405,45.93677],[42.08591,45.96582],[42.0828,45.96936],[41.92762,45.97751],[41.90203,45.97128],[41.82163,45.97835],[41.8097,45.98187],[41.79432,45.97991],[41.71678,45.9857],[41.70272,45.98296],[41.69273,45.9858],[41.66724,45.97821],[41.65909,45.98154],[41.643,45.98275],[41.6245,45.97998],[41.59841,45.98465],[41.54221,45.98884],[41.5257,45.99444],[41.50559,45.99441],[41.49932,45.9973],[41.49904,46.00684],[41.49592,46.0092],[41.47032,46.00872],[41.46666,46.0012],[41.40408,46.00187],[41.39138,45.99977],[41.38726,45.95529],[41.15976,45.9544],[41.15888,45.87809],[41.24437,45.87673],[41.24643,45.86357],[41.25248,45.86325],[41.25683,45.8588],[41.24901,45.85219],[41.23663,45.84878],[41.23783,45.84127],[41.23056,45.83093],[41.23757,45.82034],[41.25369,45.816],[41.25807,45.79279],[41.26947,45.79033],[41.26838,45.76269],[41.16734,45.76178],[41.16146,45.67747],[41.05775,45.6782],[41.05531,45.69524],[41.03634,45.6963],[41.03438,45.70083],[41.01305,45.7103],[41.00809,45.71599],[40.99941,45.71339],[40.9775,45.71618],[40.96123,45.70787],[40.95777,45.69673],[40.84569,45.69601],[40.84331,45.51582],[40.88207,45.51182],[40.91952,45.51279],[40.91977,45.44599],[40.92968,45.44307],[40.93936,45.4332],[40.97653,45.42103],[40.97613,45.41717],[40.97064,45.4145],[40.97503,45.4049],[40.97129,45.39149],[40.97893,45.38753],[40.98637,45.39199],[40.99109,45.39102],[40.98823,45.37642],[40.99605,45.37465],[40.99708,45.37225],[40.99042,45.36971],[40.98662,45.3632],[40.99628,45.35917],[41.00136,45.35151],[40.99774,45.34461],[40.99185,45.34174],[40.99191,45.33753],[40.99869,45.33128],[40.99069,45.32201],[40.99594,45.31804],[40.99983,45.31827],[41.0022,45.31458],[41.01186,45.31547],[41.01354,45.3078],[41.01796,45.30511],[41.01747,45.29084],[41.02193,45.28518],[41.01787,45.28052],[41.00934,45.27869],[41.0084,45.27541],[41.01162,45.26959],[41.019,45.26867],[41.0142,45.2645],[41.01685,45.25566],[41.02179,45.25307],[41.03339,45.25442],[41.02455,45.23985],[41.03335,45.22886],[41.03327,45.22362],[41.2324,45.22099],[41.23667,45.22977],[41.26031,45.23074],[41.26179,45.24693],[41.26717,45.24894],[41.26867,45.25594],[41.27766,45.25899],[41.28538,45.24872],[41.28783,45.23479],[41.29646,45.2208],[41.35023,45.21831],[41.35046,45.18577],[41.36189,45.18179],[41.34995,45.17761],[41.34913,45.08915],[41.35594,45.08477],[41.36814,45.08303],[41.38655,45.0751],[41.40373,45.0618],[41.41983,45.02543],[41.43595,45.0109],[41.44456,44.99277],[41.45678,44.98526],[41.65074,44.98143],[41.6493,44.91035],[41.63699,44.90661],[41.63548,44.86591],[41.62909,44.85471],[41.61489,44.85099],[41.61085,44.83857],[41.60646,44.83552],[41.60734,44.82994],[41.60308,44.82694],[41.61003,44.80297],[41.5819,44.79567],[41.58754,44.77597],[41.58381,44.77383],[41.57765,44.76181],[41.56205,44.76392],[41.56202,44.75617],[41.55245,44.7523],[41.55477,44.74046],[41.51685,44.73321],[41.51386,44.72826],[41.42417,44.7087],[41.44522,44.6557],[41.45567,44.64795],[41.47392,44.64438],[41.49345,44.59313],[41.53187,44.59958],[41.53448,44.60271],[41.53347,44.61157],[41.55019,44.61357],[41.58825,44.51336],[41.63515,44.52128],[41.6499,44.48769],[41.69714,44.49585],[41.7032,44.48667],[41.73266,44.48021],[41.73145,44.46381],[41.72369,44.46223],[41.71928,44.45811],[41.70356,44.45637],[41.69456,44.43321],[41.69041,44.41319],[41.62687,44.40971],[41.62921,44.38131],[41.59615,44.37653],[41.58909,44.36356],[41.6879,44.33108],[41.73965,44.26696],[41.73496,44.26354],[41.73516,44.25746],[41.72529,44.25072],[41.72511,44.23407],[41.70963,44.21576],[41.70616,44.20429],[41.70765,44.1981],[41.69718,44.18448],[41.69507,44.17428],[41.68081,44.16953],[41.67403,44.15833],[41.66321,44.15098],[41.65978,44.14448],[41.64866,44.13491],[41.64656,44.12846],[41.63436,44.13281],[41.62819,44.12751],[41.63046,44.11913],[41.59906,44.11513],[41.55259,44.10079],[41.54789,44.09672],[41.55304,44.08702],[41.54927,44.07696],[41.55018,44.06572],[41.54304,44.05949],[41.54173,44.04685],[41.52227,44.05015],[41.48881,44.04909],[41.48801,44.05606],[41.48328,44.05733],[41.47725,44.05162],[41.47487,44.04243],[41.4771,44.03401],[41.47428,44.01769],[41.47866,44.00836],[41.47759,44.00491],[41.46208,44.00447],[41.4527,44.00703],[41.43121,44.00308],[41.41414,43.98616],[41.40635,43.98442],[41.39576,43.98824],[41.39067,43.99925],[41.38409,44.00161],[41.37987,44.00782],[41.37533,44.00757],[41.37444,44.01228],[41.35775,44.01431],[41.35155,44.00997],[41.35509,44.00075],[41.34731,43.9939],[41.35151,43.98222],[41.31877,43.98287],[41.31267,43.99676],[41.31601,44.00847],[41.31268,44.01073],[41.32451,44.02623],[41.32052,44.0313],[41.3105,44.02461],[41.29799,44.02284],[41.29135,44.01544],[41.28472,44.01636],[41.28204,44.01109],[41.27437,44.02103],[41.25574,44.0159],[41.25516,44.01876],[41.25899,44.02085],[41.26051,44.02608],[41.26754,44.03336],[41.2755,44.03573],[41.28432,44.04962],[41.28011,44.06134],[41.29378,44.05272],[41.3044,44.06166],[41.29316,44.08758],[41.28384,44.08786],[41.26479,44.09779],[41.24502,44.09725],[41.23372,44.10166],[41.22945,44.0993],[41.22679,44.09219],[41.1731,44.09191],[41.17162,44.10664],[41.16438,44.11166],[41.15783,44.11261],[41.15294,44.12071],[41.12477,44.12913],[41.11871,44.12701],[41.11482,44.1136],[41.11588,44.10703],[41.08551,44.09842],[41.06219,44.11556],[41.03532,44.12403],[41.02757,44.11699],[40.95578,44.14389],[40.91463,44.14826],[40.8981,44.14416],[40.88975,44.14547],[40.88852,44.10278],[40.91479,44.09064],[40.90822,44.08521],[40.90866,44.07434],[40.92047,44.06774],[40.91722,44.05788],[40.91606,44.03847],[40.92258,44.02266],[40.92896,44.01622],[40.92188,44.01254],[40.91292,43.9998],[40.90825,43.97814],[40.89847,43.96747],[40.89719,43.96262],[40.88826,43.95679],[40.88434,43.94905],[40.87652,43.95103],[40.85997,43.94966],[40.85027,43.94537],[40.83905,43.93557],[40.83719,43.92788],[40.83295,43.92413],[40.8015,43.92025],[40.7968,43.90484],[40.78671,43.89755],[40.78307,43.88319],[40.76917,43.88063],[40.76368,43.8744],[40.76563,43.86741],[40.76035,43.86278],[40.75303,43.84601],[40.75001,43.83701],[40.75178,43.83043],[40.7199,43.7952],[40.7315,43.783],[40.73962,43.77996],[40.7495,43.75833],[40.7522,43.75202],[40.74448,43.75032],[40.73089,43.74174],[40.71064,43.73928],[40.69926,43.7438],[40.68772,43.72815],[40.67265,43.71623],[40.67762,43.71052],[40.68632,43.70954],[40.69176,43.70428],[40.691,43.69344],[40.71007,43.68295],[40.71106,43.67559],[40.70405,43.67122],[40.70508,43.66137],[40.69654,43.6526],[40.71231,43.63996],[40.71393,43.63086],[40.71927,43.62673],[40.71944,43.62124],[40.72351,43.61548],[40.73796,43.60483],[40.73524,43.60032],[40.73664,43.59255],[40.73093,43.5911],[40.72337,43.58455],[40.72255,43.57574],[40.72615,43.57158],[40.72257,43.55016],[40.71429,43.54352],[40.71239217487043,43.536089427342866],[40.69623,43.53924],[40.69437,43.55088],[40.66194,43.56668],[40.63363,43.55414],[40.60845,43.55121],[40.5921,43.53529],[40.56704,43.52454],[40.54233,43.5233],[40.50601,43.52954],[40.48024,43.55245],[40.46243,43.55077],[40.43396,43.56139],[40.41444,43.55648],[40.3873,43.55901],[40.3567,43.56789],[40.33248,43.56965],[40.3161,43.58161],[40.30428,43.58119],[40.29681,43.57588],[40.27105,43.58284],[40.26026,43.5899],[40.24014,43.58979],[40.21089,43.57923],[40.1715,43.58035],[40.13215,43.57003],[40.11081,43.5733],[40.09778,43.57002],[40.08696,43.55593],[40.09017,43.53023],[40.05967,43.50659],[40.04124,43.47718],[40.03715,43.45538],[40.0273,43.44198],[40.00662,43.4255],[40.0096,43.41688],[40.00171,43.38288],[39.88093,43.22533],[39.91073401234677,43.18990951558865],[39.77181,43.19436],[39.0957,43.73459],[38.58442,44.07787],[38.06819,44.20528],[37.72977,44.41796],[37.30884,44.50028],[37.13441,44.60302],[36.99347,44.80367],[36.82653,44.86342],[36.62697,44.88227],[36.60491,44.87499],[36.60314744023904,44.91556139405478],[36.61162,44.94026],[36.56986,45.05136],[36.54478,45.13462],[36.53582,45.17545],[36.53275,45.19745],[36.55542,45.21999],[36.58703,45.24249],[36.59548,45.25102],[36.59946,45.28328],[36.60493,45.30823],[36.6655,45.35975],[36.68355,45.4569],[36.67035,45.62701],[36.66210024190131,45.629711544185476],[36.66199,45.63138],[37.00015,46.18517],[37.41553,46.76322],[37.62322,46.88217]]]}}
