{"type":"Feature","properties":{"sourceId":"slaskie"},"geometry":{"type":"Polygon","coordinates":[[[19.38896,49.555],[19.36857,49.52163],[19.25439,49.50502],[19.19973,49.39744],[18.97633,49.38],[18.95713,49.39537],[18.94682,49.49697],[18.84103456053764,49.51314803841123],[18.85284,49.51524],[18.8554,49.51808],[18.8459,49.52465],[18.8601,49.53731],[18.86321,49.54702],[18.84356,49.59539],[18.8114,49.67858],[18.77961,49.68892],[18.72342,49.68627],[18.7117,49.70708],[18.6453,49.71452],[18.6295,49.7295],[18.63373,49.74714],[18.57729,49.83197],[18.60722,49.85654],[18.60854,49.86359],[18.5725,49.88026],[18.58516,49.90886],[18.57513,49.92391],[18.55764,49.92104],[18.54454,49.9287],[18.53781,49.92656],[18.53337,49.90482],[18.49842,49.90817],[18.431,49.94174],[18.33123,49.95171],[18.32027,49.91942],[18.28528,49.93856],[18.28167,49.96811],[18.22174,49.97353],[18.21072,49.99951],[18.1686,50.00277],[18.15722,49.98776],[18.13103,50.00149],[18.11814,49.99696],[18.09666,50.0143],[18.10633,50.02315],[18.0898,50.034],[18.0915,50.04584],[18.06546,50.06028],[18.05027316568415,50.06472517185459],[18.04923,50.06704],[18.0792,50.10826],[18.07397,50.13305],[18.06108,50.14],[18.07255,50.15508],[18.0692,50.16298],[18.09643,50.16956],[18.11168,50.16073],[18.13129,50.17536],[18.1638,50.18126],[18.1855,50.17424],[18.24781,50.18562],[18.25663,50.19854],[18.24545,50.20976],[18.36912,50.24793],[18.42953,50.24328],[18.4329,50.27161],[18.4123,50.28337],[18.40378,50.3069],[18.41463,50.31343],[18.41204,50.32717],[18.37631,50.35454],[18.39371,50.36582],[18.40307,50.38796],[18.38051,50.42001],[18.39568,50.43738],[18.39009,50.47168],[18.44109,50.47266],[18.44834,50.45661],[18.48337,50.45176],[18.49228,50.47223],[18.47689,50.48526],[18.4719,50.50342],[18.45358,50.50851],[18.44275,50.53932],[18.48119,50.54528],[18.55774,50.53285],[18.61364,50.54709],[18.62263,50.57133],[18.60104,50.5818],[18.60769,50.60784],[18.58762,50.62066],[18.5229,50.63238],[18.51755,50.6489],[18.52896,50.66272],[18.51319,50.6689],[18.49987,50.70223],[18.5158,50.71892],[18.55228,50.72647],[18.55618,50.74031],[18.57163,50.73797],[18.58585,50.74731],[18.58338,50.75872],[18.55377,50.76589],[18.52829,50.79387],[18.56451,50.80266],[18.56665,50.83038],[18.6238,50.85106],[18.66211,50.91708],[18.65445,50.93603],[18.6348,50.93865],[18.62415,50.95628],[18.66776,50.96511],[18.67146,50.99941],[18.70219,51.01695],[18.67699,51.06246],[18.665280319831695,51.065977867993446],[18.66514,51.06818],[18.85692,51.09002],[18.88373,51.07889],[18.92311,51.1129],[19.0008,51.08774],[19.0688,51.04409],[19.11101,51.03798],[19.12818,51.01647],[19.2101,50.999],[19.2342,51.00581],[19.22929,51.03809],[19.24211,51.05202],[19.32265,51.06011],[19.34338,51.04411],[19.34079,51.02629],[19.39904,51.01284],[19.44059,50.97583],[19.49055,50.89571],[19.57788,50.92124],[19.61857,50.89417],[19.66978,50.88509],[19.68869,50.85952],[19.7186,50.85854],[19.75061,50.87904],[19.75643907689182,50.87709449562517],[19.73854,50.86924],[19.74496,50.86039],[19.78498,50.84703],[19.81624,50.83293],[19.81959,50.82753],[19.8128,50.82246],[19.81244,50.81154],[19.80907,50.81086],[19.7986,50.82243],[19.78832,50.82549],[19.78222,50.82352],[19.77325,50.81127],[19.77451,50.80517],[19.76987,50.79821],[19.77947,50.78721],[19.76113,50.78244],[19.75662,50.77285],[19.74403,50.76438],[19.73757,50.77468],[19.72526,50.7767],[19.69901,50.75465],[19.70296,50.74175],[19.70814,50.7369],[19.70684,50.73206],[19.71186,50.72322],[19.75712,50.71006],[19.78891,50.71444],[19.80082,50.71077],[19.8072,50.70005],[19.83995,50.69894],[19.84675,50.68619],[19.85725,50.68491],[19.85236,50.67248],[19.8364,50.67619],[19.82856,50.67106],[19.8297,50.66113],[19.82313,50.65662],[19.82763,50.64673],[19.85607,50.64001],[19.87664,50.64004],[19.88771,50.63076],[19.90344,50.63225],[19.90077,50.62729],[19.8932,50.62293],[19.86269,50.62758],[19.85509,50.62456],[19.84559,50.6147],[19.83498,50.59502],[19.82215,50.58794],[19.81253,50.57757],[19.80222,50.57213],[19.78553,50.57251],[19.78226,50.56251],[19.78407,50.5516],[19.83919,50.54919],[19.85302,50.53806],[19.89579,50.53417],[19.90647,50.50924],[19.9342,50.49643],[19.95634,50.50055],[19.966147785298745,50.50661608686107],[19.98542,50.48439],[19.98406,50.46851],[19.91745,50.46018],[19.90757,50.44208],[19.84823,50.42074],[19.70797,50.42858],[19.66113,50.39504],[19.60588,50.39046],[19.5255,50.40206],[19.50444,50.38484],[19.49328,50.31369],[19.42392,50.31216],[19.42433,50.28891],[19.37993,50.25596],[19.44579,50.23957],[19.45182,50.21755],[19.42118,50.18838],[19.38128,50.18147],[19.35546,50.13801],[19.2918,50.12719],[19.28079,50.10641],[19.25096,50.10416],[19.23635,50.0853],[19.24221,50.05792],[19.17161,50.04322],[19.135,50.00069],[19.1345,49.95403],[19.18409,49.96532],[19.20847,49.95788],[19.20037,49.93165],[19.20992,49.8847],[19.30443,49.8585],[19.30236,49.82419],[19.32694,49.79115],[19.39713,49.78021],[19.41583,49.78886],[19.44643,49.76657],[19.45622,49.7264],[19.4071,49.69187],[19.44438,49.69369],[19.4806,49.67605],[19.49154,49.61653],[19.45606,49.58851],[19.456,49.58854],[19.38896,49.555]]]}}
