{"type":"Feature","properties":{"sourceId":"serbia"},"geometry":{"type":"Polygon","coordinates":[[[18.97739,44.90997],[19.03006,44.92903],[19.06849,44.90525],[19.10351,44.9648],[19.03965,44.97548],[19.09012,45.00462],[19.09183,45.05388],[19.07227,45.11496],[19.0805,45.15202],[19.1423,45.13652],[19.18728,45.1772],[19.15123,45.19414],[19.17423,45.20913],[19.26762,45.18301],[19.27654,45.21228],[19.32255,45.21059],[19.34418,45.17841],[19.41078,45.17647],[19.4379,45.19801],[19.41559,45.228],[19.33147,45.228],[19.25148,45.2396],[19.15569,45.26861],[19.09671,45.29394],[19.02214,45.34225],[18.96618,45.3753],[18.96515,45.38977],[18.98952,45.40616],[18.98197,45.45218],[18.98901,45.48698],[19.0024,45.49889],[19.08514,45.496],[19.08651,45.51862],[19.06128,45.5286],[18.93871,45.53124],[18.87966,45.56406],[18.89511,45.61908],[18.95107,45.6738],[18.90575,45.69611],[18.83915,45.77471],[18.83469,45.81205],[18.85408,45.84315],[18.85391,45.85391],[18.8261,45.86587],[18.80894,45.91533],[18.90438,45.9385],[18.99261,45.93516],[18.99914,45.96237],[19.06746,45.97263],[19.05888,46.00173],[19.10042,46.04274],[19.13441,46.04035],[19.22916,46.00269],[19.3634,46.0556],[19.41044,46.05322],[19.47032,46.10399],[19.51447,46.11799],[19.50005,46.14369],[19.56648,46.18185],[19.63085,46.17103],[19.66021,46.19207],[19.69969,46.19017],[19.74157,46.16866],[19.81865,46.13096],[19.85264,46.15189],[19.93469,46.17876],[20.01675,46.17793],[20.06207,46.15047],[20.09884,46.18291],[20.14437,46.14556],[20.18103,46.16062],[20.26446,46.1283],[20.2849,46.11892],[20.34767,46.04836],[20.40642,45.96786],[20.44933,45.97335],[20.48538,45.95592],[20.5125,45.90315],[20.5719,45.91271],[20.58598,45.87639],[20.61413,45.86706],[20.66391,45.83024],[20.68368,45.79973],[20.70433,45.75733],[20.77164,45.75703],[20.78236,45.78812],[20.82458,45.77638],[20.81909,45.7492],[20.80166,45.58765],[20.84024,45.53552],[20.77636,45.48504],[20.83596,45.48251],[20.86784,45.46735],[20.88201,45.45363],[20.88235,45.44598],[20.86965,45.4308],[20.92192,45.41821],[20.99491,45.34824],[21.068,45.33429],[21.09985,45.30133],[21.1837,45.33718],[21.19434,45.29421],[21.23805,45.25196],[21.405,45.23261],[21.48445,45.19583],[21.53458,45.16195],[21.53458,45.13677],[21.48651,45.09219],[21.46042,45.03763],[21.36662,45.02009],[21.42056,44.98553],[21.5516,44.93448],[21.56926,44.88523],[21.48823,44.86609],[21.4381,44.86487],[21.36772,44.86268],[21.37313,44.82587],[21.40056,44.78468],[21.55689,44.77526],[21.59225,44.76307],[21.61285,44.73478],[21.6263,44.67466],[21.78829,44.66621],[21.9972,44.63617],[22.03377,44.58729],[22.08745,44.50402],[22.13476,44.477],[22.17625,44.48328],[22.22362,44.56259],[22.27238,44.6286],[22.3292,44.67952],[22.38377,44.68037],[22.42853,44.71335],[22.47028,44.71969],[22.5079,44.69441],[22.60094,44.62481],[22.62978,44.61626],[22.6811,44.62298],[22.75953,44.56616],[22.7713,44.54147],[22.76019,44.5355],[22.69356,44.51118],[22.63383,44.54405],[22.60574,44.55023],[22.58017,44.5451],[22.56602,44.53142],[22.56231,44.49859],[22.55922,44.48328],[22.52472,44.46907],[22.46927,44.47826],[22.46344,44.46258],[22.49554,44.42716],[22.50395,44.42054],[22.50807,44.37884],[22.5297,44.34104],[22.56111,44.31415],[22.5745,44.30493],[22.65329,44.29658],[22.69121,44.27774],[22.69106,44.25073],[22.67681,44.2329],[22.67921,44.21556],[22.67046,44.20768],[22.63887,44.1902],[22.64419,44.18885],[22.64368,44.18503],[22.62986,44.15893],[22.62875,44.14717],[22.61287,44.10602],[22.62205,44.09831],[22.62692,44.06282],[22.58223,44.05293],[22.5505,44.05273],[22.53942,44.01801],[22.41348,44.00356],[22.42052,43.99244],[22.41074,43.93783],[22.39082,43.92634],[22.39941,43.9136],[22.38275,43.84691],[22.36113,43.81248],[22.4049,43.76018],[22.41073,43.70025],[22.48292,43.65755],[22.49594,43.63773],[22.50061,43.58088],[22.51192,43.51631],[22.55422,43.46375],[22.57666,43.4654],[22.61025,43.43402],[22.65692,43.43525],[22.67761,43.3996],[22.73946,43.39911],[22.83183,43.3338],[22.85424,43.28665],[22.94218,43.20867],[22.99038,43.20743],[23.01035,43.19254],[22.99542,43.12792],[22.98512,43.109],[22.95053,43.08904],[22.92486,43.07955],[22.89997,43.03464],[22.86392,43.01984],[22.84899,43.00088],[22.79032,42.98153],[22.78602,42.95199],[22.77831,42.918],[22.74986,42.88609],[22.70591,42.87733],[22.67719,42.86328],[22.63811,42.8772],[22.61683,42.89293],[22.57656,42.86011],[22.53646,42.8777],[22.51536,42.85464],[22.47683,42.83154],[22.44267,42.82216],[22.44927,42.80261],[22.45039,42.79688],[22.45601,42.79409],[22.46447,42.77739],[22.50927,42.74336],[22.49828,42.72173],[22.46884,42.6883],[22.4818,42.6765],[22.4495,42.57169],[22.47615,42.56361],[22.57016,42.49507],[22.55093,42.45049],[22.52479,42.38891],[22.49018,42.39212],[22.4568,42.32594],[22.43211,42.31954],[22.41434,42.32708],[22.37448532242856,42.31167779867822],[22.30267,42.35042],[22.30424,42.36933],[22.29475,42.37969],[22.25538,42.37091],[22.22775,42.34379],[22.19423,42.34566],[22.16588,42.32344],[22.14464,42.3276],[22.13109,42.31628],[22.11806,42.32113],[22.08287,42.30917],[22.04809,42.31377],[22.02898,42.30719],[21.94722,42.35052],[21.92767,42.34309],[21.91948,42.31313],[21.90075,42.3083],[21.84151,42.3313],[21.81392,42.30173],[21.79029,42.30248],[21.76101,42.26664],[21.72439,42.26996],[21.69828,42.24307],[21.593702723827302,42.26729443384346],[21.59414,42.26778],[21.56891,42.31489],[21.52874,42.32809],[21.53904,42.35956],[21.57165,42.36133],[21.62161,42.37529],[21.65062,42.41269],[21.62796,42.45082],[21.67328,42.48324],[21.69354,42.50384],[21.71104,42.51374],[21.7507,42.56016],[21.74744,42.59581],[21.7622,42.62108],[21.79327,42.65239],[21.75722,42.70439],[21.67362,42.69026],[21.65457,42.6765],[21.64049,42.70111],[21.59954,42.70844],[21.59623,42.731],[21.55785,42.74007],[21.4501,42.75257],[21.3944,42.7478],[21.41079,42.76569],[21.43962,42.85002],[21.44,42.87777],[21.36957,42.87538],[21.33601,42.90788],[21.27501,42.9071],[21.23887,42.95345],[21.24778,42.97988],[21.23537,43.02034],[21.19768,43.02856],[21.17451,43.003],[21.16968,43.03015],[21.15932,43.03198],[21.15469,43.09133],[21.1401,43.1169],[21.11796,43.1147],[21.08758,43.14007],[21.06641,43.12039],[20.9933,43.14216],[20.95959,43.13149],[20.8815,43.16946],[20.84407,43.1793],[20.89273,43.2038],[20.88347,43.22407],[20.85205,43.25395],[20.81492,43.27753],[20.78992,43.26548],[20.76011,43.24765],[20.72633,43.25008],[20.69944,43.22619],[20.67435,43.21229],[20.60017,43.21273],[20.59141,43.20542],[20.60942,43.16854],[20.68801,43.10964],[20.65229,43.07283],[20.66666,43.05941],[20.65031,43.03427],[20.63644,43.01933],[20.59181,43.01883],[20.57722,43.01318],[20.54976,42.97577],[20.54564,42.96346],[20.54061,42.96817],[20.53577,42.97705],[20.51263,42.9731],[20.47834,42.93079],[20.52074,42.88578],[20.355361655482223,42.841835586751436],[20.34725,42.86968],[20.3534,42.89776],[20.34887,42.91358],[20.31323,42.92468],[20.27954,42.93747],[20.23969,42.94463],[20.21182,42.96174],[20.16472,42.97677],[20.15065,42.99489],[20.12197,42.96861],[20.05382,43.02398],[19.97287,43.08502],[19.98,43.11776],[19.92719,43.10041],[19.8961,43.10054],[19.87016,43.11704],[19.83911,43.09707],[19.84292,43.11197],[19.83905,43.11844],[19.79345,43.12634],[19.78347,43.13701],[19.78375,43.15572],[19.77135,43.16907],[19.74743,43.16306],[19.7353,43.17346],[19.69384,43.17297],[19.6705,43.18853],[19.64476,43.19066],[19.64321,43.20688],[19.6227,43.23097],[19.55103,43.25196],[19.53197,43.28333],[19.5466,43.31396],[19.47017,43.34349],[19.45171,43.38992],[19.3832,43.41445],[19.36008,43.41515],[19.33385,43.44054],[19.22986,43.48227],[19.229168414870113,43.52644088359339],[19.25406,43.5249],[19.26281,43.58748],[19.33791,43.5863],[19.36834,43.60566],[19.37645,43.60265],[19.39259,43.5534],[19.41456,43.53598],[19.42829,43.54531],[19.43138,43.55962],[19.43069,43.57803],[19.48236,43.56932],[19.50073,43.57666],[19.51382,43.58633],[19.4955,43.60146],[19.50125,43.6165],[19.53086,43.64875],[19.53369,43.6675],[19.52219,43.71491],[19.46777,43.76514],[19.42383,43.79923],[19.40117,43.80146],[19.37628,43.83688],[19.27139,43.94661],[19.24221,44.00417],[19.33173,43.98164],[19.34898,43.97935],[19.37482,43.96144],[19.39301,43.95841],[19.40495,43.96434],[19.42237,43.95785],[19.4349,43.95724],[19.44649,43.95835],[19.48443,43.95433],[19.52485,43.9547],[19.52966,43.95575],[19.53875,43.97064],[19.54974,43.97849],[19.56854,43.98349],[19.56965,43.98843],[19.56579,43.99849],[19.59137,44.00245],[19.61982,44.01328],[19.62287,44.0156],[19.62476,44.02072],[19.61566,44.03534],[19.62527,44.04694],[19.62639,44.05225],[19.59995,44.07217],[19.58777,44.07402],[19.58262,44.07137],[19.58073,44.06785],[19.57961,44.0504],[19.57266,44.04935],[19.56674,44.06243],[19.55961,44.07186],[19.54794,44.0755],[19.51163,44.08413],[19.49498,44.11631],[19.47464,44.11896],[19.4737,44.12918],[19.48425,44.13799],[19.48485,44.14545],[19.47464,44.15148],[19.46958,44.1513],[19.45172,44.14261],[19.44606,44.13535],[19.42563,44.14828],[19.41027,44.17075],[19.37937,44.18307],[19.36083,44.18522],[19.3574,44.19956],[19.36152,44.20737],[19.35662,44.21414],[19.34658,44.22011],[19.35104,44.23229],[19.34255,44.24483],[19.33147,44.25147],[19.32959,44.26942],[19.32332,44.27421],[19.31285,44.27428],[19.29972,44.27175],[19.27972,44.27821],[19.26367,44.26887],[19.24599,44.26364],[19.23328,44.26456],[19.2235,44.27194],[19.22041,44.28613],[19.21637,44.29074],[19.20736,44.2932],[19.19972,44.29283],[19.18427,44.28638],[19.17518,44.28712],[19.16024,44.30045],[19.14737,44.31267],[19.13595,44.31445],[19.13956,44.33932],[19.13158,44.3427],[19.11484,44.35829],[19.12248,44.36503],[19.12033,44.36908],[19.1102,44.37044],[19.1066,44.36867],[19.10338,44.37117],[19.10368,44.37481],[19.10765,44.3822],[19.10917,44.39408],[19.11385,44.3989],[19.13166,44.40626],[19.14857,44.41257],[19.14951,44.42728],[19.1508,44.43801],[19.14187,44.47391],[19.13484,44.4864],[19.12737,44.50973],[19.13011,44.51928],[19.13956,44.52319],[19.16247,44.52025],[19.17397,44.52399],[19.18136,44.53941],[19.19071,44.54485],[19.19629,44.55323],[19.18385,44.56485],[19.18616,44.57451],[19.21251,44.57298],[19.22067,44.57922],[19.22642,44.59163],[19.24221,44.61485],[19.25921,44.63287],[19.28461,44.66035],[19.30916,44.68965],[19.33439,44.72259],[19.34812,44.74222],[19.35156,44.7889],[19.37954,44.85417],[19.37868,44.88567],[19.36066,44.89297],[19.31414,44.91012],[19.29543,44.91218],[19.24976,44.91692],[19.17955,44.92543],[19.17097,44.92385],[19.05235,44.86633],[19.01069152739683,44.86022739469792],[18.97739,44.90997]]]}}
