{"type":"Feature","properties":{"sourceId":"sudan"},"geometry":{"type":"Polygon","coordinates":[[[39.12384,19.633],[39.62781,18.19372],[39.40519670056875,18.152937232672414],[39.27489,18.32962],[38.57304,18.02942],[38.43963,17.9033],[38.3322,17.65312],[37.53271,17.42299],[36.94134,17.07852],[36.87583,16.45851],[36.61385,15.4939],[36.62593,15.45811],[36.59782,15.44014],[36.53609,15.25713],[36.4207,15.16751],[36.51064,14.3635],[36.54659,14.25902],[36.54685189891855,14.258846635885147],[36.52542,14.2148],[36.44096,13.95972],[36.47461,13.83375],[36.24184,13.36891],[36.15223,13.0253],[36.15313,12.96947],[36.15116,12.95864],[36.14,12.95191],[36.12991,12.93346],[36.11481,12.75823],[35.68214,12.67885],[35.21052,11.94696],[35.0869,11.84652],[35.02029,11.69796],[35.07694,11.53385],[34.91455,11.23969],[34.92416,10.8913],[34.80057,10.74495],[34.58252,10.92644],[34.43561,10.78879],[34.2955,10.5711],[34.29039,10.55524],[34.27507,10.536],[34.34515,10.23722],[34.32713,10.21695],[34.3055,10.1203],[34.22636,10.03461],[34.06448,9.54523],[34.066808814292706,9.509131367124777],[33.88939,9.510694],[33.92921,9.745604],[33.97728,9.806504],[34.02534,9.976967],[33.98758,10.1514],[33.80424,10.35478],[33.52821,10.64846],[33.29613,10.76788],[33.20961,11.24643],[33.14919,11.43931],[33.18798,11.75175],[33.26488,12.17057],[33.29132,12.19742],[33.29956,12.2246],[32.76947,12.23936],[32.72793,12.23937],[32.73102,12.14607],[32.73857,11.95704],[32.0933,11.95251],[32.35611,11.69931],[32.37671,11.17032],[32.43439,11.05578],[31.94341,10.66768],[31.27321,9.808582],[30.79056,9.790266],[30.00417,10.33478],[29.50202,10.11282],[29.45575,9.799296],[29.05774,9.792068],[29.01758,10.21038],[27.80464,10.21466],[27.80592,9.655547],[27.14364,9.674405],[26.69618,9.539408],[26.25183,9.924215],[25.94421,10.40948],[25.76157,10.47161],[25.03921,10.33654],[24.85382,9.841687],[24.71512,9.852511],[24.47754,9.853864],[24.23859,9.799739],[23.73836987865519,9.69488368577806],[23.75115,9.843278],[23.35428,10.42191],[22.92605,10.95879],[22.905275557599023,10.961622233512363],[22.95181,11.09082],[22.95662,11.14741],[22.98546,11.20198],[22.99095,11.29895],[22.94209,11.42582],[22.59407,11.62534],[22.64917,12.07911],[22.4988,12.06652],[22.50584,12.18031],[22.45348,12.30529],[22.41709,12.48418],[22.47562,12.6256],[22.22054,12.75522],[22.16148,12.67786],[21.9342,12.67116],[21.86897,12.7301],[21.88888,12.93229],[22.05025,13.09821],[22.3201,13.29809],[22.23289,13.58326],[22.12166,13.79207],[22.57004,14.11127],[22.59338,14.18318],[22.46086,14.6002],[22.71973,14.67793],[22.72247,14.84392],[24.02161,15.67593],[24.02527,19.51707],[23.944937849821223,19.559952538769366],[23.94275,20.03694],[24.97561,22.02412],[24.97695706034788,22.02412231895815],[24.97742,21.9838],[32.44881,21.99272],[37.16263,21.9873],[37.149868592412815,22.0380476903734],[37.83106,22.34706],[37.90282,22.23827],[39.12384,19.633]]]}}
