{"type":"Feature","properties":{"sourceId":"swaziland"},"geometry":{"type":"Polygon","coordinates":[[[31.14813,-27.20281],[31.05972,-27.10039],[30.9811,-27.0417],[30.95089,-26.99062],[30.96977,-26.91319],[30.89664,-26.85409],[30.80841,-26.84858],[30.7988,-26.8302],[30.78575,-26.70697],[30.78637,-26.56911],[30.80017,-26.46197],[30.82832,-26.40724],[30.88703,-26.31773],[30.9557,-26.25924],[31.05869,-26.07621],[31.10882,-25.98397],[31.12581,-25.92054],[31.31541,-25.74221],[31.41597,-25.71781],[31.86893,-25.99493],[31.97588,-25.9504],[32.00369,-25.99524],[32.0103,-25.99261],[32.08866,-26.00796],[32.1072,-26.16175],[32.08076,-26.30603],[32.08145,-26.40448],[32.13698,-26.52764],[32.13544,-26.84176],[32.12248,-26.84153],[32.02412,-26.81794],[32.0014,-26.93844],[31.97772,-27.13111],[31.97511,-27.14857],[31.97811,-27.22279],[31.97676,-27.31062],[31.97841,-27.31826],[31.89001,-27.31802],[31.49437,-27.31657],[31.27293,-27.24441],[31.14813,-27.20281]]]}}
