{"type":"Feature","properties":{"sourceId":"sachsen"},"geometry":{"type":"MultiPolygon","coordinates":[[[[14.9925,51.34461],[15.04516,51.31035],[15.05078,51.23583],[15.02117,51.20425],[15.01598,51.17244],[14.99701,51.10608],[14.97836,51.06176],[14.90178,50.93087],[14.83641,50.8858],[14.833641643365345,50.87796225718066],[14.81618,50.8791],[14.78455,50.82856],[14.63244,50.86058],[14.66589,50.90496],[14.66418,50.91306],[14.65826,50.94101],[14.58106,50.92028],[14.57153,50.92659],[14.59202,50.94641],[14.60917,50.99023],[14.57248,51.01782],[14.50957,51.02561],[14.51577,51.05079],[14.45334,51.04449],[14.41664,51.02471],[14.3952,51.02921],[14.39091,51.0406],[14.36089,51.05258],[14.3423,51.04749],[14.31132,51.06426],[14.27406,51.04888],[14.25243,51.00982],[14.25369,50.98522],[14.31323,50.94942],[14.389,50.9302],[14.3728,50.90316],[14.34754,50.90526],[14.33706,50.89745],[14.29607,50.89143],[14.27177,50.89955],[14.22649,50.89023],[14.22411,50.87249],[14.04492,50.81592],[14.0055,50.82587],[13.95676,50.81923],[13.93579,50.79664],[13.89099,50.80146],[13.88156,50.77032],[13.89624,50.75023],[13.88432,50.7439],[13.86812,50.74873],[13.85573,50.7442],[13.85144,50.73184],[13.83238,50.73033],[13.80188,50.74089],[13.72086,50.73727],[13.69453,50.72357],[13.65414,50.74119],[13.59648,50.71796],[13.54453,50.72037],[13.51356,50.7077],[13.53262,50.67691],[13.4593,50.61113],[13.42172,50.62372],[13.39537,50.65637],[13.3626,50.65526],[13.36312,50.6277],[13.31531,50.60921],[13.3134,50.58471],[13.29577,50.58138],[13.28862,50.59469],[13.2667,50.60346],[13.22285,50.59197],[13.18235,50.51203],[13.14803,50.51567],[13.12754,50.52355],[13.10085,50.50748],[13.06178,50.50597],[13.04796,50.51567],[13.02365,50.51506],[13.00459,50.44592],[12.939219945287213,50.424386220440695],[12.93922,50.42439],[12.93418,50.42273],[12.82302,50.47322],[12.69625,50.42224],[12.61667,50.42072],[12.51087,50.40463],[12.39631,50.33519],[12.3615,50.29587],[12.32739,50.25007],[12.3157,50.20974],[12.32406,50.19092],[12.30928,50.18024],[12.29213,50.19519],[12.30071,50.2202],[12.28879,50.23118],[12.2621,50.24185],[12.27592,50.25434],[12.26544,50.27414],[12.21111,50.28023],[12.21445,50.30763],[12.18156,50.33076],[12.100948731678033,50.3275938412851],[12.09226,50.33346],[12.04638,50.33382],[12.01621,50.34806],[11.9972,50.35431],[11.9878,50.35365],[11.9851,50.39046],[11.94669,50.41776],[11.93553,50.42498],[11.91776,50.42596],[11.926867066224522,50.42545775324142],[11.9315,50.43455],[11.89708,50.44007],[11.89845,50.44865],[11.9533,50.45297],[11.96402,50.4787],[11.96917,50.48755],[11.93699,50.51277],[11.93149,50.52947],[11.88703,50.52118],[11.87656,50.54038],[11.89201,50.54987],[11.92944,50.55467],[11.93613,50.58411],[11.99501,50.61059],[12.02951,50.59174],[12.0266,50.57997],[12.01458,50.56841],[12.02917,50.54638],[12.06179,50.55096],[12.08015,50.55478],[12.08324,50.57681],[12.09698,50.578],[12.11449,50.56405],[12.12496,50.56536],[12.12942,50.57245],[12.14092,50.57092],[12.16101,50.57255],[12.16461,50.58781],[12.11397,50.58999],[12.11809,50.59512],[12.14882,50.60263],[12.15723,50.62682],[12.1677,50.6156],[12.18126,50.60983],[12.19328,50.61288],[12.20135,50.63259],[12.23208,50.62529],[12.26795,50.62954],[12.27121,50.63781],[12.30297,50.64924],[12.32099,50.66252],[12.32649,50.68406],[12.27276,50.69515],[12.27464,50.72696],[12.27061,50.73807],[12.23104,50.74113],[12.24083,50.76013],[12.26812,50.75872],[12.29422,50.7775],[12.28992,50.79324],[12.25851,50.79237],[12.25799,50.80355],[12.29387,50.81212],[12.35018,50.82155],[12.35292,50.83532],[12.37696,50.84736],[12.40545,50.84811],[12.41713,50.83641],[12.44493,50.84074],[12.45438,50.86469],[12.46965,50.87087],[12.46605,50.88029],[12.49111,50.89102],[12.51532,50.89156],[12.51995,50.89827],[12.65749,50.90157],[12.66106,50.92295],[12.63771,50.94675],[12.6305,50.98588],[12.6099,51.00015],[12.54879,51.00382],[12.54776,51.02391],[12.51549,51.03298],[12.5124,51.06578],[12.45953,51.08864],[12.42725,51.08239],[12.37688,51.08842],[12.35996,51.09878],[12.33627,51.10611],[12.30194,51.10223],[12.279409945165487,51.08944867925174],[12.22229,51.10449],[12.21851,51.12335],[12.23585,51.13143],[12.19156,51.1408],[12.20054,51.17775],[12.17234,51.1788],[12.17045,51.18957],[12.19481,51.21526],[12.18607,51.25547],[12.17045,51.25633],[12.16332,51.26669],[12.16607,51.28844],[12.15646,51.29193],[12.14496,51.32031],[12.19002,51.33581],[12.18075,51.36814],[12.17431,51.37559],[12.17053,51.38512],[12.17199,51.41056],[12.18186,51.42881],[12.15251,51.43352],[12.14496,51.46481],[12.1689,51.47187],[12.17388,51.48293],[12.20178,51.49154],[12.20092,51.50014],[12.18847,51.50442],[12.18967,51.53112],[12.21044,51.54383],[12.23104,51.55381],[12.23001,51.56133],[12.24375,51.56843],[12.3016,51.568],[12.31705,51.57851],[12.33653,51.58923],[12.41901,51.58678],[12.43026,51.60794],[12.44519,51.6121],[12.51051,51.60954],[12.55377,51.61071],[12.57995,51.62766],[12.62698,51.62958],[12.6426,51.62324],[12.66312,51.63416],[12.66312,51.64119],[12.68148,51.6634],[12.70466,51.66553],[12.74448,51.65989],[12.76628,51.64998],[12.78929,51.66766],[12.82774,51.68373],[12.84645,51.68735],[12.89829,51.66638],[12.90018,51.6503],[12.96472,51.65435],[12.96095,51.66872],[12.99408,51.67085],[13.01691,51.66755],[13.03253,51.64263],[13.05347,51.65009],[13.0854,51.61759],[13.1218,51.62377],[13.16025,51.60107],[13.18909,51.55776],[13.21209,51.52402],[13.20196,51.4863],[13.18548,51.47433],[13.20591,51.45978],[13.20642,51.44727],[13.20231,51.43561],[13.22153,51.40038],[13.28041,51.40285],[13.28127,51.41109],[13.31989,51.43999],[13.36727,51.43892],[13.38478,51.44877],[13.40178,51.45679],[13.42855,51.43561],[13.46512,51.42929],[13.49413,51.40863],[13.52297,51.40595],[13.52881,51.38346],[13.57189,51.38839],[13.58974,51.3871],[13.6064,51.37178],[13.66751,51.37735],[13.69085,51.37682],[13.72501,51.36696],[13.74321,51.36385],[13.75196,51.37349],[13.81119,51.37446],[13.82921,51.38496],[13.90543,51.38517],[13.95298,51.39953],[13.97358,51.39621],[13.97427,51.37703],[13.99658,51.37478],[13.99281,51.38989],[14.01341,51.4067],[14.03641,51.41987],[14.03212,51.43603],[14.05083,51.44481],[14.02954,51.47358],[14.03744,51.48224],[14.07263,51.47443],[14.07023,51.49368],[14.08911,51.49987],[14.09511,51.5144],[14.11124,51.52611],[14.137,51.54601],[14.22232,51.5411],[14.26832,51.53513],[14.33166,51.52039],[14.38385,51.54367],[14.44204,51.54708],[14.44513,51.55893],[14.49629,51.56106],[14.54195,51.56341],[14.53886,51.57622],[14.56856,51.58475],[14.58263,51.58294],[14.5998,51.57462],[14.60684,51.56608],[14.61147,51.55263],[14.63877,51.55648],[14.6767,51.55776],[14.69095,51.57739],[14.69147,51.59819],[14.71035,51.60021],[14.728816952842529,51.596683711789],[14.69587,51.56371],[14.71872,51.52012],[14.94035,51.45513],[14.95089,51.35531],[14.95566,51.3496],[14.992026077081048,51.348977405420314],[14.9925,51.34461]]],[[[14.649150776287955,50.895295193901774],[14.622365897596517,50.86363499737834],[14.63383,50.88748],[14.649150776287955,50.895295193901774]]],[[[12.939662264331485,50.40688547779791],[12.93897,50.40712],[12.939004161493754,50.409479875988524],[12.939662264331485,50.40688547779791]]]]}}
