{"type":"Feature","properties":{"sourceId":"switzerland"},"geometry":{"type":"Polygon","coordinates":[[[8.994198,45.83209],[8.986645,45.83669],[8.968964,45.82988],[8.951025,45.84154],[8.930597,45.83311],[8.910245,45.82821],[8.912056,45.84451],[8.934444,45.86567],[8.927082,45.88968],[8.920383,45.89525],[8.920555,45.90446],[8.904762,45.91641],[8.888969,45.93348],[8.894119,45.94506],[8.893829,45.95609],[8.877854,45.95554],[8.874378,45.95843],[8.867683,45.95995],[8.858457,45.96663],[8.844852,45.97528],[8.830543,45.98497],[8.78402,45.98766],[8.790281,46.00796],[8.850854,46.07359],[8.801815,46.09266],[8.784613,46.09187],[8.758843,46.099],[8.743103,46.11908],[8.715844,46.09596],[8.683662,46.10073],[8.65551,46.11073],[8.647466,46.121],[8.608646,46.11966],[8.605041,46.13262],[8.58839,46.14381],[8.594055,46.15189],[8.572699,46.16316],[8.551998,46.18589],[8.539598,46.19653],[8.526249,46.2156],[8.464794,46.23187],[8.463768,46.24284],[8.442086,46.24898],[8.440966,46.25602],[8.452715,46.26615],[8.423252,46.29642],[8.44162,46.32097],[8.461189,46.33519],[8.460117,46.35435],[8.463421,46.3801],[8.456898,46.38685],[8.463592,46.41407],[8.453358,46.42235],[8.446124,46.46165],[8.409321,46.45664],[8.39498,46.45022],[8.366422,46.44917],[8.339306,46.42978],[8.295392,46.4099],[8.31921,46.40465],[8.322723,46.38665],[8.315171,46.3753],[8.269609,46.35362],[8.264953,46.34402],[8.234367,46.3344],[8.215202,46.30828],[8.205724,46.30257],[8.16627,46.29319],[8.139924,46.29972],[8.085318,46.26056],[8.112681,46.25286],[8.118654,46.24021],[8.142656,46.22856],[8.157184,46.19413],[8.169682,46.1828],[8.168449,46.17613],[8.154069,46.16256],[8.157028,46.14516],[8.145518,46.13486],[8.125478,46.13089],[8.109054,46.10719],[8.036897,46.09853],[8.026487,46.07073],[8.038624,46.04368],[8.020875,46.02554],[8.01539,46.01072],[7.992566,45.99281],[7.917933,45.99383],[7.885976,45.9697],[7.87983,45.92597],[7.863667,45.91372],[7.799129,45.91421],[7.749536,45.93763],[7.736803,45.92079],[7.720654,45.92168],[7.704959,45.93312],[7.707889,45.94787],[7.681002,45.95544],[7.664172,45.97348],[7.640698,45.96828],[7.578641,45.96809],[7.577377,45.9847],[7.549411,45.98323],[7.550099,45.9626],[7.542351,45.95184],[7.501282,45.95596],[7.475733,45.94714],[7.476746,45.93392],[7.446415,45.92959],[7.425852,45.91153],[7.387613,45.89465],[7.323472,45.90724],[7.292965,45.91802],[7.270316,45.88654],[7.21893,45.88623],[7.203583,45.86203],[7.192356,45.8567],[7.165681,45.86152],[7.155891,45.87623],[7.137706,45.87037],[7.118827,45.85658],[7.095966,45.85654],[7.088965,45.87097],[7.033597,45.92172],[7.032134,45.94941],[6.996746,45.96905],[7.018507,45.97878],[6.981983,46.00424],[6.960655,46.02862],[6.948834,46.04823],[6.933659,46.05319],[6.929143,46.06334],[6.912852,46.04912],[6.892236,46.03924],[6.865885,46.04772],[6.875309,46.06776],[6.887118,46.075],[6.879714,46.09589],[6.893169,46.11953],[6.849565,46.12388],[6.838999,46.13075],[6.814317,46.12625],[6.793889,46.13741],[6.787423,46.15311],[6.788943,46.1633],[6.808813,46.18255],[6.801101,46.2059],[6.819692,46.23346],[6.858565,46.26728],[6.856214,46.28872],[6.847315,46.28842],[6.827882,46.30007],[6.798366,46.31789],[6.783457,46.33075],[6.76778,46.35444],[6.772556,46.36553],[6.791439,46.3692],[6.803347,46.3812],[6.800108,46.38625],[6.803026,46.3946],[6.811611,46.42529],[6.423404,46.41197],[6.260833,46.35759],[6.22324,46.31356],[6.24959,46.30289],[6.25474,46.28866],[6.240406,46.28088],[6.250877,46.26374],[6.269159,46.25015],[6.298412,46.26895],[6.297269,46.25763],[6.311045,46.25691],[6.31216,46.24406],[6.296926,46.22569],[6.277742,46.21539],[6.246586,46.20354],[6.23487,46.20556],[6.216674,46.19504],[6.199293,46.1831],[6.188307,46.17823],[6.19041,46.1664],[6.176848,46.15802],[6.159553,46.15237],[6.145906,46.14437],[6.136808,46.1412],[6.128483,46.13917],[6.09724,46.14279],[6.090803,46.15076],[6.075182,46.14803],[6.052952,46.14987],[6.048574,46.14077],[6.0357,46.13274],[6.022139,46.14018],[5.989437,46.14166],[5.97476,46.13036],[5.955706,46.12733],[5.954418,46.13251],[5.964374,46.13899],[5.9624,46.14455],[5.980511,46.17478],[5.987549,46.17415],[5.992098,46.18328],[5.961885,46.19733],[5.972443,46.21672],[5.98403,46.21851],[5.991368,46.22376],[6.000724,46.22257],[6.011324,46.23163],[6.033059,46.2415],[6.043543,46.23703],[6.047502,46.2411],[6.063037,46.24712],[6.069689,46.24347],[6.087112,46.24908],[6.101575,46.23917],[6.119519,46.25151],[6.115142,46.26298],[6.100666,46.27717],[6.099477,46.28581],[6.117,46.29855],[6.117187,46.31399],[6.133261,46.33163],[6.135798,46.34083],[6.153852,46.35109],[6.166257,46.36728],[6.15799,46.37493],[6.14861,46.37473],[6.11631,46.39484],[6.104739,46.39677],[6.095271,46.40657],[6.061838171864117,46.41514627694606],[6.0828,46.41596],[6.07533,46.41927],[6.166862,46.54304],[6.122464,46.5755],[6.480897,46.7811],[6.447514,46.80017],[6.477536,46.87973],[6.450383,46.92278],[6.477084,46.94731],[6.636254,46.99539],[6.724583,47.05046],[6.762511,47.10584],[6.863693,47.15944],[6.859946,47.16892],[6.959622,47.24318],[6.955017,47.26808],[7.071103,47.33632],[7.045077,47.37892],[6.886725,47.35942],[6.923513,47.39414],[6.996815,47.44629],[7.008271,47.45709],[6.99012,47.49177],[7.017036,47.50156],[7.073582,47.48623],[7.123379,47.49519],[7.1276969163511685,47.494364530978416],[7.127697,47.49436],[7.180611,47.48424],[7.166175,47.44156],[7.244453,47.41798],[7.324276,47.43761],[7.399463,47.42727],[7.458,47.46802],[7.490101,47.48136],[7.512245,47.49633],[7.51276,47.5099],[7.52409,47.51361],[7.533359,47.52856],[7.525206,47.53743],[7.503405,47.5307],[7.499885,47.53772],[7.518425,47.54467],[7.537093,47.55492],[7.559186,47.5645],[7.568657,47.57537],[7.586918,47.57479],[7.591272471402777,47.584289550562005],[7.613525,47.55712],[7.630434,47.56141],[7.647343,47.5471],[7.668114,47.53325],[7.682018,47.53088],[7.696524,47.53076],[7.71266,47.5365],[7.720127,47.5398],[7.750683,47.54247],[7.760467,47.54658],[7.789478,47.55284],[7.797804,47.55608],[7.802095,47.56222],[7.815227,47.5679],[7.819004,47.58272],[7.846298,47.57959],[7.865181,47.58579],[7.890587,47.58521],[7.909298,47.56839],[7.905564,47.56245],[7.905092,47.55883],[7.90904,47.55084],[7.916465,47.54638],[7.931356,47.54568],[7.940712,47.5429],[7.947578,47.5427],[7.951999,47.54615],[7.954016,47.55359],[7.960839,47.55692],[7.97174,47.55385],[7.995686,47.55507],[8.012381,47.55035],[8.021607,47.54901],[8.04976,47.55507],[8.060017,47.56251],[8.068085,47.56309],[8.078213,47.55718],[8.085852,47.55573],[8.094091,47.55759],[8.103018,47.56286],[8.107052,47.57774],[8.137178,47.58261],[8.167906,47.59331],[8.19005,47.60564],[8.200092,47.61803],[8.210392,47.61947],[8.217945,47.61606],[8.221292,47.60634],[8.225756,47.60333],[8.232279,47.60529],[8.238287,47.61068],[8.257255,47.61351],[8.262062,47.60802],[8.294935,47.60576],[8.293133,47.59551],[8.293991,47.59088],[8.298712,47.58654],[8.309784,47.58203],[8.319139,47.57328],[8.326692,47.56992],[8.357334,47.56882],[8.385658,47.56344],[8.39776,47.5749],[8.431063,47.56494],[8.464451,47.57091],[8.486938,47.57595],[8.497283,47.58065],[8.489851,47.59139],[8.468036,47.58595],[8.46111,47.59874],[8.484145,47.6108],[8.507736,47.61413],[8.528154,47.62756],[8.56234,47.61117],[8.555859,47.59672],[8.584337,47.59208],[8.612806,47.61327],[8.602636,47.63262],[8.624695,47.63388],[8.631713,47.65233],[8.609074,47.67324],[8.580894,47.67542],[8.570331,47.67023],[8.556695,47.67164],[8.537995,47.67185],[8.517506,47.6536],[8.496737,47.65153],[8.474184,47.65258],[8.469661,47.66016],[8.440344,47.6649],[8.415918,47.6743],[8.427303,47.68562],[8.414711,47.69991],[8.422688,47.70807],[8.449293,47.71663],[8.462303,47.72909],[8.457423,47.74126],[8.489374,47.7688],[8.519373,47.76965],[8.529788,47.77687],[8.56315,47.77654],[8.578471,47.78102],[8.576105,47.79015],[8.563882,47.79288],[8.567997,47.79977],[8.593503,47.79744],[8.609139,47.80029],[8.616484,47.79603],[8.613514,47.78451],[8.61918,47.76216],[8.631322,47.75749],[8.646752,47.76462],[8.654287,47.77361],[8.650537,47.79565],[8.657985,47.78994],[8.679226,47.78419],[8.682725,47.77008],[8.688705,47.75314],[8.720028,47.76273],[8.730326,47.75527],[8.713053,47.74125],[8.707874,47.72523],[8.722521,47.71653],[8.661606,47.71454],[8.662608,47.70457],[8.669993,47.7003],[8.656862,47.6911],[8.661989,47.68547],[8.671149,47.6829],[8.689367,47.69318],[8.711398,47.68777],[8.725752,47.6917],[8.753301,47.68997],[8.776356,47.67892],[8.796867,47.67232],[8.812951,47.6959],[8.802318,47.70121],[8.77549,47.71473],[8.785749,47.72516],[8.801323,47.72681],[8.818155,47.71242],[8.849927,47.70233],[8.849493,47.68089],[8.872349,47.66971],[8.874739,47.6545],[8.882626,47.65327],[8.896961,47.64593],[8.941273,47.65569],[8.980785,47.6705],[9.031386,47.6834],[9.083404,47.67636],[9.131947,47.66578],[9.139468,47.66367],[9.149401,47.66713],[9.155548,47.666],[9.170285,47.65474],[9.175913,47.65379],[9.186843,47.65697],[9.202392,47.65489],[9.246373,47.657],[9.246374740844331,47.65700438151698],[9.257166,47.65752],[9.511991,47.53246],[9.512461125707915,47.53246243656082],[9.512461,47.53246],[9.537032173545128,47.532589783037345],[9.566016,47.53274],[9.566018249379864,47.53274288524696],[9.567628821061204,47.532751392161956],[9.565311,47.49657],[9.583522,47.48582],[9.59775,47.46532],[9.609656,47.47366],[9.623248,47.46031],[9.66071,47.45464],[9.661527,47.44702],[9.647669,47.434],[9.654854,47.40735],[9.674973,47.39439],[9.676794,47.38336],[9.662989,47.368],[9.624784,47.36253],[9.607655,47.34935],[9.588454,47.31299],[9.558091,47.29574],[9.549161,47.27871],[9.533489,47.2695],[9.53346387758865,47.269199906642534],[9.530691,47.27128],[9.529704,47.26983],[9.529438,47.2627],[9.519851,47.24432],[9.504108,47.22558],[9.501031,47.22052],[9.49899,47.21165],[9.48909,47.19671],[9.485144,47.18151],[9.4907,47.16261],[9.499135,47.14939],[9.506635,47.14197],[9.51101,47.13221],[9.518168,47.10537],[9.518627,47.09672],[9.514985,47.08819],[9.51312,47.0862],[9.491961,47.07447],[9.473739,47.067],[9.471212,47.06446],[9.471078,47.06148],[9.475302,47.05125],[9.477267,47.05154],[9.477409,47.05409],[9.481289,47.05538],[9.481322,47.05213],[9.483887,47.04876],[9.485814,47.04839],[9.491666,47.0556],[9.499674,47.05347],[9.500472,47.05613],[9.512244,47.05614],[9.514531,47.05676],[9.51694,47.05946],[9.539684,47.06433],[9.54844,47.06045],[9.551612,47.05784],[9.553739,47.05024],[9.555079,47.04956],[9.556629,47.04788],[9.559059,47.04774],[9.573111,47.05202],[9.58224,47.05201],[9.591957,47.05647],[9.600089,47.05835],[9.603539,47.06104],[9.60738,47.06015],[9.61013496384831,47.06237505640115],[9.633085,47.05495],[9.64473,47.06323],[9.681312,47.06588],[9.689906,47.05877],[9.708678,47.05658],[9.719523,47.04726],[9.742197,47.04619],[9.749419,47.04044],[9.786122,47.04206],[9.837007,47.01626],[9.859677,47.02664],[9.877088,47.02473],[9.883816,47.0179],[9.875096,47.01069],[9.891027,47.00331],[9.89546,46.99083],[9.875189,46.96415],[9.881644,46.95827],[9.878977,46.94966],[9.882657,46.93803],[9.93835,46.91674],[9.978544,46.91928],[9.991468,46.90596],[10.00514,46.90246],[10.01961,46.9051],[10.05426,46.87927],[10.05562,46.86524],[10.08899,46.86447],[10.10578,46.84444],[10.12249,46.85148],[10.16782,46.85372],[10.1937,46.86929],[10.22735,46.86915],[10.2312,46.88394],[10.22274,46.89688],[10.23839,46.91944],[10.23887,46.93377],[10.29571,46.92388],[10.31344,46.92828],[10.30396,46.93783],[10.30451,46.94855],[10.30823,46.95325],[10.32523,46.9567],[10.32754,46.96789],[10.34378,46.99153],[10.35474,46.99545],[10.37042,46.99375],[10.38399,47.00289],[10.39957,46.99995],[10.4289,46.97732],[10.42816,46.95967],[10.4566,46.9558],[10.49194,46.93876],[10.48881,46.91407],[10.46952,46.88491],[10.47398,46.87276],[10.47255,46.84745],[10.46187,46.82918],[10.46179,46.81594],[10.45114,46.79986],[10.43267,46.79491],[10.42946,46.7901],[10.44563,46.77341],[10.44651,46.75394],[10.40636,46.73328],[10.42164,46.72056],[10.42138,46.71411],[10.41622,46.70557],[10.40559,46.70317],[10.39032,46.68178],[10.40549,46.6399],[10.44758,46.64491],[10.49584,46.61746],[10.48832,46.60473],[10.48952,46.58571],[10.47879,46.56629],[10.48134,46.55724],[10.47478,46.54132],[10.46362,46.539],[10.45263,46.52713],[10.41792,46.54817],[10.39682,46.54102],[10.35344,46.55247],[10.33852,46.5399],[10.32572,46.5484],[10.31211,46.54387],[10.29548,46.54713],[10.28514,46.56782],[10.26869,46.57435],[10.25404,46.56851],[10.24398,46.57336],[10.23746,46.59292],[10.25406,46.61086],[10.23711,46.63135],[10.22607,46.62663],[10.21568,46.61448],[10.18916,46.62247],[10.12817,46.60229],[10.10428,46.60773],[10.1003,46.59453],[10.10306,46.58087],[10.09672,46.57456],[10.08425,46.57249],[10.08787,46.56562],[10.07421,46.55703],[10.07015,46.54818],[10.04691,46.53911],[10.05612,46.53297],[10.05679,46.51879],[10.05391,46.51153],[10.04582,46.50749],[10.05178,46.49968],[10.04579,46.47977],[10.05386,46.47383],[10.05715,46.4642],[10.04389,46.44501],[10.05792,46.44331],[10.06339,46.42981],[10.07762,46.43119],[10.08316,46.42464],[10.09853,46.42442],[10.10689,46.43118],[10.11559,46.42884],[10.12922,46.43484],[10.14446,46.43101],[10.15135,46.41673],[10.16197,46.41813],[10.16856,46.4087],[10.16418,46.38567],[10.1428,46.38299],[10.13077,46.37618],[10.13179,46.35943],[10.11175,46.34952],[10.10817,46.33705],[10.11902,46.3161],[10.13999,46.3075],[10.14242,46.30096],[10.15699,46.29407],[10.17941,46.25899],[10.14773,46.22838],[10.13325,46.2222],[10.09469,46.2256],[10.07031,46.21418],[10.04204,46.22736],[10.04199,46.23264],[10.05124,46.23772],[10.05715,46.24997],[10.05323,46.26388],[9.993526,46.283],[9.988696,46.29607],[9.996499,46.3025],[9.996337,46.3109],[9.977296,46.32287],[9.992149,46.34932],[9.98391,46.34908],[9.962863,46.36131],[9.952891,46.37625],[9.935632,46.37203],[9.932814,46.36561],[9.925194,46.363],[9.906541,46.37753],[9.869326,46.35955],[9.834166,46.35794],[9.821065,46.3478],[9.777525,46.3319],[9.737432,46.34756],[9.727196,46.34089],[9.729796,46.33139],[9.720634,46.32408],[9.728976,46.32017],[9.727222,46.30883],[9.715754,46.29086],[9.710104,46.28905],[9.688016,46.29064],[9.675687,46.29948],[9.670548,46.29348],[9.634027,46.28322],[9.617791,46.28462],[9.608367,46.29133],[9.578475,46.29228],[9.557763,46.30348],[9.548402,46.29966],[9.516129,46.32519],[9.494331,46.36207],[9.458488,46.37477],[9.463587,46.39664],[9.45144,46.42054],[9.457177,46.44301],[9.456353,46.46422],[9.462119,46.46902],[9.460635,46.47741],[9.448212,46.47736],[9.446125,46.48434],[9.458001,46.4876],[9.45818,46.50447],[9.436941,46.49582],[9.428244,46.48815],[9.426506,46.47422],[9.409544,46.46382],[9.388385,46.47051],[9.382465,46.47981],[9.374412,46.48244],[9.365526,46.49326],[9.370222,46.50165],[9.363269,46.50613],[9.355661,46.5013],[9.311349,46.50104],[9.284334,46.49389],[9.277932,46.48275],[9.276819,46.46671],[9.280879,46.46019],[9.267423,46.44879],[9.252829,46.4464],[9.250948,46.4356],[9.283557,46.41444],[9.285434,46.40438],[9.27962,46.39443],[9.287417,46.3854],[9.280019,46.36952],[9.284388,46.3607],[9.298813,46.35713],[9.302889,46.34309],[9.295225,46.33606],[9.302878,46.32617],[9.297138,46.31558],[9.285381,46.30909],[9.287026,46.29508],[9.262438,46.27683],[9.255164,46.26546],[9.251019,46.23241],[9.224499,46.22661],[9.221,46.21232],[9.204479,46.20606],[9.197359,46.17826],[9.185391,46.16798],[9.162664,46.16803],[9.158572,46.15975],[9.136728,46.15092],[9.122415,46.13204],[9.07627,46.11663],[9.092628,46.08737],[9.081595,46.07398],[9.078476,46.06164],[9.050129,46.05945],[9.021443,46.04873],[9.012299,46.0357],[9.012167,46.02862],[9.0252,46.01803],[9.031479,45.99247],[9.014172,45.98492],[9.009438,45.97767],[8.998826,45.97716],[8.996138,45.96899],[9.016357,45.9622],[9.020121,45.94896],[9.016799,45.94369],[9.024888,45.93935],[9.023447,45.93206],[9.061309,45.92347],[9.06245,45.91818],[9.078418,45.91356],[9.089899,45.90339],[9.091272,45.89736],[9.078913,45.88242],[9.067583,45.87459],[9.05797,45.87334],[9.053078,45.85158],[9.040675,45.84396],[9.038701,45.83565],[9.035826,45.82001],[9.016428,45.81642],[8.99085,45.82114],[8.994198,45.83209]]]}}
