{"type":"Feature","properties":{"sourceId":"southern-zone"},"geometry":{"type":"Polygon","coordinates":[[[80.13344571319782,10.067668148172952],[80.06545,10.07153],[79.65047,9.931044],[79.36597,9.551513],[79.48247,9.422493],[79.44823,9.148405],[79.36076,8.970482],[79.3430014092233,8.670284494644541],[78.39183,7.498524],[74.5,7.5064287876568585],[74.5,7.69],[72.07698395050348,7.69],[70.2459200338052,14.389290004386362],[74.08218,14.88706],[74.16286,14.90663],[74.20338,14.92123],[74.25968,14.95739],[74.30843,15.04195],[74.34757,15.28849],[74.33315,15.3706],[74.29298,15.41364],[74.29333,15.53474],[74.25865,15.66006],[74.14364,15.71989],[74.32217,15.74963],[74.34792,15.7536],[74.39083,15.79258],[74.41555,15.85633],[74.48765,16.04746],[74.49898,16.10585],[74.52095,16.20215],[74.52164,16.23907],[74.47907,16.2539],[74.35478,16.31157],[74.36302,16.36396],[74.37332,16.40249],[74.34071,16.45881],[74.32491,16.54275],[74.38843,16.51675],[74.4128,16.57598],[74.50687,16.6158],[74.54773,16.56414],[74.56867,16.54735],[74.59167,16.55098],[74.63699,16.57204],[74.6933,16.60428],[74.71081,16.70888],[74.73724,16.71249],[74.84951,16.75688],[74.92744,16.76378],[74.96761,16.87913],[74.97139,16.92578],[75.02392,16.92282],[75.13069,16.87289],[75.17704,16.8397],[75.23438,16.83708],[75.29926,16.87946],[75.29343,16.94975],[75.48809,16.94121],[75.56911,16.96289],[75.63915,16.95172],[75.68207,16.94975],[75.68584,17.08304],[75.66765,17.27525],[75.61993,17.42108],[75.69202,17.40175],[75.79811,17.3608],[75.92892,17.3136],[76.17096,17.29689],[76.38828,17.3077],[76.42261,17.3549],[76.36631,17.58512],[76.42502,17.60018],[76.49746,17.65645],[76.5699,17.69833],[76.69281,17.67019],[76.73676,17.73266],[76.80405,17.82649],[76.92696,17.91047],[76.96266,18.04012],[76.97914,18.15075],[77.08969,18.14063],[77.12849,18.14846],[77.16042,18.21468],[77.21672,18.2825],[77.25895,18.37473],[77.32796,18.44151],[77.36813,18.39981],[77.38907,18.36919],[77.35062,18.32031],[77.35542,18.30564],[77.421,18.29651],[77.44915,18.25022],[77.55592,18.28315],[77.57996,18.30271],[77.56794,18.33628],[77.56485,18.42685],[77.60124,18.43988],[77.61498,18.49035],[77.61429,18.53821],[77.65686,18.52584],[77.74441,18.55058],[77.76398,18.58736],[77.75745,18.67227],[77.79213,18.67584],[77.85152,18.77047],[77.85736,18.79744],[77.94422,18.81564],[77.96448,18.85204],[77.91298,18.87608],[77.89307,18.91213],[77.86629,18.95175],[77.82577,18.98357],[77.78183,19.01084],[77.85942,19.08613],[77.91092,19.25346],[77.92259,19.28781],[78.05168,19.23272],[78.13614,19.21975],[78.18764,19.23336],[78.23502,19.41188],[78.31398,19.44005],[78.37921,19.7764],[78.37749,19.84035],[78.42007,19.81452],[78.48942,19.78673],[78.57903,19.81129],[78.70708,19.76153],[78.80218,19.75119],[78.84716,19.65229],[78.94741,19.64873],[78.93162,19.56141],[78.93299,19.54135],[79.03599,19.53779],[79.10397,19.52032],[79.1795,19.45235],[79.22859,19.46368],[79.25949,19.58146],[79.31168,19.56044],[79.46651,19.49928],[79.60419,19.49993],[79.74632,19.5944],[79.77447,19.58729],[79.85035,19.50867],[79.91283,19.48342],[79.96021,19.40508],[79.94133,19.29494],[79.85172,19.11825],[79.8452,19.09067],[79.85927,19.03389],[79.90219,18.82019],[79.95266,18.75974],[80.10407,18.67259],[80.2657817955515,18.6843280654981],[80.32379,18.59744],[80.354,18.57727],[80.41786,18.5994],[80.49408,18.60395],[80.73578,18.1589],[80.84495,18.14063],[80.92667,18.10605],[80.99808,17.78334],[81.05164,17.77092],[81.16562,17.81865],[81.39153,17.77681],[81.39621074264623,17.783493778894385],[81.48972,17.801],[81.62292,17.81472],[81.72317,17.86636],[81.90376,17.96828],[81.96968,17.99506],[82.04658,18.04273],[82.0895,18.05546],[82.17808,18.00812],[82.25876,17.98069],[82.34871,18.04926],[82.38441,18.16901],[82.33669,18.19804],[82.4033,18.29651],[82.39712,18.42685],[82.47608,18.52682],[82.51522,18.50045],[82.50973,18.46561],[82.53548,18.39981],[82.59144,18.3731],[82.5753,18.31509],[82.58182,18.27141],[82.63367,18.22772],[82.66079,18.24696],[82.66045,18.28934],[82.75005,18.31803],[82.78336,18.33888],[82.7964,18.36202],[82.81185,18.40535],[82.79503,18.42587],[82.80842,18.4389],[82.84996,18.4161],[82.88532,18.4148],[82.8915,18.37473],[82.92549,18.35941],[82.96429,18.35257],[83.0666,18.3757],[83.092,18.39949],[83.05492,18.46365],[83.08994,18.51412],[83.10985,18.55579],[83.03364,18.63876],[83.1435,18.76559],[83.21148,18.72267],[83.28117,18.75909],[83.41713,18.83124],[83.42091,18.87608],[83.44872,18.94396],[83.4724,18.95565],[83.54107,19.00565],[83.63617,19.09976],[83.71239,18.98617],[83.74741,18.91928],[83.78346,18.89849],[83.79822,18.91083],[83.83358,18.87965],[83.8765,18.81174],[83.94894,18.79842],[84.0176,18.80297],[84.06704,18.75876],[84.0945,18.74836],[84.1333,18.75389],[84.19407,18.77502],[84.25484,18.77762],[84.32316,18.78184],[84.36848,18.83124],[84.41482,18.89394],[84.44366,18.91376],[84.45843,18.98],[84.48177,18.98747],[84.4931,19.01668],[84.54563,19.04946],[84.56966,19.05693],[84.5779,19.02772],[84.59679,19.01409],[84.66579,19.06309],[84.67609,19.07672],[84.66545,19.09521],[84.65103,19.10008],[84.61361,19.11241],[84.61395,19.12246],[84.66957,19.12603],[84.67609,19.13674],[84.67815,19.15328],[84.69807,19.15295],[84.69326,19.12473],[84.69772,19.11598],[84.76398,19.06796],[85.33081,18.85691],[85.45235546993256,18.9123926974457],[85.51753,18.89593],[90.47693,16.94451],[91.02806459953274,16.314839187596924],[90.65133,15.05328],[92.91535,13.87842],[93.40215,13.69881],[94.317355539154,13.798740725022855],[95.51383,13.33453],[95.50846,13.14363],[94.4122758413467,6.181733330956863],[94.16453383499923,6.03513043186512],[92.70261,6.751918],[81.29602,10.25965],[80.32412,10.81104],[80.13344571319782,10.067668148172952]]]}}
