{"type":"Feature","properties":{"sourceId":"sierra-leone"},"geometry":{"type":"Polygon","coordinates":[[[-12.30061,5.391619],[-14.76451,8.558559],[-13.33294,9.052939],[-13.25192,9.074976],[-13.20128,9.098876],[-13.18119,9.096842],[-13.16591,9.088876],[-13.09553,9.049379],[-13.07613,9.08379],[-13.00936,9.115148],[-12.98464,9.172093],[-12.9558,9.180397],[-12.97314,9.225294],[-12.95683,9.282738],[-12.94344,9.294597],[-12.87889,9.295952],[-12.77453,9.348633],[-12.75616,9.351682],[-12.76028,9.400291],[-12.69333,9.421798],[-12.65923,9.52238],[-12.65831,9.543537],[-12.61917,9.613614],[-12.59308,9.662016],[-12.56819,9.705842],[-12.50193,9.814116],[-12.49832,9.846929],[-12.46639,9.861136],[-12.4391,9.882783],[-12.34211,9.906965],[-12.21989,9.937064],[-12.20615,9.911362],[-12.12376,9.880246],[-11.92051,9.944166],[-11.89648,10.00571],[-11.49221,10.0014],[-11.20206,10.00412],[-11.15779,9.967376],[-11.14906,9.878217],[-11.09379,9.864687],[-11.04023,9.82511],[-10.97086,9.731561],[-10.91217,9.655924],[-10.89844,9.61666],[-10.86519,9.582844],[-10.85248,9.537993],[-10.81226,9.518143],[-10.83342,9.452835],[-10.78564,9.420734],[-10.74708,9.398853],[-10.64266,9.304422],[-10.65124,9.198021],[-10.69588,9.177008],[-10.71648,9.087181],[-10.66567,9.09091],[-10.56644,9.060059],[-10.58191,8.995572],[-10.54516,8.8196],[-10.51095,8.785619],[-10.4528,8.669615],[-10.48782,8.620739],[-10.54104,8.596977],[-10.59769,8.537566],[-10.63133,8.44996],[-10.63236,8.388149],[-10.66189,8.362674],[-10.58601,8.344671],[-10.53623,8.321571],[-10.41126,8.454375],[-10.39082,8.500172],[-10.33762,8.500132],[-10.3226,8.509724],[-10.2558,8.493556],[-10.28069,8.320583],[-10.30964,8.268161],[-10.2858,8.211625],[-10.2939,8.184453],[-10.35285,8.136688],[-10.49285,8.127657],[-10.56852,8.040415],[-10.59501,8.030947],[-10.59654,7.767449],[-10.69568,7.724867],[-10.7792,7.618104],[-10.78191,7.594809],[-10.83896,7.540369],[-10.91873,7.487731],[-10.94142,7.494876],[-11.05073,7.39768],[-11.09583,7.379504],[-11.17868,7.25503],[-11.26802,7.222596],[-11.33745,7.134035],[-11.32414,7.073569],[-11.36452,7.069235],[-11.36048,7.017537],[-11.41552,6.961049],[-11.41003,6.933603],[-11.46939,6.91764],[-11.50107,6.918249],[-12.30061,5.391619]]]}}
