{"type":"Feature","properties":{"sourceId":"somerset"},"geometry":{"type":"Polygon","coordinates":[[[-2.970845,50.83354],[-2.970562,50.84007],[-2.973652,50.8443],[-2.973544,50.84924],[-2.977685,50.85339],[-2.990627,50.85432],[-2.99522,50.85312],[-2.998596,50.84974],[-3.011321,50.85483],[-3.037661,50.85018],[-3.036336,50.86202],[-3.038203,50.86557],[-3.040593,50.86728],[-3.044252,50.86695],[-3.047329,50.87008],[-3.05466,50.872],[-3.056013,50.87386],[-3.054064,50.88145],[-3.056847,50.89216],[-3.052905,50.90287],[-3.054635,50.90635],[-3.103633,50.90274],[-3.121477,50.89694],[-3.127445,50.89835],[-3.1394,50.89023],[-3.142181,50.89034],[-3.143266,50.88954],[-3.143772,50.8904],[-3.148435,50.89059],[-3.153899,50.893],[-3.157657,50.89889],[-3.170919,50.89925],[-3.174968,50.90601],[-3.188973,50.90981],[-3.181952,50.91926],[-3.18131,50.92352],[-3.174875,50.92772],[-3.173655,50.93611],[-3.170484,50.94262],[-3.172539,50.94593],[-3.188703,50.94728],[-3.21788,50.94205],[-3.232809,50.9428],[-3.25502,50.94065],[-3.279731,50.95072],[-3.295098,50.95453],[-3.300782,50.95774],[-3.304785,50.96307],[-3.320639,50.96955],[-3.325574,50.97673],[-3.333454,50.98118],[-3.360059,50.97681],[-3.379124,50.97637],[-3.384285,50.98919],[-3.383635,51.00471],[-3.381455,51.01027],[-3.382588,51.01601],[-3.389657,51.01846],[-3.413968,51.01837],[-3.417508,51.02656],[-3.421322,51.02935],[-3.435387,51.0291],[-3.443008,51.02737],[-3.44655,51.02454],[-3.459853,51.02394],[-3.463991,51.02408],[-3.483498,51.03221],[-3.504184,51.02879],[-3.517672,51.02294],[-3.519165,51.01926],[-3.518108,51.01387],[-3.526539,51.00467],[-3.534349,51.0022],[-3.61007,51.00673],[-3.61557,51.01194],[-3.615863,51.0157],[-3.611874,51.02508],[-3.605264,51.02973],[-3.599769,51.03794],[-3.602613,51.05406],[-3.606931,51.05603],[-3.614847,51.05524],[-3.623511,51.0598],[-3.635501,51.05495],[-3.652187,51.05821],[-3.656028,51.06369],[-3.665096,51.06618],[-3.668131,51.06895],[-3.682705,51.07215],[-3.692458,51.07903],[-3.720124,51.07957],[-3.730333,51.0855],[-3.74205,51.08877],[-3.767427,51.1043],[-3.780347,51.10643],[-3.804512,51.11438],[-3.822163,51.12526],[-3.835179,51.13724],[-3.834222,51.14992],[-3.836544,51.15426],[-3.84094,51.17711],[-3.832677,51.17886],[-3.825234,51.17752],[-3.817221,51.17983],[-3.807518,51.17927],[-3.78653,51.17323],[-3.75727,51.17858],[-3.745305,51.17708],[-3.728432,51.17991],[-3.726758,51.18392],[-3.733383,51.1914],[-3.732992,51.19438],[-3.728895,51.19709],[-3.728088,51.20054],[-3.732675,51.21432],[-3.731909,51.21866],[-3.734392,51.22298],[-3.729493,51.22566],[-3.727945,51.2303],[-3.720861,51.23438],[-3.688695,51.31161],[-3.153861,51.3544],[-3.033968,51.33049],[-3.022937,51.33006],[-3.020201,51.33684],[-3.004037,51.35244],[-3.003511,51.35947],[-2.98471,51.37709],[-2.982056,51.38336],[-2.984668,51.38942],[-2.940973,51.40028],[-2.928082,51.399],[-2.915707,51.40194],[-2.907033,51.408],[-2.899897,51.4176],[-2.890846,51.42469],[-2.887725,51.43014],[-2.873463,51.43688],[-2.868926,51.4404],[-2.866607,51.44597],[-2.861581,51.447],[-2.851159,51.45631],[-2.824391,51.4697],[-2.803828,51.48607],[-2.773583,51.49598],[-2.758535,51.49644],[-2.748971,51.4941],[-2.735034,51.49571],[-2.73222,51.49768],[-2.731941425989523,51.50125964059264],[-2.698734,51.49016],[-2.685092,51.47928],[-2.674201,51.47858],[-2.661205,51.4839],[-2.654093,51.47884],[-2.652091,51.47285],[-2.635334,51.46574],[-2.633171,51.45753],[-2.629441,51.45148],[-2.641314,51.44071],[-2.636116,51.4378],[-2.634749,51.43503],[-2.635704,51.42655],[-2.638304,51.42302],[-2.632226,51.41413],[-2.636638,51.40731],[-2.63412,51.40252],[-2.627799,51.40064],[-2.622685,51.40246],[-2.59288,51.39611],[-2.58101,51.39881],[-2.570446,51.39822],[-2.56033,51.40813],[-2.543392,51.40617],[-2.535403,51.41008],[-2.531525,51.41799],[-2.526516,51.42374],[-2.522164,51.42479],[-2.519762,51.42884],[-2.5133265403176734,51.428324358321326],[-2.51134,51.42759],[-2.508377,51.42341],[-2.495538,51.42701],[-2.493603,51.4249],[-2.494096,51.41824],[-2.492775,51.41677],[-2.481685,51.41997],[-2.469782,51.41465],[-2.458032,51.4156],[-2.443457,51.41704],[-2.437645,51.42181],[-2.410418,51.42493],[-2.400449,51.4305],[-2.377188,51.43161],[-2.366025,51.4359],[-2.358147,51.43449],[-2.343336,51.4379],[-2.326072,51.43502],[-2.316473,51.4283],[-2.314967,51.42268],[-2.312715,51.42122],[-2.294188,51.42768],[-2.2935640400790063,51.429379687723504],[-2.281533,51.42236],[-2.2795327377547983,51.41921478595568],[-2.285753,51.4064],[-2.2856194097264315,51.404970727718265],[-2.286151,51.40429],[-2.285360437974684,51.40220000843882],[-2.284764294955303,51.39582191914545],[-2.292771,51.39373],[-2.29365820251325,51.391613934015325],[-2.299915,51.38964],[-2.2921345713883277,51.38088246774927],[-2.290321,51.37824],[-2.289800289293423,51.375241242848965],[-2.292718176268813,51.367341513300666],[-2.2958002526266754,51.363238342539695],[-2.3038416320757413,51.36126957931451],[-2.307116,51.36165],[-2.307965351409718,51.35978745170966],[-2.3173877894810646,51.355300576437585],[-2.320191,51.35485],[-2.3206597366480164,51.35374250635809],[-2.334504,51.34715],[-2.326951,51.3435],[-2.295966,51.34007],[-2.2939887084298336,51.33854972393426],[-2.291864,51.33246],[-2.287535,51.33071],[-2.284206,51.32689],[-2.2788656428016263,51.326922083852196],[-2.274766,51.32377],[-2.270213,51.30827],[-2.279139,51.29839],[-2.27605,51.29281],[-2.261973,51.29024],[-2.253047,51.29131],[-2.25133,51.28208],[-2.2470402128834257,51.27929255150391],[-2.243866,51.27259],[-2.243303,51.26271],[-2.2446020388914536,51.260818006419356],[-2.24927,51.25651],[-2.2487021807120366,51.24851417737358],[-2.254197,51.24199],[-2.259546,51.23825],[-2.266315,51.22408],[-2.265439,51.21521],[-2.275989,51.2038],[-2.28719,51.18733],[-2.295429,51.17994],[-2.297391,51.17462],[-2.30072,51.17261],[-2.304545,51.16317],[-2.321368,51.15305],[-2.324458,51.1425],[-2.330748,51.1396],[-2.330748393056455,51.139598409907975],[-2.341281,51.13474],[-2.34142168926883,51.133710099915554],[-2.341422,51.13371],[-2.342311,51.1272],[-2.3449887671272545,51.123280840830745],[-2.344991,51.12328],[-2.346431,51.12117],[-2.363253,51.1175],[-2.341281,51.08258],[-2.3419366568267175,51.07639900214813],[-2.344292,51.07623],[-2.35159,51.06936],[-2.350662,51.06029],[-2.345264,51.05398],[-2.340724,51.0544],[-2.334752,51.05029],[-2.331772,51.04207],[-2.33677,51.04149],[-2.34544,51.03399],[-2.361694,51.02654],[-2.371004,51.01546],[-2.379296,51.01288],[-2.378797,51.00955],[-2.382999,51.00535],[-2.382582,50.99623],[-2.377901,50.98938],[-2.356398,50.98935],[-2.346293,50.9831],[-2.346608,50.98064],[-2.383908,50.97403],[-2.414554,50.96252],[-2.427692,50.97306],[-2.447681,50.96948],[-2.445331,50.95968],[-2.456015,50.95104],[-2.457499,50.95554],[-2.466189,50.9614],[-2.473623,50.95973],[-2.473229,50.96355],[-2.48653,50.97427],[-2.501659,50.9954],[-2.517576,50.9963],[-2.525231,50.99376],[-2.534015,50.99541],[-2.534785,51.00103],[-2.547869,51.00119],[-2.553627,50.99365],[-2.547,50.99052],[-2.547208,50.98676],[-2.557595,50.98089],[-2.561877,50.97981],[-2.568308,50.98688],[-2.574847,50.98839],[-2.576141,50.98461],[-2.58823,50.97859],[-2.595885,50.98305],[-2.60488,50.97716],[-2.6007,50.97294],[-2.60124,50.96632],[-2.597037,50.96289],[-2.600327,50.95942],[-2.600359,50.9505],[-2.608073,50.94722],[-2.611745,50.942],[-2.616385,50.94312],[-2.617786,50.94095],[-2.615669,50.93683],[-2.607576,50.93356],[-2.606148,50.92798],[-2.615981,50.92449],[-2.619033,50.91357],[-2.625756,50.90816],[-2.616124,50.89212],[-2.612043,50.89053],[-2.616794,50.8832],[-2.625692,50.8813],[-2.627751,50.888],[-2.647269,50.89005],[-2.650849,50.8853],[-2.660816,50.8888],[-2.679465,50.87913],[-2.696131,50.87765],[-2.708079,50.87149],[-2.715186,50.87265],[-2.716146,50.86562],[-2.723045,50.8679],[-2.75042,50.86551],[-2.757611,50.86861],[-2.761267,50.86704],[-2.762685,50.86233],[-2.781193,50.8618],[-2.792154,50.85454],[-2.804779,50.85959],[-2.806368,50.86467],[-2.811674,50.8651],[-2.826408,50.85257],[-2.841541,50.84924],[-2.845092,50.8533],[-2.880143,50.84951],[-2.889346,50.85175],[-2.904054,50.84557],[-2.930722,50.84255],[-2.936236,50.83778],[-2.942537,50.83737],[-2.949728,50.82539],[-2.9563899473558832,50.82123917561468],[-2.970845,50.83354]]]}}
