{"type":"Feature","properties":{"sourceId":"south-africa-and-lesotho"},"geometry":{"type":"Polygon","coordinates":[[[16.43786,-28.56216],[16.72595,-28.2627],[16.9026,-28.03969],[17.09444,-28.00467],[17.21555,-28.08773],[17.22815,-28.21119],[17.37123,-28.21993],[17.44426,-28.38216],[17.37513,-28.47552],[17.45974,-28.5626],[17.45675,-28.66956],[17.59958,-28.66058],[17.64852,-28.73669],[17.93021,-28.73619],[18.0609,-28.83872],[18.19153,-28.87428],[18.74145,-28.80043],[18.94243,-28.82613],[19.15804,-28.92672],[19.22687,-28.87367],[19.23865,-28.73053],[19.43038,-28.68621],[19.54669,-28.5033],[19.80271,-28.46991],[19.98768,-28.39121],[19.98845,-24.75139],[20.38693,-24.99995],[20.58408,-25.35439],[20.69942,-25.43493],[20.71488,-25.67228],[20.81886,-25.79996],[20.8932,-26.13588],[20.64836,-26.47434],[20.6811,-26.80292],[20.71926,-26.83697],[20.90135,-26.76503],[21.14369,-26.83517],[21.40331,-26.7911],[21.68171,-26.82304],[21.75212,-26.77459],[21.76735,-26.65973],[22.01454,-26.62045],[22.21436,-26.3488],[22.46155,-26.18594],[22.52438,-26.20751],[22.65587,-26.0102],[22.69192,-26.00742],[22.72007,-25.78567],[22.77466,-25.71455],[22.81002,-25.57961],[22.84435,-25.48574],[22.91096,-25.41165],[22.96612,-25.37869],[22.96852,-25.35248],[22.97591,-25.33914],[22.98672,-25.33603],[23.0086,-25.28905],[23.2136,-25.27093],[23.28209,-25.27186],[23.29142,-25.28327],[23.46088,-25.26638],[23.75107,-25.44327],[23.93371,-25.59571],[24.19224,-25.59664],[24.39137,-25.73713],[24.44939,-25.72352],[24.54346,-25.76434],[24.56886,-25.76836],[24.65366,-25.79618],[24.84524,-25.8036],[25.02943,-25.71579],[25.0811,-25.72831],[25.10616,-25.74007],[25.11595,-25.7546],[25.19508,-25.75383],[25.33173,-25.76125],[25.4773,-25.68856],[25.57377,-25.63688],[25.65411,-25.46745],[25.69736,-25.28816],[25.72346,-25.25246],[25.85615,-24.9224],[25.874,-24.88581],[25.88293,-24.8813],[25.87109,-24.84548],[25.85598,-24.82725],[25.83984,-24.79141],[25.84379,-24.74512],[26.39328,-24.63453],[26.4077,-24.64062],[26.42538,-24.61503],[26.43843,-24.61222],[26.4537,-24.59942],[26.47242,-24.57928],[26.48254,-24.54462],[26.50486,-24.48465],[26.56464,-24.39029],[26.82567,-24.23677],[26.94204,-23.69331],[27.11906,-23.51425],[27.323,-23.38701],[27.51155,-23.34876],[27.58527,-23.19168],[27.73567,-23.19023],[27.74851,-23.10926],[27.91145,-23.05636],[27.92381,-22.9527],[28.01857,-22.89579],[28.0275,-22.82302],[28.1813,-22.67295],[28.33923,-22.56516],[28.62555,-22.54614],[28.90601,-22.41615],[29.01464,-22.20245],[29.65737,-22.11736],[29.77282,-22.13729],[29.93126,-22.18772],[29.97383,-22.21887],[30.02052,-22.2265],[30.23522,-22.29185],[30.84406,-22.26163],[31.28997,-22.34598],[31.5705,-23.18116],[31.56753,-23.4551],[31.68518,-23.5975],[31.76631,-23.8519],[31.8876,-23.94471],[31.91774,-24.16016],[32.00098,-24.31323],[32.01553,-24.46027],[32.00729,-24.6882],[32.05192,-25.13969],[32.0181,-25.38639],[31.99077,-25.43312],[31.98442,-25.44903],[31.99875,-25.52478],[32.01786,-25.6438],[31.93485,-25.83991],[31.97948,-25.95511],[31.86808,-26.00357],[31.7613,-25.93705],[31.58209,-25.82523],[31.41506,-25.72213],[31.31842,-25.74625],[31.2638,-25.8131],[31.12993,-25.92239],[31.11568,-25.98397],[31.07414,-26.06588],[30.96514,-26.26294],[30.86128,-26.38449],[30.81047,-26.46642],[30.79554,-26.56796],[30.79674,-26.71249],[30.80592,-26.82315],[30.81502,-26.84107],[30.84455,-26.81902],[30.89424,-26.78194],[30.91081,-26.85662],[30.97492,-26.90577],[30.97844,-26.92115],[30.97921,-26.95084],[30.97672,-26.96492],[30.96213,-26.99199],[30.98625,-27.03482],[31.06479,-27.09627],[31.15285,-27.19853],[31.30485,-27.24944],[31.49574,-27.31199],[31.85483,-27.31665],[31.97326,-27.31683],[31.96813,-27.10536],[32.01138,-26.80473],[32.10054,-26.80068],[32.21052,-26.83021],[32.8974,-26.85498],[39.24259,-26.85341],[39.24259,-47.58493],[15.99606,-47.58493],[15.99706,-29.29848],[16.43786,-28.56216]]]}}