{"type":"Feature","properties":{"sourceId":"sweden"},"geometry":{"type":"Polygon","coordinates":[[[18.35916,62.39957],[18.64892,61.21385],[19.178187733324812,60.59825970364548],[19.02427,60.19461],[19.77823,59.58238],[20.177139650441127,59.436380624339975],[20.29057,59.30445],[19.34739,56.40389],[15.80272,55.70711],[15.165898439992299,55.603112837472],[15.04271,55.65064],[14.905516484833319,55.56059074618209],[14.83895,55.54972],[14.603828196715808,55.36257260226634],[14.26342,55.13914],[13.164341591074573,55.109186501956955],[12.919841863033152,55.12905494542812],[12.79505,55.23748],[12.73642,55.48176],[12.91768,55.6381],[12.80482,55.79932],[12.66399,55.91373],[12.67291,55.99475],[12.65451,56.05396],[12.35927,56.22882],[12.109693150222089,56.27396503180812],[12.07553,56.28902],[12.027940600278058,56.47317686783862],[12.00898,56.72149],[11.526505917188096,57.24235581480005],[11.45307,57.3437],[10.84947,58.01766],[10.54138,58.64647],[10.560426779610095,58.732832510169445],[10.59518,58.75149],[10.64631,58.88345],[11.06991,58.96802],[11.12502,59.00889],[11.15899,59.06885],[11.33901,59.10435],[11.44648,58.9922],[11.4492,58.88278],[11.53294,58.86802],[11.55471,58.88761],[11.57292,58.87791],[11.65918,58.89926],[11.69777,58.95189],[11.71892,59.02655],[11.79076,59.09613],[11.77661,59.11912],[11.79291,59.20271],[11.83969,59.24041],[11.82603,59.3465],[11.78914,59.39131],[11.76264,59.4827],[11.702,59.59006],[11.72516,59.61642],[11.85931,59.6391],[11.89337,59.68346],[11.95334,59.69335],[11.93472,59.79909],[11.86867,59.83895],[11.98281,59.88984],[12.05171,59.87609],[12.17607,59.87998],[12.23547,59.91854],[12.34625,59.95708],[12.48779,60.06616],[12.55164,60.19109],[12.50963,60.31796],[12.61519,60.40201],[12.61609,60.51648],[12.58923,60.5579],[12.52748,60.60581],[12.51864,60.65038],[12.40304,60.74056],[12.34439,60.85482],[12.34125,60.89558],[12.24101,61.00879],[12.44873,61.0412],[12.61021,61.03643],[12.68647,61.05076],[12.71589,61.13685],[12.7973,61.18986],[12.84179,61.25239],[12.88071,61.3548],[12.57219,61.57754],[12.42191,61.57306],[12.14959,61.72825],[12.30938,62.2664],[12.26413,62.33127],[12.264125068049312,62.33126991652234],[12.06804,62.61236],[12.14633,62.74676],[12.08609,62.89794],[12.22814,63.00371],[11.98951,63.26808],[12.24819,63.48036],[12.2022,63.57059],[12.17067,63.59501],[12.30292,63.66476],[12.34732,63.71954],[12.69039,63.96465],[12.92913,64.04805],[13.21104,64.08511],[13.98909,64.00635],[14.16761,64.18356],[14.12471,64.46609],[14.08953,64.48806],[13.86476,64.52226],[13.67384,64.58474],[14.02181,64.88236],[14.33298,65.11214],[14.33543,65.118],[14.330920891186587,65.11891843426883],[14.33596,65.11927],[14.38681,65.24073],[14.51425,65.3048],[14.50682,65.51669],[14.53903,65.67876],[14.634,65.81412],[14.52989,66.12309],[15.03607,66.14357],[15.49085,66.27456],[15.39094,66.4806],[15.63199,66.59795],[16.04421,66.90391],[16.39558,67.03935],[16.41165,67.21143],[16.1047,67.43723],[16.16181,67.50976],[16.41012,67.52425],[16.50186,67.58633],[16.56377,67.64133],[16.74436,67.9057],[17.18279,68.0409],[17.28387,68.10818],[17.66235,68.02877],[17.90309,67.95989],[18.16215,68.19527],[18.11128,68.4062],[18.13447,68.52776],[18.40487,68.5716],[18.61948,68.49708],[18.983,68.50692],[19.92478,68.3466],[20.23344,68.48369],[20.22838,68.50061],[19.97246,68.55765],[20.05659,68.5821],[20.20863,68.65785],[20.34574,68.80076],[20.31349,68.93326],[20.10048,69.03689],[20.5542,69.05025],[20.558547758040465,69.05182003849562],[20.5739,69.0445],[20.88396,68.9619],[20.76941,68.91464],[21.37244,68.68511],[22.03224,68.47117],[22.63853,68.38915],[23.1251,68.24256],[23.12838,68.12342],[23.28242,68.1465],[23.36941,68.045],[23.6002,67.94881],[23.4644,67.87481],[23.47168,67.67181],[23.53184,67.62351],[23.44287,67.56249],[23.45383,67.54402],[23.35894,67.47496],[23.45698,67.44613],[23.66714,67.43281],[23.70731,67.37351],[23.73043,67.3143],[23.50987,67.25386],[23.56148,67.20033],[23.51618,67.16778],[23.95573,66.81811],[23.85954,66.78413],[23.85696,66.56527],[23.7922,66.54678],[23.76337,66.52647],[23.60333,66.44617],[23.65661,66.20359],[23.85263,66.15631],[24.11602,65.8517],[24.13799,65.84004],[24.14658,65.81473],[24.11636,65.79208],[24.1452,65.71821],[24.05456,65.51069],[21.9662,64.01502],[20.21816,63.32559],[20.130143419171258,63.09476626059086],[18.35916,62.39957]]]}}
