{"type":"Feature","properties":{"sourceId":"scotland"},"geometry":{"type":"Polygon","coordinates":[[[-0.278429,61.10327],[0.216055,60.77616],[0.097816,59.42198],[0.160649,59.09779],[-1.203008,55.90612],[-1.9006234839541798,55.82511447323457],[-1.964364,55.84866],[-2.033015,55.81263],[-2.050012,55.80456],[-2.060711,55.8038],[-2.064232,55.80273],[-2.077458,55.7951],[-2.086669,55.79386],[-2.089179,55.79064],[-2.089539,55.78666],[-2.088498,55.77206],[-2.0881435070039127,55.771149732352804],[-2.087560643382502,55.76386321821045],[-2.100781,55.76321],[-2.108427,55.7604],[-2.110451,55.75694],[-2.1072735762536583,55.750217455311656],[-2.10826792555102,55.749509031354414],[-2.116436,55.74825],[-2.120118,55.74292],[-2.121374,55.74194],[-2.121986,55.74061],[-2.122989,55.74068],[-2.125972,55.73835],[-2.136558,55.7414],[-2.144365,55.74029],[-2.15071,55.73543],[-2.14878,55.72717],[-2.151021688791723,55.72417921819558],[-2.151989961153146,55.72393444346153],[-2.164713,55.72353],[-2.16974,55.72266],[-2.177121,55.71963],[-2.177634,55.71545],[-2.169156,55.70779],[-2.1692776113789223,55.70652950249585],[-2.1696805173804377,55.70627113962548],[-2.184502,55.70249],[-2.192814,55.69633],[-2.206509,55.6869],[-2.219391,55.67658],[-2.220527,55.67366],[-2.220146,55.66676],[-2.221138,55.66634],[-2.221182,55.66565],[-2.225317,55.66459],[-2.232517,55.66156],[-2.237353,55.6573],[-2.24896,55.65275],[-2.248805,55.65043],[-2.244729,55.64763],[-2.247071,55.64715],[-2.236402,55.64353],[-2.255824,55.64542],[-2.278794,55.64375],[-2.288835,55.64449],[-2.297926,55.64782],[-2.305874,55.64803],[-2.316062,55.64431],[-2.32556,55.64384],[-2.3263773010926925,55.64054874897162],[-2.330473827874915,55.636693322121964],[-2.335426,55.6354],[-2.336963,55.6327],[-2.332999,55.62908],[-2.32474,55.62526],[-2.323978,55.62475],[-2.311861,55.62542],[-2.317605,55.62052],[-2.317006,55.62012],[-2.308025,55.61043],[-2.289558,55.60107],[-2.289017,55.5924],[-2.293359,55.58569],[-2.289661,55.57974],[-2.286114,55.57698],[-2.27059,55.56932],[-2.26131,55.56474],[-2.26021,55.56275],[-2.250134,55.55692],[-2.24365,55.55355],[-2.240657,55.55004],[-2.233835,55.54485],[-2.234043,55.52909],[-2.2325335404623217,55.52866007404623],[-2.2284210665329853,55.52575935295842],[-2.228619,55.5233],[-2.227897,55.52279],[-2.229015,55.51839],[-2.229762,55.50913],[-2.227147,55.5063],[-2.223706658416776,55.50560415744237],[-2.2082400026957,55.49283215541917],[-2.204165,55.48866],[-2.20732,55.48132],[-2.201671,55.47395],[-2.200341,55.47279],[-2.174406,55.46916],[-2.190192,55.46395],[-2.188301,55.4623],[-2.1884275443670465,55.461994744295914],[-2.190269,55.46142],[-2.1894956065757283,55.45941831921173],[-2.1935668039878844,55.44959760366717],[-2.1989955211546026,55.44316621516855],[-2.206382,55.4383],[-2.2106822327575326,55.437075444781335],[-2.2346856913613853,55.43212480424783],[-2.242493,55.43315],[-2.260668,55.43391],[-2.295094,55.42124],[-2.296726,55.4157],[-2.3009626010910686,55.41440143492356],[-2.327684276686296,55.409127068613294],[-2.332118,55.41088],[-2.336229,55.40898],[-2.3344398245335523,55.403458832494124],[-2.334739574098845,55.40330221482378],[-2.345901,55.39949],[-2.344047,55.3967],[-2.336713,55.39206],[-2.336791,55.38589],[-2.337225,55.38319],[-2.336889,55.38104],[-2.337635,55.38064],[-2.338152,55.37743],[-2.347105,55.3735],[-2.34074,55.36711],[-2.361467,55.36063],[-2.374914,55.35491],[-2.380349,55.35029],[-2.389442232082313,55.34965158467282],[-2.400002708943196,55.35262539282618],[-2.401709,55.35529],[-2.415198,55.3599],[-2.424547,55.35957],[-2.437804,55.36032],[-2.448816,55.35956],[-2.475588,55.35572],[-2.491425,55.35128],[-2.502957,55.34089],[-2.51443,55.33031],[-2.518265,55.32878],[-2.52143,55.32581],[-2.527898,55.32493],[-2.531122,55.32364],[-2.536832477873541,55.321705543299586],[-2.558011048099154,55.31858789611416],[-2.559171,55.31884],[-2.560283,55.31557],[-2.560844,55.31462],[-2.561012,55.31255],[-2.563156,55.31068],[-2.564902,55.30771],[-2.571739,55.30321],[-2.57659,55.29898],[-2.589909,55.29383],[-2.609846,55.28403],[-2.622829,55.27379],[-2.624572,55.2704],[-2.628802,55.26869],[-2.628221,55.26306],[-2.64765,55.26051],[-2.644926,55.2574],[-2.625115,55.24813],[-2.63083,55.24558],[-2.636783,55.2298],[-2.635753,55.22442],[-2.6397268397122726,55.22328625505885],[-2.6608054601887052,55.22192630574654],[-2.667217,55.22247],[-2.684056,55.20258],[-2.686391,55.1956],[-2.690724,55.18926],[-2.6899845960169233,55.188560928962936],[-2.6920375349684487,55.1863713876097],[-2.70679757927589,55.17354215138272],[-2.832561,55.13309],[-2.828482,55.12769],[-2.8305056499340866,55.12389521797456],[-2.833863978607956,55.122312305654766],[-2.841415,55.12241],[-2.8393098429901187,55.11798702580691],[-2.8406348694280665,55.116883167407366],[-2.847528,55.11436],[-2.845585692935878,55.11217097956745],[-2.8536707495297655,55.10962695741178],[-2.871956,55.10458],[-2.875787,55.09667],[-2.883917,55.09522],[-2.886029,55.08871],[-2.884321909562101,55.088332402835235],[-2.8844115597243625,55.08825128742485],[-2.894776,55.08734],[-2.8931763326448783,55.08563822621796],[-2.8936875059560077,55.08451497760132],[-2.8967214688607714,55.07865416327549],[-2.898960936351817,55.07765308656374],[-2.917766,55.07813],[-2.9173174289356285,55.07676439050967],[-2.917464224788075,55.07654791736321],[-2.942625,55.06721],[-2.941823,55.06254],[-2.9379182362759555,55.060544038185704],[-2.946542,55.05995],[-2.96025,55.05259],[-3.002085,55.05612],[-3.049638994913605,55.0528482065483],[-3.051173,55.0529],[-3.05429,55.04824],[-3.039807,55.0445],[-3.041701,55.0418],[-3.02789,55.03539],[-3.035723,55.03059],[-3.031465600656963,55.02655520977294],[-3.0335718987042104,55.02348460937226],[-3.042307,55.01968],[-3.040069,55.01712],[-3.051036,55.0069],[-3.045944,55.00763],[-3.046256,54.99978],[-3.044932,54.99956],[-3.057581,54.99074],[-3.057342,54.98731],[-3.070349,54.98378],[-3.0707637151243845,54.982361335378265],[-3.074184,54.98145],[-3.074485901245134,54.97216144328621],[-3.077074376306311,54.97167090273509],[-3.101799,54.97409],[-3.134494,54.96537],[-3.134828589089603,54.96510804122497],[-3.163976,54.96047],[-3.180075,54.96517],[-3.235219,54.95673],[-3.237695,54.96007],[-3.26715590835111,54.95854980110782],[-3.271309330040452,54.9588010524484],[-3.307034,54.97026],[-3.6311520805195516,54.77683542336546],[-3.73925808786499,54.721054734172675],[-4.084095318652636,54.64211462212212],[-4.096475,54.6706],[-4.722574099108415,54.58312661269597],[-5.219455839637967,54.69444765820499],[-5.431093,54.99403],[-6.063212,55.37104],[-7.370785,56.09785],[-10.42441,56.69324],[-11.860235855506291,56.75996576573956],[-14.86155,57.4994],[-6.171657,60.00603],[-1.637515,61.13564],[-0.278429,61.10327]]]}}
