{"type":"Feature","properties":{"sourceId":"southcoast-admreg"},"geometry":{"type":"Polygon","coordinates":[[[-122.2675,49.00072],[-122.7573,49.00027],[-123.2961,49.00027],[-123.2594,48.98059],[-123.3316,48.98062],[-123.6278,49.23912],[-124.0461,49.36095],[-124.0709,49.45406],[-124.122,49.56867],[-124.2341,49.63189],[-124.2851,49.70621],[-124.2431,49.75693],[-124.2399,49.76015],[-124.2355,49.761],[-124.2351,49.76112],[-124.2331,49.76154],[-124.2308,49.76193],[-124.2303,49.76201],[-124.2209,49.76382],[-124.1314,49.7721],[-124.0669,49.79678],[-124.0308,49.83688],[-124.0576,49.86676],[-124.0415,49.92526],[-124.0638,49.93421],[-124.0624,49.98368],[-124.1163,50.01281],[-124.1242,50.02451],[-124.1128,50.03462],[-124.1555,50.05934],[-124.1619,50.09652],[-124.1476,50.14193],[-124.0786,50.14489],[-124.0785,50.14494],[-124.0783,50.14526],[-124.0781,50.14539],[-124.0776,50.14554],[-124.0724,50.14924],[-124.0957,50.17096],[-124.1081,50.19844],[-124.1843,50.21982],[-124.1743,50.26976],[-124.1658,50.33933],[-124.0909,50.37065],[-123.9466,50.34722],[-123.9465,50.34727],[-123.9407,50.34952],[-123.9398,50.34993],[-123.9388,50.35053],[-123.9375,50.3508],[-123.9146,50.35981],[-123.9674,50.40286],[-123.9467,50.44767],[-124.0041,50.47717],[-124.027,50.50207],[-123.9363,50.53656],[-123.8358,50.52696],[-123.8101,50.53765],[-123.7533,50.54303],[-123.7782,50.62316],[-123.7386,50.68407],[-123.7304,50.6951],[-123.7313,50.69847],[-123.7336,50.70175],[-123.7342,50.7021],[-123.7345,50.70241],[-123.7347,50.70292],[-123.7349,50.70362],[-123.7359,50.70513],[-123.7475,50.71304],[-123.7492,50.71363],[-123.75,50.71376],[-123.8252,50.70124],[-123.8499,50.7383],[-123.835,50.83532],[-123.7237,50.84595],[-123.6827,50.90563],[-123.5056,50.97227],[-123.4053,51.00944],[-123.2803,51.00857],[-123.2611,51.06298],[-123.1856,51.1018],[-123.132,51.15351],[-123.0743,51.22667],[-122.9411,51.2043],[-122.9466,50.75818],[-121.9745,50.75362],[-121.9771,50.41508],[-122.0138,50.41071],[-122.0488,50.42066],[-122.0611,50.42531],[-122.0775,50.42394],[-122.106,50.42963],[-122.1218,50.427],[-122.1158,50.41661],[-122.1491,50.34678],[-122.1724,50.33231],[-122.2315,50.31829],[-122.2315,50.27332],[-122.2916,50.24699],[-122.285,50.23337],[-122.2641,50.22129],[-122.2765,50.1991],[-122.3175,50.1867],[-122.295,50.17558],[-122.2449,50.13863],[-122.2037,50.1197],[-122.1522,50.11882],[-122.1185,50.12982],[-122.0739,50.1307],[-122.008,50.09372],[-121.9579,50.09812],[-121.8782,50.06111],[-121.8521,50.08094],[-121.802,50.09416],[-121.7532,50.09988],[-121.6561,50.08248],[-121.6228,50.05482],[-121.3152,50.05405],[-121.2808,50.00818],[-121.2554,49.96447],[-121.2829,49.91144],[-121.2822,49.88712],[-121.2177,49.90171],[-121.1476,49.89596],[-121.0838,49.87428],[-121.0707,49.8526],[-121.1098,49.81894],[-121.1641,49.8052],[-121.1785,49.76486],[-121.151,49.7227],[-121.1044,49.68274],[-121.1291,49.65429],[-121.1524,49.63384],[-121.1174,49.63473],[-120.9986,49.65674],[-120.9653,49.64051],[-120.9526,49.61049],[-121.0257,49.58022],[-121.0381,49.52699],[-121.0652,49.51496],[-121.0494,49.47147],[-121.0961,49.43375],[-121.0966,49.35443],[-121.072,49.35387],[-121.0818,49.34604],[-121.0913,49.34229],[-121.0797,49.32861],[-121.0704,49.33172],[-121.0568,49.33787],[-121.0438,49.33541],[-120.9991,49.33799],[-120.9483,49.35789],[-120.851,49.34481],[-120.8077,49.29334],[-120.8139,49.24865],[-120.8429,49.21883],[-120.8611,49.20291],[-120.8906,49.19079],[-120.8754,49.17766],[-120.8884,49.17093],[-120.8455,49.13298],[-120.8664,49.11366],[-120.9488,49.09635],[-120.9179,49.08916],[-120.8846,49.08016],[-120.8397,49.04124],[-120.8474,49.00482],[-120.847,48.99456],[-121.7445,48.99452],[-122.2675,49.00072]]]}}
