{"type":"Feature","properties":{"sourceId":"shropshire"},"geometry":{"type":"Polygon","coordinates":[[[-2.996875,52.72436],[-2.977671,52.72638],[-2.978535,52.71618],[-2.968348,52.71437],[-2.961754,52.71694],[-2.962225,52.72547],[-2.966582,52.72558],[-2.966582,52.72762],[-2.964953,52.72843],[-2.96617,52.72899],[-2.965409,52.73211],[-2.973598,52.73611],[-2.988379,52.73327],[-2.997447,52.73825],[-2.992529,52.73912],[-2.993224,52.74078],[-2.990834,52.7419],[-3.010581,52.75081],[-3.016931,52.749],[-3.02145,52.75222],[-3.014358,52.7535],[-3.010696,52.75902],[-3.017225,52.76798],[-3.02649,52.76594],[-3.026937,52.767],[-3.037182,52.76491],[-3.034011,52.76751],[-3.040069,52.76943],[-3.047712,52.76751],[-3.052794,52.77074],[-3.048037,52.77263],[-3.05812,52.77396],[-3.062226,52.76951],[-3.064868,52.7699],[-3.063893,52.77088],[-3.068487,52.7745],[-3.071455,52.77241],[-3.071089,52.77187],[-3.07487,52.77002],[-3.079667,52.77147],[-3.081171,52.77784],[-3.088895,52.77867],[-3.09208,52.7877],[-3.085973,52.79262],[-3.08773,52.79603],[-3.109556,52.79168],[-3.108171,52.79009],[-3.117563,52.78412],[-3.120604,52.78492],[-3.119793,52.78637],[-3.144221,52.79056],[-3.145572,52.78915],[-3.159627,52.79417],[-3.162465,52.79944],[-3.154644,52.80307],[-3.155453,52.80377],[-3.15403,52.80594],[-3.15555,52.808],[-3.162634,52.80389],[-3.168941,52.80786],[-3.166062,52.81355],[-3.167615,52.82008],[-3.159432,52.83061],[-3.155906,52.83143],[-3.153189,52.84156],[-3.163404,52.84802],[-3.128623,52.86881],[-3.153308,52.87923],[-3.148493,52.88136],[-3.14728,52.88478],[-3.136863,52.88545],[-3.147922,52.89051],[-3.145246,52.89285],[-3.114389,52.89477],[-3.117421,52.90013],[-3.111642,52.91493],[-3.096821,52.93048],[-3.085806,52.9282],[-3.085203,52.92666],[-3.031384,52.93252],[-3.027907,52.93596],[-3.023898,52.93617],[-3.026062,52.93808],[-3.010175,52.9562],[-2.980193,52.96271],[-2.980247,52.96508],[-2.975101,52.96929],[-2.968495,52.96444],[-2.973151,52.95977],[-2.926802,52.93814],[-2.925919,52.94174],[-2.906053,52.94243],[-2.896378,52.94983],[-2.886119,52.95072],[-2.881866,52.94562],[-2.839558,52.94101],[-2.840727,52.9377],[-2.822513,52.92044],[-2.823372,52.9197],[-2.812512,52.91188],[-2.813268,52.91002],[-2.802958,52.89978],[-2.802339,52.89578],[-2.799556,52.89501],[-2.792854,52.89918],[-2.792751,52.90135],[-2.747662,52.92388],[-2.728726,52.92436],[-2.725606,52.95135],[-2.722311,52.95623],[-2.72583,52.95934],[-2.724441,52.96378],[-2.732824,52.96864],[-2.72917,52.97469],[-2.730314,52.97595],[-2.7264546963396588,52.981434995332506],[-2.725555,52.98123],[-2.711046,52.9846],[-2.698479,52.99351],[-2.687692,52.98524],[-2.674538,52.98397],[-2.651944,52.9932],[-2.642558,52.9918],[-2.632508,52.99484],[-2.622473,52.98512],[-2.608818,52.98639],[-2.605637,52.98207],[-2.607219,52.9786],[-2.600804,52.97709],[-2.599191,52.97345],[-2.59904,52.96197],[-2.587253,52.9539],[-2.576585,52.95438],[-2.561877,52.96251],[-2.554569,52.95601],[-2.547109,52.95529],[-2.537477,52.94806],[-2.529037,52.94553],[-2.521889,52.95336],[-2.520309,52.97173],[-2.514284,52.96988],[-2.512156,52.96553],[-2.507262,52.96325],[-2.498478,52.9668],[-2.492424,52.96603],[-2.480968,52.95713],[-2.474785,52.96065],[-2.4702594608214232,52.96133001271707],[-2.469881,52.96123],[-2.4691239649627286,52.96150063362955],[-2.449895,52.96439],[-2.442866,52.96863],[-2.433656,52.96812],[-2.4324,52.97984],[-2.435397,52.98483],[-2.410591,52.98624],[-2.403651,52.98989],[-2.403323,52.9934],[-2.380754861463572,52.99661958662517],[-2.379755,52.99546],[-2.380232,52.99109],[-2.372128,52.97993],[-2.375073,52.97638],[-2.38125,52.97619],[-2.38361,52.9711],[-2.380729,52.96671],[-2.381032,52.96405],[-2.388346,52.955],[-2.391328,52.95367],[-2.393975,52.95414],[-2.401598,52.96273],[-2.414073,52.96269],[-2.41506,52.95978],[-2.409431,52.95728],[-2.407456,52.95391],[-2.40855,52.94897],[-2.412348,52.94809],[-2.425147,52.95072],[-2.437851,52.94479],[-2.446637,52.93042],[-2.456403,52.92549],[-2.458207,52.92096],[-2.457671,52.91679],[-2.461736,52.91096],[-2.47182,52.90617],[-2.470898388372808,52.90363861142026],[-2.47107,52.90156],[-2.480147,52.90134],[-2.480598,52.8976],[-2.490345,52.89753],[-2.490458,52.89553],[-2.495497,52.89334],[-2.458595315684288,52.87932128520017],[-2.458609,52.87841],[-2.446509,52.87274],[-2.444683,52.87305],[-2.4410538904129404,52.8786169836384],[-2.440243394541948,52.87939964153185],[-2.425899,52.88073],[-2.411338,52.88605],[-2.396128,52.88793],[-2.388319,52.88754],[-2.38228,52.8852],[-2.381597,52.88237],[-2.383996,52.87622],[-2.382192,52.86907],[-2.389999,52.86236],[-2.395644,52.83712],[-2.398752,52.83513],[-2.408624,52.83553],[-2.416218,52.83002],[-2.4167573060672467,52.828263241182],[-2.417546,52.82772],[-2.4169916281665365,52.82749995028064],[-2.41736,52.8263],[-2.380402,52.81103],[-2.375849,52.79814],[-2.386235,52.79185],[-2.385804,52.78857],[-2.379306,52.78294],[-2.377365681721079,52.78275573425652],[-2.379914,52.77818],[-2.378665,52.77783],[-2.378799,52.77702],[-2.3511542104085392,52.765807800593066],[-2.350414,52.76502],[-2.348893320832161,52.764890826901386],[-2.34583101453531,52.76364881387279],[-2.34234,52.76042],[-2.334153,52.75692],[-2.331349,52.75036],[-2.3257830887221025,52.749380370855334],[-2.321769401226846,52.746998067909],[-2.317524,52.74415],[-2.317006,52.72645],[-2.312979,52.72041],[-2.325831,52.70502],[-2.320861,52.69465],[-2.310661,52.69197],[-2.303386,52.68177],[-2.273559,52.6785],[-2.262094,52.68158],[-2.249271,52.68086],[-2.245928,52.67869],[-2.240898,52.66464],[-2.241839,52.662],[-2.249026,52.65682],[-2.239016,52.65387],[-2.235828,52.64451],[-2.2366520752473726,52.64241762144221],[-2.241011276977487,52.6347662608012],[-2.247318,52.62896],[-2.255755,52.61267],[-2.268163,52.61199],[-2.2705886530295274,52.61122539806096],[-2.29081582627136,52.60932509239614],[-2.296562,52.61018],[-2.300298,52.60866],[-2.307472,52.60909],[-2.31212,52.61457],[-2.315791,52.61606],[-2.322389,52.61514],[-2.324351,52.61222],[-2.325996,52.59974],[-2.321687,52.59231],[-2.308448,52.58978],[-2.302772,52.59043],[-2.295147,52.58385],[-2.281117,52.58317],[-2.26604,52.57072],[-2.264433,52.56775],[-2.265417,52.56385],[-2.282408,52.55434],[-2.283758,52.55205],[-2.2796459880599227,52.55107444799032],[-2.2630900920328463,52.54434568711784],[-2.261549,52.54278],[-2.269548,52.5319],[-2.266715,52.52589],[-2.267717,52.52321],[-2.291375,52.5135],[-2.298845,52.50512],[-2.307992,52.49994],[-2.314073,52.48916],[-2.30964,52.4826],[-2.303949,52.48008],[-2.297026,52.47332],[-2.291177,52.46041],[-2.2920481746720207,52.4542623767519],[-2.306556,52.44717],[-2.314557,52.43837],[-2.316762744693704,52.43812779277581],[-2.322510721764776,52.43807040546244],[-2.326696,52.43945],[-2.333995,52.43718],[-2.345816,52.44053],[-2.364357,52.44034],[-2.364806,52.42754],[-2.367696,52.42353],[-2.367161,52.41894],[-2.368933,52.41431],[-2.368145,52.40739],[-2.374145,52.40173],[-2.356728,52.39626],[-2.354613,52.39421],[-2.35555,52.39005],[-2.360325,52.38849],[-2.367066,52.38936],[-2.378424,52.38479],[-2.393914,52.38562],[-2.398878562422094,52.38441665671559],[-2.4065631548292776,52.38653387976191],[-2.411049,52.38832],[-2.416333,52.38035],[-2.413369,52.37388],[-2.413973,52.37123],[-2.4163746889530033,52.3704013591009],[-2.4384217749042656,52.36832148074977],[-2.454995,52.36918],[-2.466825,52.3667],[-2.475391,52.36827],[-2.479084,52.36208],[-2.48723,52.3602],[-2.48955,52.35547],[-2.484878,52.35087],[-2.485572,52.3441],[-2.48204,52.33916],[-2.484576,52.33242],[-2.491660078030314,52.33160109455568],[-2.5041865952139974,52.33037668684344],[-2.508175,52.336],[-2.521543,52.34306],[-2.539022,52.34543],[-2.5513850922283687,52.338171824523464],[-2.5563068924710737,52.33589939278043],[-2.56301,52.33408],[-2.56312,52.32693],[-2.565791,52.31938],[-2.568502,52.31695],[-2.574803,52.31887],[-2.584964,52.31492],[-2.594827,52.31522],[-2.609683,52.30771],[-2.616392,52.30928],[-2.620192,52.30763],[-2.62049887139598,52.30763612252092],[-2.6206323175650414,52.307659360744914],[-2.628153,52.3134],[-2.625689,52.31483],[-2.62576681796838,52.31517775314706],[-2.625643,52.31527],[-2.626282,52.31748],[-2.623407,52.31898],[-2.624502,52.31971],[-2.624,52.32107],[-2.629476,52.32043],[-2.632077,52.32297],[-2.631347,52.32342],[-2.637096,52.32445],[-2.636412,52.32813],[-2.643484,52.3334],[-2.649396,52.3314],[-2.659825,52.33483],[-2.655851,52.33777],[-2.659153,52.33863],[-2.660328,52.34102],[-2.668275,52.3414],[-2.685549,52.32442],[-2.688843,52.31562],[-2.680333,52.31522],[-2.680032,52.31147],[-2.712211,52.30805],[-2.72532,52.32023],[-2.738355,52.32025],[-2.738417,52.32188],[-2.746684,52.3254],[-2.745845,52.32668],[-2.759624,52.3299],[-2.767112,52.33591],[-2.748241,52.33492],[-2.737919,52.34321],[-2.740001,52.34654],[-2.738706,52.34748],[-2.741343,52.34957],[-2.732692,52.3553],[-2.792182,52.35665],[-2.795343,52.36043],[-2.792281,52.36578],[-2.794421,52.37018],[-2.792874,52.37537],[-2.79911,52.37295],[-2.807453,52.37615],[-2.809034,52.3841],[-2.805315,52.38797],[-2.854888,52.39531],[-2.86349,52.38874],[-2.887574,52.38458],[-2.886218,52.38053],[-2.887423,52.37961],[-2.885876,52.37791],[-2.888718,52.3774],[-2.88852,52.3765],[-2.892398,52.3755],[-2.890587,52.37443],[-2.894704,52.37416],[-2.892288,52.37858],[-2.897504,52.37945],[-2.897504,52.38096],[-2.905573,52.38555],[-2.919682,52.38411],[-2.913588,52.3819],[-2.920834,52.3754],[-2.902243,52.36977],[-2.900779,52.36728],[-2.923241,52.36745],[-2.939356,52.36144],[-2.930609,52.3542],[-2.936466,52.35276],[-2.933167,52.34996],[-2.970622,52.35142],[-2.97273,52.35401],[-3.065489,52.35002],[-3.065911,52.3533],[-3.099705,52.36872],[-3.10092,52.36771],[-3.112055,52.37717],[-3.154719,52.38764],[-3.157481,52.39122],[-3.160744,52.39156],[-3.16056,52.39995],[-3.188258,52.41199],[-3.188234,52.413],[-3.213478,52.41926],[-3.230846,52.43118],[-3.228806,52.43945],[-3.233669,52.43954],[-3.235577,52.44353],[-3.2335,52.4516],[-3.196802,52.47569],[-3.181147,52.47364],[-3.106968,52.49913],[-3.029514,52.50164],[-3.03447,52.50479],[-3.031815,52.50949],[-3.036505,52.51107],[-3.030753,52.51961],[-3.032169,52.52356],[-3.004617,52.5198],[-3.000905,52.52397],[-3.003804,52.5278],[-3.00148,52.53772],[-2.994317,52.55255],[-2.999639,52.55506],[-2.997646,52.5641],[-3.006226,52.57363],[-3.039266,52.57036],[-3.05939,52.55621],[-3.087706,52.55123],[-3.086352,52.54855],[-3.094338,52.54503],[-3.081547,52.53826],[-3.082841,52.53609],[-3.135506,52.52879],[-3.136971,52.53297],[-3.117605,52.53844],[-3.117261,52.54013],[-3.111898,52.54134],[-3.128041,52.56634],[-3.137358,52.57314],[-3.140102,52.58514],[-3.116997,52.58666],[-3.089824,52.59977],[-3.093143,52.60952],[-3.083282,52.6152],[-3.078631,52.62351],[-3.072312,52.62578],[-3.074305,52.6271],[-3.059511,52.63083],[-3.083281,52.64091],[-3.051881,52.64777],[-3.050984,52.65319],[-3.045622,52.65605],[-3.049692,52.65809],[-3.042733,52.67338],[-3.039581,52.67525],[-3.046191,52.67566],[-3.043017,52.68683],[-3.046847,52.69117],[-3.033869,52.69387],[-3.030411,52.70216],[-3.025772,52.70327],[-3.021525,52.70968],[-3.025419,52.71586],[-3.020223,52.72117],[-3.020622,52.72443],[-3.018267,52.72403],[-3.017953,52.72215],[-3.002393,52.72378],[-3.000282,52.72344],[-2.996875,52.72436]]]}}
