{"type":"Feature","properties":{"sourceId":"saskatchewan"},"geometry":{"type":"Polygon","coordinates":[[[-110.0058,49.13069],[-110.0069,59.99983],[-106.6206,60.00029],[-106.0663,59.99914],[-103.6395,60.00052],[-102.0072,59.9998],[-102.0031,56.15945],[-102.0033,55.81008],[-101.9608,55.81045],[-101.9631,55.46112],[-101.9207,55.46241],[-101.9233,55.11225],[-101.8841,55.11255],[-101.8846,54.76327],[-101.8458,54.76351],[-101.8468,54.41426],[-101.8094,54.41439],[-101.8076,54.06563],[-101.7693,54.06543],[-101.7687,53.71225],[-101.732,53.7119],[-101.7348,53.36651],[-101.699,53.36684],[-101.7,53.01715],[-101.6695,53.01752],[-101.6709,52.66796],[-101.6359,52.66842],[-101.6371,52.31885],[-101.6074,52.31905],[-101.6086,51.96928],[-101.5755,51.96963],[-101.5766,51.65563],[-101.5693,51.65573],[-101.5698,51.30258],[-101.538,51.30262],[-101.5383,50.9492],[-101.5074,50.94961],[-101.508,50.59509],[-101.4753,50.59561],[-101.476,50.24121],[-101.4459,50.24122],[-101.4465,49.88736],[-101.4163,49.88739],[-101.4171,49.53341],[-101.3919,49.53287],[-101.3915,49.17841],[-101.3614,49.17818],[-101.3614,49.00870342837259],[-104.053,49.00349],[-104.05299491819828,49.00168275176302],[-110.00513056182378,49.00466348162488],[-110.0058,49.13069]]]}}
