{"type":"Feature","properties":{"sourceId":"south-korea"},"geometry":{"type":"Polygon","coordinates":[[[132.2649,37.79738],[132.3386,36.88045],[130.34210054798945,35.48646041275297],[129.8975,35.30194],[129.9436472145096,35.20825357562342],[129.1532,34.65635],[128.0222,32.96471],[124.4013,32.36076],[124.31956753459434,38.02683096660882],[124.6363,38.04274],[124.8296,37.96263],[124.8543,37.67661],[125.2921,37.61103],[125.3805,37.61767],[125.6773,37.68515],[125.7892,37.70438],[126.1455,37.69901],[126.1741,37.71272],[126.1979,37.74088],[126.1992,37.80502],[126.2348,37.82399],[126.2987,37.81682],[126.4184,37.83555],[126.4382,37.83031],[126.4613,37.80774],[126.5389,37.77898],[126.5625,37.76635],[126.5842,37.75924],[126.6149,37.76368],[126.644,37.77934],[126.661,37.77897],[126.6665,37.79001],[126.6705,37.82795],[126.6907,37.83664],[126.7009,37.91421],[126.6867,37.93696],[126.7279,37.94362],[126.8277,37.99424],[126.8653,38.03094],[126.8862,38.08477],[126.9682,38.13182],[126.9817,38.1477],[126.9745,38.16037],[126.9921,38.19956],[127.0306,38.23303],[127.1393,38.29438],[127.2348,38.3173],[127.2992,38.30008],[127.3902,38.32135],[127.5046,38.28932],[127.5788,38.32003],[127.6718,38.31043],[127.78,38.3262],[127.8198,38.29198],[127.8787,38.30313],[127.893,38.31414],[127.9555,38.30039],[127.9806,38.30489],[128.0661,38.29511],[128.1951,38.34652],[128.2874,38.41963],[128.3199,38.48408],[128.3251,38.58141],[128.3516,38.5982],[128.3845,38.61032],[128.6647,38.60908],[128.693456787033,38.63920466440276],[132.2649,37.79738]]]}}
