{"type":"Feature","properties":{"sourceId":"sumatra"},"geometry":{"type":"Polygon","coordinates":[[[105.358,3.243168],[108.1772,5.259626],[109.5285,2.761135],[109.55123064751994,2.7178213907496573],[109.62132494655198,2.3655192016061846],[109.3249,2.32023],[109.0228,2.185752],[108.6575,1.867348],[108.2153,1.098568],[108.089,0.497128],[108.056,-0.216977],[106.1719,-0.318591],[104.9716,-1.073848],[104.9606,-1.557118],[104.9744,-2.125364],[105.0183,-2.24887],[105.5154,-2.301014],[105.6363,-2.344923],[105.8148,-2.649504],[105.8697,-2.873093],[106.1678,-2.980755],[106.2927,-3.165883],[106.5646,-4.167005],[106.75333417987943,-4.9771100447468815],[106.3229,-5.194891],[105.7928,-5.911799],[105.7324,-6.064086],[105.5717,-6.236124],[105.179,-6.256601],[104.1394,-6.511804],[104.24133619077675,-6.620511555852491],[101.8962,-7.169929],[92.76481,5.206835],[95.79392,6.99933],[99.96300422702807,3.7099886784012877],[100.9561,2.773085],[103.0518,1.283921],[103.6528,1.166641],[103.7383,1.109964],[104.0778,1.256931],[104.4964,1.225549],[104.6872,1.498012],[104.93521580920073,2.225993270758359],[105.358,3.243168]]]}}
