{"type":"Feature","properties":{"sourceId":"shanghai"},"geometry":{"type":"Polygon","coordinates":[[[120.8554,31.11262],[120.8579,31.11582],[120.861,31.11777],[120.8652,31.12229],[120.8653,31.12567],[120.868,31.12963],[120.876,31.13764],[120.8944,31.13937],[120.9286,31.14701],[120.9509,31.14319],[120.9821,31.13672],[121.0062,31.14025],[121.0216,31.14723],[121.0351,31.14223],[121.0365,31.15523],[121.0438,31.15993],[121.0503,31.15575],[121.0669,31.15957],[121.0656,31.17337],[121.0596,31.19973],[121.0586,31.21589],[121.0547,31.24466],[121.0516,31.24788],[121.0571,31.27099],[121.0624,31.27158],[121.0762,31.27371],[121.0759,31.27914],[121.0795,31.29029],[121.0819,31.29505],[121.0886,31.29315],[121.0975,31.27936],[121.1099,31.2886],[121.1155,31.28926],[121.137,31.28],[121.1451,31.27798],[121.1512,31.28297],[121.1555,31.28589],[121.1543,31.28904],[121.1514,31.289],[121.1409,31.29841],[121.1442,31.30426],[121.1389,31.31055],[121.1349,31.30778],[121.1347,31.30428],[121.1246,31.30369],[121.1225,31.31586],[121.1209,31.32334],[121.1248,31.32769],[121.1235,31.34396],[121.1143,31.34447],[121.102,31.3529],[121.1009,31.36925],[121.1095,31.37767],[121.1395,31.38815],[121.1428,31.40193],[121.1496,31.41218],[121.1435,31.41672],[121.1394,31.42471],[121.1567,31.4313],[121.1464,31.43408],[121.1391,31.43892],[121.1421,31.44726],[121.1579,31.45297],[121.1828,31.46469],[121.2007,31.47714],[121.2086,31.48189],[121.2205,31.4816],[121.2299,31.49631],[121.2384,31.4969],[121.2427,31.48533],[121.2516,31.4865],[121.2545,31.48292],[121.2637,31.49053],[121.2706,31.49009],[121.2741,31.49404],[121.2904,31.49433],[121.2949,31.50282],[121.3017,31.5089],[121.3241,31.50817],[121.3608,31.54343],[121.155,31.715],[121.0841,31.76145],[121.102,31.77663],[121.1411,31.80289],[121.1754,31.83819],[121.2355,31.8621],[121.2819,31.88455],[121.3152,31.88426],[121.3601,31.85511],[121.3969,31.82711],[121.4178,31.80173],[121.426,31.77663],[121.4525,31.76495],[121.4868,31.76057],[121.5102,31.75445],[121.5445,31.73663],[121.5754,31.71882],[121.6341,31.7086],[121.7213,31.67822],[121.7683,31.66186],[121.8689,31.63818],[121.9232,31.68874],[122.0324,31.7051],[123.679,31.71416],[123.408,30.84447],[122.175,30.89],[121.925,30.75],[121.5376,30.6391],[121.2722,30.67867],[121.2573,30.70878],[121.2592,30.73224],[121.2319,30.75246],[121.2089,30.7852],[121.1977,30.77532],[121.1531,30.77252],[121.1167,30.7793],[121.1167,30.80231],[121.125,30.83445],[121.1107,30.83504],[121.1085,30.85081],[121.0736,30.84963],[121.0479,30.83238],[121.042,30.81676],[121.0328,30.81484],[121.0103,30.83312],[120.9899,30.82103],[120.9782,30.82958],[120.9885,30.84594],[121.013,30.88072],[120.9873,30.89059],[120.982,30.9009],[120.9916,30.93727],[120.9847,30.96878],[120.9907,30.98615],[120.9835,30.99792],[120.9813,31.01395],[120.955,31.01704],[120.9344,31.01704],[120.938,31.01028],[120.9068,31.01234],[120.8939,31.01866],[120.8929,31.04205],[120.8893,31.05176],[120.8929,31.0869],[120.8577,31.09792],[120.847,31.10454],[120.8506,31.11045],[120.8554,31.11262]]]}}
