{"type":"Feature","properties":{"sourceId":"socal"},"geometry":{"type":"Polygon","coordinates":[[[-120.1937,35.79012],[-120.1937,35.78986],[-119.7552,35.79175],[-118.5714,35.79076],[-118.4698,35.79394],[-118.2742,35.7911],[-118.0687,35.79287],[-118.0449,35.79213],[-118.0176,35.78814],[-117.9287,35.78789],[-117.9252,35.79049],[-117.9257,35.79867],[-117.9241,35.79961],[-117.6335,35.79766],[-117.633,35.79809],[-115.7404,35.79492],[-115.7369,35.79719],[-115.7366,35.80889],[-115.7349,35.81055],[-115.6433,35.81022],[-114.6277,35.00427],[-114.6249,34.86439],[-114.5877,34.84439],[-114.5465,34.76482],[-114.4709,34.71778],[-114.3761,34.52936],[-114.375,34.45368],[-114.3327,34.45415],[-114.1809,34.35846],[-114.1342,34.30644],[-114.1291,34.25629],[-114.1571,34.25681],[-114.2013,34.21747],[-114.2221,34.20355],[-114.2202,34.18894],[-114.259,34.16991],[-114.2908,34.1621],[-114.3212,34.13497],[-114.4154,34.09035],[-114.4369,34.01389],[-114.5123,33.93981],[-114.4997,33.86687],[-114.5217,33.81143],[-114.5041,33.76922],[-114.4925,33.70582],[-114.5126,33.65725],[-114.5235,33.64744],[-114.5203,33.61157],[-114.526,33.6084],[-114.5315,33.60296],[-114.539,33.59084],[-114.5339,33.5687],[-114.5221,33.5583],[-114.5256,33.53965],[-114.5934,33.49064],[-114.633,33.41393],[-114.7171,33.40323],[-114.6936,33.35817],[-114.6954,33.33847],[-114.7243,33.29527],[-114.6918,33.28428],[-114.6706,33.26798],[-114.6706,33.22247],[-114.6747,33.16023],[-114.6981,33.11125],[-114.6693,33.05691],[-114.5849,33.03981],[-114.5267,33.03466],[-114.5084,33.0253],[-114.4699,32.97657],[-114.4639,32.95883],[-114.4786,32.93493],[-114.4631,32.91466],[-114.4612,32.90939],[-114.467,32.84266],[-114.4926,32.82358],[-114.509,32.81453],[-114.5289,32.79333],[-114.525,32.76405],[-114.5259,32.75148],[-114.5805,32.73437],[-114.6151,32.72676],[-114.6888,32.73574],[-114.7011,32.74394],[-114.7161,32.71911],[-114.7298,32.71042],[-114.7271,32.71506],[-115.3424,32.67262],[-115.5683,32.65614],[-116.6072,32.57662],[-116.9223,32.55058],[-117.1244,32.53384],[-117.242,32.52511],[-117.7506,32.48665],[-121.4401,32.48438],[-121.4393,35.79717],[-120.1937,35.79012]]]}}
