{"type":"Feature","properties":{"sourceId":"sachsen-anhalt"},"geometry":{"type":"Polygon","coordinates":[[[10.63888,51.71282],[10.61302,51.74763],[10.57086,51.77286],[10.56917,51.85384],[10.63213,51.8882],[10.63607,51.90624],[10.60346,51.91629],[10.6029,51.93605],[10.61639,51.95269],[10.57648,51.97278],[10.54725,52.00809],[10.59728,52.01985],[10.61808,52.01674],[10.64057,52.03092],[10.63494,52.04441],[10.71477,52.05858],[10.80131,52.05702],[10.87614,52.06642],[10.95357,52.06542],[10.95812,52.07801],[10.92445,52.08681],[10.92738,52.10919],[11.02758,52.14514],[11.03864,52.15991],[11.00155,52.17368],[11.01066,52.21855],[11.0562,52.22662],[10.99212,52.29193],[11.01912,52.30317],[10.97748,52.32744],[10.97292,52.34851],[11.03994,52.35328],[11.0536,52.36957],[11.00822,52.38218],[10.92347,52.45301],[10.9225,52.47898],[10.93421,52.50077],[10.96857,52.51094],[10.92571,52.55597],[10.92506,52.59307],[10.82051,52.69473],[10.81856,52.71067],[10.78025,52.70673],[10.76531,52.74921],[10.74425,52.78352],[10.755,52.81511],[10.74936,52.85492],[10.79977,52.86617],[10.87743,52.86538],[10.93617,52.86183],[10.98381,52.91303],[11.04189,52.91932],[11.1052,52.91854],[11.10911,52.9024],[11.16818,52.91421],[11.31828,52.88941],[11.46512,52.94725],[11.48361,53.01113],[11.62724,53.0566],[11.88596,52.95601],[11.86664,52.93121],[11.97122,52.90335],[12.25009,52.89119],[12.28873,52.80089],[12.24505,52.71829],[12.28285,52.61998],[12.21481,52.59396],[12.19968,52.55761],[12.36466,52.49235],[12.34423,52.35531],[12.28498,52.26162],[12.3289,52.22378],[12.27579,52.1668],[12.39939,52.0677],[12.48673,52.0611],[12.58663,52.00749],[12.66764,52.04136],[13.15073,51.90132],[13.18785,51.8745],[13.21028,51.7665],[13.21268,51.69454],[13.067885624199077,51.635417034560916],[13.05347,51.65009],[13.03253,51.64263],[13.01691,51.66755],[12.99408,51.67085],[12.96095,51.66872],[12.96472,51.65435],[12.90018,51.6503],[12.89829,51.66638],[12.84645,51.68735],[12.82774,51.68373],[12.78929,51.66766],[12.76628,51.64998],[12.74448,51.65989],[12.70466,51.66553],[12.68148,51.6634],[12.66312,51.64119],[12.66312,51.63416],[12.6426,51.62324],[12.62698,51.62958],[12.57995,51.62766],[12.55377,51.61071],[12.51051,51.60954],[12.44519,51.6121],[12.43026,51.60794],[12.41901,51.58678],[12.33653,51.58923],[12.31705,51.57851],[12.3016,51.568],[12.24375,51.56843],[12.23001,51.56133],[12.23104,51.55381],[12.21044,51.54383],[12.18967,51.53112],[12.18847,51.50442],[12.20092,51.50014],[12.20178,51.49154],[12.17388,51.48293],[12.1689,51.47187],[12.14496,51.46481],[12.15251,51.43352],[12.18186,51.42881],[12.17199,51.41056],[12.17053,51.38512],[12.17431,51.37559],[12.18075,51.36814],[12.19002,51.33581],[12.14496,51.32031],[12.15646,51.29193],[12.16607,51.28844],[12.16332,51.26669],[12.17045,51.25633],[12.18607,51.25547],[12.19481,51.21526],[12.17045,51.18957],[12.17234,51.1788],[12.20054,51.17775],[12.19156,51.1408],[12.23585,51.13143],[12.21851,51.12335],[12.22229,51.10449],[12.279409945165487,51.08944867925174],[12.25937,51.07808],[12.25186,51.05194],[12.24461,51.03665],[12.29095,51.02779],[12.21886,50.95951],[12.18315,50.97918],[12.14985,50.96924],[12.09183,50.9807],[12.02145,50.97464],[12.0211,50.98848],[12.00565,50.99777],[11.97956,50.99582],[11.98952,51.017],[11.88721,51.06103],[11.78593,51.05629],[11.75915,51.05434],[11.74953,51.06988],[11.70971,51.07506],[11.70181,51.09662],[11.66714,51.11495],[11.5741,51.12335],[11.48827,51.10762],[11.46389,51.14016],[11.48724,51.15093],[11.49616,51.16944],[11.44775,51.21549],[11.40038,51.21162],[11.38664,51.22774],[11.41754,51.23871],[11.45279,51.26337],[11.48552,51.29907],[11.43608,51.32932],[11.43368,51.34584],[11.40758,51.3482],[11.40312,51.38678],[11.34229,51.39868],[11.32797,51.418],[11.28636,51.41039],[11.2256,51.41908],[11.16715,51.41256],[11.07058,51.43429],[10.98853,51.43477],[10.97808,51.4642],[10.9835,51.48047],[10.95524,51.50071],[10.94285,51.52769],[10.95601,51.52962],[10.95834,51.53949],[10.90647,51.55922],[10.90415,51.58665],[10.94595,51.58977],[10.94711,51.60901],[10.93047,51.6209],[10.8906,51.62114],[10.8639,51.637],[10.77391,51.65237],[10.72243,51.65069],[10.686333459994621,51.644522161593876],[10.65799,51.66716],[10.63888,51.71282]]]}}
