{"type":"Feature","properties":{"sourceId":"slovakia"},"geometry":{"type":"Polygon","coordinates":[[[17.76177,47.7445],[17.70966,47.75087],[17.60624,47.81728],[17.56419,47.81132],[17.52297,47.86195],[17.49633,47.86274],[17.45137,47.88096],[17.42868,47.91761],[17.32578,47.98303],[17.26175,47.99142],[17.22158,48.01347],[17.16107,48.00388],[17.09018,48.01795],[17.06486,48.03057],[17.0682,48.08204],[17.08511,48.0962],[17.05799,48.12199],[17.05537,48.13722],[17.0252,48.13837],[16.97353,48.17187],[16.95834,48.21936],[16.94221,48.23491],[16.95105,48.26308],[16.92006,48.27108],[16.89955,48.29513],[16.89079,48.31254],[16.90358,48.32419],[16.84101,48.34821],[16.83071,48.38424],[16.84546,48.38678],[16.84813,48.40875],[16.85268,48.41741],[16.84719,48.44879],[16.86264,48.46604],[16.8947,48.49886],[16.90908,48.50259],[16.91474,48.52138],[16.93336,48.52291],[16.94496,48.53713],[16.93093,48.56972],[16.93139,48.60108],[16.935539085869543,48.613956737846514],[16.9609,48.61008],[17.19832,48.85843],[17.37727,48.79653],[17.45136,48.82172],[17.55484,48.80034],[17.64096,48.83111],[17.64952,48.83412],[17.649275202585947,48.8481084236602],[17.65889,48.8374],[17.89456,48.92012],[17.93756,49.01158],[18.08351,49.00207],[18.18635,49.24333],[18.36954,49.31314],[18.439408085290474,49.37126134634891],[18.43941,49.37126],[18.55711,49.46917],[18.56867,49.50141],[18.62547,49.49067],[18.67025,49.49945],[18.75323,49.48448],[18.77897,49.50215],[18.84103456053764,49.51314803841123],[18.94682,49.49697],[18.95713,49.39537],[18.97633,49.38],[19.181930559116207,49.396050464418025],[19.18193,49.39605],[19.19973,49.39744],[19.21151,49.42062],[19.211505599717746,49.42061634499881],[19.25439,49.50502],[19.325564737232593,49.51537393576312],[19.32556,49.51537],[19.36857,49.52163],[19.38896,49.555],[19.456,49.58854],[19.51158,49.5594],[19.57125,49.4437],[19.62454,49.42996],[19.62482,49.39477],[19.71651,49.37083],[19.77421,49.39274],[19.78619,49.2827],[19.74341,49.21654],[19.78399,49.18342],[19.872,49.18064],[19.93112,49.21992],[20.09263,49.16487],[20.14791,49.2906],[20.22235,49.33265],[20.32065,49.32926],[20.34642,49.38431],[20.3938,49.37474],[20.46606,49.39922],[20.57713,49.36066],[20.62658,49.39317],[20.71652,49.40302],[20.78758,49.33112],[20.85934,49.32752],[20.86358,49.30725],[20.92796,49.28049],[20.99287,49.29243],[21.04459,49.34706],[21.10481,49.35371],[21.11747,49.38427],[21.0823,49.40991],[21.12951,49.41724],[21.19134,49.38545],[21.28139,49.44103],[21.40717,49.40472],[21.40716999228637,49.404720750325964],[21.4362,49.39634],[21.62144,49.42871],[21.65439,49.40176],[21.70974,49.3974],[21.77292,49.34122],[21.83174,49.37362],[21.89993,49.33483],[21.9536,49.3311],[22.01573,49.26991],[22.01962,49.21408],[22.2095,49.16442],[22.22105,49.13775],[22.36085,49.1287],[22.40988,49.08709],[22.49325,49.07071],[22.56760816149835,49.07748568241299],[22.54964,49.00396],[22.49099,48.98554],[22.43653,48.91881],[22.42493,48.88135],[22.38819,48.86298],[22.39241,48.79852],[22.35369,48.68469],[22.25466,48.64311],[22.24378,48.62393],[22.19363,48.60431],[22.1659,48.56596],[22.14271,48.41727],[22.16508,48.40332],[22.13717,48.37568],[22.08629,48.36659],[22.05181,48.37608],[22.02782,48.38605],[21.93509,48.36006],[21.8429,48.34645],[21.83773,48.32556],[21.76374,48.3364],[21.71914,48.3492],[21.66289,48.39166],[21.66289,48.40946],[21.62358,48.45368],[21.60891,48.50363],[21.52562,48.50119],[21.5124,48.54577],[21.43873,48.57965],[21.42643,48.56169],[21.41693,48.55418],[21.33186,48.5543],[21.3067,48.5174],[21.22246,48.53193],[21.13495,48.48714],[21.09289,48.48817],[21.08757,48.51251],[21.01505,48.52691],[20.98193,48.51278],[20.95488,48.51684],[20.93195,48.53412],[20.91877,48.55464],[20.86669,48.54704],[20.83039,48.57644],[20.72607,48.56097],[20.6621,48.55502],[20.58725,48.5308],[20.51423,48.52255],[20.51148,48.48998],[20.47309,48.44858],[20.45457,48.444],[20.414,48.36309],[20.36888,48.31278],[20.3412,48.2967],[20.32867,48.26877],[20.28654,48.25665],[20.24086,48.27517],[20.21693,48.24373],[20.15099,48.24718],[20.13813,48.22223],[20.07595,48.17558],[20.04993,48.16222],[20.0284,48.17218],[19.95635,48.14849],[19.93888,48.12635],[19.89589,48.12052],[19.89881,48.15922],[19.85303,48.1673],[19.8444,48.15647],[19.81813,48.16677],[19.8089,48.14977],[19.79275,48.14897],[19.77742,48.16528],[19.77859,48.19957],[19.68947,48.19921],[19.62862,48.24468],[19.57974,48.21155],[19.53288,48.2004],[19.53319,48.18769],[19.51367,48.17205],[19.51777,48.15376],[19.50114,48.13701],[19.49764,48.11007],[19.46417,48.0751],[19.4458,48.09356],[19.40048,48.08026],[19.2992,48.08519],[19.28083,48.07223],[19.2581,48.06712],[19.242,48.04869],[19.1353,48.06898],[19.10685,48.06259],[19.08543,48.06788],[19.05831,48.05236],[19.01568,48.06928],[18.98215,48.04863],[18.93859,48.05367],[18.83544,48.04225],[18.82158,48.01971],[18.82625,48.00581],[18.81924,47.98987],[18.76046,47.97448],[18.78173,47.95548],[18.77865,47.9304],[18.7637,47.91829],[18.7644,47.89876],[18.76863,47.8771],[18.81602,47.85991],[18.83349,47.83709],[18.86129,47.82952],[18.8503,47.81204],[18.79226,47.81809],[18.73856,47.80854],[18.72997,47.78433],[18.6461,47.75409],[18.55042,47.76194],[18.51625,47.75237],[18.48707,47.74971],[18.45446,47.7631],[18.4366,47.7556],[18.29591,47.72646],[18.17791,47.73725],[18.0883,47.75341],[18.03472,47.75227],[18.00276,47.74133],[17.97174,47.75285],[17.94961,47.7405],[17.78227,47.7342],[17.76177,47.7445]]]}}
