{"type":"Feature","properties":{"sourceId":"south-australia"},"geometry":{"type":"Polygon","coordinates":[[[129.0019,-30.76362],[129.0019,-29.84726],[128.9993,-25.99525],[141.0019,-25.99303],[141.00729961731324,-34.02057106457036],[140.9983,-34.01873],[140.9904,-34.02169],[140.9864,-34.01192],[140.9866,-34.01165],[140.9868,-34.01088],[140.9865,-34.01011],[140.9857,-34.00946],[140.9853,-34.00939],[140.9735,-33.98052],[140.9597,-33.97931],[140.9574,-35.79981],[140.962,-38.1103],[140.96270471225327,-38.12381529684511],[140.0856,-39.83156],[129.1851,-35.30176],[129.0015,-31.74158],[129.0014,-31.74161],[129.0019,-30.76362]]]}}
