{"type":"Feature","properties":{"sourceId":"south-sudan"},"geometry":{"type":"Polygon","coordinates":[[[30.84755,3.573731],[30.80566,3.587437],[30.78781,3.616562],[30.77888,3.662817],[30.75966,3.633351],[30.72945,3.61896],[30.66833,3.621016],[30.62336,3.594632],[30.55057,3.615876],[30.53238,3.802595],[30.21034,3.92043],[30.12382,4.06907],[29.7805,4.377906],[29.79218,4.543571],[29.51271,4.654449],[29.38705,4.39913],[29.21951,4.324502],[29.01764,4.462798],[28.73337,4.45869],[28.43674,4.243705],[28.06595,4.387492],[27.77618,4.594222],[27.49741,4.907625],[27.429549810569263,5.017137135321464],[27.45655,5.004079],[27.47578,5.085815],[27.26806,5.781334],[26.68745,6.099542],[26.43389,6.411041],[26.48159,6.729001],[25.29282,7.836081],[24.8518,8.205411],[24.29351,8.388151],[24.30725,8.762941],[23.66366,8.827402],[23.73836987865519,9.69488368577806],[24.23859,9.799739],[24.47754,9.853864],[24.71512,9.852511],[24.85382,9.841687],[25.03921,10.33654],[25.76157,10.47161],[25.94421,10.40948],[26.25183,9.924215],[26.69618,9.539408],[27.14364,9.674405],[27.80592,9.655547],[27.80464,10.21466],[29.01758,10.21038],[29.05774,9.792068],[29.45575,9.799296],[29.50202,10.11282],[30.00417,10.33478],[30.79056,9.790266],[31.27321,9.808582],[31.94341,10.66768],[32.43439,11.05578],[32.37671,11.17032],[32.35611,11.69931],[32.0933,11.95251],[32.73857,11.95704],[32.73102,12.14607],[32.72793,12.23937],[32.76947,12.23936],[33.29956,12.2246],[33.29132,12.19742],[33.26488,12.17057],[33.18798,11.75175],[33.14919,11.43931],[33.20961,11.24643],[33.29613,10.76788],[33.52821,10.64846],[33.80424,10.35478],[33.98758,10.1514],[34.02534,9.976967],[33.97728,9.806504],[33.92921,9.745604],[33.88939,9.510694],[34.1201,9.508662],[34.16817,8.606821],[34.02603,8.479844],[33.77266,8.354862],[33.24737,8.42415],[33.21098,8.096621],[33.02765,7.866783],[33.75022,7.695857],[34.50259,6.952363],[35.04089,6.503629],[35.17547,5.618721],[35.88684,5.350788],[35.96298,4.586887],[35.958520625416845,4.586881618528805],[35.95347,4.622969],[35.93478,4.629931],[34.38182,4.618229],[33.99256496886543,4.245704252095183],[33.98758,4.250552],[33.51341,3.762551],[33.1842,3.786837],[33.03726,3.908785],[32.88345,3.824519],[32.71454,3.775875],[32.40043,3.752771],[32.1884,3.619202],[32.19269,3.523702],[32.09742,3.53638],[32.09038,3.562594],[32.0533,3.596174],[31.96506,3.580926],[31.96815,3.658363],[31.93888,3.69749],[31.87614,3.78855],[31.80851,3.839592],[31.72165,3.757375],[31.70208,3.727227],[31.57299,3.685429],[31.54415,3.659733],[31.51188,3.67892],[31.2894,3.799855],[31.17027,3.799855],[30.97935,3.705992],[30.94629,3.676491],[30.93835,3.643335],[30.8848,3.556598],[30.87965,3.53895],[30.84772,3.502969],[30.84602860093997,3.4906527958445444],[30.84755,3.573731]]]}}
