{"type":"Feature","properties":{"sourceId":"sudeste"},"geometry":{"type":"MultiPolygon","coordinates":[[[[-47.7481871164332,-25.495723301799423],[-48.05969,-25.32665],[-48.01506,-25.28258],[-48.01437,-25.20432],[-48.11943,-25.22482],[-48.13522,-25.15461],[-48.19977,-25.02713],[-48.24509,-24.96303],[-48.33916,-25.02091],[-48.40233,-24.97797],[-48.44765,-24.97672],[-48.53691,-25.08435],[-48.5733,-25.02153],[-48.53554,-24.88145],[-48.54241,-24.82164],[-48.48061,-24.74309],[-48.57605,-24.66075],[-49.01825,-24.61893],[-49.17618,-24.64764],[-49.28055,-24.66075],[-49.24416,-24.49215],[-49.19197,-24.33771],[-49.27643,-24.29704],[-49.29222,-24.24759],[-49.33891,-24.21691],[-49.32175,-24.15553],[-49.33874,-24.13124],[-49.35247,-24.12874],[-49.36071,-24.122],[-49.3626,-24.11652],[-49.36827,-24.11323],[-49.38972,-24.10414],[-49.45976,-24.00789],[-49.51744,-23.91283],[-49.58885,-23.86166],[-49.55521,-23.82304],[-49.54388,-23.70081],[-49.60087,-23.63415],[-49.594,-23.55423],[-49.60018,-23.47521],[-49.571,-23.45065],[-49.56104,-23.42986],[-49.58576,-23.37756],[-49.61597,-23.30758],[-49.6455,-23.20475],[-49.71176,-23.11636],[-49.74137,-23.09355],[-49.76875,-23.10121],[-49.83519,-23.06449],[-49.9048,-23.0468],[-49.91072,-23.02729],[-49.90583,-23.01426],[-49.8987,-23.00849],[-49.89758,-23.00043],[-49.9066,-22.99222],[-49.92668,-22.97989],[-49.94385,-22.97641],[-49.96479,-22.95903],[-49.96093,-22.93982],[-49.95767,-22.9214],[-49.96831,-22.91065],[-49.97535,-22.9033],[-49.98333,-22.89721],[-49.9914,-22.895],[-49.99792,-22.89697],[-49.99981,-22.90274],[-49.99775,-22.90772],[-49.995,-22.91761],[-49.99457,-22.92717],[-50.0035,-22.92393],[-50.01226,-22.90749],[-50.05105,-22.89681],[-50.17971,-22.93152],[-50.24151,-22.93436],[-50.26588,-22.93057],[-50.33867,-22.90559],[-50.58037,-22.89863],[-50.67307,-22.88819],[-50.73315,-22.9448],[-50.8849,-22.78789],[-51.26633,-22.65869],[-51.39061,-22.65869],[-51.45035,-22.64411],[-51.50356,-22.6834],[-51.61652,-22.65425],[-51.74046,-22.62162],[-51.76037,-22.61052],[-51.85856,-22.61686],[-51.94988,-22.55125],[-52.10815,-22.51383],[-52.13219,-22.51858],[-52.15279,-22.54237],[-52.20703,-22.60514],[-52.40479,-22.6045],[-52.59018,-22.55949],[-52.80922,-22.58739],[-52.95479,-22.54934],[-53.05250200577833,-22.589484888471954],[-53.0333,-22.56326],[-52.46938,-22.24312],[-52.18025,-21.84206],[-52.15485,-21.77066],[-52.13734,-21.75567],[-52.10095,-21.74898],[-52.06387,-21.72091],[-52.01567,-21.65469],[-52.05872,-21.55339],[-51.94761,-21.52709],[-51.85959,-21.35142],[-51.84517,-21.28042],[-51.83695,-21.16436],[-51.70847,-21.01376],[-51.59396,-20.95195],[-51.61377,-20.77216],[-51.55881,-20.65746],[-51.39645,-20.45243],[-51.35388,-20.38164],[-51.30444,-20.34205],[-51.12621,-20.32872],[-51.03277,-20.2553],[-50.98343,-20.0972],[-51.00466,-19.71985],[-50.89727,-19.59653],[-50.90984,-19.51233],[-50.80469,-19.51136],[-50.83232,-19.41251],[-50.79322,-19.31756],[-50.7044,-19.21605],[-50.50871,-19.11866],[-50.46979,-18.96294],[-50.29507,-18.72433],[-50.07867,-18.70475],[-50.00712,-18.63776],[-49.77923,-18.67467],[-49.51613,-18.55368],[-49.37696,-18.67422],[-49.15715,-18.45067],[-49.05493,-18.44128],[-48.92211,-18.34673],[-48.81722,-18.41106],[-48.58162,-18.36509],[-48.31305,-18.41523],[-48.26199,-18.37616],[-47.94811,-18.53096],[-47.60765,-18.36034],[-47.55938,-18.25823],[-47.2561,-18.07387],[-47.32627,-17.83917],[-47.2408,-17.68654],[-47.23913,-17.59057],[-47.30403,-17.50324],[-47.45195,-17.48988],[-47.49031,-17.43024],[-47.09956,-17.01042],[-47.22721,-16.64375],[-47.41931,-16.48958],[-47.29491,-16.25389],[-47.30322,-16.13094],[-47.27104,-16.05093],[-47.13657,-15.98495],[-46.77543,-15.88463],[-46.82355,-15.6095],[-46.91043,-15.5426],[-46.80369,-15.32757],[-46.89394,-15.20498],[-46.87471,-15.06933],[-46.80024,-15.04986],[-46.62796,-15.12162],[-46.48913,-15.08365],[-46.51999,-14.79643],[-46.48379,-14.75919],[-46.36292,-14.83146],[-46.30307,-14.95497],[-46.06858,-14.96039],[-46.00043841254079,-14.835705238247783],[-45.9755,-14.83382],[-45.88279,-15.06923],[-44.58252,-14.31229],[-44.31885,-14.22445],[-43.99063,-14.24974],[-43.85468,-14.28435],[-43.77468,-14.33757],[-43.7788,-14.34406],[-43.84506,-14.63541],[-43.5347,-14.7284],[-43.19962,-14.62478],[-42.95105,-14.68324],[-42.28363,-15.0814],[-41.80161,-15.08008],[-41.33194,-15.50265],[-41.30722,-15.71956],[-40.97214,-15.62833],[-40.69336,-15.64949],[-40.21683,-15.78961],[-39.88175,-16.00357],[-39.84055,-16.1263],[-39.879,-16.274],[-40.22202,-16.64951],[-40.25253,-16.90837],[-40.4805,-16.95435],[-40.54779,-17.37816],[-40.17838,-17.74345],[-40.14816,-17.99832],[-39.41524,-18.33212],[-28.19195,-20.13629],[-29.00059,-22.95946],[-32.63539,-25.015],[-47.7481871164332,-25.495723301799423]]],[[[-53.08319,-22.63429],[-53.08696736461702,-22.636555501934136],[-53.08436274344301,-22.632998274601295],[-53.08319,-22.63429]]]]}}
