{"type":"Feature","properties":{"sourceId":"schwaben"},"geometry":{"type":"MultiPolygon","coordinates":[[[[10.97754,48.86601],[10.98588,48.8607],[10.97389,48.84238],[10.9997,48.84457],[11.00707,48.82376],[11.00439,48.81955],[10.97884,48.80865],[10.95707,48.80792],[10.96156,48.8028],[10.97969,48.79912],[10.98888,48.78808],[10.97558,48.77468],[10.99077,48.76729],[11.00055,48.76493],[10.9999,48.75096],[10.98921,48.74292],[10.99344,48.73544],[11.00511,48.73437],[11.00772,48.72809],[11.00302,48.72091],[10.98614,48.71734],[10.99279,48.6976],[10.9881,48.69101],[10.99977,48.68236],[11.00654,48.667],[11.0128,48.66609],[11.02017,48.65839],[11.04174,48.64633],[11.03764,48.63707],[11.04435,48.62733],[11.0276,48.6247],[11.03497,48.61462],[11.05361,48.60359],[11.06756,48.60574],[11.08099,48.60652],[11.09513,48.60544],[11.10706,48.60936],[11.12075,48.6085],[11.12551,48.59548],[11.13317,48.59295],[11.13944,48.5938],[11.15511,48.5971],[11.1647,48.58746],[11.16765,48.57612],[11.16635,48.56953],[11.15824,48.56087],[11.13851,48.5577],[11.1481,48.55025],[11.15566,48.5505],[11.19254,48.53499],[11.20544,48.53084],[11.2114,48.5259],[11.22196,48.50931],[11.21284,48.50145],[11.21948,48.49636],[11.2513,48.48651],[11.25403,48.47778],[11.26146,48.47372],[11.26511,48.46896],[11.27215,48.46966],[11.27476,48.47536],[11.30579,48.47519],[11.3067,48.47112],[11.30292,48.45496],[11.31348,48.45254],[11.30748,48.44692],[11.29393,48.44173],[11.24999,48.43913],[11.24047,48.42962],[11.21792,48.42789],[11.1981,48.41829],[11.18233,48.41655],[11.20162,48.39552],[11.20006,48.38496],[11.19119,48.37474],[11.18428,48.36426],[11.17216,48.36227],[11.17568,48.35543],[11.16994,48.34555],[11.17711,48.33515],[11.15821,48.32102],[11.13696,48.32137],[11.12288,48.31027],[11.12979,48.30178],[11.11584,48.29215],[11.12405,48.27289],[11.11232,48.26265],[11.10046,48.25831],[11.09459,48.25874],[11.07412,48.27462],[11.06369,48.27029],[11.07086,48.25536],[11.05861,48.24181],[11.04857,48.234],[11.05118,48.22419],[11.0573,48.2142],[11.06161,48.21428],[11.06213,48.19447],[11.03605,48.18961],[10.98312,48.20751],[10.9637,48.19595],[10.9401,48.2049],[10.92211,48.23478],[10.90647,48.23591],[10.8963,48.19673],[10.87996,48.16964],[10.85157,48.14283],[10.79958,48.14406],[10.79845,48.11515],[10.82281,48.10542],[10.80843,48.07882],[10.77893,48.05245],[10.79294,48.04382],[10.81691,48.0347],[10.82133,48.01596],[10.83313,47.99745],[10.81949,47.96561],[10.80216,47.93276],[10.78446,47.93103],[10.78815,47.9125],[10.79847,47.90311],[10.79368,47.88234],[10.76639,47.85958],[10.77561,47.84177],[10.75754,47.80933],[10.76418,47.79447],[10.78042,47.7809],[10.78439,47.77439],[10.78113,47.76659],[10.76835,47.76247],[10.7527,47.76264],[10.74181,47.73945],[10.73886,47.72407],[10.74144,47.71489],[10.72338,47.70794],[10.72964,47.70075],[10.73868,47.69752],[10.74015,47.69206],[10.75048,47.69243],[10.75878,47.69926],[10.79252,47.72171],[10.81446,47.72891],[10.83013,47.72878],[10.83105,47.7206],[10.82294,47.71067],[10.81313,47.70642],[10.8042,47.70611],[10.80075,47.70217],[10.80282,47.6932],[10.79578,47.67556],[10.78566,47.66331],[10.84248,47.67013],[10.92213,47.66215],[10.91698,47.63821],[10.96229,47.61507],[10.92985,47.58371],[10.88093,47.57131],[10.88889,47.53392],[10.88178,47.52942],[10.87591,47.53663],[10.81801,47.51827],[10.76906,47.51118],[10.74171,47.53637],[10.69152,47.53818],[10.68138,47.55459],[10.62368,47.55645],[10.60404,47.56591],[10.59094,47.55051],[10.57461,47.53257],[10.49749,47.53323],[10.45379,47.55245],[10.44973,47.52595],[10.47372,47.48376],[10.48173,47.4294],[10.43726,47.39769],[10.43883,47.37823],[10.40182,47.3757],[10.38819,47.35499],[10.3355,47.29986],[10.31537,47.30161],[10.23339,47.26543],[10.2063,47.27276],[10.17121,47.26603],[10.16597,47.2812],[10.1764,47.30106],[10.19147,47.29851],[10.20801,47.31714],[10.19574,47.32624],[10.20375,47.3519],[10.22684,47.37874],[10.2138,47.37801],[10.17295,47.38243],[10.17264,47.36831],[10.14605,47.36483],[10.11991,47.37176],[10.10091,47.35114],[10.08006,47.38546],[10.07789,47.40241],[10.0687,47.40827],[10.06915,47.41717],[10.098,47.43033],[10.08153,47.45287],[10.07032,47.45577],[10.04272,47.4711],[10.03818,47.48609],[10.00388,47.47645],[9.963095,47.52054],[9.96406,47.53336],[9.95568,47.53393],[9.920061,47.52883],[9.912427,47.53307],[9.883375,47.5452],[9.874799,47.52678],[9.81157,47.54853],[9.823461,47.56066],[9.819965,47.57092],[9.823333,47.58247],[9.804215,47.59309],[9.777392,47.59338],[9.754127,47.57006],[9.748009,47.55547],[9.740318,47.54851],[9.736837,47.53271],[9.606187,47.52526],[9.573045,47.53278],[9.566018249379862,47.53274288524696],[9.568846,47.53637],[9.603166,47.58191],[9.614582,47.57884],[9.646168,47.58834],[9.648056,47.59887],[9.715862,47.60142],[9.750881,47.602],[9.836712,47.66273],[9.855938,47.67394],[9.89027,47.66157],[9.932842,47.65105],[9.971638,47.64943],[9.993954,47.6744],[10.06056,47.67209],[10.06863,47.64041],[10.07635,47.63602],[10.09283,47.65787],[10.13231,47.67001],[10.14296,47.70271],[10.12064,47.76137],[10.07704,47.7864],[10.14278,47.80785],[10.1088,47.86212],[10.11463,47.93647],[10.08871,47.9628],[10.12064,47.97407],[10.1457,48.03654],[10.14261,48.1127],[10.11532,48.12737],[10.0882,48.20488],[10.07154,48.24125],[10.06897,48.28091],[10.00185,48.36435],[9.977131,48.3786],[9.989405,48.39069],[10.01327,48.40163],[10.04597,48.42761],[10.04219,48.44537],[10.10536,48.46427],[10.12699,48.4522],[10.17815,48.45744],[10.27309,48.50078],[10.24312,48.50781],[10.229682866871823,48.512907387225006],[10.26604,48.52218],[10.29831,48.52092],[10.30088,48.5498],[10.31118,48.55934],[10.30741,48.57683],[10.29048,48.59046],[10.29161,48.60533],[10.31753,48.61021],[10.29505,48.6236],[10.25377,48.66004],[10.25299,48.67832],[10.26739,48.70537],[10.34337,48.68756],[10.36321,48.66224],[10.38259,48.67047],[10.39083,48.69],[10.40428,48.70039],[10.4218,48.70354],[10.43505,48.6996],[10.44066,48.69371],[10.42393,48.6663],[10.46111,48.67397],[10.48199,48.68891],[10.46679,48.70475],[10.46549,48.71368],[10.45917,48.72447],[10.44431,48.72715],[10.42748,48.73751],[10.41392,48.74759],[10.41822,48.75879],[10.4098,48.77062],[10.41993,48.80053],[10.44368,48.81237],[10.44379,48.83088],[10.42367,48.83673],[10.42791,48.84647],[10.44596,48.8528],[10.44111,48.89356],[10.41523,48.90561],[10.45243,48.91795],[10.43624,48.93225],[10.42216,48.95368],[10.40148,48.96737],[10.39448,48.97422],[10.400578931145095,48.97672590524391],[10.42792,48.97665],[10.43551,48.98301],[10.43145,48.99305],[10.44455,49.00224],[10.51424,49.002],[10.54724,49.00527],[10.55775,49.02171],[10.55314,49.02788],[10.59131,49.03284],[10.60237,49.01639],[10.61288,49.01119],[10.62726,49.01676],[10.63611,49.01216],[10.62523,48.99269],[10.63519,48.97914],[10.65067,48.98131],[10.66634,48.98059],[10.67409,48.97163],[10.68552,48.95626],[10.68478,48.941],[10.66303,48.92356],[10.67003,48.9112],[10.69363,48.90308],[10.71612,48.89702],[10.72737,48.89957],[10.74526,48.92199],[10.77181,48.91217],[10.78065,48.9169],[10.78139,48.92671],[10.80296,48.9387],[10.82232,48.91811],[10.80389,48.90745],[10.82103,48.89351],[10.83836,48.89351],[10.85182,48.88369],[10.86657,48.87278],[10.9241,48.86247],[10.96355,48.85325],[10.96705,48.85628],[10.970857281664781,48.863593119119656],[10.97754,48.86601]]],[[[9.512461,47.53246],[9.512461125707915,47.53246243656082],[9.537032173545128,47.532589783037345],[9.512461,47.53246]]]]}}
