{"type":"Feature","properties":{"sourceId":"stredocesky"},"geometry":{"type":"Polygon","coordinates":[[[14.35432,49.52916],[14.34351,49.5329],[14.34201,49.5325],[14.33167,49.52936],[14.33587,49.54033],[14.30691,49.55194],[14.29962,49.54707],[14.29386,49.5604],[14.26603,49.56931],[14.2341,49.5654],[14.2251,49.56287],[14.20721,49.53823],[14.12042,49.53766],[14.12263,49.52984],[14.10675,49.53854],[14.09948,49.53591],[14.09894,49.52997],[14.06879,49.53363],[14.07812,49.55722],[14.0714,49.55887],[14.06189,49.56289],[14.06181,49.56294],[14.05152,49.55989],[14.0388,49.56034],[14.02976,49.55284],[14.02379,49.55155],[14.00863,49.55105],[14.00984,49.54209],[14.00602,49.53022],[13.9978,49.53164],[14.0001,49.5234],[13.99707,49.5195],[13.99495,49.52476],[13.98769,49.52912],[13.98145,49.52426],[13.97624,49.51311],[13.96319,49.51303],[13.9504,49.51847],[13.93556,49.51359],[13.93316,49.50414],[13.90037,49.511],[13.9017,49.51409],[13.88157,49.52322],[13.86456,49.52733],[13.85779,49.52411],[13.85147,49.51513],[13.83457,49.51463],[13.83433,49.51752],[13.82801,49.52476],[13.82141,49.52877],[13.80432,49.51824],[13.79072,49.51964],[13.79061,49.51513],[13.78351,49.51124],[13.765796100923776,49.51456541996292],[13.76879,49.51724],[13.7742,49.5354],[13.7669,49.54649],[13.74713,49.55365],[13.74253,49.58441],[13.754,49.59631],[13.75626,49.62606],[13.77606,49.63811],[13.76604,49.64852],[13.77754,49.6683],[13.78681,49.66874],[13.80635,49.69088],[13.82438,49.68491],[13.84247,49.69596],[13.82212,49.75342],[13.81447,49.76077],[13.799,49.76685],[13.78411,49.762],[13.79591,49.7689],[13.80211,49.78134],[13.79187,49.80022],[13.80467,49.80347],[13.80971,49.81144],[13.80704,49.83637],[13.8141,49.85316],[13.81136,49.86538],[13.82934,49.86513],[13.83492,49.86748],[13.82955,49.89012],[13.82196,49.92119],[13.83586,49.92847],[13.8098,49.92867],[13.78334,49.9428],[13.7572,49.94421],[13.75043,49.94059],[13.75387,49.95745],[13.74879,49.96641],[13.73883,49.9648],[13.72373,49.96845],[13.71051,49.96712],[13.70192,49.96353],[13.70124,49.97126],[13.69223,49.97943],[13.68133,49.97954],[13.67137,49.98942],[13.66882,49.99685],[13.65687,50.0022],[13.64468,50.00314],[13.62991,50.00079],[13.61661,49.99389],[13.57148,49.9949],[13.55447,50.01028],[13.53508,50.0152],[13.52355,50.01485],[13.51577,50.02095],[13.5081,50.02059],[13.50426,50.02219],[13.51024,50.02954],[13.53846,50.02812],[13.53898,50.03149],[13.52554,50.03498],[13.52048,50.04097],[13.51287,50.04214],[13.4967,50.04033],[13.49209,50.03596],[13.48798,50.0339],[13.48009,50.03883],[13.4802,50.03896],[13.47999,50.03894],[13.47991,50.03894],[13.4716,50.04413],[13.44469,50.04264],[13.42684,50.02991],[13.42469,50.03548],[13.40169,50.03432],[13.41268,50.04843],[13.41276,50.05119],[13.43111,50.06034],[13.43096,50.0724],[13.41080953711378,50.088478863715494],[13.42623,50.10354],[13.42796,50.10801],[13.45386,50.10376],[13.4645,50.10449],[13.47214,50.11364],[13.47015,50.12835],[13.47816,50.1248],[13.49319,50.12658],[13.49525,50.14856],[13.49181,50.16229],[13.5144,50.16757],[13.53567,50.18366],[13.53781,50.18765],[13.56206,50.18793],[13.56698,50.18583],[13.56848,50.1848],[13.56917,50.18451],[13.572,50.18483],[13.57466,50.18632],[13.58762,50.18734],[13.60872,50.19049],[13.63202,50.20792],[13.63429,50.20948],[13.63536,50.2136],[13.64717,50.21833],[13.66919,50.23632],[13.66903,50.22487],[13.67089,50.2211],[13.6996,50.22066],[13.75248,50.22241],[13.76065,50.238],[13.76234,50.23238],[13.76996,50.23098],[13.81457,50.2613],[13.83878,50.23882],[13.86455,50.24255],[13.87948,50.26877],[13.90986,50.27334],[13.91144,50.27102],[13.91796,50.27204],[13.92114,50.27324],[13.92517,50.27513],[13.92702,50.27637],[13.94174,50.27898],[13.95916,50.29165],[13.95611,50.30414],[13.96997,50.30151],[13.97912,50.30168],[13.98169,50.30179],[13.99126,50.30329],[13.99452,50.30719],[13.99139,50.31442],[13.99186,50.31815],[13.9839,50.33261],[13.99559,50.33648],[14.00942,50.34512],[14.03138,50.34001],[14.04954,50.341],[14.0549,50.34001],[14.064,50.33957],[14.07498,50.33457],[14.14298,50.32923],[14.18248,50.33302],[14.18542,50.34355],[14.19253,50.33906],[14.20609,50.3319],[14.21764,50.33856],[14.24476,50.33034],[14.24907,50.32622],[14.27531,50.35271],[14.28308,50.34957],[14.29527,50.34883],[14.32424,50.35075],[14.35141,50.34839],[14.36637,50.35022],[14.37273,50.35865],[14.37814,50.37598],[14.38189,50.395],[14.36561,50.40704],[14.37494,50.40826],[14.37992,50.41063],[14.37063,50.42221],[14.36411,50.42888],[14.37729,50.43422],[14.38531,50.4293],[14.39368,50.42542],[14.40531,50.42263],[14.41715,50.41938],[14.41851,50.42243],[14.42411,50.42115],[14.42286,50.42796],[14.42275,50.4354],[14.42378,50.43815],[14.42681,50.43963],[14.42639,50.45019],[14.44323,50.44536],[14.44942,50.44608],[14.44951,50.45283],[14.46075,50.4486],[14.47397,50.44895],[14.47273,50.45174],[14.47384,50.45469],[14.47264,50.45821],[14.47419,50.46059],[14.47444,50.46259],[14.47174,50.46884],[14.47112,50.47138],[14.47273,50.4734],[14.47269,50.47499],[14.47067,50.4799],[14.45681,50.49664],[14.47487,50.49839],[14.47118,50.50808],[14.484784078528294,50.5048601995057],[14.48509,50.5033],[14.48702,50.49888],[14.50055,50.49055],[14.51121,50.50822],[14.518,50.50857],[14.53191,50.49656],[14.54744,50.49492],[14.55448,50.49585],[14.55328,50.50349],[14.56006,50.50415],[14.56701,50.50614],[14.5689,50.50966],[14.57817,50.50977],[14.57645,50.50835],[14.5759,50.50224],[14.57448,50.4941],[14.57585,50.48995],[14.58195,50.47884],[14.58624,50.47469],[14.58953,50.47232],[14.61064,50.47113],[14.61791,50.47821],[14.63096,50.48012],[14.6343,50.48444],[14.64151,50.47947],[14.65104,50.47886],[14.65136,50.48449],[14.69353,50.47871],[14.69303,50.48429],[14.69068,50.49065],[14.72069,50.49752],[14.72674,50.5191],[14.73782,50.51747],[14.75215,50.51555],[14.75833,50.52418],[14.75884,50.53214],[14.75344,50.54164],[14.75237,50.55513],[14.82809,50.5372],[14.85276,50.55242],[14.86242,50.55696],[14.84858,50.57112],[14.89524,50.57931],[14.9104,50.58557],[14.9001,50.60252],[14.9194,50.60622],[14.91275,50.61737],[14.93008,50.6156],[14.92962,50.60737],[14.93975,50.60404],[14.9451,50.59853],[14.95774,50.59362],[14.96213,50.59399],[14.96816,50.5913],[14.97555,50.59839],[14.97383,50.60206],[14.98306,50.6015],[14.98488,50.60157],[14.98655,50.60096],[14.99342,50.59942],[15.00533,50.59845],[15.01722,50.58614],[15.02284,50.5849],[15.0297,50.57841],[15.03196,50.57768],[15.03548,50.57948],[15.03608,50.5731],[15.03936,50.56502],[15.05017,50.56701],[15.05837,50.57021],[15.06487,50.56995],[15.06635,50.56604],[15.06818,50.56466],[15.07118,50.56337],[15.07504,50.56254],[15.07435,50.56012],[15.0888,50.55589],[15.09004,50.55078],[15.09534,50.543],[15.09734,50.53446],[15.09953,50.53468],[15.102,50.53274],[15.10432,50.53142],[15.10587,50.5316],[15.10756,50.53229],[15.10957,50.53253],[15.11463,50.53232],[15.11609,50.52992],[15.11831,50.52885],[15.13259,50.52822],[15.140894712942638,50.52153937100315],[15.12167,50.50975],[15.11877,50.51004],[15.1141,50.50786],[15.11242,50.50608],[15.11277,50.50338],[15.11706,50.49694],[15.12392,50.49549],[15.13197,50.48912],[15.13435,50.48468],[15.1279,50.48067],[15.12738,50.47974],[15.1433,50.47492],[15.141,50.4728],[15.1351,50.47258],[15.13414,50.4707],[15.13483,50.4669],[15.13418,50.45906],[15.12775,50.45034],[15.13487,50.44641],[15.14045,50.44597],[15.14783,50.44226],[15.15066,50.43805],[15.14757,50.42908],[15.16113,50.42629],[15.15349,50.40901],[15.13504,50.40589],[15.13598,50.39533],[15.14031,50.38907],[15.11682,50.39016],[15.10268,50.37612],[15.117,50.36622],[15.12508,50.34601],[15.15423,50.33764],[15.16648,50.34485],[15.16865,50.34412],[15.16887,50.34388],[15.16977,50.34348],[15.17064,50.34313],[15.17123,50.34293],[15.17177,50.34268],[15.17207,50.34266],[15.17229,50.3426],[15.17243,50.34252],[15.17291,50.34237],[15.17327,50.34218],[15.17369,50.3422],[15.1737,50.34202],[15.17399,50.34193],[15.17446,50.34201],[15.17479,50.34186],[15.17475,50.3417],[15.17508,50.3416],[15.17531,50.34162],[15.17552,50.34161],[15.17559,50.34171],[15.17559,50.34181],[15.18604,50.33831],[15.18422,50.33516],[15.18406,50.33518],[15.18374,50.33535],[15.18369,50.33548],[15.18352,50.33541],[15.18234,50.33537],[15.18208,50.3351],[15.18202,50.3349],[15.18191,50.33438],[15.18191,50.33395],[15.18199,50.33367],[15.18199,50.33358],[15.18196,50.33358],[15.18202,50.33319],[15.18205,50.33288],[15.1821,50.33263],[15.18215,50.33234],[15.18196,50.33152],[15.18189,50.33132],[15.18169,50.33104],[15.18155,50.33078],[15.18152,50.33061],[15.18152,50.33049],[15.17957,50.32711],[15.19564,50.32508],[15.21315,50.31763],[15.20302,50.31291],[15.19907,50.30798],[15.20525,50.30513],[15.20405,50.29537],[15.22921,50.28885],[15.22985,50.28944],[15.23231,50.28837],[15.23174,50.28745],[15.23197,50.287],[15.23672,50.2858],[15.26422,50.29285],[15.27364,50.28872],[15.30713,50.27979],[15.35047,50.29631],[15.35356,50.28934],[15.37382,50.28298],[15.37365,50.26981],[15.37485,50.25423],[15.36524,50.24775],[15.37313,50.23156],[15.3715,50.22802],[15.37053,50.22673],[15.37176,50.22621],[15.37783,50.2247],[15.37702,50.22413],[15.37903,50.22208],[15.38004,50.21886],[15.38984,50.21747],[15.39021,50.20542],[15.3952,50.19816],[15.37425,50.17695],[15.3552,50.16647],[15.35629,50.16284],[15.37203,50.15656],[15.34931,50.14578],[15.34906,50.14577],[15.34854,50.14577],[15.34859,50.14544],[15.34652,50.14446],[15.36301,50.14325],[15.38112,50.14374],[15.3885,50.13835],[15.39914,50.13505],[15.40416,50.13471],[15.40511,50.13603],[15.405,50.1374],[15.40663,50.13933],[15.40998,50.13889],[15.41326,50.13603],[15.41927,50.13299],[15.42485,50.1296],[15.44023,50.12564],[15.4462,50.12387],[15.43268,50.11502],[15.436779324965894,50.1104584750643],[15.43444,50.11122],[15.43236,50.11143],[15.42963,50.10074],[15.42084,50.10426],[15.41957,50.10642],[15.41496,50.10822],[15.40729,50.10554],[15.39873,50.09556],[15.40073,50.09381],[15.40873,50.09316],[15.40738,50.09193],[15.40983,50.09048],[15.41207,50.09145],[15.41208,50.09146],[15.41746,50.08981],[15.40532,50.08718],[15.40379,50.08581],[15.41086,50.06495],[15.38039,50.06127],[15.37455,50.05562],[15.37897,50.05364],[15.38266,50.05177],[15.38923,50.05185],[15.39378,50.04951],[15.38693,50.04729],[15.38324,50.04778],[15.37811,50.04765],[15.37534,50.04645],[15.37301,50.04364],[15.36831,50.04263],[15.36528,50.04236],[15.36339,50.04179],[15.3626,50.04102],[15.38052,50.02368],[15.40317,50.01778],[15.41193,50.01882],[15.42249,50.00851],[15.44515,50.00432],[15.4551,50.00923],[15.45304,50.00206],[15.45854,49.99643],[15.47169,50.00107],[15.47124,49.99395],[15.45948,49.98666],[15.50566,49.96596],[15.51381,49.96701],[15.51757,49.96704],[15.51866,49.96661],[15.5199,49.96646],[15.51937,49.96533],[15.51787,49.96366],[15.51793,49.96226],[15.5294,49.96111],[15.5138,49.94098],[15.53201,49.92631],[15.5254,49.92382],[15.51776,49.91155],[15.51278,49.90077],[15.49664,49.89817],[15.49819,49.89087],[15.50231,49.88413],[15.49533,49.86983],[15.50018,49.86326],[15.50025,49.86263],[15.49918,49.862],[15.49838,49.86152],[15.49791,49.86174],[15.49665,49.86126],[15.49669388241257,49.861143730359856],[15.49626,49.86083],[15.49542,49.86045],[15.49456,49.86047],[15.48263,49.85388],[15.47873,49.85247],[15.47622,49.85161],[15.47457,49.85109],[15.47362,49.85073],[15.47326,49.85015],[15.47368,49.84887],[15.47372,49.84861],[15.47437,49.84806],[15.4745,49.84537],[15.4736,49.84366],[15.44589,49.8466],[15.42034,49.83389],[15.4121,49.82298],[15.4182,49.815],[15.43308,49.80435],[15.42289,49.79369],[15.38906,49.80052],[15.38147,49.80123],[15.36966,49.78927],[15.3697,49.78628],[15.36923,49.7847],[15.36726,49.78248],[15.36713,49.78096],[15.35859,49.77974],[15.34738,49.77206],[15.33597,49.77611],[15.31271,49.76763],[15.29932,49.76907],[15.28344,49.76569],[15.27065,49.75693],[15.26241,49.75604],[15.25718,49.75632],[15.25443,49.76425],[15.24937,49.76441],[15.22413,49.75748],[15.21821,49.74867],[15.22284,49.74362],[15.21358,49.73968],[15.21469,49.73008],[15.20516,49.72498],[15.18096,49.71099],[15.17675,49.69634],[15.17907,49.67601],[15.18312,49.66673],[15.2346,49.65485],[15.24772,49.64274],[15.24293,49.6389],[15.23847,49.627],[15.22868,49.61972],[15.22735,49.61625],[15.20293,49.61605],[15.18877,49.62039],[15.18336,49.61961],[15.17744,49.61655],[15.16885,49.61452],[15.16873,49.60537],[15.16242,49.59636],[15.16327,49.59087],[15.15397,49.59625],[15.148,49.60198],[15.1438,49.60381],[15.1389,49.60481],[15.12388,49.60392],[15.12011,49.60821],[15.11799,49.61178],[15.05337,49.59599],[15.04571,49.60071],[15.03649,49.60205],[15.02209,49.59929],[15.01595,49.60073],[15.01361,49.60088],[15.01258,49.60028],[15.0099,49.60137],[15.00797,49.60367],[15.00344,49.608],[14.99705,49.60941],[14.97454,49.6047],[14.96687,49.59674],[14.98933,49.58296],[14.96899,49.57878],[14.96565,49.57878],[14.96448,49.57889],[14.96352,49.57917],[14.96238,49.57944],[14.96122,49.57981],[14.93887,49.58061],[14.9348,49.56737],[14.94278,49.55938],[14.93329,49.55865],[14.92956,49.5557],[14.93042,49.55086],[14.929982177929022,49.55011570247934],[14.92571,49.55077],[14.90505,49.54529],[14.88355,49.57525],[14.87828,49.58687],[14.86843,49.59229],[14.85372,49.58776],[14.84634,49.5809],[14.81405,49.60293],[14.80588,49.60278],[14.78035,49.60607],[14.7682,49.62119],[14.76541,49.62122],[14.76022,49.61163],[14.75198,49.61068],[14.74116,49.60642],[14.74039,49.60326],[14.74284,49.59947],[14.74471,49.59548],[14.72916,49.59774],[14.72201,49.59295],[14.73181,49.58561],[14.72191,49.58016],[14.71733,49.56918],[14.72547,49.55875],[14.73516,49.55248],[14.71241,49.5437],[14.69244,49.54543],[14.64907,49.5203],[14.64756,49.50476],[14.63508,49.51996],[14.62302,49.52],[14.60905,49.52332],[14.58431,49.51978],[14.5789,49.52301],[14.59152,49.53345],[14.5916,49.54164],[14.58987,49.54561],[14.57035,49.53697],[14.56783,49.53908],[14.55641,49.53298],[14.53521,49.53735],[14.51268,49.53733],[14.5118,49.54455],[14.47714,49.54754],[14.46262,49.53636],[14.46114,49.53285],[14.45698,49.53401],[14.45678,49.53791],[14.44459,49.55012],[14.42745,49.54704],[14.41999,49.551],[14.41842,49.55179],[14.4175,49.55251],[14.41726,49.55363],[14.41627,49.55467],[14.41531,49.55556],[14.40589,49.55926],[14.39881,49.55478],[14.40244,49.54261],[14.39315,49.54399],[14.38222,49.54287],[14.37509,49.53802],[14.35432,49.52916]],[[14.4847,49.99182],[14.48421,49.99233],[14.50702,49.99727],[14.50888,49.99396],[14.50721,49.99371],[14.50781,49.99192],[14.51393,49.99236],[14.51361,49.99442],[14.51704,49.99473],[14.51788,49.99421],[14.51948,49.99484],[14.51929,49.99697],[14.52472,49.99713],[14.53129,50.00058],[14.52197,50.00756],[14.52912,50.01037],[14.53551,50.01145],[14.54165,50.00855],[14.55094,50.00757],[14.55382,50.00956],[14.55467,50.01182],[14.55487,50.0108],[14.56249,50.01142],[14.56382,50.0095],[14.56682,50.00913],[14.56832,50.00719],[14.57206,50.00901],[14.57502,50.0119],[14.58184,50.01578],[14.58135,50.01076],[14.58849,50.00843],[14.59472,50.00693],[14.60143,50.0088],[14.60358,50.0017],[14.6083,50.0001],[14.61057,49.99828],[14.61637,49.99811],[14.61907,49.9973],[14.62252,49.99837],[14.62905,49.99522],[14.64025,49.99421],[14.6475,49.99868],[14.64199,50.00331],[14.63896,50.00575],[14.6455,50.00451],[14.6499,50.00837],[14.65782,50.00418],[14.66286,50.00821],[14.66587,50.01258],[14.66913,50.01317],[14.67001,50.01887],[14.65671,50.0309],[14.65746,50.03755],[14.66821,50.03815],[14.66134,50.04463],[14.65834,50.04697],[14.654,50.04989],[14.64476,50.04278],[14.64436,50.04358],[14.64128,50.04847],[14.64149,50.05486],[14.64043,50.05679],[14.64252,50.05715],[14.64617,50.05867],[14.65231,50.05945],[14.65227,50.06064],[14.65907,50.06107],[14.659,50.06197],[14.66711,50.0636],[14.67034,50.06566],[14.68354,50.06942],[14.68931,50.07113],[14.69089,50.07191],[14.69449,50.07175],[14.69698,50.07182],[14.70017,50.07197],[14.70187,50.07616],[14.70281,50.07641],[14.70499,50.08203],[14.70695,50.08706],[14.70585,50.09029],[14.70458,50.09176],[14.69662,50.09428],[14.69287,50.09553],[14.68888,50.09638],[14.68881,50.0988],[14.69125,50.09992],[14.69049,50.10062],[14.68999,50.10078],[14.68665,50.10098],[14.68016,50.10151],[14.67625,50.10186],[14.6728,50.10294],[14.66849,50.10407],[14.66521,50.10354],[14.66165,50.10523],[14.66086,50.10658],[14.65761,50.10663],[14.65687,50.10989],[14.65911,50.1178],[14.65973,50.12073],[14.6593,50.12272],[14.65304,50.12352],[14.64758,50.12429],[14.64096,50.12365],[14.63961,50.12431],[14.63561,50.12411],[14.6355,50.12714],[14.63396,50.12889],[14.63251,50.13008],[14.6217,50.12795],[14.62063,50.12966],[14.60863,50.12725],[14.60787,50.12794],[14.60121,50.12938],[14.59633,50.13301],[14.59285,50.13922],[14.59008,50.13975],[14.59171,50.1428],[14.58896,50.14409],[14.5879,50.14529],[14.59332,50.1476],[14.59914,50.15384],[14.59924,50.15429],[14.5941,50.15396],[14.5894,50.15443],[14.58725,50.15417],[14.58423,50.15375],[14.58387,50.15302],[14.58152,50.15143],[14.57861,50.15032],[14.57831,50.15088],[14.57306,50.15022],[14.56598,50.15196],[14.56345,50.15062],[14.56128,50.15513],[14.56321,50.15603],[14.56126,50.16199],[14.55049,50.16655],[14.54388,50.16413],[14.54255,50.16315],[14.54064,50.16526],[14.53978,50.16504],[14.53422,50.16208],[14.53298,50.16669],[14.53281,50.17734],[14.52678,50.17756],[14.52635,50.17661],[14.51899,50.17495],[14.51871,50.17528],[14.51676,50.17484],[14.51639,50.17518],[14.50856,50.17426],[14.50633,50.17201],[14.47869,50.17305],[14.47878,50.1703],[14.46638,50.17005],[14.4656,50.16585],[14.46333,50.16508],[14.46363,50.16007],[14.452,50.15854],[14.43685,50.15768],[14.43614,50.15919],[14.42756,50.15768],[14.42848,50.15456],[14.41975,50.15322],[14.42035,50.14981],[14.41389,50.14829],[14.39988,50.14825],[14.39666,50.1436],[14.39518,50.14224],[14.38494,50.14725],[14.37181,50.14827],[14.36602,50.14822],[14.36158,50.14666],[14.35555,50.14125],[14.35398,50.13786],[14.3549,50.12475],[14.35823,50.12006],[14.36001,50.11645],[14.33905,50.11732],[14.32759,50.11706],[14.32124,50.1156],[14.31617,50.1288],[14.30581,50.1304],[14.3024,50.13045],[14.29334,50.12459],[14.29663,50.12092],[14.29182,50.11846],[14.2869,50.11598],[14.27869,50.11956],[14.26131,50.11437],[14.2568,50.11509],[14.24796,50.11115],[14.23762,50.11207],[14.2339,50.10713],[14.22365,50.10379],[14.22442,50.10182],[14.22558,50.10005],[14.23635,50.10065],[14.24624,50.1025],[14.25206,50.10174],[14.25384,50.09652],[14.2606,50.09546],[14.26062,50.08715],[14.26779,50.08546],[14.27339,50.08562],[14.27502,50.08084],[14.28416,50.08105],[14.28437,50.0781],[14.28911,50.07586],[14.28849,50.07389],[14.2827,50.07462],[14.2803,50.07382],[14.26959,50.07341],[14.25708,50.07202],[14.25721,50.06801],[14.25789,50.06701],[14.25783,50.06478],[14.24669,50.06253],[14.24701,50.05867],[14.25021,50.05646],[14.25444,50.05689],[14.25697,50.05405],[14.26186,50.05499],[14.26394,50.05211],[14.27047,50.05369],[14.26922,50.04966],[14.26744,50.04917],[14.26993,50.04646],[14.26794,50.04365],[14.26978,50.03964],[14.27439,50.035],[14.28107,50.03205],[14.28508,50.02892],[14.29023,50.02609],[14.29534,50.02471],[14.29785,50.02325],[14.30047,50.02445],[14.31467,50.02325],[14.31557,50.02091],[14.31443,50.01589],[14.31227,50.01276],[14.31079,50.00796],[14.30843,50.00778],[14.30371,50.01141],[14.30042,50.01222],[14.29911,50.00443],[14.29454,50.00244],[14.30004,49.99791],[14.30534,49.99719],[14.30714,49.99515],[14.30961,49.99374],[14.31782,49.98855],[14.32673,49.99083],[14.336,49.99331],[14.33937,49.99091],[14.34038,49.99028],[14.33488,49.98862],[14.33407,49.98697],[14.33518,49.98596],[14.33845,49.98484],[14.33694,49.98261],[14.33892,49.9807],[14.33203,49.97747],[14.32939,49.97558],[14.32682,49.97264],[14.32658,49.97118],[14.32714,49.97053],[14.33207,49.97078],[14.33718,49.97304],[14.34362,49.9747],[14.34593,49.97324],[14.34621,49.97264],[14.3454,49.97125],[14.34473,49.96818],[14.34417,49.96697],[14.34147,49.96606],[14.33834,49.96681],[14.33465,49.96767],[14.33008,49.96549],[14.32707,49.96342],[14.32626,49.96153],[14.32553,49.95988],[14.32465,49.95818],[14.32514,49.95713],[14.32647,49.95604],[14.32913,49.95542],[14.33239,49.95379],[14.33572,49.95132],[14.33744,49.94822],[14.34081,49.94697],[14.36108,49.94664],[14.36499,49.94809],[14.36874,49.95068],[14.37179,49.94998],[14.37171,49.94735],[14.37677,49.94577],[14.37999,49.94869],[14.38715,49.94923],[14.38917,49.94472],[14.39531,49.94151],[14.39685,49.94256],[14.39718,49.94481],[14.39548,49.94912],[14.39464,49.95328],[14.39505,49.95553],[14.39827,49.9616],[14.40026,49.96776],[14.40117,49.97016],[14.41102,49.96558],[14.41829,49.96331],[14.42308,49.96341],[14.42784,49.96417],[14.43305,49.9671],[14.43876,49.96765],[14.44247,49.96968],[14.44462,49.97353],[14.4491,49.97324],[14.45239,49.97199],[14.45509,49.97168],[14.4582,49.97154],[14.46241,49.97041],[14.46429,49.97259],[14.46659,49.98062],[14.46951,49.97956],[14.47423,49.98027],[14.47434,49.98303],[14.48741,49.98546],[14.48717,49.98772],[14.48487,49.98759],[14.48524,49.99011],[14.4847,49.99182]]]}}
