{"type":"Feature","properties":{"sourceId":"shaanxi"},"geometry":{"type":"Polygon","coordinates":[[[105.702,32.92585],[105.7664,32.93291],[105.8195,32.96431],[105.8613,32.94833],[105.9137,32.99686],[105.9046,33.05759],[105.9152,33.12289],[105.8897,33.14186],[105.8864,33.15322],[105.918,33.17391],[105.9602,33.15882],[105.9549,33.20595],[105.9192,33.23969],[105.8437,33.23194],[105.8249,33.25075],[105.791,33.26123],[105.7824,33.28132],[105.7367,33.28663],[105.7312,33.31819],[105.7501,33.32178],[105.7408,33.34243],[105.7256,33.34831],[105.6998,33.37871],[105.6955,33.39333],[105.7316,33.40121],[105.8215,33.38358],[105.8342,33.40565],[105.8207,33.4651],[105.8344,33.49989],[105.8766,33.52923],[105.8783,33.53882],[105.8957,33.55742],[105.9171,33.56171],[105.936,33.57673],[105.9506,33.59789],[105.9497,33.61905],[106.0416,33.61076],[106.0797,33.61991],[106.1283,33.60561],[106.153,33.58574],[106.1585,33.56157],[106.1853,33.5517],[106.2017,33.56557],[106.2747,33.61276],[106.3097,33.61319],[106.3351,33.59718],[106.3674,33.62105],[106.4318,33.62648],[106.4479,33.61919],[106.4498,33.59546],[106.4694,33.53581],[106.4937,33.54512],[106.5173,33.52251],[106.5492,33.53667],[106.544,33.58102],[106.5689,33.58116],[106.5688,33.62949],[106.5106,33.69964],[106.4695,33.70978],[106.4778,33.76944],[106.4694,33.78457],[106.4517,33.78671],[106.4436,33.80982],[106.4491,33.83249],[106.4809,33.85131],[106.4646,33.87512],[106.4453,33.867],[106.4201,33.86443],[106.411,33.87369],[106.4021,33.9106],[106.4184,33.92047],[106.4259,33.92581],[106.4295,33.93079],[106.4427,33.94201],[106.4375,33.95308],[106.468,33.99888],[106.4585,34.03189],[106.4908,34.1172],[106.5502,34.12204],[106.5705,34.14733],[106.5258,34.23707],[106.4829,34.23849],[106.4812,34.26147],[106.5169,34.30005],[106.6642,34.26403],[106.685,34.32],[106.6759,34.32983],[106.7037,34.36611],[106.6988,34.3698],[106.6912,34.37167],[106.6876,34.37613],[106.678,34.37465],[106.6749,34.37808],[106.6753,34.38428],[106.669,34.38403],[106.6631,34.38251],[106.6566,34.38258],[106.6461,34.3897],[106.6327,34.3926],[106.6296,34.40202],[106.6155,34.41123],[106.6151,34.42822],[106.6033,34.44932],[106.5958,34.44953],[106.5845,34.45618],[106.5912,34.46425],[106.5811,34.46545],[106.5776,34.46687],[106.5766,34.47196],[106.5618,34.47769],[106.5555,34.48173],[106.5546,34.48802],[106.55,34.48979],[106.539,34.47798],[106.5346,34.47847],[106.5338,34.48406],[106.5361,34.49114],[106.5311,34.4934],[106.5204,34.4934],[106.5078,34.49913],[106.5056,34.50677],[106.5081,34.51257],[106.4972,34.51221],[106.4843,34.51731],[106.4816,34.52516],[106.4772,34.52219],[106.4711,34.52243],[106.465,34.52455],[106.4637,34.52774],[106.4639,34.53039],[106.4604,34.52961],[106.4597,34.52392],[106.4552,34.52342],[106.4528,34.52431],[106.4522,34.52731],[106.4522,34.5312],[106.4491,34.53081],[106.4471,34.52487],[106.4408,34.52367],[106.4354,34.5248],[106.4292,34.52749],[106.42,34.52417],[106.4142,34.5236],[106.4057,34.52417],[106.4022,34.52197],[106.3992,34.51724],[106.3992,34.51271],[106.3954,34.50896],[106.3574,34.51221],[106.3276,34.51589],[106.3341,34.56665],[106.302,34.57867],[106.3089,34.58885],[106.3684,34.62572],[106.435,34.67007],[106.4359,34.70535],[106.4697,34.71876],[106.4992,34.75036],[106.5494,34.76658],[106.5409,34.86058],[106.5171,34.87664],[106.5013,34.92324],[106.4838,34.93872],[106.4716,34.98374],[106.4824,35.02395],[106.4975,35.03688],[106.5214,35.04728],[106.5336,35.08747],[106.5614,35.09533],[106.6338,35.08016],[106.6963,35.08396],[106.7078,35.10769],[106.725,35.105],[106.7545,35.1025],[106.8036,35.08775],[106.8362,35.08494],[106.8577,35.09856],[106.8995,35.098],[106.9363,35.08536],[106.9586,35.06794],[106.9828,35.07454],[107.0401,35.04532],[107.0863,35.0269],[107.1239,34.95645],[107.1708,34.94674],[107.1972,34.8879],[107.2865,34.94181],[107.4152,34.93647],[107.5235,34.91578],[107.5471,34.97094],[107.5671,34.97502],[107.5953,34.9663],[107.6204,34.96728],[107.6435,34.94055],[107.6679,34.9549],[107.7082,34.96728],[107.85,34.99246],[107.8253,35.01903],[107.8061,35.02564],[107.746,35.07019],[107.7565,35.08634],[107.7465,35.09323],[107.7357,35.09913],[107.7218,35.12482],[107.716,35.14377],[107.7,35.175],[107.678,35.21645],[107.6643,35.21155],[107.6423,35.24197],[107.6494,35.25683],[107.6598,35.25894],[107.6843,35.25389],[107.6943,35.25796],[107.7053,35.25929],[107.7162,35.27218],[107.7037,35.29432],[107.7057,35.30189],[107.742,35.31428],[107.7776,35.30231],[107.8076,35.28697],[107.8839,35.26125],[107.8946,35.26405],[107.9293,35.25732],[107.9288,35.27078],[107.9545,35.26973],[107.9587,35.26524],[107.9551,35.24422],[108.0592,35.263],[108.0683,35.2678],[108.0766,35.27596],[108.0897,35.28206],[108.1855,35.30812],[108.2217,35.29986],[108.2323,35.28795],[108.2382,35.2644],[108.295,35.27758],[108.3367,35.30574],[108.3432,35.30448],[108.3806,35.28654],[108.4268,35.27996],[108.4773,35.28514],[108.5374,35.31218],[108.5908,35.30938],[108.5981,35.35322],[108.6122,35.41843],[108.5858,35.50652],[108.6064,35.54927],[108.5363,35.59451],[108.5144,35.62744],[108.5089,35.66343],[108.5,35.71],[108.4886,35.87152],[108.4948,35.90323],[108.6658,36.01356],[108.6723,36.08379],[108.6991,36.13898],[108.6297,36.2476],[108.6259,36.35136],[108.6091,36.4257],[108.5573,36.43206],[108.5144,36.46133],[108.5109,36.4373],[108.4917,36.4141],[108.4543,36.41714],[108.385,36.445],[108.37,36.495],[108.318,36.54991],[108.2528,36.54716],[108.115,36.56],[108.0698,36.59706],[108.0481,36.58742],[107.929,36.65575],[107.885,36.74],[107.695,36.785],[107.6715,36.8222],[107.6416,36.80929],[107.59,36.815],[107.5345,36.8255],[107.4751,36.89967],[107.367,36.88621],[107.33,36.905],[107.2983,36.90982],[107.287,36.92849],[107.2702,37.01516],[107.26245218601211,37.09217867649131],[107.2781,37.09188],[107.3055,37.09572],[107.3433,37.13897],[107.33,37.205],[107.31,37.22],[107.325,37.24],[107.2636,37.3254],[107.2925,37.4754],[107.38,37.545],[107.3632,37.60281],[107.4834,37.69306],[107.4964,37.75226],[107.6454,37.77452],[107.6571,37.86564],[107.643044079191,37.874090672973594],[107.6447,37.88244],[107.6822,37.8922],[107.9812,37.79188],[108.0399,37.65882],[108.1491,37.63762],[108.2534,37.67105],[108.3207,37.63816],[108.537,37.69931],[108.7815,37.69197],[108.776,37.75606],[108.7931,37.94068],[108.822,37.9875],[108.7925,38.05269],[108.8364,38.05945],[108.9,38.025],[108.9191,37.96531],[108.9418,37.92876],[108.9662,37.95286],[109.028,38.02592],[109.0427,38.0681],[109.0338,38.10133],[108.9188,38.17181],[108.9562,38.28239],[109.0403,38.43611],[109.2714,38.63833],[109.3222,38.61446],[109.3147,38.70266],[109.394,38.72597],[109.4132,38.77229],[109.511,38.84051],[109.5457,38.81162],[109.6669,38.94099],[109.7067,39.07624],[109.7768,39.07305],[109.8392,39.12527],[109.958,39.19555],[110.2009,39.28715],[110.1958,39.30947],[110.1721,39.35992],[110.1513,39.38672],[110.1324,39.3858],[110.1185,39.39574],[110.1103,39.43792],[110.1542,39.47304],[110.244,39.44468],[110.295,39.39],[110.3893,39.31889],[110.4215,39.38473],[110.5183,39.38739],[110.5705,39.34014],[110.5781,39.30774],[110.6207,39.27426],[110.7106,39.30242],[110.7278,39.35925],[110.8624,39.50722],[110.9626,39.5337],[111.0223,39.57923],[111.0814,39.56812],[111.1308,39.58902],[111.1538,39.5664],[111.135,39.5],[111.0546,39.43036],[111.0913,39.4098],[111.09585047748976,39.389387858117324],[111.09,39.385],[111.09,39.36],[111.1,39.35],[111.125,39.345],[111.135,39.32],[111.155,39.315],[111.185,39.285],[111.2,39.285],[111.19,39.275],[111.19,39.24],[111.18,39.235],[111.135,39.155],[111.145,39.13],[111.12,39.105],[111.12,39.08],[111.075,39.045],[111.01,39.035],[110.98,39.015],[110.955,38.985],[110.955,38.96],[110.97,38.95],[110.985,38.92],[110.99,38.89],[110.97,38.88],[110.97,38.855],[110.98,38.84],[110.965,38.81],[110.935,38.79],[110.935,38.75],[110.89,38.715],[110.885,38.68],[110.87,38.67],[110.865,38.64],[110.855,38.63],[110.86,38.6],[110.875,38.57],[110.885,38.57],[110.885,38.535],[110.865,38.535],[110.845,38.51],[110.85,38.465],[110.835,38.46],[110.82,38.47],[110.765,38.465],[110.725,38.38],[110.675,38.355],[110.645,38.32],[110.565,38.315],[110.555,38.305],[110.54,38.225],[110.51,38.22],[110.49,38.205],[110.48,38.165],[110.495,38.12],[110.48,38.105],[110.475,38.05],[110.475,38.02],[110.485,38.0],[110.5,37.99],[110.49,37.975],[110.49,37.955],[110.52,37.925],[110.58,37.905],[110.635,37.815],[110.64,37.795],[110.675,37.765],[110.72,37.75],[110.705,37.75],[110.68,37.73],[110.68,37.695],[110.705,37.675],[110.755,37.665],[110.74,37.65],[110.74,37.625],[110.75,37.58],[110.765,37.56],[110.75,37.55],[110.745,37.525],[110.735,37.515],[110.73,37.47],[110.64,37.46],[110.615,37.435],[110.615,37.42],[110.605,37.41],[110.605,37.36],[110.625,37.34],[110.665,37.335],[110.65,37.31],[110.655,37.3],[110.645,37.3],[110.63,37.28],[110.63,37.265],[110.55,37.18],[110.52,37.16],[110.51,37.145],[110.51,37.12],[110.485,37.11],[110.455,37.08],[110.45,37.065],[110.43,37.065],[110.395,37.045],[110.365,37.04],[110.35,37.015],[110.355,36.995],[110.37,36.98],[110.39,36.975],[110.4,36.96],[110.385,36.905],[110.36,36.9],[110.35,36.885],[110.355,36.86],[110.37,36.85],[110.395,36.85],[110.38,36.83],[110.395,36.81],[110.39,36.795],[110.36,36.785],[110.36,36.76],[110.375,36.745],[110.395,36.745],[110.39,36.715],[110.37,36.7],[110.37,36.67],[110.385,36.655],[110.405,36.65],[110.43,36.6],[110.465,36.575],[110.465,36.54],[110.475,36.53],[110.48,36.495],[110.45,36.465],[110.45,36.435],[110.465,36.42],[110.435,36.34],[110.45,36.255],[110.43,36.235],[110.435,36.2],[110.42,36.175],[110.425,36.12],[110.445,36.09],[110.445,36.065],[110.47,36.025],[110.47,35.985],[110.485,35.965],[110.48,35.935],[110.49,35.92],[110.49,35.895],[110.485,35.875],[110.5,35.86],[110.525,35.855],[110.53,35.825],[110.545,35.81],[110.54,35.775],[110.55,35.765],[110.555,35.69],[110.57,35.675],[110.565,35.67],[110.585,35.625],[110.525,35.53],[110.5,35.415],[110.455,35.38],[110.44,35.345],[110.375,35.305],[110.33,35.18],[110.345,35.135],[110.345,35.11],[110.32,35.06],[110.28,35.02],[110.265,35.0],[110.265,34.985],[110.2,34.905],[110.22,34.87],[110.2162,34.69928],[110.24,34.635],[110.2805,34.61138],[110.3577,34.601],[110.37788485808976,34.592438256026924],[110.36696859912661,34.59706856920379],[110.3585,34.56863],[110.3458,34.52367],[110.4072,34.4133],[110.454,34.39926],[110.4651,34.40649],[110.471,34.33436],[110.4164,34.28786],[110.4313,34.24374],[110.4783,34.23096],[110.5012,34.21264],[110.5257,34.21264],[110.5625,34.18633],[110.6306,34.16239],[110.6174,34.13171],[110.5816,34.11128],[110.5753,34.10174],[110.5757,34.0188],[110.6152,34.02222],[110.6387,33.97616],[110.66076916758949,33.95410705973961],[110.6633756956912,33.94825877019749],[110.6176,33.93518],[110.5667,33.89208],[110.5987,33.85757],[110.728,33.79684],[110.8241,33.66829],[111.0153,33.50851],[111.0153,33.45846],[110.9878,33.4409],[111.0158,33.34853],[110.9738,33.27221],[110.98371724879209,33.253599209722914],[110.98371724879208,33.253599209722914],[110.98238213312433,33.25610469871578],[110.9687,33.25932],[110.9382,33.25304],[110.918,33.21471],[110.8599,33.22031],[110.8313,33.2127],[110.8055,33.19417],[110.8074,33.16701],[110.7366,33.1581],[110.6976,33.10722],[110.6486,33.16931],[110.604,33.15595],[110.6027,33.21729],[110.5681,33.25599],[110.5243,33.25828],[110.4926,33.2183],[110.4742,33.19718],[110.4178,33.17398],[110.3656,33.18921],[110.3304,33.1719],[110.2829,33.1752],[110.2275,33.1617],[110.1998,33.1826],[110.1784,33.19367],[110.1751,33.19963],[110.1694,33.2058],[110.16,33.21176],[110.1507,33.21029],[110.1364,33.20835],[110.125,33.20429],[110.1067,33.20796],[110.0712,33.20613],[110.034,33.19309],[110.0002,33.2183],[109.9689,33.21334],[109.9247,33.23079],[109.8525,33.25448],[109.796,33.24134],[109.7237,33.23661],[109.692,33.25993],[109.6722,33.26058],[109.6496,33.25276],[109.6454,33.27213],[109.6195,33.27343],[109.6023,33.27213],[109.5981,33.23876],[109.5432,33.24346],[109.5159,33.24504],[109.5063,33.23402],[109.4972,33.23061],[109.4943,33.22515],[109.4976,33.21043],[109.483,33.20692],[109.4752,33.20232],[109.4778,33.19047],[109.4465,33.17233],[109.4331,33.15192],[109.4645,33.13669],[109.5255,33.13123],[109.568,33.11095],[109.6027,33.10333],[109.6722,33.10865],[109.7042,33.09571],[109.7563,33.08004],[109.7862,33.05774],[109.7714,32.96259],[109.7591,32.91133],[109.7663,32.90719],[109.7757,32.89393],[109.7843,32.88413],[109.7932,32.87897],[109.7992,32.87923],[109.8045,32.88146],[109.8117,32.88811],[109.8146,32.88878],[109.8225,32.8924],[109.8396,32.89306],[109.8438,32.89481],[109.8465,32.89779],[109.8534,32.91267],[109.8583,32.91472],[109.8674,32.91213],[109.8732,32.90827],[109.8774,32.90413],[109.8811,32.90276],[109.8919,32.90582],[109.9044,32.90478],[109.914,32.9002],[109.9194,32.89306],[109.9232,32.88831],[109.9267,32.88705],[109.9331,32.88683],[109.9445,32.88777],[109.9538,32.88917],[109.963,32.88752],[109.9737,32.88604],[109.9816,32.88773],[109.9867,32.88788],[109.9902,32.88204],[109.9943,32.8775],[110.0023,32.8735],[110.0119,32.87241],[110.0243,32.87371],[110.0262,32.87252],[110.0307,32.86232],[110.0455,32.8532],[110.0505,32.85158],[110.0605,32.85014],[110.0731,32.84657],[110.0926,32.83745],[110.1075,32.82803],[110.1121,32.82107],[110.1146,32.8131],[110.1194,32.80978],[110.134,32.80935],[110.1298,32.7981],[110.1174,32.78114],[110.1285,32.76187],[110.1493,32.76129],[110.1448,32.68706],[110.1582,32.65296],[110.0797,32.62203],[110.0806,32.59933],[110.0137,32.55477],[109.9809,32.56519],[109.9697,32.58573],[109.911,32.60525],[109.8228,32.5879],[109.722,32.61219],[109.6084,32.60005],[109.6211,32.54305],[109.5713,32.51425],[109.5718,32.50412],[109.5476,32.48182],[109.4873,32.38272],[109.5059,32.33893],[109.4853,32.30324],[109.544,32.22253],[109.5871,32.21498],[109.5828,32.17823],[109.5878,32.12823],[109.6151,32.09959],[109.5838,32.06963],[109.5792,32.00284],[109.6168,31.96818],[109.5735,31.8968],[109.6133,31.84417],[109.5825,31.78407],[109.5856,31.77145],[109.5864,31.75525],[109.5893,31.74569],[109.57959979101457,31.729852204238338],[109.5555,31.74087],[109.4643,31.7216],[109.4334,31.73094],[109.3895,31.7124],[109.2946,31.7159],[109.2674,31.76906],[109.2774,31.77926],[109.2731,31.80523],[109.2066,31.82345],[109.195,31.85819],[109.0306,31.97317],[108.9856,31.98726],[108.8931,31.99624],[108.8477,32.04155],[108.7873,32.05566],[108.7562,32.0735],[108.7449,32.11035],[108.6683,32.11591],[108.5796,32.17765],[108.503,32.20641],[108.4990403701518,32.20625709968233],[108.4945,32.24039],[108.465,32.255],[108.355,32.245],[108.3221,32.22587],[108.235,32.255],[108.1858,32.21687],[108.155,32.22],[108.1209,32.21338],[108.0749,32.22878],[108.0268,32.21251],[108.0217,32.17765],[107.9898,32.14015],[107.9709,32.14364],[107.8596,32.19682],[107.7958,32.24533],[107.7402,32.32892],[107.7117,32.32254],[107.6681,32.39649],[107.6437,32.40721],[107.5132,32.37474],[107.4751,32.41794],[107.448,32.41475],[107.4212,32.47559],[107.4147,32.53234],[107.3776,32.53263],[107.2688,32.39881],[107.2152,32.41909],[107.1727,32.46487],[107.1177,32.47704],[107.0899,32.51497],[107.0669,32.53697],[107.085,32.605],[107.0779,32.6625],[107.0508,32.6758],[107.036,32.70758],[106.9145,32.70151],[106.8554,32.72404],[106.8187,32.69776],[106.7813,32.69544],[106.7243,32.72693],[106.6481,32.681],[106.5097,32.65585],[106.4568,32.63273],[106.4084,32.61248],[106.3878,32.61162],[106.3542,32.6599],[106.3308,32.67377],[106.2776,32.66655],[106.2244,32.68909],[106.1605,32.69371],[106.1057,32.72448],[106.073,32.74693],[106.0479,32.76765],[106.0723,32.81469],[106.0294,32.84671],[106.0033,32.82219],[105.9265,32.82551],[105.9166,32.83214],[105.8315,32.81209],[105.8256,32.76635],[105.7793,32.74772],[105.7347,32.75335],[105.6217,32.70223],[105.5937,32.70079],[105.5584,32.72534],[105.5463,32.73473],[105.5403,32.788],[105.5261,32.79261],[105.5086,32.85046],[105.4835,32.88665],[105.4801,32.91519],[105.5225,32.92657],[105.6406,32.89602],[105.702,32.92585]]]}}
