{"type":"Feature","properties":{"sourceId":"shandong"},"geometry":{"type":"Polygon","coordinates":[[[115.4744,36.15583],[115.467,36.20772],[115.4686,36.2451],[115.4539,36.25037],[115.4539,36.26884],[115.4117,36.27929],[115.407,36.32405],[115.3618,36.30378],[115.3441,36.30959],[115.3619,36.34168],[115.3422,36.35834],[115.3362,36.39503],[115.3197,36.39641],[115.2919,36.41023],[115.2896,36.41614],[115.3103,36.44307],[115.3107,36.44963],[115.308,36.45073],[115.307,36.4556],[115.2861,36.45853],[115.2769,36.47607],[115.2646,36.48818],[115.2668,36.50053],[115.2862,36.50208],[115.2798,36.52802],[115.2871,36.53295],[115.294,36.53178],[115.3009,36.52919],[115.3058,36.53399],[115.3221,36.55109],[115.3241,36.56426],[115.3257,36.58242],[115.3322,36.60189],[115.347,36.62944],[115.3704,36.63454],[115.3794,36.65782],[115.4133,36.68838],[115.4406,36.70724],[115.4683,36.74602],[115.4706,36.75964],[115.4782,36.76099],[115.4889,36.76668],[115.5295,36.78317],[115.5365,36.78743],[115.5454,36.78372],[115.548,36.77767],[115.5794,36.78303],[115.6373,36.80489],[115.6584,36.81341],[115.6722,36.81166],[115.6798,36.81598],[115.6825,36.82547],[115.6841,36.83072],[115.682,36.84347],[115.6866,36.84786],[115.6944,36.86163],[115.6948,36.86912],[115.7053,36.88309],[115.7142,36.88992],[115.7293,36.89836],[115.7352,36.90838],[115.7428,36.90722],[115.7538,36.90845],[115.7598,36.91662],[115.7542,36.92348],[115.7529,36.93487],[115.7591,36.94173],[115.7807,36.95298],[115.7859,36.9658],[115.7735,36.97102],[115.7715,36.98494],[115.7686,36.98946],[115.7708,36.99549],[115.7768,36.99769],[115.784,37.00632],[115.8069,37.02147],[115.8049,37.02962],[115.8159,37.03099],[115.82,37.03415],[115.8234,37.04244],[115.8254,37.04565],[115.8345,37.05107],[115.8483,37.06121],[115.8592,37.08072],[115.8648,37.09585],[115.8743,37.12289],[115.872,37.14739],[115.874,37.15293],[115.8822,37.15998],[115.9005,37.17796],[115.8973,37.18931],[115.9061,37.21167],[115.937,37.23012],[115.9621,37.24283],[115.959,37.2511],[115.9682,37.27508],[115.9598,37.28744],[115.9657,37.30069],[115.9763,37.31673],[115.9676,37.31605],[115.9656,37.3241],[115.9771,37.32656],[115.9691,37.33406],[115.9688,37.33615],[115.9702,37.33768],[115.9719,37.33833],[115.9759,37.3385],[115.9796,37.34046],[115.9825,37.34176],[115.9926,37.34336],[115.9939,37.35133],[116.0172,37.35965],[116.0558,37.37152],[116.113,37.37623],[116.1285,37.37712],[116.1623,37.38564],[116.1916,37.36743],[116.2287,37.36375],[116.2695,37.40419],[116.2547,37.41939],[116.2538,37.42525],[116.2371,37.41925],[116.2175,37.42634],[116.2215,37.43868],[116.2352,37.44883],[116.2346,37.45476],[116.2226,37.45694],[116.2166,37.4799],[116.2358,37.49263],[116.2618,37.4784],[116.2757,37.48371],[116.2781,37.50448],[116.2723,37.50979],[116.2685,37.52164],[116.2838,37.54247],[116.2808,37.54941],[116.2916,37.56928],[116.3135,37.5805],[116.3283,37.58254],[116.3342,37.58057],[116.3371,37.57615],[116.3595,37.56948],[116.3747,37.56288],[116.3738,37.53961],[116.3681,37.52511],[116.3836,37.52218],[116.3852,37.51504],[116.399,37.5134],[116.4011,37.50734],[116.4078,37.4989],[116.4179,37.48365],[116.4285,37.47901],[116.4362,37.49175],[116.4424,37.50619],[116.4528,37.51558],[116.4569,37.51858],[116.477,37.52239],[116.4923,37.53791],[116.5166,37.56349],[116.5398,37.58329],[116.5705,37.61178],[116.5949,37.62463],[116.627,37.65889],[116.6319,37.68267],[116.6529,37.68199],[116.6625,37.70223],[116.6702,37.72769],[116.6932,37.73977],[116.7088,37.74981],[116.7133,37.76909],[116.7416,37.76081],[116.7457,37.78415],[116.7373,37.78984],[116.74,37.8007],[116.763,37.81534],[116.7996,37.84206],[116.9059,37.84666],[116.9733,37.84165],[117.0337,37.83758],[117.0715,37.85182],[117.1359,37.84273],[117.1761,37.851],[117.2607,37.84138],[117.2993,37.85561],[117.3203,37.86591],[117.4159,37.8468],[117.4401,37.86686],[117.4557,37.88894],[117.4768,37.93012],[117.505,37.94907],[117.5139,38.00482],[117.5324,38.03025],[117.5489,38.05938],[117.5774,38.07262],[117.6159,38.07424],[117.6725,38.08046],[117.7022,38.07985],[117.7203,38.09498],[117.7231,38.10829],[117.7351,38.12396],[117.7586,38.13577],[117.7566,38.16345],[117.7833,38.17242],[117.7848,38.20554],[117.7993,38.22733],[117.7858,38.26224],[117.7988,38.27761],[117.8052,38.27734],[117.8291,38.26386],[117.8423,38.26561],[117.8558,38.27626],[117.8967,38.30375],[118.0416,38.40141],[119.175,38.44],[121.3165,38.41056],[123.5632,37.23908],[121.09793563491188,35.518174371022205],[121.0801,35.55507],[119.314,35.02165],[119.3005,35.07827],[119.298,35.08782],[119.2938,35.09849],[119.2868,35.11198],[119.2833,35.11675],[119.269,35.1171],[119.2508,35.12279],[119.2421,35.12847],[119.2319,35.12637],[119.2124,35.1124],[119.1864,35.11324],[119.1389,35.10207],[119.1267,35.09618],[119.1133,35.07187],[119.1148,35.0567],[119.105,35.05347],[119.082,35.06042],[119.0694,35.0619],[119.065,35.05824],[119.0485,35.05537],[119.0291,35.05796],[118.9982,35.05747],[118.9406,35.04665],[118.9124,35.05122],[118.8615,35.03464],[118.8502,35.02283],[118.8571,34.99246],[118.8465,34.93999],[118.7962,34.88255],[118.7911,34.87305],[118.7987,34.86755],[118.7979,34.86136],[118.7936,34.861],[118.7944,34.8484],[118.7826,34.85037],[118.7577,34.84882],[118.7574,34.83128],[118.7715,34.82994],[118.7665,34.80055],[118.755,34.7916],[118.7302,34.79569],[118.7278,34.79026],[118.724,34.77144],[118.7036,34.76298],[118.7039,34.74838],[118.7298,34.73491],[118.7593,34.73844],[118.7656,34.73315],[118.7658,34.7287],[118.7491,34.71029],[118.6772,34.68326],[118.6726,34.70246],[118.6548,34.70232],[118.6023,34.6959],[118.6004,34.71989],[118.5752,34.71833],[118.5251,34.71438],[118.5006,34.6887],[118.4933,34.66639],[118.476,34.67818],[118.4653,34.67705],[118.4538,34.67169],[118.4537,34.65771],[118.4566,34.64098],[118.4654,34.63872],[118.4673,34.62812],[118.4572,34.62742],[118.4495,34.61979],[118.4332,34.62784],[118.4211,34.61498],[118.413,34.59634],[118.4237,34.51561],[118.4052,34.49298],[118.39,34.43155],[118.3736,34.42659],[118.3633,34.41866],[118.3468,34.42702],[118.304,34.43268],[118.279,34.42999],[118.2699,34.41201],[118.2283,34.40549],[118.2132,34.4096],[118.2098,34.38623],[118.1717,34.39232],[118.1724,34.41399],[118.183,34.43325],[118.178,34.45604],[118.1341,34.48788],[118.1607,34.50146],[118.1722,34.52777],[118.188,34.54488],[118.178,34.54955],[118.1341,34.56496],[118.0829,34.57401],[118.115,34.61809],[118.0914,34.66188],[117.9933,34.66258],[117.9858,34.67811],[117.9557,34.68206],[117.9429,34.68065],[117.9238,34.66286],[117.9171,34.67261],[117.9006,34.67458],[117.8969,34.64846],[117.867,34.65538],[117.7934,34.65877],[117.782,34.65552],[117.7867,34.61795],[117.7832,34.57938],[117.7875,34.52622],[117.7441,34.53767],[117.6984,34.54955],[117.6754,34.5504],[117.6643,34.519],[117.6492,34.50231],[117.6066,34.49609],[117.5973,34.48703],[117.5906,34.476],[117.5697,34.46821],[117.5525,34.47911],[117.4874,34.47727],[117.4808,34.48831],[117.4622,34.49425],[117.4384,34.53117],[117.4257,34.52806],[117.4217,34.54347],[117.4033,34.54559],[117.3999,34.57174],[117.3649,34.58842],[117.3402,34.58559],[117.2972,34.57796],[117.265,34.56],[117.231,34.47486],[117.1661,34.44089],[117.1407,34.52975],[117.1537,34.56425],[117.1187,34.62275],[117.1043,34.64818],[117.0847,34.65976],[117.0761,34.69561],[117.008,34.77193],[116.9875,34.76651],[116.9761,34.76679],[116.9761,34.77433],[116.9736,34.78018],[116.9673,34.78279],[116.9512,34.80056],[116.9793,34.80415],[116.9628,34.84558],[116.9265,34.84558],[116.9301,34.86171],[116.9636,34.86537],[116.9635,34.87157],[116.9462,34.86988],[116.935,34.87868],[116.9204,34.87706],[116.925,34.9],[116.911,34.91099],[116.8427,34.94927],[116.8288,34.95546],[116.802,34.97178],[116.7771,34.9798],[116.7715,34.96137],[116.7742,34.91986],[116.7303,34.92704],[116.7243,34.92982],[116.7162,34.92795],[116.7075,34.93242],[116.7015,34.93615],[116.7003,34.93819],[116.6912,34.93464],[116.6776,34.94072],[116.6713,34.94104],[116.6679,34.93506],[116.6511,34.93478],[116.6477,34.93154],[116.6277,34.94217],[116.6154,34.9416],[116.5979,34.92464],[116.5402,34.91367],[116.4408,34.90128],[116.4013,34.86199],[116.3936,34.80704],[116.3866,34.75346],[116.3622,34.75233],[116.3564,34.74994],[116.3538,34.72694],[116.3553,34.71297],[116.3778,34.70916],[116.3729,34.68827],[116.366,34.67571],[116.3718,34.66555],[116.3588,34.65213],[116.3643,34.63858],[116.36649962850389,34.63646035798717],[116.3595,34.63264],[116.3377,34.6277],[116.3171,34.62558],[116.3155,34.60566],[116.2939,34.61117],[116.2738,34.6082],[116.2338,34.55789],[116.2194,34.5774],[116.1979,34.58432],[116.1875,34.5798],[116.18743634146041,34.57655235350567],[116.1456,34.56171],[116.1015,34.60171],[116.0663,34.60227],[116.0375,34.59901],[115.9868,34.62191],[115.9708,34.58559],[115.8422,34.56906],[115.6912,34.60594],[115.6803,34.56263],[115.6323,34.57881],[115.5357,34.57811],[115.4802,34.63095],[115.4613,34.66131],[115.4524,34.6983],[115.4336,34.72842],[115.4497,34.74345],[115.4267,34.80817],[115.3966,34.8348],[115.3146,34.86762],[115.2713,34.86354],[115.2464,34.8472],[115.2332,34.881],[115.2546,34.90902],[115.2535,34.91502],[115.2325,34.91789],[115.2061,34.9162],[115.2225,34.95954],[115.162,34.96812],[115.145,34.97783],[115.123,35.00835],[115.1117,35.0106],[115.0638,35.00188],[115.022,34.976],[115.0076,34.99077],[114.951,35.00075],[114.9179,34.97544],[114.8701,35.03267],[114.8435,35.00877],[114.8217,35.05741],[114.8847,35.08447],[114.8847,35.11093],[114.8394,35.16258],[114.8841,35.18667],[114.9287,35.19541],[114.9345,35.24338],[114.9735,35.27842],[115.0193,35.33959],[115.0214,35.37002],[115.0663,35.37058],[115.088,35.39619],[115.1153,35.39661],[115.1618,35.42515],[115.2135,35.4036],[115.3099,35.46948],[115.3281,35.48402],[115.3563,35.48947],[115.3588,35.49852],[115.3542,35.50917],[115.3601,35.54564],[115.3819,35.56309],[115.4115,35.60511],[115.4373,35.62312],[115.4282,35.64488],[115.4588,35.65004],[115.483,35.69272],[115.5125,35.72087],[115.5954,35.72338],[115.689,35.7525],[115.7034,35.78203],[115.7714,35.84996],[115.8067,35.84189],[115.8452,35.84871],[115.8689,35.85608],[115.8785,35.87069],[115.8862,35.88265],[115.8834,35.90963],[115.8716,35.9163],[115.9013,35.92186],[115.9058,35.92854],[115.9075,35.95828],[115.9836,35.96793],[116.0338,35.96286],[116.0441,35.96731],[116.07,36.02467],[116.0881,36.05743],[116.0989,36.10079],[116.0984,36.11694],[116.049,36.10881],[116.0214,36.07656],[115.9874,36.05391],[115.9343,36.03911],[115.8793,36.03184],[115.8496,36.01208],[115.804,36.01664],[115.7798,36.00356],[115.7703,35.99062],[115.7703,35.96672],[115.728,35.95263],[115.6886,35.95263],[115.6795,35.93076],[115.6454,35.92861],[115.6244,35.92402],[115.5901,35.92193],[115.5557,35.90671],[115.5081,35.8903],[115.5028,35.91985],[115.4879,35.9195],[115.4714,35.90674],[115.4773,35.88311],[115.4536,35.86638],[115.4033,35.81461],[115.3928,35.80083],[115.3583,35.78008],[115.3419,35.79275],[115.3319,35.80431],[115.3494,35.85594],[115.3642,35.90209],[115.3599,35.95967],[115.4324,35.99841],[115.444,36.01162],[115.4629,36.07769],[115.4801,36.11363],[115.4826,36.14578],[115.47451654545253,36.15463989162901],[115.4744,36.15583]]]}}
