{"type":"Feature","properties":{"sourceId":"sorlandet"},"geometry":{"type":"Polygon","coordinates":[[[7.622499,57.58445],[5.698662,57.77794],[6.372222,58.27678],[6.386374,58.27828],[6.397434,58.28172],[6.414642,58.2851],[6.417131,58.28641],[6.430886,58.2899],[6.437323,58.29102],[6.439637,58.29085],[6.447837,58.29478],[6.452043,58.29553],[6.453223,58.29639],[6.458366,58.29767],[6.464102,58.29871],[6.474445,58.30073],[6.479936,58.30174],[6.483473,58.30346],[6.488617,58.30502],[6.489547,58.30531],[6.515694,58.31402],[6.54289,58.3199],[6.559618,58.32771],[6.575201,58.34482],[6.590544,58.35825],[6.602483,58.37245],[6.594428,58.41636],[6.603813,58.4303],[6.624412,58.44504],[6.599693,58.48993],[6.584587,58.49244],[6.588363,58.50751],[6.605186,58.53386],[6.601066,58.53906],[6.613083,58.55518],[6.604843,58.5602],[6.60347,58.5772],[6.585617,58.584],[6.582527,58.60028],[6.6043,58.60952],[6.60656,58.62031],[6.582741,58.61478],[6.533001,58.62727],[6.497297,58.60947],[6.481418,58.62264],[6.474895,58.63327],[6.435203,58.64945],[6.450138,58.6639],[6.476684,58.67194],[6.579622,58.68475],[6.600828,58.68747],[6.61568,58.71511],[6.571541,58.74033],[6.572056,58.76161],[6.513371,58.76513],[6.55225,58.826],[6.565079,58.84228],[6.599006,58.87893],[6.580124,58.87857],[6.566904,58.88539],[6.559973,58.91008],[6.632361,58.94011],[6.664866,58.98569],[6.705653,59.00188],[6.724815,59.01496],[6.787081,59.05301],[6.899757,59.11272],[6.873665,59.14671],[6.930656,59.1805],[6.8474,59.18222],[6.836868,59.19242],[6.823637,59.26992],[6.830712,59.31746],[6.883278,59.39967],[6.921043,59.40299],[6.878128,59.42919],[6.987648,59.462],[7.012024,59.48206],[6.975288,59.50611],[6.956405,59.51638],[6.979357,59.52361],[6.977565,59.54134],[6.991052,59.59725],[7.01298,59.59689],[7.046065,59.58886],[7.097924,59.6515],[7.138103,59.6627],[7.211837,59.67468],[7.303848,59.6589],[7.340927,59.64918],[7.387619,59.63582],[7.399292,59.66132],[7.44152,59.66132],[7.485122,59.63756],[7.537651,59.60353],[7.554474,59.5872],[7.51554,59.56139],[7.537073,59.52428],[7.585314,59.50155],[7.59547,59.47903],[7.626529,59.46175],[7.574679,59.43865],[7.584171,59.4339],[7.578031,59.42624],[7.574606,59.42298],[7.574557,59.42294],[7.57445,59.42288],[7.545097,59.40438],[7.540941,59.39899],[7.571539,59.3875],[7.596158,59.37697],[7.597552,59.36611],[7.613362,59.34856],[7.612334,59.34376],[7.624992,59.33267],[7.643321,59.33419],[7.67358,59.33303],[7.696963,59.32695],[7.7168,59.29018],[7.725902,59.26105],[7.746294,59.2518],[7.760725,59.22906],[7.776364,59.22312],[7.781389,59.22071],[7.775328,59.21354],[7.763046,59.21388],[7.750113,59.20743],[7.744654,59.19848],[7.7502,59.19461],[7.736521,59.17012],[7.7318,59.1641],[7.742993,59.14419],[7.756036,59.13982],[7.756167,59.13978],[7.756277,59.13974],[7.769799,59.13521],[7.7856,59.12437],[7.806071,59.11731],[7.82999,59.09041],[7.848114,59.07773],[7.868618,59.06033],[7.878258,59.04691],[7.903279,59.02587],[7.913156,59.00908],[7.941268,59.00568],[7.938072,58.99783],[7.942783,58.98716],[7.96464,58.97449],[7.968652,58.96778],[7.985543,58.96216],[7.994602,58.96374],[8.009797,58.96512],[8.036945,58.95452],[8.055418,58.95062],[8.078127,58.95032],[8.09131,58.94902],[8.097069,58.95228],[8.121448,58.9554],[8.135657,58.96131],[8.133889,58.96287],[8.088837,58.96465],[8.07897,58.97254],[8.097199,58.97581],[8.127655,58.98623],[8.158636,58.98196],[8.173517,58.98278],[8.22298,58.97068],[8.22668,58.96375],[8.270232,58.94814],[8.279857,58.94221],[8.294563,58.93699],[8.308356,58.92681],[8.310885,58.91981],[8.326664,58.91699],[8.340989,58.91716],[8.384713,58.91392],[8.419909,58.90594],[8.420929,58.90382],[8.431466,58.90214],[8.4339,58.89947],[8.446768,58.89691],[8.476162,58.88755],[8.502421,58.90833],[8.532643,58.91867],[8.575806,58.93187],[8.587108,58.92252],[8.610078,58.91457],[8.616957,58.90937],[8.633544,58.89329],[8.639502,58.89172],[8.640419,58.88876],[8.642077,58.88494],[8.653458,58.87792],[8.656878,58.87308],[8.654598,58.86955],[8.723745,58.85061],[8.731923,58.83977],[8.744052,58.83193],[8.78563,58.84387],[8.789019,58.85534],[8.787792,58.86229],[8.791126,58.86438],[8.780264,58.86771],[8.797199,58.8846],[8.810391,58.89319],[8.814168,58.90298],[8.817284,58.90618],[8.829679,58.91251],[8.812621,58.91746],[8.761031,58.93704],[8.753571,58.94273],[8.76125,58.94875],[8.821501,58.97016],[8.831362,58.97821],[8.833909,58.98853],[8.939551,58.98657],[8.955424,58.98894],[8.995167,58.99367],[9.008703,58.98151],[9.014051,58.96569],[9.03542,58.93288],[9.051696,58.92517],[9.094384,58.90584],[9.133385,58.8933],[9.161095,58.88532],[9.167416,58.87956],[9.18365,58.86261],[9.191079,58.84552],[9.192894,58.81479],[9.208764,58.81326],[9.197734,58.80365],[9.231107,58.79649],[9.274996,58.79612],[9.286237,58.7884],[9.304047,58.77454],[9.305413,58.77275],[9.312503,58.77473],[9.320378,58.78278],[9.328616,58.78567],[9.354484,58.77716],[9.366059,58.77214],[9.368137,58.76985],[9.372626,58.76717],[10.10434,58.48799],[9.074367,57.93507],[7.622499,57.58445]]]}}
