{"type":"Feature","properties":{"sourceId":"sea"},"geometry":{"type":"MultiPolygon","coordinates":[[[[140.4965,-1.939047],[141.0026944971049,-2.5543562768044112],[141.00269444200148,-2.554357296309959],[140.5085,-1.953689],[140.33530546430995,-1.8547137102407631],[140.4965,-1.939047]]],[[[132.3276,-8.641955],[128.40799693737148,-9.91795654189853],[128.17629699766033,-9.505029612528327],[128.1885,-9.524903],[135.0384,-7.743646],[135.38804814789705,-5.199554227647918],[137.4829,-8.722213],[138.8507,-9.167173],[140.77540695424597,-9.463898353843682],[140.74625003773335,-9.504101065963939],[140.56061351963658,-9.523148854326681],[132.3276,-8.641955]]],[[[102.7505,-8.327828],[101.89621525349466,-7.169925426418181],[104.24133619077675,-6.620511555852491],[105.4578,-7.917782],[115.0351,-9.541155],[114.99130548706528,-9.156084815509914],[119.2566,-10.89803],[122.6571,-11.51623],[123.221,-11.60655],[102.7505,-8.327828]]],[[[95.79392,6.99933],[94.4122758413467,6.181733330956863],[94.4122758413467,6.181733330956866],[95.79392,6.99933]]],[[[95.67325,13.94679],[97.63999744292278,9.716043930798886],[97.52014,9.77403],[97.13562,8.695075],[97.19055,8.211496],[97.53112,7.253501],[98.69567,5.976686],[99.39772794302225,6.211796933999963],[99.25611,5.695856],[99.80529,3.858779],[99.96300422702807,3.7099886784012877],[95.79392,6.99933],[95.67325,13.94679]]],[[[109.55077683770169,16.678332052118893],[109.55497040622475,16.66929796212276],[107.5302,18.78607],[109.55077683770169,16.678332052118893]]],[[[113.6971,12.35315],[114.6294606236056,14.338561496302647],[114.6546147356198,14.33896895921102],[113.71407067159414,12.321216264861711],[111.43694604175825,14.701809011762583],[111.4582624802842,14.68856368553571],[113.6971,12.35315]]],[[[118.0067,21.53021],[116.93184287425156,19.22431499255429],[116.92468780768779,19.226123586044963],[118.0067,21.53021]]],[[[129.2901,3.324019],[130.11500664962827,2.9847956726605425],[130.1034,2.73197],[130.2197,1.975247],[130.58984846930502,1.9230663886936683],[129.76091270984512,1.0944065918338455],[129.7705,2.855285],[127.87576333934577,3.6681312224095826],[127.6501,4.609284],[127.3977,4.953185],[127.275,5.058812],[127.07303623436749,5.333400602089231],[127.0742,21.52734],[129.2901,3.324019]]],[[[133.2924716675631,1.6781384207469006],[132.88169733584442,1.7422320728277811],[132.96860879497228,1.8113193586038976],[133.2924716675631,1.6781384207469006]]],[[[124.0301,1.768523],[119.78482064585388,1.8324920052663856],[118.33858504905285,4.0516501774537845],[118.9927,3.858509],[119.0429132557511,4.4398722005549285],[120.0003,4.382696],[120.0008,4.749364],[125.16376794875251,4.807643586877756],[125.1379,4.787087],[125.0034,4.773235],[124.0301,1.768523]]],[[[115.0642,6.305465],[112.3534,6.253504],[102.26220973350291,6.419710844212364],[102.7661,6.942789],[102.41101157705653,9.556283539542267],[102.804,8.858092],[103.13363312920488,9.20832367840869],[105.1953,7.382239],[111.9726,8.71137],[112.1661761496006,8.492410603598696],[112.1663,7.666295],[116.60686214750908,7.666054299207065],[115.0642,6.305465]]],[[[113.07603643595387,10.952439035499335],[112.41671160704959,9.537987016867808],[111.9287,10.66062],[113.07603643595387,10.952439035499335]]],[[[109.0684,5.144585],[109.55123064751994,2.7178213907496573],[109.5285,2.761135],[108.1772,5.259626],[105.358,3.243168],[104.93521580920073,2.225993270758359],[105.4104,3.620764],[107.7759,5.331655],[109.0684,5.144585]]],[[[98.11065,9.488346],[98.0399463017891,9.522551881898165],[98.13886926109231,9.535028557413296],[98.11065,9.488346]]]]}}
