{"type":"Feature","properties":{"sourceId":"south-africa"},"geometry":{"type":"Polygon","coordinates":[[[39.24259,-26.85341],[39.24259,-47.58493],[15.99606,-47.58493],[15.997057659032253,-29.34128798963859],[16.46027,-28.63727],[16.50421,-28.57276],[16.72874,-28.51274],[16.78436,-28.45662],[16.89697,-28.1834],[16.91414,-28.09803],[17.09473,-28.06653],[17.19206,-28.24905],[17.32691,-28.30482],[17.35859,-28.38291],[17.31651,-28.47231],[17.40097,-28.72672],[17.64473,-28.78752],[17.91183,-28.78571],[18.03474,-28.88075],[18.18443,-28.92824],[18.98163,-28.92884],[19.11381,-28.98292],[19.30092,-28.91863],[19.30572,-28.87865],[19.25011,-28.80557],[19.27002,-28.7499],[19.30916,-28.74388],[19.37439,-28.75682],[19.49524,-28.7207],[19.5639,-28.55196],[19.82345,-28.51998],[20.00816,-28.44152],[20.02258371907726,-24.79971541582167],[20.11179,-24.89156],[20.14816,-24.89393],[20.17694,-24.92168],[20.20069,-24.91611],[20.25017,-24.93346],[20.28502,-24.9852],[20.3713,-25.04413],[20.36909,-25.06699],[20.39953,-25.09442],[20.41906,-25.1556],[20.45211,-25.16958],[20.43685,-25.20404],[20.48004,-25.23888],[20.48443,-25.27123],[20.51479,-25.29196],[20.50655,-25.32724],[20.52991,-25.33612],[20.55709,-25.40101],[20.589,-25.40736],[20.62845,-25.49163],[20.62082,-25.53004],[20.65565,-25.59883],[20.64028,-25.63687],[20.66715,-25.69145],[20.70875,-25.72624],[20.7231,-25.77776],[20.72993,-25.82797],[20.7528,-25.83623],[20.77529,-25.86203],[20.79149,-25.91987],[20.80546,-26.00778],[20.80887,-26.06223],[20.81013,-26.10653],[20.80953,-26.17685],[20.78019,-26.25997],[20.70805,-26.33129],[20.68389,-26.3832],[20.60776,-26.4384],[20.59306,-26.51596],[20.59946,-26.56359],[20.62087,-26.59826],[20.6196,-26.65949],[20.60341,-26.69023],[20.62243,-26.76792],[20.61097,-26.78729],[20.63659,-26.83618],[20.66488,-26.85365],[20.67691,-26.91155],[20.69208,-26.91539],[20.72437,-26.88047],[20.76832,-26.87638],[20.82135,-26.85177],[20.89558,-26.80871],[20.96797,-26.82089],[21.00765,-26.85731],[21.08018,-26.86211],[21.13313,-26.88497],[21.21826,-26.85722],[21.30249,-26.86018],[21.40302,-26.83463],[21.5255,-26.87294],[21.62493,-26.87769],[21.69553,-26.87238],[21.79027,-26.80808],[21.80426,-26.77118],[21.79195,-26.68785],[21.82758,-26.67375],[21.94933,-26.68125],[22.07649,-26.63571],[22.47725,-26.21526],[22.5317,-26.23824],[22.56169,-26.23211],[22.59283,-26.16425],[22.73613,-26.03343],[22.79711,-25.81842],[22.80843,-25.73031],[22.83212,-25.69281],[22.84074,-25.65425],[22.8209,-25.63738],[22.96427,-25.4102],[23.0765,-25.35701],[23.20888,-25.28688],[23.27372,-25.28942],[23.29366,-25.30513],[23.35267,-25.29904],[23.3631,-25.31301],[23.41555,-25.32696],[23.44728,-25.29926],[23.48339,-25.32607],[23.49163,-25.36166],[23.54278,-25.3656],[23.63006,-25.43981],[23.6988,-25.47279],[23.73806,-25.47254],[23.75597,-25.51141],[23.79402,-25.52506],[23.80274,-25.55466],[23.86753,-25.58676],[23.89617,-25.63458],[23.92202,-25.64744],[23.94997,-25.64906],[23.97324,-25.62997],[24.00059,-25.66123],[24.05916,-25.66269],[24.10582,-25.64354],[24.25254,-25.71437],[24.2826,-25.73681],[24.30978,-25.7284],[24.35569,-25.76975],[24.40351,-25.77325],[24.45098,-25.75161],[24.68109,-25.83477],[24.72172,-25.81673],[24.79411,-25.83626],[24.90032,-25.82126],[25.03881,-25.73663],[25.11959,-25.77473],[25.33592,-25.78231],[25.51628,-25.69607],[25.59188,-25.64207],[25.63996,-25.54367],[25.67114,-25.47688],[25.71003,-25.30178],[25.74007,-25.25884],[25.86781,-24.94024],[25.89113,-24.91857],[25.89897,-24.88125],[25.85778,-24.78859],[25.86387,-24.77131],[25.96764,-24.75902],[26.01578,-24.73411],[26.38385,-24.6511],[26.41284,-24.65578],[26.47906,-24.59662],[26.52481,-24.49609],[26.59934,-24.42378],[26.66805,-24.3921],[26.68624,-24.35531],[26.71811,-24.33227],[26.791,-24.31656],[26.86064,-24.27443],[26.89403,-24.19186],[26.87666,-24.10921],[26.89489,-24.0941],[26.92134,-24.02746],[26.92559,-23.98201],[26.96639,-23.87547],[26.95808,-23.85055],[26.97696,-23.74099],[27.03526,-23.69324],[27.07539,-23.68086],[27.09222,-23.65653],[27.08493,-23.62458],[27.1635,-23.57423],[27.21624,-23.53698],[27.21348,-23.50541],[27.30901,-23.47196],[27.33363,-23.42594],[27.35571,-23.43895],[27.39171,-23.42506],[27.42347,-23.43763],[27.45452,-23.39825],[27.53609,-23.39318],[27.57598,-23.34897],[27.58769,-23.27039],[27.61025,-23.25335],[27.71229,-23.24027],[27.75263,-23.23564],[27.79323,-23.17874],[27.79474,-23.15244],[27.94655,-23.05609],[27.95381,-22.97442],[28.05089,-22.91355],[28.06241,-22.88321],[28.05426,-22.84235],[28.15613,-22.77994],[28.19171,-22.69723],[28.25208,-22.66613],[28.28725,-22.62635],[28.47139,-22.5832],[28.51946,-22.60005],[28.57102,-22.57326],[28.64769,-22.56748],[28.73708,-22.51743],[28.82981,-22.50052],[28.86361,-22.46152],[28.92478,-22.46993],[28.98084,-22.38287],[28.97777,-22.31665],[29.04225,-22.23087],[29.15342,-22.22685],[29.21726,-22.19186],[29.25684,-22.2045],[29.31036,-22.19972],[29.33182,-22.21555],[29.354849894085692,-22.208753027346425],[29.3615,-22.21595],[29.53028,-22.20106],[29.65223,-22.15382],[29.76271,-22.16566],[29.99663,-22.25194],[30.11341,-22.33067],[30.21998,-22.32108],[30.28201,-22.37808],[30.90752,-22.32244],[31.07989,-22.37145],[31.1625,-22.35427],[31.29900124324413,-22.440538934181887],[31.53914,-23.48693],[31.74517,-23.88855],[31.95729,-24.31157],[31.96548,-25.46955],[31.9109,-25.90925],[31.956147134781027,-25.958616030745215],[31.86893,-25.99493],[31.41597,-25.71781],[31.31541,-25.74221],[31.12581,-25.92054],[31.10882,-25.98397],[31.05869,-26.07621],[30.9557,-26.25924],[30.88703,-26.31773],[30.82832,-26.40724],[30.80017,-26.46197],[30.78637,-26.56911],[30.78575,-26.70697],[30.7988,-26.8302],[30.80841,-26.84858],[30.89664,-26.85409],[30.96977,-26.91319],[30.95089,-26.99062],[30.9811,-27.0417],[31.05972,-27.10039],[31.14813,-27.20281],[31.27293,-27.24441],[31.49437,-27.31657],[31.89001,-27.31802],[31.97841,-27.31826],[31.97676,-27.31062],[31.97811,-27.22279],[31.97511,-27.14857],[31.97772,-27.13111],[32.0014,-26.93844],[32.02412,-26.81794],[32.12248,-26.84153],[32.12836124354994,-26.841634373921025],[32.1307,-26.87186],[32.87968,-26.89161],[33.10109,-26.93837],[34.1926448031397,-26.85465951561089],[39.24259,-26.85341]],[[28.11676,-28.73937],[28.04964,-28.81625],[28.02295,-28.85806],[27.98338,-28.87437],[27.96372,-28.85866],[27.93823,-28.84528],[27.91781,-28.85858],[27.89403,-28.8776],[27.88424,-28.88917],[27.89583,-28.89421],[27.89283,-28.90743],[27.88613,-28.91329],[27.87274,-28.91622],[27.85695,-28.90803],[27.85171,-28.90097],[27.82914,-28.9027],[27.80988,-28.90898],[27.74941,-28.89017],[27.75311,-28.92281],[27.7161,-28.94442],[27.69877,-29.00379],[27.6828,-29.00138],[27.6646,-29.03531],[27.63679,-29.04356],[27.63542,-29.08588],[27.64624,-29.10253],[27.59766,-29.13687],[27.6095,-29.16146],[27.57963,-29.16236],[27.51011,-29.22425],[27.52006,-29.24147],[27.54049,-29.24612],[27.53981,-29.25675],[27.52401,-29.26304],[27.51732,-29.27307],[27.45037,-29.29748],[27.45449,-29.30721],[27.46651,-29.31993],[27.44608,-29.32592],[27.43183,-29.33325],[27.4308,-29.36991],[27.41209,-29.36108],[27.39973,-29.36333],[27.40316,-29.37559],[27.41896,-29.40655],[27.39235,-29.4091],[27.35167,-29.4532],[27.35682,-29.48204],[27.32746,-29.47741],[27.29862,-29.49833],[27.29708,-29.51596],[27.25382,-29.53105],[27.24318,-29.55061],[27.22258,-29.53911],[27.197,-29.56301],[27.15597,-29.55703],[27.11718,-29.57585],[27.08737,-29.59883],[27.06396,-29.59376],[27.05521,-29.63092],[27.03597,-29.60502],[27.01298,-29.6151],[27.0092,-29.64853],[27.01006,-29.66359],[27.09538,-29.73338],[27.18035,-29.91239],[27.21605,-30.01173],[27.26824,-30.04606],[27.29261,-30.05676],[27.323,-30.15196],[27.40196,-30.14483],[27.36609,-30.19076],[27.3636,-30.21658],[27.36385,-30.25959],[27.36557,-30.27367],[27.37741,-30.33925],[27.39407,-30.34384],[27.4617,-30.31569],[27.47269,-30.35629],[27.48616,-30.37332],[27.50702,-30.38931],[27.532,-30.38872],[27.56753,-30.42766],[27.56264,-30.43343],[27.56607,-30.44438],[27.57002,-30.44927],[27.59542,-30.45149],[27.6071,-30.50223],[27.64512,-30.52064],[27.66315,-30.52641],[27.67036,-30.53543],[27.69284,-30.56041],[27.73804,-30.61166],[27.79341,-30.62794],[27.90915,-30.61378],[27.94017,-30.65351],[28.00681,-30.66803],[28.08164,-30.6651],[28.11075,-30.68472],[28.13227,-30.66109],[28.12342,-30.60901],[28.16783,-30.57707],[28.16949,-30.54551],[28.18549,-30.5272],[28.18899,-30.49298],[28.17106,-30.46546],[28.18912,-30.44543],[28.26617,-30.41844],[28.27946,-30.35493],[28.26336,-30.3194],[28.22287,-30.29647],[28.22897,-30.28216],[28.26405,-30.26366],[28.30566,-30.26418],[28.35122,-30.23896],[28.37051,-30.18034],[28.40637,-30.15572],[28.47382,-30.1642],[28.55188,-30.13226],[28.66974,-30.14901],[28.75584,-30.11605],[28.79306,-30.11756],[28.99062,-30.03805],[29.08493,-29.9679],[29.10866,-29.97396],[29.11865,-29.94551],[29.17816,-29.91736],[29.16927,-29.8781],[29.12542,-29.84528],[29.13988,-29.82799],[29.13934,-29.77723],[29.17293,-29.68895],[29.23605,-29.65227],[29.28823,-29.64896],[29.30122,-29.59631],[29.33453,-29.58092],[29.3133,-29.49779],[29.40473,-29.45473],[29.45663,-29.37493],[29.46393,-29.33355],[29.44703,-29.26464],[29.41296,-29.20471],[29.35537,-29.18333],[29.3645,-29.12466],[29.31905,-29.07364],[29.25588,-29.07444],[29.21868,-29.0172],[29.16417,-28.99128],[29.08342,-28.91159],[29.04821,-28.90424],[29.0258,-28.87555],[29.00694,-28.87671],[28.98544,-28.89919],[28.96098,-28.8583],[28.95055,-28.77709],[28.90878,-28.75061],[28.88264,-28.76237],[28.85794,-28.7473],[28.81625,-28.75976],[28.813,-28.70479],[28.75311,-28.6814],[28.71071,-28.6686],[28.70659,-28.61843],[28.68513,-28.5895],[28.66779,-28.57683],[28.65149,-28.56734],[28.62007,-28.57864],[28.59552,-28.59854],[28.47296,-28.60246],[28.3976,-28.62295],[28.36378,-28.66483],[28.35039,-28.69254],[28.30404,-28.68953],[28.28482,-28.70836],[28.25872,-28.69827],[28.23469,-28.69285],[28.18354,-28.69059],[28.11676,-28.73937]]]}}
