{"type":"Feature","properties":{"sourceId":"syria"},"geometry":{"type":"Polygon","coordinates":[[[35.64423,36.09544],[35.93067,35.93126],[36.00883,35.95056],[36.02777,35.92257],[36.01352,35.89131],[36.11753,35.87085],[36.15232,35.8191],[36.16608,35.92359],[36.18725,35.95157],[36.24998,35.97251],[36.28601,35.96293],[36.27549,35.99052],[36.28678,36.01991],[36.33762,35.99854],[36.36303,36.01196],[36.37531,36.08269],[36.36057,36.11811],[36.37318,36.13905],[36.35545,36.16715],[36.38099,36.19851],[36.37486,36.22393],[36.39497,36.23533],[36.46453,36.2148],[36.50242,36.25227],[36.61515,36.22712],[36.6193,36.24754],[36.68419,36.2497],[36.675,36.28819],[36.64678,36.29511],[36.65098,36.32732],[36.59735,36.32114],[36.5942,36.38253],[36.55762,36.41407],[36.53254,36.48571],[36.57941,36.58677],[36.5641,36.66215],[36.62037,36.71193],[36.60353,36.74889],[36.65861,36.80616],[36.66299,36.83801],[37.00217,36.77443],[37.00937,36.74829],[37.06272,36.73448],[37.03082,36.67526],[37.08313,36.6463],[37.10047,36.68055],[37.14147,36.6873],[37.16576,36.66797],[37.21597,36.68529],[37.28537,36.67998],[37.44647,36.64294],[37.47048,36.64475],[37.49399,36.68447],[37.65527,36.75861],[37.78034,36.75904],[37.93679,36.82794],[38.01615,36.83637],[38.04215,36.87391],[38.24298,36.93405],[38.39333,36.91198],[38.55782,36.85422],[38.74167,36.71785],[38.94756,36.70806],[39.0217,36.72066],[39.21227,36.6791],[39.71146,36.75814],[39.81776,36.76635],[40.00568,36.82852],[40.04688,36.84178],[40.06233,36.86108],[40.17938,36.88707],[40.3516,36.97145],[40.40767,37.02403],[40.52741,37.03778],[40.69201,37.11309],[40.74877,37.12013],[40.76507,37.13799],[40.81499,37.13551],[40.83427,37.11761],[40.84352,37.13159],[40.91462,37.14218],[41.16181,37.10528],[41.20088,37.08243],[41.21049,37.06682],[41.26724,37.08973],[41.50944,37.08312],[41.64127,37.12611],[41.79136,37.13811],[42.03141,37.19169],[42.08243,37.2176],[42.18733,37.30533],[42.2057,37.32239],[42.23477,37.31884],[42.21879,37.28781],[42.28699,37.29105],[42.34899,37.2408],[42.35777,37.21234],[42.33136,37.18432],[42.36442,37.12712],[42.36129,37.09329],[42.38383,37.08135],[42.37186,37.05436],[41.94559,36.66329],[41.83032,36.58337],[41.41903,36.5119],[41.30444,36.35289],[41.26864,36.05607],[41.39067,35.83813],[41.40422,35.62911],[41.29235,35.4824],[41.24749,34.7827],[41.04197,34.44763],[41.00975,34.41134],[38.79878765157719,33.368811330094225],[38.7953,33.37922],[38.43003,33.18547],[37.90707,32.9011],[37.81815,32.90838],[37.78388,32.89599],[37.76642,32.87946],[37.75932,32.78898],[37.70699,32.76078],[37.56607,32.73613],[37.51909,32.72013],[37.48353,32.69193],[37.44208,32.64502],[37.3776,32.59468],[37.33072,32.56764],[37.25506,32.57489],[37.2055,32.56015],[37.15947,32.5179],[37.07458,32.43568],[37.00915,32.42782],[36.98966,32.44279],[36.98141,32.44416],[36.96087,32.44264],[36.88938,32.35646],[36.83787,32.31448],[36.78708,32.32402],[36.75132,32.32523],[36.72036,32.317],[36.69604,32.32812],[36.69045,32.33729],[36.66573,32.34256],[36.51204,32.36027],[36.4749,32.3743],[36.40761,32.38009],[36.37463,32.40139],[36.307,32.46189],[36.24112,32.5018],[36.21409,32.49759],[36.20854,32.50845],[36.20841,32.52713],[36.20123,32.53259],[36.164,32.5182],[36.15683,32.52676],[36.12229,32.52772],[36.08134,32.517],[36.08242,32.5442],[36.07153,32.56983],[36.06389,32.58062],[36.02843,32.60397],[36.03118,32.63973],[36.02637,32.65966],[35.96546,32.66726],[35.95013,32.68389],[35.94936,32.69625],[35.94076,32.70184],[35.94239,32.70909],[35.93443,32.7237],[35.91649,32.72244],[35.90423,32.72678],[35.89853,32.72052],[35.88433,32.717],[35.87916,32.73096],[35.8699,32.73553],[35.8513,32.73103],[35.84373,32.73455],[35.83627,32.72977],[35.8269,32.7365],[35.81214,32.73853],[35.80977,32.74441],[35.80309,32.73921],[35.79888,32.74484],[35.80329,32.75155],[35.798122551521274,32.75580335109441],[35.80834,32.772],[35.91531,32.9406],[35.81509,33.3392],[35.79300055657923,33.34340871107155],[35.81766,33.36122],[36.07498,33.58931],[35.97429,33.64307],[35.93903,33.64549],[35.97044,33.67921],[35.97576,33.69221],[35.97008,33.71452],[35.99019,33.7266],[36.03797,33.77196],[36.07743,33.82591],[36.08885,33.81805],[36.13993,33.83866],[36.15561,33.85469],[36.16242,33.85209],[36.17351,33.83747],[36.20466,33.82765],[36.23578,33.84238],[36.36886,33.82251],[36.40938,33.8265],[36.38844,33.87526],[36.29986,33.91573],[36.51049,34.06247],[36.63666,34.20215],[36.58688,34.27537],[36.60576,34.29126],[36.60378,34.31579],[36.55821,34.32947],[36.53091,34.3693],[36.55555,34.38644],[36.57829,34.40691],[36.53057,34.4358],[36.51117,34.45123],[36.46585,34.46906],[36.44989,34.51009],[36.41487,34.51165],[36.34003,34.50557],[36.34089,34.52042],[36.42208,34.55125],[36.45521,34.59125],[36.47238,34.63858],[36.36955,34.64549],[36.35393,34.66145],[36.35977,34.68644],[36.33625,34.69858],[36.3069,34.68503],[36.28389,34.63575],[36.26621,34.63123],[36.2439,34.63801],[36.18938,34.6393],[36.17094,34.63293],[36.12391,34.64451],[36.07927,34.63589],[36.0609,34.63773],[36.04752,34.63095],[36.00872,34.64663],[35.99173,34.65227],[35.97877,34.6503],[35.96692,34.6341],[35.50095,34.80253],[35.465140021841165,34.72073417835417],[35.41443,34.76869],[35.28548,35.65124],[35.42163,35.8609],[35.64423,36.09544]]]}}
