{"type":"Feature","properties":{"sourceId":"schleswig-holstein"},"geometry":{"type":"Polygon","coordinates":[[[9.737218,54.82923],[9.746014,54.82728],[9.746835,54.82721],[9.753249,54.82587],[9.757568,54.82635],[10.0359,54.80388],[11.13464,54.63093],[11.67572,54.4397],[11.79931,54.30851],[11.12778,54.08155],[10.9132,53.9578],[10.91217,53.93032],[10.96899,53.91597],[10.97225,53.90666],[10.94822,53.89453],[10.89998,53.89443],[10.88779,53.91728],[10.75441,53.84149],[10.78016,53.79741],[10.77656,53.7757],[10.76849,53.75632],[10.81364,53.74485],[10.81793,53.72658],[10.85586,53.70961],[10.88539,53.71053],[10.93019,53.70148],[10.95852,53.66885],[10.95852,53.64698],[10.93088,53.58639],[10.9156,53.56713],[10.83921,53.5605],[10.8308,53.51276],[10.69365,53.45198],[10.63786,53.4484],[10.6212,53.38282],[10.60198,53.36315],[10.58189,53.3569],[10.56524,53.36018],[10.55666,53.36725],[10.5019,53.37094],[10.47409,53.37964],[10.42311,53.39623],[10.36972,53.42191],[10.32543,53.42355],[10.309260788288729,53.4305683434754],[10.30964,53.43071],[10.32509,53.43562],[10.33196,53.45146],[10.30542,53.45715],[10.2396,53.49611],[10.21162,53.52357],[10.1893,53.51551],[10.16579,53.52347],[10.1742,53.5399],[10.15652,53.53939],[10.15291,53.54755],[10.16081,53.55275],[10.1627,53.56223],[10.1524,53.56815],[10.16424,53.57875],[10.20527,53.58201],[10.19635,53.60801],[10.21943,53.6255],[10.2263,53.63426],[10.20021,53.64026],[10.20278,53.64957],[10.1827,53.66692],[10.14871,53.67775],[10.16004,53.6901],[10.16467,53.70347],[10.18433,53.70717],[10.19763,53.73277],[10.16347,53.74369],[10.11686,53.71799],[10.08038,53.72185],[10.06614,53.71149],[10.0585,53.6838],[9.998245,53.68217],[9.991293,53.67653],[9.983225,53.6569],[9.977217,53.65212],[9.918079,53.65746],[9.904261,53.65385],[9.890871,53.63242],[9.867268,53.61715],[9.853706,53.60066],[9.840488,53.5978],[9.821949,53.58777],[9.796286,53.60213],[9.804096,53.60697],[9.798002,53.61211],[9.775785,53.61781],[9.77294,53.63573],[9.753628,53.62566],[9.733457,53.58277],[9.724273,53.5552],[9.738107513059584,53.55353117598627],[9.736808,53.54902],[9.642048,53.56964],[9.532392,53.61069],[9.472088,53.70904],[9.408314,53.7302],[9.324528,53.83111],[9.266892,53.85881],[9.099854,53.86763],[8.905865,53.86354],[8.736425,53.94465],[8.56766613013329,53.9502799618652],[8.554228,54.06261],[7.967833,54.03923],[8.1850633232108,53.96304396777608],[7.46458,53.98708],[7.492871,54.26],[7.688125,54.56096],[8.073674,55.14634],[8.082764,55.14492],[8.505336,55.05835],[8.614893,54.92555],[8.614891,54.92455],[8.615785,54.92447],[8.61587,54.92437],[8.624728,54.9237],[8.670574,54.91974],[8.674935,54.91796],[8.713305,54.90027],[8.778759,54.90659],[8.830604,54.91353],[8.991623,54.908],[9.245681,54.85843],[9.262932,54.8214],[9.36018,54.81918],[9.378204,54.84104],[9.411678,54.84539],[9.431248,54.83283],[9.466781,54.83807],[9.49161,54.84524],[9.588,54.88828],[9.63225,54.88446],[9.639296,54.88159],[9.618575,54.85551],[9.618824,54.85545],[9.617687,54.85427],[9.737218,54.82923]]]}}
