{"type":"Feature","properties":{"sourceId":"senegal-and-gambia"},"geometry":{"type":"Polygon","coordinates":[[[-17.15206,12.01511],[-19.16189,13.53543],[-19.85623,16.18127],[-16.74855,16.08748],[-16.48018,16.07716],[-16.46336,16.18434],[-16.4455,16.21632],[-16.3995,16.22588],[-16.33202,16.4577],[-16.26732,16.53584],[-16.20293,16.52257],[-16.15585,16.55923],[-16.10115,16.56183],[-16.04991,16.49085],[-16.00639,16.50753],[-15.96428,16.49654],[-15.92331,16.51675],[-15.86357,16.51905],[-15.85222,16.50351],[-15.81568,16.51107],[-15.68333,16.48416],[-15.63538,16.4989],[-15.63956,16.51842],[-15.62357,16.53417],[-15.55596,16.51955],[-15.51864,16.52977],[-15.5254,16.56677],[-15.46497,16.59869],[-15.43682,16.58454],[-15.41176,16.54308],[-15.29812,16.58487],[-15.23117,16.56414],[-15.17143,16.59639],[-15.11947,16.58689],[-15.08776,16.62022],[-15.12798,16.63441],[-15.11341,16.6806],[-15.0777,16.68357],[-15.03623,16.63952],[-15.00934,16.65058],[-15.00677,16.6832],[-14.98971,16.70088],[-14.87755,16.66234],[-14.76631,16.65839],[-14.64272,16.65198],[-14.63036,16.63307],[-14.56106,16.63025],[-14.54641,16.64738],[-14.50263,16.63155],[-14.44685,16.63225],[-14.42103,16.66228],[-14.40282,16.64208],[-14.33287,16.64623],[-14.31718,16.6307],[-14.32789,16.57039],[-14.28497,16.59013],[-14.26884,16.58256],[-14.2642,16.57434],[-14.26746,16.54357],[-14.21803,16.55558],[-14.16515,16.49699],[-14.12945,16.47955],[-14.09168,16.43147],[-14.02353,16.35786],[-13.99246,16.34847],[-13.96465,16.33282],[-13.88466,16.2094],[-13.802,16.14617],[-13.7857,16.14461],[-13.71206,16.1911],[-13.69314,16.17002],[-13.70857,16.13824],[-13.67982,16.10489],[-13.57314,16.14256],[-13.51524,16.13191],[-13.48864,16.1517],[-13.47645,16.14593],[-13.45836,16.11785],[-13.4411,16.09271],[-13.37086,16.06257],[-13.35528,15.97145],[-13.30574,15.92961],[-13.25779,15.79501],[-13.19854,15.69656],[-13.21185,15.66901],[-13.25063,15.66577],[-13.24651,15.65106],[-13.2223,15.62147],[-13.18523,15.63541],[-13.08093,15.5879],[-12.95946,15.5076],[-12.93034,15.45477],[-12.91764,15.44137],[-12.82522,15.28698],[-12.79392,15.21164],[-12.78328,15.19591],[-12.78603,15.16062],[-12.74448,15.13643],[-12.69411,15.10361],[-12.66366,15.11782],[-12.60113,15.08986],[-12.48783,15.02307],[-12.44928,14.97452],[-12.44691,14.91319],[-12.45219,14.89842],[-12.39807,14.84807],[-12.37782,14.84127],[-12.33164,14.8328],[-12.26486,14.77405],[-12.2362,14.76658],[-12.23053,14.74019],[-12.20993,14.73803],[-12.20304,14.7062],[-12.15483,14.69287],[-12.15824,14.66876],[-12.14058,14.65627],[-12.14377,14.62337],[-12.16305,14.60742],[-12.17856,14.5486],[-12.20461,14.54952],[-12.21783,14.49452],[-12.19534,14.48322],[-12.20375,14.45829],[-12.18453,14.44249],[-12.19963,14.42238],[-12.19826,14.40924],[-12.16993,14.40392],[-12.12376,14.39528],[-12.09526,14.37482],[-12.08651,14.3562],[-12.08915,14.30894],[-12.02127,14.29266],[-11.96789,14.18584],[-11.97612,14.08264],[-12.00222,14.03035],[-11.98368,13.97105],[-11.93081,13.92907],[-11.94248,13.80241],[-12.05528,13.71055],[-12.03078,13.66589],[-12.03278,13.63164],[-11.99329,13.59193],[-11.9619,13.54156],[-11.86365,13.4731],[-11.85655,13.43731],[-11.87916,13.3917],[-11.83605,13.35429],[-11.82009,13.31817],[-11.77496,13.34713],[-11.75495,13.41418],[-11.73675,13.42555],[-11.70212,13.42345],[-11.68389,13.40015],[-11.62442,13.40422],[-11.61976,13.37215],[-11.58893,13.37406],[-11.57775,13.31551],[-11.53773,13.29507],[-11.51234,13.25982],[-11.49022,13.19613],[-11.46853,13.10673],[-11.42074,13.09254],[-11.42347,13.0611],[-11.38628,13.00225],[-11.35176,12.99081],[-11.33595,12.9425],[-11.34469,12.9254],[-11.38099,12.91694],[-11.39372,12.88007],[-11.38363,12.86213],[-11.39214,12.83842],[-11.37199,12.83039],[-11.35754,12.73285],[-11.36847,12.71925],[-11.41449,12.71947],[-11.3972,12.63519],[-11.39462,12.58535],[-11.42305,12.55566],[-11.41786,12.54488],[-11.38117,12.54519],[-11.3454,12.49694],[-11.34196,12.46194],[-11.36055,12.44751],[-11.35617,12.41893],[-11.365721497630716,12.411231979954847],[-11.41685,12.44211],[-11.47659,12.45786],[-11.89751,12.45736],[-11.99381,12.41109],[-12.0587,12.4406],[-12.11723,12.43591],[-12.34245,12.34872],[-12.39326,12.40037],[-12.88902,12.56596],[-13.05931,12.65039],[-13.28024,12.66194],[-13.34839,12.66295],[-13.48658,12.67886],[-13.700318592322795,12.682866449967873],[-13.70123657847919,12.66541010313712],[-13.7003,12.68322],[-13.718129840454615,12.683200315152115],[-13.71918,12.68322],[-13.71917752872512,12.683199158462896],[-14.00826,12.68288],[-14.42917,12.68523],[-14.88373,12.68322],[-15.1759,12.6936],[-15.34275,12.6189],[-15.42446,12.54753],[-15.46051,12.53244],[-15.68607,12.42987],[-16.04279,12.47848],[-16.2038,12.46876],[-16.39504,12.37387],[-16.62884,12.36549],[-16.68995,12.36381],[-16.71999,12.34168],[-16.96427,12.25816],[-16.935948179263374,12.108054065968476],[-17.15206,12.01511]]]}}
