{"type":"Feature","properties":{"sourceId":"sul"},"geometry":{"type":"Polygon","coordinates":[[[-57.67273,-30.19202],[-57.24701,-29.76795],[-57.09938,-29.72741],[-56.78558,-29.36961],[-56.60431,-29.11617],[-56.29875,-28.78692],[-56.0289,-28.57728],[-56.03508,-28.51516],[-55.78926,-28.2433],[-55.61348,-28.11135],[-55.32372,-27.91434],[-55.08579,-27.77044],[-54.91207,-27.72456],[-54.91207,-27.63305],[-54.81251,-27.52106],[-54.72118,-27.53233],[-54.59828,-27.44857],[-54.41219,-27.40042],[-54.26903,-27.3928],[-54.21581,-27.32816],[-54.19667,-27.30727],[-54.19805,-27.28194],[-54.17702,-27.24639],[-53.8797,-27.11048],[-53.70529,-26.91227],[-53.78769,-26.69164],[-53.72452,-26.38387],[-53.64787,-26.27671],[-53.64375,-26.25801],[-53.65628,-26.23376],[-53.74495,-26.11552],[-53.74306,-26.07775],[-53.7295,-26.06434],[-53.73267,-26.05825],[-53.73636,-26.04737],[-53.75662,-26.04784],[-53.84811,-25.97101],[-54.00124,-25.61181],[-54.44275,-25.70898],[-54.54025,-25.62419],[-54.54909893343419,-25.608476314478256],[-54.54543,-25.46684],[-54.37772,-25.18595],[-54.38012,-24.97198],[-54.20176,-24.36402],[-54.25948685753168,-24.05715534404245],[-54.23332,-24.04396],[-54.20551,-24.02452],[-54.16483,-23.99143],[-54.14251,-23.98437],[-54.12998,-23.97982],[-54.10578,-23.95598],[-54.1032,-23.94013],[-54.08398,-23.89839],[-54.08157,-23.87799],[-54.09101,-23.86088],[-54.08363,-23.77765],[-54.0239,-23.56587],[-54.00879,-23.48655],[-53.99368,-23.45443],[-53.95249,-23.4349],[-53.86528,-23.40655],[-53.76846,-23.35991],[-53.71971,-23.28172],[-53.6998,-23.21169],[-53.64555,-23.12331],[-53.65036,-22.99316],[-53.58101,-22.90527],[-53.5302,-22.87491],[-53.3194,-22.73946],[-53.20679,-22.70842],[-53.08319,-22.63429],[-53.10448,-22.61084],[-52.95479,-22.54934],[-52.80922,-22.58739],[-52.59018,-22.55949],[-52.40479,-22.6045],[-52.20703,-22.60514],[-52.15279,-22.54237],[-52.13219,-22.51858],[-52.10815,-22.51383],[-51.94988,-22.55125],[-51.85856,-22.61686],[-51.76037,-22.61052],[-51.74046,-22.62162],[-51.61652,-22.65425],[-51.50356,-22.6834],[-51.45035,-22.64411],[-51.39061,-22.65869],[-51.26633,-22.65869],[-50.8849,-22.78789],[-50.73315,-22.9448],[-50.67307,-22.88819],[-50.58037,-22.89863],[-50.33867,-22.90559],[-50.26588,-22.93057],[-50.24151,-22.93436],[-50.17971,-22.93152],[-50.05105,-22.89681],[-50.01226,-22.90749],[-50.0035,-22.92393],[-49.99457,-22.92717],[-49.995,-22.91761],[-49.99775,-22.90772],[-49.99981,-22.90274],[-49.99792,-22.89697],[-49.9914,-22.895],[-49.98333,-22.89721],[-49.97535,-22.9033],[-49.96831,-22.91065],[-49.95767,-22.9214],[-49.96093,-22.93982],[-49.96479,-22.95903],[-49.94385,-22.97641],[-49.92668,-22.97989],[-49.9066,-22.99222],[-49.89758,-23.00043],[-49.8987,-23.00849],[-49.90583,-23.01426],[-49.91072,-23.02729],[-49.9048,-23.0468],[-49.83519,-23.06449],[-49.76875,-23.10121],[-49.74137,-23.09355],[-49.71176,-23.11636],[-49.6455,-23.20475],[-49.61597,-23.30758],[-49.58576,-23.37756],[-49.56104,-23.42986],[-49.571,-23.45065],[-49.60018,-23.47521],[-49.594,-23.55423],[-49.60087,-23.63415],[-49.54388,-23.70081],[-49.55521,-23.82304],[-49.58885,-23.86166],[-49.51744,-23.91283],[-49.45976,-24.00789],[-49.38972,-24.10414],[-49.36827,-24.11323],[-49.3626,-24.11652],[-49.36071,-24.122],[-49.35247,-24.12874],[-49.33874,-24.13124],[-49.32175,-24.15553],[-49.33891,-24.21691],[-49.29222,-24.24759],[-49.27643,-24.29704],[-49.19197,-24.33771],[-49.24416,-24.49215],[-49.28055,-24.66075],[-49.17618,-24.64764],[-49.01825,-24.61893],[-48.57605,-24.66075],[-48.48061,-24.74309],[-48.54241,-24.82164],[-48.53554,-24.88145],[-48.5733,-25.02153],[-48.53691,-25.08435],[-48.44765,-24.97672],[-48.40233,-24.97797],[-48.33916,-25.02091],[-48.24509,-24.96303],[-48.19977,-25.02713],[-48.13522,-25.15461],[-48.11943,-25.22482],[-48.01437,-25.20432],[-48.01506,-25.28258],[-48.05969,-25.32665],[-44.2463,-27.39643],[-50.75007,-34.86424],[-52.90722694173205,-34.03078962221388],[-53.37141,-33.74019],[-53.39647,-33.74561],[-53.42531,-33.73533],[-53.43561,-33.6915],[-53.52041,-33.68664],[-53.51921,-33.59131],[-53.49587,-33.342],[-53.44299,-33.08809],[-53.21091,-32.94645],[-53.03856,-32.75725],[-53.18117,-32.63624],[-53.23283,-32.62039],[-53.24477,-32.59553],[-53.27332,-32.59512],[-53.28722,-32.61118],[-53.36665,-32.56037],[-53.39024,-32.57522],[-53.44727,-32.51761],[-53.4577,-32.47652],[-53.71537,-32.0953],[-53.73821,-32.07166],[-53.84307,-31.9933],[-53.95458,-31.94696],[-53.96594,-31.90848],[-54.03301,-31.88543],[-54.09106,-31.9203],[-54.14226,-31.88215],[-54.15629,-31.87391],[-54.17384,-31.86119],[-54.44269,-31.64897],[-54.44391,-31.59583],[-54.49515,-31.5203],[-54.58167,-31.44799],[-54.66672,-31.44411],[-54.7533,-31.41455],[-54.99902,-31.25958],[-55.03716,-31.26212],[-55.48042,-30.9196],[-55.53884,-30.88318],[-55.57395,-30.82386],[-55.64283,-30.84226],[-55.98152,-31.05823],[-55.95818,-30.82855],[-56.38793,-30.4441],[-56.41135,-30.42169],[-56.43652,-30.42235],[-56.46046,-30.37924],[-56.48758,-30.39124],[-56.53599,-30.31036],[-56.64675,-30.19962],[-56.83914,-30.07355],[-57.10241,-30.08319],[-57.1769,-30.19318],[-57.17194,-30.23258],[-57.37351,-30.26382],[-57.41239,-30.26915],[-57.46416,-30.25602],[-57.55656,-30.25322],[-57.54561,-30.23006],[-57.55556,-30.20287],[-57.62208,-30.17726],[-57.66552,-30.19202],[-57.661924283854546,-30.196786842013196],[-57.67273,-30.19202]]]}}
