{"type":"Feature","properties":{"sourceId":"surrey"},"geometry":{"type":"MultiPolygon","coordinates":[[[[-0.770206,51.1035],[-0.760312,51.10653],[-0.750193,51.10523],[-0.747556,51.11093],[-0.769993,51.1157],[-0.77184,51.11992],[-0.784507,51.12837],[-0.78225,51.13341],[-0.792654,51.13827],[-0.797074,51.15099],[-0.804956,51.15329],[-0.816724,51.14634],[-0.827988,51.14386],[-0.835475,51.14668],[-0.827326,51.18185],[-0.846775,51.19965],[-0.850593,51.21079],[-0.830629,51.22657],[-0.827313,51.23585],[-0.822489,51.23582],[-0.821356,51.2405],[-0.805471,51.24663],[-0.800573,51.24106],[-0.790174,51.24443],[-0.775752,51.24362],[-0.768857,51.238],[-0.748421,51.23236],[-0.742809,51.23262],[-0.738232,51.23803],[-0.740211,51.24113],[-0.737721,51.2493],[-0.7315,51.2561],[-0.735341,51.26016],[-0.732131,51.27015],[-0.741492,51.29497],[-0.741092,51.30025],[-0.746124,51.30812],[-0.763541,51.31623],[-0.767338,51.32436],[-0.773403,51.32649],[-0.7761822262013465,51.33146052397113],[-0.775086,51.33094],[-0.764796,51.33699],[-0.764679,51.33703],[-0.764606,51.3371],[-0.761029,51.3392],[-0.757715,51.33973],[-0.757281,51.34298],[-0.740934,51.35625],[-0.734912,51.36399],[-0.731485,51.3655],[-0.707634,51.37038],[-0.66415,51.38475],[-0.655385,51.38623],[-0.64673,51.38429],[-0.640643,51.38612],[-0.625426,51.38181],[-0.620823,51.38404],[-0.615934,51.38265],[-0.616262,51.38614],[-0.619364,51.38983],[-0.613548,51.39725],[-0.61532,51.40044],[-0.60422,51.41706],[-0.604004,51.43074],[-0.592643,51.44017],[-0.579138,51.44392],[-0.571313,51.44973],[-0.568121,51.44905],[-0.556021,51.44057],[-0.550722,51.4425],[-0.532426,51.43566],[-0.522434,51.43439],[-0.523427,51.44011],[-0.529733,51.44252],[-0.525965,51.4481],[-0.538301,51.45778],[-0.534528,51.4599],[-0.528065,51.46963],[-0.520908,51.47038],[-0.51412,51.46701],[-0.5106515439210713,51.46806183236335],[-0.511482,51.46629],[-0.460615,51.45531],[-0.463187,51.44876],[-0.45934,51.44742],[-0.457308,51.43662],[-0.448755,51.43772],[-0.448771,51.43365],[-0.441825,51.43303],[-0.43858,51.42852],[-0.42921,51.42713],[-0.419562,51.43061],[-0.406476,51.42106],[-0.392043,51.42077],[-0.388262,51.41647],[-0.391975,51.4147],[-0.389894,51.40877],[-0.378049,51.40619],[-0.359519,51.41024],[-0.341472,51.4016],[-0.328514,51.39028],[-0.317824,51.39161],[-0.318334,51.38781],[-0.313434,51.38669],[-0.309555,51.3777],[-0.318301,51.37395],[-0.321209,51.36093],[-0.33209,51.34911],[-0.329693,51.34326],[-0.332438,51.32861],[-0.329151,51.32498],[-0.318615,51.32626],[-0.304773,51.33397],[-0.302569,51.34217],[-0.29173,51.35117],[-0.283173,51.36372],[-0.26009,51.37757],[-0.24693,51.37832],[-0.246769,51.3658],[-0.228003,51.36123],[-0.219688,51.34533],[-0.231037,51.33774],[-0.230223,51.33451],[-0.221631,51.3283],[-0.215802,51.32816],[-0.210716,51.33474],[-0.197073,51.34149],[-0.188524,51.33935],[-0.176264,51.33254],[-0.173567,51.32846],[-0.166081,51.32817],[-0.161202,51.32165],[-0.163585,51.31937],[-0.157333,51.30897],[-0.159461,51.30436],[-0.156336,51.2999],[-0.138209,51.29877],[-0.125777,51.28587],[-0.117109,51.28554],[-0.113169,51.29066],[-0.093335,51.29799],[-0.087078,51.30648],[-0.080604,51.30962],[-0.081617,51.31507],[-0.077146,51.31817],[-0.063768,51.31693],[-0.050547,51.32094],[-0.046217,51.32498],[-0.048737,51.33104],[-0.041152,51.33233],[-0.037603,51.33689],[-0.0228,51.33655],[-0.014828,51.32817],[-0.008716,51.3322],[0.001184,51.32732],[0.004981,51.31501],[0.007807,51.31403],[0.00674,51.30982],[0.014433,51.29018],[0.020202,51.29041],[0.026066,51.301],[0.033062,51.30544],[0.040865,51.30096],[0.042004,51.29101],[0.045421389350101954,51.29151999622672],[0.049822,51.28596],[0.048076,51.27408],[0.059897,51.24805],[0.054481,51.23584],[0.044454,51.22813],[0.042467,51.2156],[0.036232,51.21419],[0.040405,51.19975],[0.044178,51.19435],[0.049175,51.19274],[0.048513,51.18753],[0.054202,51.18109],[0.047924,51.17035],[0.052876,51.15251],[0.056475,51.14943],[0.050796,51.14116],[0.038589,51.13861],[-0.006769,51.13588],[-0.017808,51.13939],[-0.024603,51.13688],[-0.041772,51.13788],[-0.056366,51.13507],[-0.06362,51.13951],[-0.085071,51.14106],[-0.093452,51.13675],[-0.116307,51.13963],[-0.131322,51.13781],[-0.139239,51.14172],[-0.13604,51.15802],[-0.162728,51.1584],[-0.178385,51.16551],[-0.184906,51.16312],[-0.186255,51.16009],[-0.195337,51.16071],[-0.203273,51.15424],[-0.209784,51.15373],[-0.210187,51.14947],[-0.213718,51.14685],[-0.25385,51.14238],[-0.253847,51.13755],[-0.275406,51.1287],[-0.286894,51.12914],[-0.30092,51.12311],[-0.326326,51.12432],[-0.330291,51.1209],[-0.34385,51.11734],[-0.35913,51.11845],[-0.39202,51.11401],[-0.398479,51.10715],[-0.436881,51.09664],[-0.456372,51.09873],[-0.491799,51.0925],[-0.503895,51.08722],[-0.534123,51.09137],[-0.532361,51.08502],[-0.540362,51.08069],[-0.576576,51.08522],[-0.604393,51.0786],[-0.621513,51.08651],[-0.629379,51.08717],[-0.664282,51.0795],[-0.670789,51.07559],[-0.697703,51.0715],[-0.707475,51.07714],[-0.723396,51.07627],[-0.733345,51.08174],[-0.757633,51.08584],[-0.760294,51.09154],[-0.75625,51.09619],[-0.760484,51.10214],[-0.766686,51.10084],[-0.770206,51.1035]]],[[[-0.5106515439210704,51.46806183236335],[-0.5106515439210713,51.46806183236335],[-0.5077307330706132,51.46894758767055],[-0.5106515439210704,51.46806183236335]]]]}}
