{"type":"Feature","properties":{"sourceId":"stuttgart-regbez"},"geometry":{"type":"Polygon","coordinates":[[[10.078393055061566,49.54683619286118],[10.08181,49.5386],[10.0848,49.53759],[10.07555,49.52447],[10.07668,49.51479],[10.07779,49.51301],[10.08141,49.50944],[10.10287,49.51256],[10.10178,49.5083],[10.11377,49.508],[10.10005,49.50157],[10.09618,49.48647],[10.11223,49.47298],[10.09281,49.45502],[10.09321,49.4471],[10.12766,49.42954],[10.14493,49.40712],[10.13493,49.4037],[10.15634,49.39293],[10.14107,49.38762],[10.12124,49.38925],[10.11075,49.38613],[10.10402,49.37669],[10.11111,49.36695],[10.10613,49.35387],[10.09995,49.34295],[10.10262,49.33648],[10.11111,49.32607],[10.13729,49.3207],[10.12897,49.30375],[10.13316,49.29252],[10.1439,49.27425],[10.12313,49.27761],[10.11369,49.26758],[10.10845,49.25761],[10.1245,49.23402],[10.12279,49.19556],[10.15145,49.18956],[10.15815,49.18299],[10.18982,49.16481],[10.19651,49.15443],[10.20407,49.15336],[10.21581,49.15871],[10.25256,49.13837],[10.24484,49.12838],[10.22381,49.12079],[10.21205,49.11282],[10.20216,49.09713],[10.21033,49.09259],[10.2414,49.08556],[10.23248,49.07645],[10.23394,49.07291],[10.25668,49.06723],[10.24801,49.04107],[10.25359,49.03742],[10.26647,49.04141],[10.28483,49.03517],[10.302,49.0301],[10.32784,49.0229],[10.35238,49.00472],[10.37916,48.98923],[10.3919,48.97675],[10.40057893114509,48.97672590524391],[10.39448,48.97422],[10.40148,48.96737],[10.42216,48.95368],[10.43624,48.93225],[10.45243,48.91795],[10.41523,48.90561],[10.44111,48.89356],[10.44596,48.8528],[10.42791,48.84647],[10.42367,48.83673],[10.44379,48.83088],[10.44368,48.81237],[10.41993,48.80053],[10.4098,48.77062],[10.41822,48.75879],[10.41392,48.74759],[10.42748,48.73751],[10.44431,48.72715],[10.45917,48.72447],[10.46549,48.71368],[10.46679,48.70475],[10.48199,48.68891],[10.46111,48.67397],[10.42393,48.6663],[10.44066,48.69371],[10.43505,48.6996],[10.4218,48.70354],[10.40428,48.70039],[10.39083,48.69],[10.38259,48.67047],[10.36321,48.66224],[10.34337,48.68756],[10.26739,48.70537],[10.25299,48.67832],[10.25377,48.66004],[10.29505,48.6236],[10.31753,48.61021],[10.29161,48.60533],[10.29048,48.59046],[10.30741,48.57683],[10.31118,48.55934],[10.30088,48.5498],[10.29831,48.52092],[10.26604,48.52218],[10.229682866871823,48.512907387225006],[10.24312,48.50781],[10.21755,48.51751],[10.21735,48.53464],[10.19681,48.5448],[10.18825,48.56086],[10.17084,48.55237],[10.16045,48.56013],[10.14972,48.55602],[10.1236,48.56209],[10.11527,48.55923],[10.11185,48.57171],[10.09943,48.58032],[10.05338,48.59471],[10.04071,48.60985],[10.00773,48.60638],[9.99838,48.61029],[9.990675,48.60683],[9.988502,48.60001],[9.96762,48.5983],[9.972004,48.61637],[9.944245,48.6348],[9.889877,48.62458],[9.884533,48.61583],[9.890121,48.61265],[9.870135,48.59315],[9.854522,48.59341],[9.855043,48.58723],[9.850687,48.58592],[9.837704,48.58851],[9.830692,48.58177],[9.832123,48.57536],[9.82451,48.56731],[9.815547,48.56847],[9.81508,48.5619],[9.781035,48.56303],[9.770358,48.56932],[9.761999,48.56365],[9.725055,48.56478],[9.716293,48.5583],[9.719074,48.5485],[9.69274,48.54378],[9.679211,48.5257],[9.652931,48.52498],[9.633712,48.5397],[9.611647,48.54416],[9.568051,48.54215],[9.550092,48.53174],[9.530514,48.52929],[9.529348,48.51857],[9.507054,48.52962],[9.50196,48.52795],[9.503695,48.52056],[9.497513,48.52467],[9.481788,48.52101],[9.483421,48.52529],[9.491468,48.52539],[9.492541,48.53259],[9.450954,48.54968],[9.437566,48.54334],[9.425139,48.54662],[9.415246,48.53939],[9.407711,48.54171],[9.393625,48.53407],[9.384823,48.53863],[9.370939,48.53725],[9.361951,48.54655],[9.339646,48.55223],[9.328631,48.54366],[9.317414,48.56376],[9.323946,48.56737],[9.325278,48.57471],[9.316113,48.58285],[9.292565,48.57594],[9.29316,48.56858],[9.262973,48.56961],[9.241018,48.58156],[9.225187,48.56993],[9.217271,48.57074],[9.204262,48.58913],[9.210073,48.59863],[9.206242,48.60606],[9.186324,48.60157],[9.18182,48.60813],[9.155303,48.60876],[9.122294,48.60322],[9.115366,48.60553],[9.118591,48.61586],[9.107441,48.62582],[9.094201,48.62434],[9.092244,48.61767],[9.080609,48.61414],[9.084114,48.60494],[9.075701,48.60001],[9.075264,48.59427],[9.051362,48.59636],[9.038206,48.58942],[9.033086,48.58083],[9.006521,48.59131],[8.993572,48.58756],[8.983913,48.59423],[8.948573,48.58976],[8.944966,48.5828],[8.933199,48.57865],[8.937607,48.56887],[8.911048,48.57522],[8.887984,48.56571],[8.883493,48.54416],[8.848524,48.53975],[8.848235,48.5309],[8.854756,48.52689],[8.851751,48.52178],[8.857392,48.51388],[8.840774,48.51206],[8.839789,48.50192],[8.828699,48.50906],[8.799851,48.51214],[8.790893,48.52294],[8.771596040874895,48.52472720678939],[8.772589,48.52434],[8.762716,48.52819],[8.766871,48.5344],[8.760697,48.5417],[8.773073,48.54273],[8.776181,48.55025],[8.773928,48.5527],[8.768426,48.55139],[8.768116,48.55735],[8.760516,48.55878],[8.757661,48.58661],[8.750816,48.59738],[8.761876,48.59975],[8.796975,48.59199],[8.79758,48.60655],[8.804178,48.61157],[8.800341,48.62568],[8.79409,48.62882],[8.798357,48.63415],[8.796723,48.63795],[8.80447,48.64275],[8.802352,48.65684],[8.820495,48.66193],[8.822166,48.66646],[8.828217,48.66785],[8.829669,48.67436],[8.83817,48.68],[8.852812,48.68198],[8.86548,48.6955],[8.861791,48.70632],[8.868934,48.7108],[8.868289,48.71749],[8.878652,48.71981],[8.880643,48.72638],[8.856062,48.73746],[8.833238,48.7393],[8.836839,48.74353],[8.836843,48.75685],[8.803657,48.77408],[8.833691,48.79494],[8.847589,48.78976],[8.868035,48.78921],[8.887139,48.79928],[8.895447,48.79495],[8.902343,48.79826],[8.903487,48.80316],[8.894805,48.80595],[8.894393,48.81016],[8.902445,48.81407],[8.902238,48.82053],[8.895323,48.8296],[8.87971,48.83695],[8.896825,48.84458],[8.904444,48.85838],[8.919923,48.86349],[8.929808,48.86247],[8.93203,48.86541],[8.930755,48.87185],[8.920123,48.88437],[8.916911,48.89589],[8.91934,48.90003],[8.913378,48.90905],[8.924478,48.91157],[8.929132,48.92064],[8.924572,48.92382],[8.908931,48.92437],[8.906205,48.93845],[8.929776,48.93339],[8.934924,48.93626],[8.942971,48.93535],[8.950006,48.94017],[8.948773,48.94998],[8.952521,48.95307],[8.941734,48.97007],[8.928605,48.97845],[8.926865,48.98356],[8.935736,48.98899],[8.935108,48.99507],[8.922114,49.00496],[8.920873,49.0108],[8.905534,49.02453],[8.879814,49.03412],[8.875852,49.04],[8.875521,49.04677],[8.879396,49.04731],[8.88351,49.05592],[8.882159,49.06541],[8.876447,49.07253],[8.877837,49.07596],[8.89143,49.07761],[8.89601,49.08327],[8.897365,49.09692],[8.893789,49.11366],[8.888908,49.11993],[8.879904,49.12187],[8.872371,49.13476],[8.860495,49.13248],[8.857569,49.12888],[8.834268,49.12949],[8.830334,49.13382],[8.840152,49.13781],[8.840186,49.14687],[8.845157,49.15044],[8.832101,49.16472],[8.819316,49.1614],[8.828626,49.18717],[8.860036,49.17233],[8.873883,49.17193],[8.898643,49.18001],[8.8967,49.19489],[8.891213,49.19944],[8.958534,49.21039],[8.965576,49.21606],[8.966543,49.22437],[8.98535,49.22941],[8.993176,49.23777],[9.007981,49.24003],[9.013626,49.24958],[9.01032,49.25358],[9.004115,49.25318],[9.005878,49.25898],[9.014282,49.25235],[9.022303,49.2542],[9.024415,49.26011],[9.020668,49.2623],[9.033303,49.26666],[9.03524,49.27197],[9.044578,49.27623],[9.044179,49.28435],[9.031555,49.28934],[9.029983,49.29331],[9.045732,49.29059],[9.048977,49.28386],[9.061878,49.28148],[9.071258,49.27527],[9.103619,49.27636],[9.112211,49.27433],[9.113036,49.27014],[9.118069,49.26893],[9.151122,49.27094],[9.158261,49.28347],[9.155365,49.28806],[9.147995,49.29005],[9.158322,49.29644],[9.157281,49.30851],[9.164578,49.32443],[9.173186,49.32037],[9.193221,49.32433],[9.203658,49.32155],[9.208332,49.31345],[9.219771,49.30501],[9.228954,49.30746],[9.240717,49.2948],[9.252735,49.29563],[9.264256,49.30463],[9.26578,49.31813],[9.271646,49.32729],[9.289197,49.32752],[9.296609,49.34532],[9.317533,49.35542],[9.312317,49.37442],[9.319501,49.38144],[9.329512,49.38466],[9.351451,49.37102],[9.353843,49.36373],[9.367952,49.36412],[9.376408,49.35985],[9.399843,49.36303],[9.423507,49.35505],[9.445634,49.36229],[9.445994,49.36961],[9.454313,49.37495],[9.448619,49.38857],[9.464501,49.39221],[9.473148,49.38196],[9.498425,49.3775],[9.507554,49.37234],[9.531259,49.37895],[9.550664,49.37366],[9.574543,49.37441],[9.582743,49.38423],[9.597097,49.39158],[9.592699,49.39671],[9.593202,49.40313],[9.581083,49.40572],[9.575791,49.41491],[9.605534,49.42409],[9.603346,49.4329],[9.590732,49.44269],[9.550281,49.45272],[9.540378,49.45212],[9.529832,49.44631],[9.517193,49.44654],[9.50911,49.45412],[9.516044,49.46188],[9.519768,49.47431],[9.513965,49.48283],[9.495919,49.48857],[9.498351,49.49733],[9.507555,49.49871],[9.517395,49.50993],[9.521621,49.50798],[9.532775,49.51155],[9.548504,49.52383],[9.54408,49.53507],[9.525993,49.53887],[9.526072,49.54574],[9.507386,49.57202],[9.508906,49.57818],[9.503965,49.58698],[9.511872,49.59848],[9.528109,49.59515],[9.546415,49.59943],[9.540477,49.61516],[9.554613,49.6214],[9.552036,49.63242],[9.54497,49.64078],[9.538627,49.64282],[9.52802,49.63775],[9.52048,49.64604],[9.504858,49.64559],[9.501957,49.64119],[9.492172,49.64762],[9.477462,49.64571],[9.451811,49.6583],[9.420376,49.66636],[9.422370777685678,49.665848534813215],[9.414799,49.67602],[9.42587,49.69647],[9.423381,49.71036],[9.419094,49.71808],[9.412684,49.72499],[9.401669,49.73231],[9.379961,49.73307],[9.337134,49.73494],[9.314775,49.73893],[9.320784,49.74112],[9.323144,49.74306],[9.324818,49.74659],[9.323187,49.75177],[9.315419,49.75826],[9.314604,49.76624],[9.354,49.76821],[9.371982,49.77747],[9.38889,49.76816],[9.405498,49.77594],[9.420433,49.78764],[9.431568,49.78699],[9.444345,49.76866],[9.458628,49.76852],[9.470472,49.77317],[9.472704,49.7801],[9.483175,49.78697],[9.501028,49.78791],[9.511156,49.78215],[9.506435,49.77129],[9.511499,49.76447],[9.518537,49.76009],[9.525404,49.76034],[9.53064,49.762],[9.537334,49.76724],[9.544458,49.76619],[9.548535,49.76303],[9.552956,49.74695],[9.558105,49.74345],[9.564199,49.74306],[9.569607,49.74523],[9.571152,49.75077],[9.560423,49.76231],[9.55905,49.77611],[9.57716,49.77716],[9.621105,49.78259],[9.646854,49.78802],[9.636125,49.75532],[9.638562,49.74732],[9.621009,49.7314],[9.622318,49.71123],[9.624538,49.70317],[9.631576,49.69173],[9.654236,49.68618],[9.664696,49.68501],[9.677698,49.6928],[9.681358,49.71543],[9.702889,49.7152],[9.724191,49.69732],[9.727538,49.68774],[9.738738,49.68671],[9.748918,49.68961],[9.756889,49.70933],[9.791908,49.72109],[9.830274,49.69812],[9.818859,49.66568],[9.829674,49.64713],[9.850788,49.64073],[9.866924,49.61082],[9.857826,49.60943],[9.838772,49.59508],[9.841518,49.57733],[9.809074,49.55857],[9.807619,49.55405],[9.85215,49.54299],[9.868586,49.54789],[9.877481,49.57677],[9.897137,49.58412],[9.897566,49.55974],[9.913476,49.55841],[9.920201,49.53707],[9.910049,49.5024],[9.912249,49.49227],[9.927092,49.48279],[9.952068,49.47911],[9.975243,49.48017],[10.01996,49.48352],[10.03284,49.50247],[10.05137,49.50565],[10.06021,49.51796],[10.06528,49.54415],[10.08173,49.53862],[10.081775569959964,49.53868299005546],[10.078393055061564,49.54683619286118],[10.078393055061566,49.54683619286118]]]}}
