{"type":"Feature","properties":{"sourceId":"shanxi"},"geometry":{"type":"Polygon","coordinates":[[[110.265,34.985],[110.265,35.0],[110.28,35.02],[110.32,35.06],[110.345,35.11],[110.345,35.135],[110.33,35.18],[110.375,35.305],[110.44,35.345],[110.455,35.38],[110.5,35.415],[110.525,35.53],[110.585,35.625],[110.565,35.67],[110.57,35.675],[110.555,35.69],[110.55,35.765],[110.54,35.775],[110.545,35.81],[110.53,35.825],[110.525,35.855],[110.5,35.86],[110.485,35.875],[110.49,35.895],[110.49,35.92],[110.48,35.935],[110.485,35.965],[110.47,35.985],[110.47,36.025],[110.445,36.065],[110.445,36.09],[110.425,36.12],[110.42,36.175],[110.435,36.2],[110.43,36.235],[110.45,36.255],[110.435,36.34],[110.465,36.42],[110.45,36.435],[110.45,36.465],[110.48,36.495],[110.475,36.53],[110.465,36.54],[110.465,36.575],[110.43,36.6],[110.405,36.65],[110.385,36.655],[110.37,36.67],[110.37,36.7],[110.39,36.715],[110.395,36.745],[110.375,36.745],[110.36,36.76],[110.36,36.785],[110.39,36.795],[110.395,36.81],[110.38,36.83],[110.395,36.85],[110.37,36.85],[110.355,36.86],[110.35,36.885],[110.36,36.9],[110.385,36.905],[110.4,36.96],[110.39,36.975],[110.37,36.98],[110.355,36.995],[110.35,37.015],[110.365,37.04],[110.395,37.045],[110.43,37.065],[110.45,37.065],[110.455,37.08],[110.485,37.11],[110.51,37.12],[110.51,37.145],[110.52,37.16],[110.55,37.18],[110.63,37.265],[110.63,37.28],[110.645,37.3],[110.655,37.3],[110.65,37.31],[110.665,37.335],[110.625,37.34],[110.605,37.36],[110.605,37.41],[110.615,37.42],[110.615,37.435],[110.64,37.46],[110.73,37.47],[110.735,37.515],[110.745,37.525],[110.75,37.55],[110.765,37.56],[110.75,37.58],[110.74,37.625],[110.74,37.65],[110.755,37.665],[110.705,37.675],[110.68,37.695],[110.68,37.73],[110.705,37.75],[110.72,37.75],[110.675,37.765],[110.64,37.795],[110.635,37.815],[110.58,37.905],[110.52,37.925],[110.49,37.955],[110.49,37.975],[110.5,37.99],[110.485,38.0],[110.475,38.02],[110.475,38.05],[110.48,38.105],[110.495,38.12],[110.48,38.165],[110.49,38.205],[110.51,38.22],[110.54,38.225],[110.555,38.305],[110.565,38.315],[110.645,38.32],[110.675,38.355],[110.725,38.38],[110.765,38.465],[110.82,38.47],[110.835,38.46],[110.85,38.465],[110.845,38.51],[110.865,38.535],[110.885,38.535],[110.885,38.57],[110.875,38.57],[110.86,38.6],[110.855,38.63],[110.865,38.64],[110.87,38.67],[110.885,38.68],[110.89,38.715],[110.935,38.75],[110.935,38.79],[110.965,38.81],[110.98,38.84],[110.97,38.855],[110.97,38.88],[110.99,38.89],[110.985,38.92],[110.97,38.95],[110.955,38.96],[110.955,38.985],[110.98,39.015],[111.01,39.035],[111.075,39.045],[111.12,39.08],[111.12,39.105],[111.145,39.13],[111.135,39.155],[111.18,39.235],[111.19,39.24],[111.19,39.275],[111.2,39.285],[111.185,39.285],[111.155,39.315],[111.135,39.32],[111.125,39.345],[111.1,39.35],[111.09,39.36],[111.09,39.385],[111.11,39.4],[111.12,39.42],[111.158,39.42585],[111.2403,39.42903],[111.2932,39.42453],[111.3289,39.42187],[111.3506,39.44362],[111.3516,39.48099],[111.3914,39.50563],[111.4189,39.51755],[111.4089,39.54535],[111.4223,39.57659],[111.4151,39.61256],[111.4285,39.64403],[111.456,39.65355],[111.4951,39.66729],[111.5483,39.6628],[111.6733,39.64218],[111.7746,39.59193],[111.8219,39.62209],[111.9194,39.62182],[111.9119,39.67046],[111.9596,39.8001],[112.0403,39.89789],[112.0688,39.92501],[112.0853,39.95475],[112.1055,39.97817],[112.1289,40.02577],[112.1742,40.08254],[112.2164,40.13243],[112.212,40.15841],[112.2233,40.17704],[112.2851,40.21139],[112.2786,40.22529],[112.3019,40.25805],[112.352,40.2604],[112.3997,40.29707],[112.4619,40.30493],[112.5179,40.26983],[112.5879,40.25228],[112.6514,40.22765],[112.7266,40.17048],[112.843,40.21061],[112.8842,40.31043],[112.8873,40.33032],[113.0442,40.37375],[113.1218,40.38029],[113.1585,40.39337],[113.2018,40.39886],[113.2289,40.40487],[113.2526,40.41899],[113.2697,40.39546],[113.305,40.355],[113.3161,40.32351],[113.3988,40.32351],[113.5344,40.34157],[113.5657,40.35152],[113.5688,40.36303],[113.6295,40.41245],[113.658,40.42369],[113.6762,40.45296],[113.7535,40.48351],[113.7854,40.5292],[113.8692,40.46001],[113.9547,40.52972],[114.058,40.5425],[114.0453,40.59597],[114.0309,40.60926],[114.048,40.63845],[114.0508,40.72514],[114.0886,40.74309],[114.1225,40.75116],[114.1352,40.74283],[114.1555,40.71604],[114.1926,40.65876],[114.2135,40.63298],[114.229,40.61057],[114.254,40.61395],[114.2853,40.5931],[114.2911,40.54903],[114.2942,40.52998],[114.2832,40.5044],[114.295,40.435],[114.2822,40.42944],[114.2928,40.40487],[114.3189,40.36983],[114.4418,40.37532],[114.5201,40.35623],[114.5321,40.3421],[114.5225,40.29733],[114.4514,40.24416],[114.2393,40.21139],[114.23,40.18832],[114.1232,40.16786],[114.0916,40.18491],[114.0631,40.18123],[114.0673,40.16707],[114.0748,40.1529],[114.0975,40.10591],[114.0882,40.06914],[114.036,40.05259],[114.0195,40.05968],[114.0165,40.07781],[114.0089,40.09856],[113.9907,40.10696],[113.9759,40.10906],[113.9773,40.08411],[113.9777,40.05942],[113.9626,40.03892],[113.9402,40.01105],[114.0189,39.99606],[114.0261,39.98659],[114.0439,39.92554],[114.138,39.91553],[114.174,39.90315],[114.206,39.92317],[114.2321,39.89841],[114.2046,39.87839],[114.2173,39.86285],[114.2726,39.87549],[114.3931,39.87075],[114.3935,39.855],[114.3935,39.84657],[114.3932,39.84057],[114.4024,39.8322],[114.3955,39.81038],[114.4181,39.78057],[114.4168,39.75445],[114.4054,39.69424],[114.4072,39.64403],[114.4312,39.60886],[114.4714,39.6168],[114.5002,39.60569],[114.5174,39.56388],[114.5407,39.58426],[114.57,39.58],[114.5692,39.56256],[114.5421,39.49927],[114.515,39.46],[114.4765,39.40622],[114.4779,39.34173],[114.426,39.29127],[114.4346,39.25831],[114.424,39.23624],[114.4672,39.23039],[114.475,39.205],[114.4538,39.17239],[114.3818,39.15988],[114.3677,39.13139],[114.366,39.10502],[114.3471,39.07198],[114.218,39.04159],[114.1064,39.04399],[114.0364,39.10795],[113.9869,39.08824],[113.9581,39.09676],[113.9468,39.0901],[113.9176,39.05998],[113.8077,38.98503],[113.7782,38.98103],[113.773,38.93164],[113.8043,38.85709],[113.8472,38.84078],[113.8523,38.80788],[113.8311,38.79049],[113.8328,38.75515],[113.7978,38.75462],[113.7679,38.73293],[113.7737,38.6981],[113.7466,38.69462],[113.7133,38.7048],[113.7174,38.6764],[113.715,38.65281],[113.6913,38.64235],[113.6203,38.64423],[113.6021,38.62894],[113.6144,38.59353],[113.5725,38.57045],[113.5588,38.52158],[113.5633,38.48369],[113.5928,38.46354],[113.5746,38.45009],[113.5633,38.4345],[113.5513,38.42266],[113.5324,38.4119],[113.5331,38.364],[113.5695,38.34139],[113.553,38.25652],[113.6189,38.23818],[113.6512,38.23656],[113.6845,38.22146],[113.7198,38.21768],[113.7887,38.16318],[113.834,38.17654],[113.83,38.10647],[113.8601,38.0712],[113.8747,38.06174],[113.8759,37.99616],[113.9056,37.98426],[113.9178,37.95855],[113.9246,37.94934],[113.9293,37.92795],[113.954,37.91644],[113.9742,37.88352],[113.9727,37.82267],[114.0135,37.8148],[114.0413,37.78496],[114.0444,37.76013],[114.0115,37.72837],[114.0499,37.7304],[114.0992,37.71873],[114.1308,37.69713],[114.1363,37.67146],[114.1349,37.64088],[114.1054,37.53777],[114.0357,37.47785],[114.0319,37.44406],[114.0079,37.41516],[113.9904,37.4198],[113.9705,37.39471],[113.9574,37.36825],[113.9536,37.34123],[113.9155,37.33905],[113.875,37.24153],[113.8607,37.22076],[113.8535,37.21338],[113.8494,37.20934],[113.8442,37.20224],[113.8235,37.16469],[113.7964,37.15348],[113.771,37.14664],[113.77,37.10366],[113.7655,37.07353],[113.765,37.06189],[113.7778,37.06148],[113.7823,37.05668],[113.7916,37.03956],[113.7724,37.01626],[113.7936,36.99789],[113.7658,36.94907],[113.7967,36.8788],[113.7713,36.86946],[113.7662,36.85298],[113.73,36.835],[113.7068,36.8766],[113.6807,36.84886],[113.6827,36.79416],[113.5904,36.74109],[113.4955,36.7232],[113.5094,36.69692],[113.495,36.65],[113.5554,36.62931],[113.5938,36.53778],[113.5602,36.51681],[113.6742,36.43068],[113.7181,36.42515],[113.7332,36.35661],[113.7428,36.32232],[113.6893,36.16726],[113.72,36.13],[113.7016,36.02078],[113.6927,35.98912],[113.66,35.97],[113.644,35.86012],[113.6618,35.82728],[113.6096,35.81336],[113.5945,35.72255],[113.6288,35.66734],[113.6179,35.61712],[113.5533,35.60093],[113.5121,35.55793],[113.5149,35.51043],[113.3267,35.46067],[113.3089,35.42095],[113.1983,35.42878],[113.16,35.365],[113.1297,35.31905],[112.9992,35.3521],[112.991,35.30672],[112.991,35.28542],[112.95,35.27],[112.9113,35.24394],[112.8152,35.24338],[112.7678,35.20355],[112.7232,35.20411],[112.7101,35.18223],[112.684,35.21253],[112.6449,35.23496],[112.6195,35.21309],[112.5604,35.21197],[112.5508,35.20748],[112.395,35.225],[112.3613,35.21814],[112.2796,35.20804],[112.2404,35.2316],[112.18,35.23],[112.0777,35.26973],[112.0811,35.21477],[112.0557,35.19289],[112.066,35.14013],[112.07,35.09],[112.06,35.03],[112.02,35.025],[112.01,35.045],[111.9534,35.06035],[111.8758,35.06373],[111.814,35.06316],[111.802,35.02409],[111.6602,34.93323],[111.5634,34.83353],[111.3918,34.81042],[111.3536,34.81944],[111.3365,34.83198],[111.3272,34.82494],[111.2737,34.80154],[111.241,34.79999],[111.2307,34.78871],[111.2139,34.78773],[111.1961,34.80196],[111.1737,34.80084],[111.153,34.81253],[111.1386,34.79717],[111.1246,34.76672],[111.1083,34.74909],[111.0663,34.74175],[111.0254,34.72652],[110.9585,34.68517],[110.9125,34.66315],[110.8129,34.60439],[110.7518,34.62191],[110.6776,34.59309],[110.6138,34.59422],[110.5341,34.57895],[110.4517,34.58913],[110.4167,34.58291],[110.3817,34.59082],[110.3577,34.601],[110.2805,34.61138],[110.24,34.635],[110.2162,34.69928],[110.22,34.87],[110.2,34.905],[110.265,34.985]]]}}
