{"type":"Feature","properties":{"sourceId":"somalia"},"geometry":{"type":"Polygon","coordinates":[[[44.74268071991021,11.741411827018057],[44.74279,11.74135],[45.53879,11.8347],[45.539419758001436,11.834965314930507],[51.30336,12.51177],[52.44871,10.68222],[47.39665,-0.674373],[41.76463043529065,-1.8074980172300668],[41.56696,-1.592643],[41.01146,-0.827049],[40.99651,-0.501965],[41.00874,-0.221328],[40.99919,2.824157],[41.32019,3.135424],[41.86827,3.906646],[41.90774,3.983222],[41.903962066388424,3.9851591192887232],[41.94048,4.050919],[41.97267,4.095573],[42.07043,4.17531],[43.51684,4.863839],[44.06719,4.966114],[44.97332,4.942254],[45.40239,5.548017],[45.83647,5.967921],[47.32648,7.391784],[47.93962,7.980458],[46.99239,7.996082],[46.32458,8.22882],[45.21003,8.59494],[43.99698,8.994787],[43.64631,9.33316],[43.51393,9.379629],[43.4614,9.413712],[43.43651,9.442627],[43.39769,9.549711],[43.3781,9.564146],[43.34192,9.593006],[43.33111,9.600581],[43.32999,9.6013],[43.32604,9.602824],[43.31609,9.602273],[43.29772,9.605474],[43.24065,9.83122],[43.15683,9.878642],[43.08152,9.89361],[43.01125,10.04459],[42.849,10.21936],[42.69448,10.5812],[42.70463,10.64959],[42.75317,10.72843],[42.93745298235781,10.97710225574757],[42.96299,10.98298],[42.96907,10.99641],[43.22973,11.41089],[43.25911,11.45997],[43.46450600867113,11.735908952356368],[44.11873,11.8186],[44.20775,11.6786],[44.74268071991021,11.741411827018057]]]}}
