{"type":"Feature","properties":{"sourceId":"thueringen"},"geometry":{"type":"Polygon","coordinates":[[[9.957194,51.39774],[10.00204,51.41135],[10.00301,51.42571],[10.05149,51.44128],[10.13658,51.44158],[10.15379,51.45276],[10.17209,51.44989],[10.17912,51.47873],[10.20554,51.49111],[10.23027,51.47873],[10.28214,51.49579],[10.29911,51.51201],[10.35995,51.55725],[10.36601,51.5922],[10.44453,51.59615],[10.50452,51.57402],[10.51652,51.56007],[10.568,51.56873],[10.59741,51.5834],[10.62915,51.58052],[10.62799,51.6185],[10.66437,51.63388],[10.67327,51.64229],[10.72243,51.65069],[10.77391,51.65237],[10.8639,51.637],[10.8906,51.62114],[10.93047,51.6209],[10.94711,51.60901],[10.94595,51.58977],[10.90415,51.58665],[10.90647,51.55922],[10.95834,51.53949],[10.95601,51.52962],[10.94285,51.52769],[10.95524,51.50071],[10.9835,51.48047],[10.97808,51.4642],[10.98853,51.43477],[11.07058,51.43429],[11.16715,51.41256],[11.2256,51.41908],[11.28636,51.41039],[11.32797,51.418],[11.34229,51.39868],[11.40312,51.38678],[11.40758,51.3482],[11.43368,51.34584],[11.43608,51.32932],[11.48552,51.29907],[11.45279,51.26337],[11.41754,51.23871],[11.38664,51.22774],[11.40038,51.21162],[11.44775,51.21549],[11.49616,51.16944],[11.48724,51.15093],[11.46389,51.14016],[11.48827,51.10762],[11.5741,51.12335],[11.66714,51.11495],[11.70181,51.09662],[11.70971,51.07506],[11.74953,51.06988],[11.75915,51.05434],[11.78593,51.05629],[11.88721,51.06103],[11.98952,51.017],[11.97956,50.99582],[12.00565,50.99777],[12.0211,50.98848],[12.02145,50.97464],[12.09183,50.9807],[12.14985,50.96924],[12.18315,50.97918],[12.21886,50.95951],[12.29095,51.02779],[12.24461,51.03665],[12.25186,51.05194],[12.25937,51.07808],[12.30194,51.10223],[12.33627,51.10611],[12.35996,51.09878],[12.37688,51.08842],[12.42725,51.08239],[12.45953,51.08864],[12.5124,51.06578],[12.51549,51.03298],[12.54776,51.02391],[12.54879,51.00382],[12.6099,51.00015],[12.6305,50.98588],[12.63771,50.94675],[12.66106,50.92295],[12.65749,50.90157],[12.51995,50.89827],[12.51532,50.89156],[12.49111,50.89102],[12.46605,50.88029],[12.46965,50.87087],[12.45438,50.86469],[12.44493,50.84074],[12.41713,50.83641],[12.40545,50.84811],[12.37696,50.84736],[12.35292,50.83532],[12.35018,50.82155],[12.29387,50.81212],[12.25799,50.80355],[12.25851,50.79237],[12.28992,50.79324],[12.29422,50.7775],[12.26812,50.75872],[12.24083,50.76013],[12.23104,50.74113],[12.27061,50.73807],[12.27464,50.72696],[12.27276,50.69515],[12.32649,50.68406],[12.32099,50.66252],[12.30297,50.64924],[12.27121,50.63781],[12.26795,50.62954],[12.23208,50.62529],[12.20135,50.63259],[12.19328,50.61288],[12.18126,50.60983],[12.1677,50.6156],[12.15723,50.62682],[12.14882,50.60263],[12.11809,50.59512],[12.11397,50.58999],[12.16461,50.58781],[12.16101,50.57255],[12.14092,50.57092],[12.12942,50.57245],[12.12496,50.56536],[12.11449,50.56405],[12.09698,50.578],[12.08324,50.57681],[12.08015,50.55478],[12.06179,50.55096],[12.02917,50.54638],[12.01458,50.56841],[12.0266,50.57997],[12.02951,50.59174],[11.99501,50.61059],[11.93613,50.58411],[11.92944,50.55467],[11.89201,50.54987],[11.87656,50.54038],[11.88703,50.52118],[11.93149,50.52947],[11.93699,50.51277],[11.96917,50.48755],[11.96402,50.4787],[11.9533,50.45297],[11.89845,50.44865],[11.89708,50.44007],[11.9315,50.43455],[11.926867066224522,50.42545775324142],[11.91776,50.42596],[11.88206,50.41642],[11.86526,50.40749],[11.83223,50.39689],[11.82674,50.40536],[11.81721,50.40259],[11.8004,50.41813],[11.78433,50.42104],[11.75172,50.41721],[11.74082,50.41073],[11.71452,50.39922],[11.71017,50.4061],[11.69679,50.40031],[11.691,50.39615],[11.67872,50.39738],[11.62126,50.39022],[11.60547,50.40023],[11.59358,50.40447],[11.57113,50.40135],[11.52504,50.37881],[11.52165,50.3973],[11.49624,50.40289],[11.48428,50.43321],[11.42261,50.44397],[11.42552,50.46166],[11.42235,50.48078],[11.44552,50.49771],[11.43157,50.51357],[11.42646,50.51707],[11.39377,50.52339],[11.36879,50.52571],[11.34496,50.52245],[11.31827,50.50829],[11.31884,50.49132],[11.30103,50.48951],[11.25652,50.48288],[11.24185,50.47969],[11.24425,50.44925],[11.2633,50.43881],[11.25704,50.39993],[11.26236,50.3863],[11.27181,50.37773],[11.25931,50.35445],[11.25824,50.33844],[11.24957,50.30051],[11.25364,50.27907],[11.2479,50.27294],[11.19635,50.29389],[11.18706,50.28141],[11.1598,50.29127],[11.14782,50.28758],[11.13559,50.3099],[11.16048,50.32338],[11.16323,50.32568],[11.16168,50.33149],[11.14473,50.34447],[11.13878,50.35423],[11.11104,50.37001],[11.0897,50.36806],[11.07439,50.35641],[11.05273,50.34849],[11.03586,50.36321],[10.99239,50.36735],[10.98754,50.35115],[10.96684,50.36868],[10.96496,50.37722],[10.93512,50.39431],[10.90248,50.38884],[10.87586,50.3984],[10.82977,50.39413],[10.78428,50.38669],[10.76211,50.3714],[10.7527,50.35954],[10.73879,50.36463],[10.71193,50.36501],[10.70995,50.3551],[10.71287,50.32081],[10.76961,50.29142],[10.80952,50.27618],[10.84172,50.27059],[10.84747,50.25889],[10.83029,50.24073],[10.80179,50.25291],[10.78059,50.25308],[10.76823,50.24375],[10.73188,50.25505],[10.72388,50.24847],[10.7248,50.24684],[10.72645,50.24421],[10.72398,50.24096],[10.72571,50.23767],[10.725771407265773,50.23618599107712],[10.72405,50.2383],[10.72472,50.23101],[10.72223,50.2075],[10.68781,50.22755],[10.65914,50.23332],[10.61451,50.22546],[10.61434,50.25149],[10.60679,50.29422],[10.60239,50.33543],[10.55907,50.34176],[10.55838,50.3568],[10.54739,50.36518],[10.53203,50.3678],[10.50276,50.3609],[10.49306,50.37656],[10.47992,50.37973],[10.46585,50.3793],[10.45638,50.40325],[10.44099,50.4066],[10.42827,50.39574],[10.38946,50.40058],[10.4074,50.42307],[10.40457,50.427],[10.38191,50.44073],[10.368,50.44433],[10.34672,50.46843],[10.34311,50.48449],[10.33247,50.49541],[10.2572,50.51468],[10.23497,50.53133],[10.20578,50.55549],[10.19445,50.55685],[10.17506,50.55298],[10.12055,50.56623],[10.10433,50.56498],[10.07472,50.54115],[10.03833,50.51659],[10.037009560293138,50.51197],[10.02477,50.51197],[10.03367,50.57297],[10.02477,50.61842],[10.06735,50.63733],[10.04141,50.66825],[9.963809,50.6577],[9.982775,50.63831],[9.948714,50.61646],[9.866659,50.63266],[9.863176,50.67315],[9.915041,50.72929],[9.914654,50.785],[9.945618,50.83416],[10.02187,50.88058],[9.9282,50.92793],[9.931297,50.95293],[10.02109,50.95585],[10.00368,50.98145],[10.03348,51.02334],[10.13411,51.01823],[10.17669,51.00971],[10.19681,51.03332],[10.13682,51.05157],[10.13256,51.09438],[10.10353,51.14576],[10.20997,51.1727],[10.2092,51.18253],[10.0567,51.22279],[10.02729,51.26906],[9.96439,51.28044],[9.927233,51.30997],[9.912525,51.38008],[9.941923,51.38352],[9.957194,51.39774]]]}}
