{"type":"Feature","properties":{"sourceId":"turkey"},"geometry":{"type":"Polygon","coordinates":[[[44.58973,39.75498],[44.50664,39.6879],[44.45536,39.41875],[44.41366,39.39698],[44.30099,39.36403],[44.07715,39.36509],[44.2337,39.13645],[44.34082,38.81189],[44.35318,38.40948],[44.55093,38.37181],[44.28177,37.91929],[44.65805,37.78808],[44.6347,37.46723],[44.85992,37.31338],[44.80087,37.12638],[44.774143429185564,37.116203322680256],[44.76827,37.11983],[44.79394,37.14652],[44.76761,37.1759],[44.62234,37.19897],[44.4621,37.08385],[44.4099,37.06251],[44.35355,37.0609],[44.33946,37.04675],[44.34665,37.02893],[44.29986,36.98092],[44.26665,36.99048],[44.2411,37.02343],[44.23787,37.05835],[44.19668,37.10306],[44.23093,37.14841],[44.28679,37.1614],[44.27723,37.24904],[44.23439,37.2908],[44.12955,37.33212],[44.01651,37.33778],[43.83819,37.22924],[43.57109,37.26312],[43.36716,37.33304],[43.32457,37.3358],[43.30445,37.31337],[43.24048,37.3562],[43.15101,37.38249],[43.01998,37.36554],[43.00438,37.34168],[42.95799,37.32467],[42.83847,37.354],[42.83132,37.37918],[42.78917,37.39063],[42.71589,37.3219],[42.68065,37.31517],[42.67317,37.2803],[42.64686,37.2729],[42.57028,37.15478],[42.46238,37.15202],[42.39803,37.12249],[42.36404909522377,37.12311114741853],[42.36442,37.12712],[42.33136,37.18432],[42.35777,37.21234],[42.34899,37.2408],[42.28699,37.29105],[42.21879,37.28781],[42.23477,37.31884],[42.2057,37.32239],[42.18733,37.30533],[42.08243,37.2176],[42.03141,37.19169],[41.79136,37.13811],[41.64127,37.12611],[41.50944,37.08312],[41.26724,37.08973],[41.21049,37.06682],[41.20088,37.08243],[41.16181,37.10528],[40.91462,37.14218],[40.84352,37.13159],[40.83427,37.11761],[40.81499,37.13551],[40.76507,37.13799],[40.74877,37.12013],[40.69201,37.11309],[40.52741,37.03778],[40.40767,37.02403],[40.3516,36.97145],[40.17938,36.88707],[40.06233,36.86108],[40.04688,36.84178],[40.00568,36.82852],[39.81776,36.76635],[39.71146,36.75814],[39.21227,36.6791],[39.0217,36.72066],[38.94756,36.70806],[38.74167,36.71785],[38.55782,36.85422],[38.39333,36.91198],[38.24298,36.93405],[38.04215,36.87391],[38.01615,36.83637],[37.93679,36.82794],[37.78034,36.75904],[37.65527,36.75861],[37.49399,36.68447],[37.47048,36.64475],[37.44647,36.64294],[37.28537,36.67998],[37.21597,36.68529],[37.16576,36.66797],[37.14147,36.6873],[37.10047,36.68055],[37.08313,36.6463],[37.03082,36.67526],[37.06272,36.73448],[37.00937,36.74829],[37.00217,36.77443],[36.66299,36.83801],[36.65861,36.80616],[36.60353,36.74889],[36.62037,36.71193],[36.5641,36.66215],[36.57941,36.58677],[36.53254,36.48571],[36.55762,36.41407],[36.5942,36.38253],[36.59735,36.32114],[36.65098,36.32732],[36.64678,36.29511],[36.675,36.28819],[36.68419,36.2497],[36.6193,36.24754],[36.61515,36.22712],[36.50242,36.25227],[36.46453,36.2148],[36.39497,36.23533],[36.37486,36.22393],[36.38099,36.19851],[36.35545,36.16715],[36.37318,36.13905],[36.36057,36.11811],[36.37531,36.08269],[36.36303,36.01196],[36.33762,35.99854],[36.28678,36.01991],[36.27549,35.99052],[36.28601,35.96293],[36.24998,35.97251],[36.18725,35.95157],[36.16608,35.92359],[36.15232,35.8191],[36.11753,35.87085],[36.01352,35.89131],[36.02777,35.92257],[36.00883,35.95056],[35.93067,35.93126],[35.64423,36.09544],[35.51071557341146,35.95476401791521],[34.65377,36.01597],[32.79914,35.717],[29.74462,35.823],[29.61708,36.06298],[29.61474535507595,36.09579473143251],[29.65683,36.11312],[29.64281,36.13467],[29.61855,36.1503],[29.62055,36.18021],[29.54616,36.18081],[29.48133,36.19131],[29.32118120912219,36.050847881528554],[29.30466,36.04355],[28.43674,36.61994],[28.303980274938713,36.564034673062736],[28.19911,36.58572],[27.97551,36.49798],[27.92518,36.71632],[27.77962,36.71742],[27.64232,36.61056],[27.39647,36.59183],[27.2781,36.71496],[27.40539,36.79334],[27.50908,36.88621],[27.38548,36.95044],[27.23099,36.94825],[27.15202,37.01242],[27.18862,37.06066],[27.20445,37.17252],[27.23785,37.26422],[27.12274,37.51162],[26.98828,37.65293],[27.01178,37.68687],[27.09015,37.7],[27.21014,37.72487],[27.15683,37.8716],[26.23947,38.17235],[26.18866,38.28024],[26.29165,38.4353],[26.36993,38.49122],[26.2532,38.71981],[26.68177,38.81066],[26.74072,39.0853],[26.51413,39.3003],[26.49353,39.42028],[26.46232,39.44665],[25.9948,39.42512],[25.9424,39.89286],[25.56656,40.08543],[25.5328049151452,40.17863303725644],[25.64206323089489,40.253573662171995],[26.00326,40.40827],[25.94833,40.6671],[26.078,40.72749],[26.1263,40.74209],[26.20771,40.81979],[26.22333,40.83433],[26.25174,40.88124],[26.27795,40.89213],[26.29526,40.89287],[26.30448,40.90329],[26.35881,40.94159],[26.36352,40.94817],[26.3579,40.99731],[26.36424,41.00834],[26.36938,41.01889],[26.36223,41.02863],[26.33557,41.09894],[26.33781,41.10734],[26.33859,41.14365],[26.33243,41.15435],[26.32492,41.18536],[26.32461,41.19067],[26.33237,41.2188],[26.35699,41.24865],[26.39423,41.24922],[26.41061,41.25493],[26.46195,41.2816],[26.4878,41.30309],[26.51507,41.32623],[26.52105,41.33598],[26.5494,41.3367],[26.57018,41.32127],[26.59018,41.31946],[26.62828,41.34176],[26.63826,41.3856],[26.63048,41.42033],[26.61386,41.45233],[26.61459,41.46314],[26.60631,41.48979],[26.60036,41.54603],[26.60114,41.58217],[26.59633,41.6107],[26.56981,41.61202],[26.5323,41.62324],[26.49476,41.65084],[26.49753,41.6655],[26.49447,41.67605],[26.46989,41.67094],[26.45164,41.68592],[26.39918,41.69535],[26.3697,41.71136],[26.361953866334773,41.71234439921456],[26.36204,41.71521],[26.33423,41.7375],[26.33818,41.76132],[26.37543,41.8179],[26.53919,41.82097],[26.58331,41.87109],[26.5888,41.90419],[26.56597,41.92514],[26.63412,41.9697],[26.66914,41.96268],[26.75088,41.95448],[26.79528,41.97917],[26.84192,41.96382],[26.86518,41.9831],[26.96285,41.98731],[27.01418,42.04139],[27.03289,42.06115],[27.02705,42.07669],[27.06774,42.08357],[27.20284,42.04725],[27.2353,42.09872],[27.28602,42.08655],[27.33179,42.05251],[27.36202,42.04627],[27.38716,42.0003],[27.44236,41.96028],[27.50892,41.94376],[27.55985,41.8965],[27.57805,41.89884],[27.59982,41.92924],[27.71448,41.96628],[27.81247,41.93396],[27.83904,41.93999],[27.8456,41.95569],[27.83336,41.98163],[27.86874,41.98855],[27.91309,41.96417],[27.97978,41.97503],[28.66395,41.97519],[28.689562418956953,42.06162556266264],[34.79984,43.07481],[41.27156628146753,41.63743444117704],[41.29608,41.61053],[41.54548,41.51711],[41.57245,41.51527],[41.58453,41.50506],[41.61752,41.49712],[41.63284,41.48368],[41.7065,41.47094],[41.75132,41.4666],[41.77133,41.45766],[41.78041,41.45795],[41.78798,41.44599],[41.80434,41.44151],[41.81202,41.43176],[41.82389,41.42696],[41.84651,41.43725],[41.85426,41.44615],[41.88316,41.45706],[41.89767,41.47277],[41.90237,41.48457],[41.91546,41.49604],[41.99209,41.50193],[42.03927,41.49022],[42.14918,41.5017],[42.20406,41.48739],[42.22377,41.4938],[42.26198,41.48803],[42.31514,41.47509],[42.32853,41.46441],[42.34616,41.46704],[42.36786,41.46115],[42.44779,41.43475],[42.47272,41.43194],[42.4958,41.43937],[42.52024,41.43309],[42.52796,41.44508],[42.51786,41.47046],[42.5292,41.47724],[42.53616,41.4869],[42.57574,41.50749],[42.57099,41.52377],[42.58432,41.54232],[42.58011,41.56116],[42.60338,41.58067],[42.69316,41.59622],[42.7377,41.59191],[42.75157,41.58192],[42.76644,41.58088],[42.78004,41.57324],[42.79482,41.58379],[42.82765,41.58569],[42.8312,41.58165],[42.82807,41.56567],[42.81636,41.55553],[42.81201,41.54108],[42.7941,41.51848],[42.79933,41.49367],[42.8188,41.48483],[42.82991,41.47491],[42.85166,41.46684],[42.86078,41.47045],[42.89721,41.47614],[42.94214,41.45414],[42.96448,41.43198],[42.98764,41.40874],[43.01621,41.37289],[43.03298,41.3672],[43.0983,41.3513],[43.13414,41.31533],[43.15501,41.31232],[43.1653,41.30481],[43.1832,41.30076],[43.19234,41.28922],[43.13003,41.25974],[43.12424,41.25304],[43.15123,41.24197],[43.17737,41.24997],[43.19238,41.24801],[43.19913,41.2302],[43.23101,41.18573],[43.22496,41.1752],[43.22766,41.16921],[43.31084,41.18724],[43.4453,41.17243],[43.46759461925753,41.12988436786942],[43.45089,41.12564],[43.43821,41.09013],[43.4763,41.00982],[43.59013,40.97578],[43.66257,40.9296],[43.66767,40.84452],[43.69828,40.81452],[43.74069,40.73217],[43.72902,40.71292],[43.73932,40.68116],[43.71737,40.66912],[43.68507,40.60144],[43.63621,40.56845],[43.61752,40.53462],[43.57178,40.51067],[43.53239,40.47706],[43.54016,40.46023],[43.60512,40.42158],[43.5815,40.34211],[43.63385,40.26568],[43.66745,40.25424],[43.66841,40.23943],[43.6492,40.22516],[43.65812,40.21893],[43.66168,40.21752],[43.66327,40.21634],[43.66224,40.21559],[43.66104,40.21451],[43.6613,40.21339],[43.66319,40.213],[43.70327,40.16877],[43.67203,40.15841],[43.66018,40.15526],[43.6504,40.14634],[43.64422,40.13243],[43.65486,40.11143],[43.67563,40.09291],[43.72559,40.06876],[43.76163,40.0803],[43.77863,40.0694],[43.79425,40.06809],[43.82326,40.04707],[43.89733,40.01795],[43.95784,40.01447],[44.10316,40.02952],[44.13405,40.02683],[44.14221,40.03103],[44.16967,40.02518],[44.18418,40.02571],[44.19568,40.03714],[44.21396,40.03235],[44.25082,40.03853],[44.34667,40.01709],[44.4769,39.95681],[44.54033,39.89915],[44.5596,39.86798],[44.57007,39.86416],[44.59024,39.85573],[44.58578,39.83471],[44.59162,39.82436],[44.60278,39.82027],[44.61136,39.81322],[44.70219,39.76059],[44.75079,39.70433],[44.75729055223111,39.7057691746648],[44.803900936980234,39.62002792468301],[44.58973,39.75498]]]}}
