{"type":"Feature","properties":{"sourceId":"trondelag"},"geometry":{"type":"Polygon","coordinates":[[[12.19517,62.32435],[12.16307,62.31166],[12.13062,62.30863],[12.10419,62.31741],[12.05955,62.34188],[11.9902,62.35224],[11.9775,62.35877],[11.77237,62.38003],[11.75383,62.36092],[11.73477,62.35805],[11.7334,62.34889],[11.72378,62.34618],[11.68619,62.34849],[11.68379,62.36586],[11.67349,62.37734],[11.67106,62.38132],[11.55474,62.36857],[11.52998,62.3886],[11.51553,62.41207],[11.46471,62.44903],[11.44585,62.47005],[11.42834,62.47951],[11.37037,62.49344],[11.33587,62.51318],[11.30638,62.51945],[11.29803,62.52148],[11.29782,62.52212],[11.29779,62.52213],[11.29771,62.52219],[11.29772,62.52229],[11.29776,62.52231],[11.29736,62.52357],[11.28156,62.52857],[11.25336,62.53223],[11.24376,62.54403],[11.24433,62.55969],[11.24307,62.56645],[11.2141,62.56997],[11.19431,62.56991],[11.19513,62.59434],[11.16126,62.61535],[11.165,62.61923],[11.15995,62.64712],[11.12966,62.64888],[11.12614,62.65626],[11.12385,62.6613],[11.04354,62.66644],[10.92441,62.69508],[10.8515,62.69245],[10.79299,62.67878],[10.74031,62.64505],[10.71731,62.64995],[10.65277,62.67135],[10.61832,62.6689],[10.59742,62.66376],[10.59607,62.66376],[10.5943,62.66335],[10.32497,62.69488],[10.23883,62.69466],[10.19249,62.68616],[10.17315,62.69232],[10.16358,62.68573],[10.1368,62.66954],[10.07493,62.60169],[10.03966,62.58947],[10.02895,62.57844],[10.03959,62.56761],[10.01192,62.55644],[10.03938,62.50332],[10.09841,62.42765],[9.952736,62.39694],[9.954276,62.38134],[9.935046,62.35509],[9.90062,62.34399],[9.8397,62.36148],[9.822508,62.34312],[9.842309,62.33982],[9.854799,62.33214],[9.855601,62.33084],[9.84066,62.30321],[9.797834,62.28726],[9.601641,62.25533],[9.097088,62.36271],[9.048772,62.37312],[9.182813,62.42683],[9.183416,62.45836],[9.202993,62.52147],[9.222878,62.56639],[9.152813,62.57058],[9.125522,62.5856],[9.110556,62.60534],[9.079847,62.625],[8.980453,62.66193],[8.919087,62.71186],[8.985926,62.74218],[9.077162,62.76063],[9.146567,62.75685],[9.324193,62.78968],[9.32266,62.8094],[9.32368,62.85206],[9.330142,62.86197],[9.285249,62.87725],[9.299309,62.88984],[9.31136,62.89174],[9.307019,62.90507],[9.266348,62.92542],[9.2036,62.9247],[9.178114,62.91681],[9.174128,62.91677],[9.167417,62.9182],[9.156826,62.9246],[9.152597,62.9246],[9.148093,62.92672],[9.133041,62.92653],[9.132487,62.93197],[9.124731,62.93383],[9.121572,62.93491],[9.113682,62.95377],[9.111036,62.96361],[9.109825,62.97147],[9.117449,62.97855],[9.130276,62.98529],[9.13615,62.98603],[9.148677,62.99338],[9.151225,62.99463],[9.147448,62.99547],[9.139807,63.00074],[9.139362,63.00509],[9.148129,63.00648],[9.154135,63.01307],[9.152732,63.01419],[9.139464,63.01399],[9.137212,63.01541],[9.13173,63.01628],[9.121863,63.02385],[9.109812,63.02782],[9.103591,63.0289],[9.101272,63.0349],[9.107547,63.03921],[9.112957,63.0404],[9.109231,63.04375],[9.103411,63.04377],[9.090614,63.0682],[9.083028,63.08983],[9.067278,63.09002],[9.031973,63.07897],[9.016262,63.07246],[8.972614,63.07214],[8.958143,63.09316],[8.994139,63.1037],[8.982509,63.11695],[8.979672,63.12474],[8.969608,63.13335],[8.911371,63.11753],[8.898554,63.12168],[8.860228,63.11392],[8.833228,63.12568],[8.79318,63.12244],[8.783717,63.11615],[8.777895,63.10684],[8.738766,63.09402],[8.721895,63.08513],[8.70643,63.08246],[8.689279,63.07308],[8.652865,63.06379],[8.622294,63.07049],[8.547273,63.05564],[8.501752,63.04858],[8.481053,63.07911],[8.438111,63.06537],[8.437811,63.05142],[8.423524,63.04513],[8.402634,63.05637],[8.338661,63.03516],[8.328245,63.04461],[8.285571,63.03151],[8.283503,63.0303],[8.281976,63.02961],[8.274408,63.02562],[8.243607,63.01168],[8.202169,63.02261],[8.101766,63.12938],[8.149715,63.14342],[8.263359,63.15494],[8.333321,63.15836],[8.469146,63.15262],[8.568774,63.17197],[8.671864,63.18768],[8.762302,63.19023],[8.836891,63.21543],[8.860786,63.21997],[8.827039,63.244],[8.814867,63.2662],[8.848546,63.29034],[8.865039,63.29541],[8.862293,63.32189],[8.869353,63.33009],[8.881803,63.34382],[8.903857,63.34912],[8.891547,63.3532],[8.871372,63.36427],[8.848607,63.36568],[8.821393,63.37047],[8.797216,63.37087],[8.793792,63.38207],[8.802248,63.40208],[8.785593,63.40634],[8.761018,63.41472],[8.737049,63.44337],[8.318699,63.35085],[8.040565,63.58451],[5.790873,63.85996],[9.753747,65.94955],[11.02162,65.39478],[11.40104,65.29597],[11.48669,65.23714],[11.83639,65.15831],[11.91604,65.16074],[11.93918,65.1493],[11.94157,65.14948],[11.94698,65.14907],[11.95014,65.11879],[11.9611,65.11678],[11.95345,65.11342],[11.94621,65.10977],[11.94369,65.10877],[11.91786,65.07968],[11.92415,65.06824],[11.94161,65.06776],[11.95324,65.07632],[11.95958,65.07815],[11.98498,65.07087],[12.02831,65.06869],[12.04936,65.06718],[12.04625,65.05599],[12.03858,65.04763],[12.04462,65.03086],[12.06419,65.01484],[12.08719,65.00367],[12.11706,65.00737],[12.11637,65.01542],[12.12959,65.02463],[12.15414,65.01984],[12.19244,64.99923],[12.19929,64.97936],[12.28683,64.96789],[12.39829,64.99529],[12.50828,64.98212],[12.56141,64.99069],[12.58167,64.98724],[12.62888,64.94],[12.65435,64.94631],[12.71515,64.95299],[12.76796,64.9412],[12.79032,64.95352],[12.77421,64.97585],[12.90663,64.97463],[12.93347,64.98485],[12.94086,65.00084],[12.9079,65.01433],[12.90713,65.02926],[12.92968,65.03912],[12.96704,65.03337],[12.99517,65.06863],[13.05004,65.07792],[13.08488,65.11028],[13.15236,65.11625],[13.23506,65.10953],[13.30413,65.1025],[13.41113,65.09946],[13.5267,65.11899],[13.70957,65.11295],[13.83407,65.11863],[13.94859,65.12719],[14.17812,65.14671],[14.31643,65.12187],[14.33543,65.118],[14.33298,65.11214],[14.02181,64.88236],[13.67384,64.58474],[13.86476,64.52226],[14.08953,64.48806],[14.12471,64.46609],[14.16761,64.18356],[13.98909,64.00635],[13.21104,64.08511],[12.92913,64.04805],[12.69039,63.96465],[12.34732,63.71954],[12.30292,63.66476],[12.17067,63.59501],[12.2022,63.57059],[12.24819,63.48036],[11.98951,63.26808],[12.22814,63.00371],[12.08609,62.89794],[12.14633,62.74676],[12.06804,62.61236],[12.26702,62.32712],[12.25353,62.32722],[12.19517,62.32435]]]}}
