{"type":"Feature","properties":{"sourceId":"tuebingen-regbez"},"geometry":{"type":"Polygon","coordinates":[[[10.12699,48.4522],[10.10536,48.46427],[10.04219,48.44537],[10.04597,48.42761],[10.01327,48.40163],[9.989405,48.39069],[9.977131,48.3786],[10.00185,48.36435],[10.06897,48.28091],[10.07154,48.24125],[10.0882,48.20488],[10.11532,48.12737],[10.14261,48.1127],[10.1457,48.03654],[10.12064,47.97407],[10.08871,47.9628],[10.11463,47.93647],[10.1088,47.86212],[10.14278,47.80785],[10.07704,47.7864],[10.12064,47.76137],[10.14296,47.70271],[10.13231,47.67001],[10.09283,47.65787],[10.07635,47.63602],[10.06863,47.64041],[10.06056,47.67209],[9.993954,47.6744],[9.971638,47.64943],[9.932842,47.65105],[9.89027,47.66157],[9.855938,47.67394],[9.836712,47.66273],[9.750881,47.602],[9.715862,47.60142],[9.648056,47.59887],[9.646168,47.58834],[9.614582,47.57884],[9.603166,47.58191],[9.568846,47.53637],[9.566016,47.53274],[9.511991,47.53246],[9.257166,47.65752],[9.241888,47.65679],[9.207614,47.72258],[9.172076,47.74479],[9.095549,47.77613],[9.067607,47.79434],[9.069111,47.80956],[9.078148,47.81525],[9.073503,47.81978],[9.077653,47.827],[9.067294,47.8365],[9.063597,47.85804],[9.084681,47.86086],[9.104239,47.84458],[9.116904,47.84457],[9.123744,47.85227],[9.114901,47.86041],[9.14112,47.87395],[9.144135,47.89521],[9.103782,47.9027],[9.095858,47.9109],[9.063335,47.91337],[9.066476,47.93201],[9.075642,47.93879],[9.048357,47.93248],[9.009896,47.93492],[9.009001,47.94412],[9.015376,47.9463],[9.01097,47.95497],[9.016011,47.96173],[9.008768,47.97468],[9.018482,47.98177],[9.015971,47.98804],[9.004171,47.99409],[9.003504,48.0009],[9.01106,48.00563],[9.004878,48.0232],[8.976869,48.02981],[8.970201,48.03708],[8.962697,48.03397],[8.961487,48.02544],[8.95051,48.02688],[8.949607,48.04059],[8.934561,48.04373],[8.931154,48.04904],[8.933,48.06005],[8.939566,48.06327],[8.949506,48.05852],[8.974857,48.05819],[8.985972,48.06068],[8.993646,48.06889],[8.977405,48.08251],[8.960903,48.08861],[8.951232,48.10378],[8.931195,48.10071],[8.912283,48.10743],[8.881038,48.10399],[8.879309,48.11307],[8.864546,48.12618],[8.857512,48.14126],[8.84805,48.14678],[8.829644,48.14736],[8.828372,48.16394],[8.814613,48.17152],[8.81095,48.18057],[8.771646,48.17841],[8.766374,48.17172],[8.766717,48.16123],[8.755168,48.15675],[8.721789,48.17057],[8.716729,48.18321],[8.738402,48.19765],[8.711274,48.20695],[8.706744,48.21894],[8.699558,48.22263],[8.702388,48.2307],[8.694905,48.24536],[8.703739,48.25565],[8.695913,48.25533],[8.683308,48.26451],[8.664017,48.26624],[8.663526,48.27077],[8.677766,48.28061],[8.657011,48.2807],[8.646342,48.2867],[8.645593,48.29368],[8.658972,48.29802],[8.666373,48.3077],[8.685477,48.30735],[8.7167,48.31753],[8.694115,48.32469],[8.690352,48.33001],[8.709017,48.33533],[8.716919,48.34421],[8.740557,48.3501],[8.729371,48.36733],[8.73349341792921,48.37615938316578],[8.749244,48.37615],[8.760481,48.38065],[8.760518,48.38569],[8.75478,48.38912],[8.758798,48.39099],[8.770735,48.41197],[8.779087,48.41463],[8.781063,48.4215],[8.776153,48.4247],[8.776581,48.42866],[8.769089,48.42884],[8.773369,48.43526],[8.784074,48.43844],[8.784129,48.44363],[8.790571,48.44448],[8.792269,48.44877],[8.832815,48.46199],[8.825558,48.47037],[8.814832,48.4726],[8.808891,48.48106],[8.796862,48.48743],[8.777797,48.49012],[8.77077,48.50353],[8.765267,48.5062],[8.767996,48.5157],[8.774515,48.52022],[8.772589,48.52434],[8.771596040874895,48.52472720678939],[8.790893,48.52294],[8.799851,48.51214],[8.828699,48.50906],[8.839789,48.50192],[8.840774,48.51206],[8.857392,48.51388],[8.851751,48.52178],[8.854756,48.52689],[8.848235,48.5309],[8.848524,48.53975],[8.883493,48.54416],[8.887984,48.56571],[8.911048,48.57522],[8.937607,48.56887],[8.933199,48.57865],[8.944966,48.5828],[8.948573,48.58976],[8.983913,48.59423],[8.993572,48.58756],[9.006521,48.59131],[9.033086,48.58083],[9.038206,48.58942],[9.051362,48.59636],[9.075264,48.59427],[9.075701,48.60001],[9.084114,48.60494],[9.080609,48.61414],[9.092244,48.61767],[9.094201,48.62434],[9.107441,48.62582],[9.118591,48.61586],[9.115366,48.60553],[9.122294,48.60322],[9.155303,48.60876],[9.18182,48.60813],[9.186324,48.60157],[9.206242,48.60606],[9.210073,48.59863],[9.204262,48.58913],[9.217271,48.57074],[9.225187,48.56993],[9.241018,48.58156],[9.262973,48.56961],[9.29316,48.56858],[9.292565,48.57594],[9.316113,48.58285],[9.325278,48.57471],[9.323946,48.56737],[9.317414,48.56376],[9.328631,48.54366],[9.339646,48.55223],[9.361951,48.54655],[9.370939,48.53725],[9.384823,48.53863],[9.393625,48.53407],[9.407711,48.54171],[9.415246,48.53939],[9.425139,48.54662],[9.437566,48.54334],[9.450954,48.54968],[9.492541,48.53259],[9.491468,48.52539],[9.483421,48.52529],[9.481788,48.52101],[9.497513,48.52467],[9.503695,48.52056],[9.50196,48.52795],[9.507054,48.52962],[9.529348,48.51857],[9.530514,48.52929],[9.550092,48.53174],[9.568051,48.54215],[9.611647,48.54416],[9.633712,48.5397],[9.652931,48.52498],[9.679211,48.5257],[9.69274,48.54378],[9.719074,48.5485],[9.716293,48.5583],[9.725055,48.56478],[9.761999,48.56365],[9.770358,48.56932],[9.781035,48.56303],[9.81508,48.5619],[9.815547,48.56847],[9.82451,48.56731],[9.832123,48.57536],[9.830692,48.58177],[9.837704,48.58851],[9.850687,48.58592],[9.855043,48.58723],[9.854522,48.59341],[9.870135,48.59315],[9.890121,48.61265],[9.884533,48.61583],[9.889877,48.62458],[9.944245,48.6348],[9.972004,48.61637],[9.96762,48.5983],[9.988502,48.60001],[9.990675,48.60683],[9.99838,48.61029],[10.00773,48.60638],[10.04071,48.60985],[10.05338,48.59471],[10.09943,48.58032],[10.11185,48.57171],[10.11527,48.55923],[10.1236,48.56209],[10.14972,48.55602],[10.16045,48.56013],[10.17084,48.55237],[10.18825,48.56086],[10.19681,48.5448],[10.21735,48.53464],[10.21755,48.51751],[10.24312,48.50781],[10.27309,48.50078],[10.17815,48.45744],[10.12699,48.4522]]]}}
