{"type":"Feature","properties":{"sourceId":"tanzania"},"geometry":{"type":"Polygon","coordinates":[[[39.28436,-11.21073],[38.43841,-11.46656],[37.966,-11.32386],[37.77649,-11.59036],[37.41668,-11.72216],[36.86462,-11.63878],[36.67236,-11.77595],[36.23016,-11.77595],[35.85388,-11.47195],[35.46661,-11.62533],[34.95174256850241,-11.608670151185416],[34.95794,-11.58958],[34.97961,-11.55174],[34.93942,-11.38821],[34.80211,-11.31208],[34.80709,-11.27926],[34.76091,-11.20703],[34.64281,-11.11507],[34.64075,-11.05039],[34.62152,-11.04095],[34.63697,-10.99495],[34.67783,-10.93951],[34.68298,-10.90984],[34.68796,-10.75675],[34.65774,-10.66702],[34.62788,-10.59397],[34.58118,-10.55971],[34.59921,-10.48157],[34.592,-10.45591],[34.56591,-10.41286],[34.59028,-10.30968],[34.57415,-10.20293],[34.53312,-10.11946],[34.54805,-10.0745],[34.49741,-9.978825],[34.41484,-9.878893],[34.32798,-9.753554],[34.18224,-9.613613],[34.04182,-9.486905],[34.01187,-9.498926],[33.96355,-9.526945],[33.94226,-9.563172],[33.95187,-9.628507],[33.9323,-9.707026],[33.90655,-9.689767],[33.84956,-9.645938],[33.80373,-9.604135],[33.77352,-9.583824],[33.74124,-9.579423],[33.71773,-9.5801],[33.70176,-9.609551],[33.5907,-9.576037],[33.55225,-9.584839],[33.51637,-9.616998],[33.44101,-9.607351],[33.42796,-9.576545],[33.39809,-9.532702],[33.32754,-9.481233],[33.30711,-9.481403],[33.27107,-9.492577],[33.25373,-9.48462],[33.22763,-9.491392],[33.20875,-9.501381],[33.18953,-9.493932],[33.14678,-9.488852],[33.11794,-9.462777],[33.06902,-9.433652],[33.02902,-9.398089],[33.01151,-9.373701],[32.99572,-9.362691],[32.95422282056446,-9.396625858452248],[32.89822,-9.362014],[32.80651,-9.331472],[32.79101,-9.320938],[32.76647,-9.3217],[32.75729,-9.284274],[32.71703,-9.275199],[32.64836,-9.272904],[32.61927,-9.254953],[32.58322,-9.241737],[32.54219,-9.249531],[32.49615,-9.150913],[32.47541,-9.137351],[32.43164,-9.115826],[32.2562,-9.126165],[32.16866,-9.060736],[31.94893,-8.931539],[31.80542,-8.869468],[31.69247,-8.906101],[31.58707,-8.796868],[31.59222,-8.724593],[31.54758,-8.680475],[31.37764,-8.584076],[31.21465,-8.579903],[31.09388,-8.580854],[30.788,-8.239483],[30.699117561081582,-8.2461077952198],[30.2481,-7.177198],[29.68231,-6.672789],[29.44721,-6.216513],[29.51751,-5.659716],[29.24395,-4.788438],[29.4049,-4.425826],[29.412377056048157,-4.426266329075593],[29.43417,-4.481328],[29.68355,-4.453006],[29.69889,-4.460469],[29.70677,-4.464009],[29.74243,-4.467137],[29.75464,-4.471108],[29.76236,-4.467295],[29.77082,-4.456873],[29.77006,-4.450728],[29.76625,-4.447081],[29.76685,-4.42856],[29.77663,-4.415557],[29.78419,-4.415446],[29.79721,-4.402547],[29.80416,-4.383921],[29.83035,-4.368608],[29.84192,-4.370868],[29.85091,-4.383394],[29.86842,-4.385142],[29.87495,-4.382622],[29.87721,-4.37873],[29.88547,-4.371033],[29.8894,-4.358699],[29.8958,-4.355845],[29.9008,-4.358267],[29.91223,-4.354287],[29.94335,-4.340459],[29.95107,-4.332581],[29.95965,-4.330093],[29.96716,-4.320295],[29.97309,-4.303233],[29.98635,-4.299515],[29.99163,-4.303966],[29.99325,-4.300898],[29.99946,-4.300927],[30.00672,-4.29561],[30.02534,-4.282455],[30.03659,-4.278983],[30.0439,-4.277373],[30.04814,-4.260769],[30.05242,-4.260856],[30.05554,-4.25735],[30.05233,-4.24759],[30.05638,-4.241555],[30.05829,-4.231117],[30.05576,-4.223933],[30.05852,-4.222155],[30.06495,-4.202314],[30.07195,-4.197202],[30.07384,-4.183248],[30.07745,-4.18021],[30.08019,-4.168826],[30.08685,-4.161697],[30.09587,-4.160291],[30.1042,-4.15363],[30.10804,-4.154807],[30.11314,-4.152345],[30.11758,-4.143128],[30.12482,-4.142054],[30.12576,-4.137268],[30.13467,-4.135447],[30.13876,-4.129988],[30.15938,-4.116621],[30.17346,-4.096264],[30.18612,-4.08435],[30.1882,-4.078695],[30.18607,-4.070136],[30.19345,-4.053056],[30.19794,-4.048513],[30.21577,-4.04856],[30.22308,-4.042434],[30.22771,-4.032394],[30.2316,-4.011021],[30.22389,-4.007246],[30.21679,-3.99077],[30.22844,-3.97498],[30.23472,-3.952661],[30.23464,-3.940023],[30.24214,-3.929418],[30.24262,-3.924124],[30.25118,-3.919407],[30.26294,-3.882145],[30.27995,-3.875541],[30.2892,-3.864746],[30.29858,-3.859745],[30.30066,-3.852847],[30.3099,-3.846135],[30.31317,-3.839005],[30.31228,-3.832716],[30.31633,-3.829971],[30.31897,-3.820272],[30.32472,-3.815741],[30.32776,-3.802873],[30.32633,-3.795907],[30.32996,-3.790335],[30.34945,-3.77568],[30.35439,-3.777158],[30.35918,-3.7827],[30.3673,-3.777199],[30.38263,-3.780117],[30.38399,-3.787474],[30.39692,-3.798898],[30.40541,-3.794248],[30.40692,-3.788284],[30.41134,-3.785023],[30.41139,-3.764283],[30.40595,-3.759798],[30.40014,-3.730431],[30.39158,-3.724239],[30.41078,-3.688593],[30.45895,-3.606732],[30.4726,-3.541401],[30.48094,-3.537454],[30.49739,-3.519786],[30.50854,-3.523198],[30.50983,-3.531294],[30.51595,-3.530583],[30.6373,-3.458013],[30.66315,-3.432768],[30.67416,-3.41942],[30.67993,-3.397209],[30.6684,-3.321626],[30.70752,-3.311648],[30.72025,-3.304557],[30.75913,-3.294065],[30.78007,-3.284087],[30.79865,-3.280419],[30.80373,-3.274574],[30.82915,-3.265335],[30.84462,-3.253991],[30.84945,-3.207281],[30.84043,-3.191967],[30.84781,-3.162433],[30.83517,-3.141203],[30.83572,-3.115082],[30.83374,-3.10427],[30.83815,-3.093487],[30.83114,-3.082546],[30.81512,-3.07965],[30.80163,-3.061597],[30.80018,-3.054416],[30.81638,-3.043425],[30.81956,-3.027679],[30.85115,-2.978087],[30.83657,-2.974314],[30.81414,-2.979593],[30.80488,-2.986164],[30.74759,-2.995597],[30.73942,-2.989768],[30.72643,-2.988005],[30.71095,-2.973215],[30.70395,-2.969845],[30.68761,-2.9758],[30.58265,-2.899067],[30.57557,-2.892083],[30.56453,-2.894578],[30.56349,-2.899936],[30.5502,-2.913488],[30.53881,-2.931344],[30.5308,-2.930851],[30.52239,-2.940882],[30.51535,-2.94292],[30.48127,-2.934336],[30.43656,-2.874307],[30.42674,-2.86738],[30.44902,-2.768406],[30.49879,-2.7133],[30.50614,-2.701374],[30.51058,-2.700404],[30.52692,-2.681552],[30.53138,-2.665337],[30.52765,-2.65239],[30.51195,-2.654415],[30.50278,-2.663638],[30.47122,-2.679203],[30.45887,-2.688927],[30.45357,-2.68658],[30.44444,-2.676423],[30.4321,-2.676706],[30.42253,-2.664168],[30.42474,-2.655224],[30.4405,-2.635729],[30.44655,-2.618531],[30.48649,-2.557983],[30.49732,-2.524886],[30.49812,-2.519417],[30.50908,-2.505953],[30.53847,-2.434423],[30.542925983844984,-2.4211230210999735],[30.56889,-2.429138],[30.60821,-2.41083],[30.65983,-2.423183],[30.76714,-2.401268],[30.83472,-2.361913],[30.86673,-2.312864],[30.90864,-2.07527],[30.81927,-1.936436],[30.8416,-1.813096],[30.83191,-1.696382],[30.84932,-1.648186],[30.75609,-1.521014],[30.74487,-1.438594],[30.68724,-1.388485],[30.619,-1.342306],[30.51875,-1.168976],[30.48582,-1.119371],[30.479326732540105,-1.0672095982371015],[30.52587,-1.083493],[30.58558,-1.068523],[30.63462,-1.078203],[30.76583,-0.992954],[30.79542,-1.000422],[31.00496,-1.001164],[31.79335,-1.002264],[31.85282,-1.00445],[32.87453,-1.007943],[33.86937656623296,-1.0010806292358956],[33.8679,-1.05264],[34.03811,-1.055757],[34.08105,-1.033564],[34.13159,-1.059321],[37.47617,-2.945053],[37.65588,-3.061349],[37.70528,-3.294827],[37.58274,-3.435823],[37.58902,-3.466014],[37.61706,-3.466309],[37.59481,-3.50489],[37.60113,-3.526851],[37.67749,-3.514591],[37.73255,-3.54436],[37.80575,-3.697491],[39.18247,-4.666283],[39.30991,-4.809815],[40.01893,-4.816276],[40.02914,-4.806093],[40.06920587239338,-4.7491546622031375],[40.11769,-4.752853],[40.69487,-10.48442],[39.28436,-11.21073]]]}}
