{"type":"Feature","properties":{"sourceId":"tuvalu"},"geometry":{"type":"Polygon","coordinates":[[[-179.6953,-4.534642],[-179.3382,-4.765292],[-179.0058,-5.043636],[-178.7139,-5.355933],[-178.4695,-5.693292],[-178.2627,-6.070506],[-178.1018,-6.482667],[-177.3773,-7.470233],[-177.1051,-7.932983],[-176.9779,-8.225139],[-176.8784,-8.528072],[-176.8085,-8.834928],[-176.7665,-9.158675],[-176.757,-9.526444],[-176.7863,-9.881183],[-177.7145,-10.8325],[-178.2737,-11.80311],[-179.3082,-12.48558],[-180.0,-12.93801],[-180.0,-4.061646],[-179.8384,-4.290769],[-179.6953,-4.534642]]]}}
