{"type":"Feature","properties":{"sourceId":"thailand"},"geometry":{"type":"Polygon","coordinates":[[[102.0835,6.225417],[102.0819,6.201568],[102.0929,6.154123],[102.0953,6.145846],[102.076,6.114526],[102.0622,6.089776],[102.0541,6.076803],[102.0345,6.067586],[102.021,6.050601],[101.999,6.03831],[101.9836,6.028366],[101.9756,6.022135],[101.9718,6.018038],[101.9728,6.014709],[101.9737,6.004978],[101.9541,5.989143],[101.9441,5.967461],[101.9456,5.953546],[101.9366,5.944839],[101.9318,5.911715],[101.9426,5.889175],[101.9453,5.87227],[101.9396,5.860061],[101.9178,5.839996],[101.8939,5.839483],[101.8918,5.837263],[101.8858,5.833976],[101.8782,5.820143],[101.8838,5.813013],[101.8676,5.790043],[101.8225,5.722237],[101.7495,5.784236],[101.7044,5.748711],[101.6845,5.750249],[101.5768,5.913508],[101.4903,5.861939],[101.2737,5.771086],[101.2689,5.686367],[101.1305,5.597877],[101.0917,5.690466],[101.0509,5.732144],[101.0227,5.734194],[100.9822,5.78509],[100.975,5.815148],[101.021,5.91863],[101.0996,5.989656],[101.0505,6.142262],[101.0989,6.245553],[101.0227,6.238856],[100.848,6.228276],[100.8287,6.295165],[100.8047,6.436425],[100.7439,6.4528],[100.7326,6.485208],[100.6897,6.450753],[100.6512,6.436766],[100.547,6.482138],[100.5062,6.490836],[100.4837,6.518125],[100.4384,6.523327],[100.4235,6.51642],[100.4187,6.517187],[100.4092,6.521707],[100.3998,6.531343],[100.3624,6.538591],[100.356,6.55232],[100.298,6.609447],[100.3217,6.62181],[100.3141,6.637412],[100.3186,6.654633],[100.3253,6.660878],[100.3266,6.664203],[100.3215,6.664714],[100.3187,6.66335],[100.3071,6.66546],[100.2909,6.679612],[100.2794,6.702798],[100.2384,6.684726],[100.1922,6.709618],[100.1833,6.687966],[100.1838,6.65864],[100.1878,6.56673],[100.1624,6.552235],[100.1624,6.51659],[100.1622,6.477532],[100.15,6.451094],[100.1375,6.429601],[100.122,6.415954],[100.0793,6.396508],[99.90005,6.496124],[99.56634,6.454507],[99.48158,6.239878],[98.69567,5.976686],[97.53112,7.253501],[97.19055,8.211496],[97.13562,8.695075],[97.52014,9.77403],[98.11065,9.488346],[98.23425,9.692815],[98.32764,9.986435],[98.49827,9.963441],[98.55938,9.967498],[98.58564,10.00993],[98.63422,10.09884],[98.63903,10.13247],[98.65276,10.16762],[98.66735,10.1715],[98.69568,10.2134],[98.73447,10.32303],[98.75078,10.39462],[98.77769,10.43696],[98.78082,10.44413],[98.80614,10.47237],[98.79601,10.48216],[98.81619,10.51068],[98.79662,10.56072],[98.8064,10.58401],[98.80022,10.58553],[98.77962,10.6008],[98.76889,10.62121],[98.7773,10.6811],[98.87043,10.79689],[99.02183,10.97507],[99.15161,11.05662],[99.26079,11.22151],[99.3207,11.29963],[99.30714,11.31814],[99.32585,11.33784],[99.39897,11.40886],[99.39245,11.43813],[99.39056,11.46371],[99.46438,11.61878],[99.49305,11.64165],[99.56076,11.64307],[99.58103,11.68923],[99.62608,11.73595],[99.6393,11.79023],[99.64497,11.82232],[99.6199,11.82804],[99.57991,11.87357],[99.52995,12.01447],[99.46609,12.13265],[99.42627,12.34336],[99.21547,12.74216],[99.08569,13.07413],[99.11007,13.18179],[99.15882,13.57491],[99.08325,13.89212],[99.06814,13.89345],[99.01703,13.93873],[98.96278,14.03468],[98.57895,14.32294],[98.36197,14.66481],[98.3606,14.68399],[98.31631,14.70549],[98.23082,14.82335],[98.20164,14.98226],[98.1752,15.11588],[98.19477,15.2461],[98.24558,15.23086],[98.29262,15.31664],[98.3751,15.28551],[98.40669,15.2615],[98.41458,15.27293],[98.41029,15.29669],[98.38622,15.29956],[98.38501,15.30236],[98.39746,15.31002],[98.39858,15.32152],[98.38643,15.33055],[98.39561,15.35438],[98.47595,15.40172],[98.57775,15.37367],[98.58169,15.46824],[98.54942,15.60055],[98.5453,15.68717],[98.56316,15.7721],[98.59508,15.8489],[98.57723,15.92056],[98.55148,16.04812],[98.58375,16.08012],[98.67645,16.13092],[98.70821,16.14115],[98.78305,16.12779],[98.83009,16.12927],[98.8476,16.16093],[98.8488,16.22489],[98.86837,16.24467],[98.91403,16.31289],[98.8797,16.41238],[98.79378,16.36964],[98.77842,16.34312],[98.73709,16.33513],[98.72967,16.31833],[98.72014,16.29547],[98.70933,16.29308],[98.70778,16.28056],[98.70306,16.26746],[98.67371,16.26741],[98.66384,16.29188],[98.66083,16.32006],[98.66358,16.33727],[98.65079,16.35127],[98.65208,16.37244],[98.63542,16.41196],[98.63354,16.42604],[98.65122,16.45436],[98.63148,16.47642],[98.58015,16.5467],[98.56977,16.57376],[98.58247,16.57812],[98.57002,16.60527],[98.54101,16.63348],[98.5344,16.63331],[98.52144,16.6422],[98.5108,16.64384],[98.5102,16.64877],[98.51355,16.65881],[98.51234,16.6704],[98.51672,16.67624],[98.5132,16.6852],[98.51475,16.69309],[98.5108,16.6995],[98.49938,16.68956],[98.4938,16.69034],[98.49625,16.7051],[98.5017,16.71225],[98.49621,16.71574],[98.49273,16.70847],[98.49097,16.70814],[98.46934,16.71216],[98.4617,16.73],[98.46025,16.75129],[98.48411,16.79123],[98.50522,16.79682],[98.51707,16.80984],[98.54058,16.81292],[98.54638,16.81493],[98.54024,16.81925],[98.53633,16.82894],[98.52496,16.82664],[98.49973,16.83108],[98.48891,16.84135],[98.49612,16.86279],[98.50668,16.88045],[98.51192,16.90496],[98.489,16.92225],[98.48041,16.93604],[98.48136,16.94163],[98.49921,16.95452],[98.48702,16.95657],[98.46582,16.97233],[98.44608,16.99597],[98.42875,17.02068],[98.42102,17.03832],[98.39364,17.04727],[98.38102,17.05596],[98.36017,17.04636],[98.33613,17.04751],[98.29802,17.08911],[98.27768,17.11594],[98.28463,17.13423],[98.27039,17.15063],[98.24747,17.18303],[98.22601,17.2041],[98.22241,17.22304],[98.21039,17.22804],[98.20447,17.24632],[98.16439,17.2614],[98.13263,17.29238],[98.11048,17.31926],[98.10293,17.33818],[98.04336,17.42927],[98.03495,17.45138],[97.99951,17.49583],[97.96783,17.50738],[97.92114,17.53848],[97.91951,17.55509],[97.91239,17.5582],[97.90896,17.56303],[97.90415,17.58193],[97.84527,17.62619],[97.78931,17.67935],[97.76133,17.72531],[97.68906,17.83221],[97.66777,17.88009],[97.68425,17.92615],[97.67704,18.07406],[97.67189,18.15923],[97.64957,18.17423],[97.61043,18.22413],[97.49748,18.26261],[97.45972,18.30531],[97.44221,18.33237],[97.39002,18.47179],[97.34196,18.54602],[97.33921,18.57629],[97.35878,18.60916],[97.50092,18.50956],[97.54108,18.53072],[97.63721,18.58182],[97.75875,18.59191],[97.76321,18.6791],[97.7512,18.71585],[97.73541,18.83092],[97.73403,18.87185],[97.66125,18.92642],[97.65796,18.95003],[97.73249,19.04281],[97.84115,19.21002],[97.7742,19.26707],[97.77969,19.40508],[97.85797,19.58049],[97.98208,19.64259],[98.03547,19.64986],[98.01813,19.72066],[98.02963,19.80709],[98.0456,19.81629],[98.08422,19.81484],[98.13881,19.79207],[98.23236,19.73148],[98.24524,19.69431],[98.3915,19.70643],[98.71182,19.77155],[98.83678,19.81823],[98.95472,19.76929],[98.97961,19.74312],[99.01823,19.92623],[99.04415,20.05674],[99.07385,20.10333],[99.15848,20.13525],[99.21221,20.13364],[99.27675,20.12139],[99.43571,20.09334],[99.5121,20.15539],[99.51879,20.23031],[99.50111,20.29505],[99.50128,20.32628],[99.45288,20.36169],[99.45494,20.39532],[99.47073,20.39725],[99.64342,20.34511],[99.6829,20.32064],[99.72977,20.35235],[99.76195,20.34406],[99.80195,20.33738],[99.81817,20.34962],[99.82332,20.35734],[99.84152,20.40747],[99.85422,20.41824],[99.85886,20.44229],[99.86383,20.44784],[99.88057,20.44656],[99.90735,20.45194],[99.92177,20.45026],[99.92821,20.45685],[99.95215,20.4661],[99.9676,20.46875],[99.99069,20.43562],[100.0307,20.40755],[100.079,20.39146],[100.08757745204933,20.367190325148822],[100.0828,20.35911],[100.0843,20.34497],[100.0968,20.30604],[100.0906,20.28635],[100.0886,20.27045],[100.0965,20.25869],[100.1092,20.24899],[100.1364,20.24565],[100.1562,20.243],[100.1736,20.24372],[100.1824,20.26695],[100.2762,20.3705],[100.3234,20.39568],[100.3415,20.38659],[100.3553,20.37243],[100.3565,20.35948],[100.358,20.35296],[100.3725,20.35014],[100.3748,20.34],[100.3773,20.32455],[100.3787,20.31368],[100.3933,20.29227],[100.4052,20.281],[100.407,20.27303],[100.4089,20.26075],[100.4154,20.25004],[100.4489,20.232],[100.4518,20.20115],[100.5152,20.14077],[100.5667,20.10802],[100.4877,19.90816],[100.4239,19.85689],[100.3774,19.74715],[100.4615,19.53305],[100.4988,19.50156],[100.5873,19.47375],[100.6412,19.52735],[100.7741,19.46119],[100.9101,19.59655],[101.0347,19.598],[101.1192,19.54605],[101.25,19.56334],[101.2413,19.50475],[101.1896,19.48912],[101.1609,19.39145],[101.2277,19.2277],[101.2327,19.11353],[101.3211,19.04292],[101.2196,18.89257],[101.1977,18.72737],[101.2314,18.67988],[101.1622,18.62988],[101.1526,18.58214],[101.0874,18.54196],[101.0279,18.44617],[101.0642,18.36457],[101.1344,18.32436],[101.1179,18.26021],[101.1539,18.19315],[101.1496,18.06369],[101.0858,17.96531],[100.9917,17.89388],[101.0027,17.85343],[100.9518,17.76866],[100.9759,17.71131],[100.9446,17.5588],[101.0959,17.45768],[101.1712,17.44275],[101.3365,17.62848],[101.5928,17.76563],[101.5891,17.82266],[101.6377,17.86698],[101.74,17.89117],[101.7902,18.03631],[101.9166,18.00697],[102.0888,18.18933],[102.1415,18.17925],[102.2978,18.04207],[102.3473,18.03554],[102.4489,17.96371],[102.5356,17.96028],[102.5591,17.96534],[102.5941,17.9591],[102.6046,17.95224],[102.6117,17.93803],[102.6058,17.89348],[102.5862,17.85427],[102.5866,17.84087],[102.596,17.83221],[102.6361,17.82335],[102.6705,17.80116],[102.6876,17.80316],[102.6959,17.81125],[102.7009,17.82089],[102.6832,17.83773],[102.6816,17.85603],[102.6993,17.87507],[102.7251,17.87951],[102.7408,17.88221],[102.7688,17.89814],[102.7865,17.93138],[102.8234,17.93971],[102.8612,17.97073],[102.9022,17.97955],[102.9599,18.00273],[102.9879,17.99131],[103.015,17.96877],[103.0294,17.97003],[103.0418,17.97743],[103.0736,18.01906],[103.084,18.04256],[103.0765,18.08255],[103.0942,18.12954],[103.1536,18.16983],[103.1759,18.25895],[103.2705,18.28674],[103.2975,18.29891],[103.303,18.30817],[103.2803,18.36032],[103.3156,18.40294],[103.4082,18.44574],[103.458,18.42164],[103.4765,18.42392],[103.5686,18.40217],[103.6001,18.40079],[103.6341,18.38581],[103.6966,18.33857],[103.8203,18.33318],[103.8527,18.28021],[103.8859,18.28641],[103.9253,18.32422],[103.9697,18.33149],[104.0547,18.21827],[104.0993,18.11616],[104.2164,17.98461],[104.2685,17.8595],[104.4673,17.6473],[104.5422,17.61009],[104.6907,17.52717],[104.7513,17.44376],[104.7763,17.42305],[104.7925,17.40012],[104.7994,17.37207],[104.8012,17.2178],[104.7846,17.13489],[104.7296,17.02429],[104.7261,17.00393],[104.7325,16.90968],[104.7325,16.80841],[104.7544,16.71439],[104.7397,16.63348],[104.7301,16.55978],[104.7358,16.5314],[104.8872,16.34189],[104.9548,16.28554],[104.9863,16.23479],[105.0404,16.09785],[105.0829,16.08276],[105.2169,16.04433],[105.3017,16.03327],[105.3131,16.02602],[105.3624,16.0195],[105.337,15.91254],[105.3901,15.80167],[105.4303,15.75294],[105.6061,15.69213],[105.5905,15.51009],[105.5857,15.42141],[105.4881,15.38848],[105.4627,15.35372],[105.4643,15.337],[105.4938,15.32086],[105.5025,15.31689],[105.579,15.31616],[105.4924,15.20891],[105.4627,15.16228],[105.4778,15.14612],[105.4647,15.13014],[105.478,15.09931],[105.569,14.99752],[105.5419,14.92953],[105.5048,14.8021],[105.5045,14.53673],[105.4052,14.43867],[105.22562743132225,14.360279207713358],[105.2069,14.38566],[105.143,14.36486],[105.0764,14.25258],[105.0151,14.41157],[104.8091,14.44799],[104.6339,14.42948],[104.5387,14.37616],[104.2722,14.44638],[103.9219,14.37714],[103.7528,14.4175],[103.6946,14.44253],[103.547,14.46878],[103.0402,14.29515],[102.932,14.19766],[102.8789,14.02074],[102.7709,13.93809],[102.7106,13.77679],[102.5458,13.68832],[102.5376,13.57994],[102.3266,13.58026],[102.3447,13.27162],[102.391,13.15282],[102.479,12.99206],[102.4913,12.78714],[102.46,12.6969],[102.6543,12.57039],[102.7297,12.41326],[102.6913,12.18658],[102.7229,12.11641],[102.7632,12.06666],[102.7804,11.977],[102.8155,11.90951],[102.8209,11.87837],[102.8333,11.85303],[102.8527,11.81848],[102.8805,11.78468],[102.8946,11.77356],[102.9068,11.74063],[102.9088,11.70818],[102.9111,11.65576],[102.6105,11.3951],[101.8522,10.54908],[102.41101157705653,9.556283539542267],[102.7661,6.942789],[102.0944,6.245511],[102.0925,6.235272],[102.0835,6.225417]]]}}
