{"type":"Feature","properties":{"sourceId":"tunisia"},"geometry":{"type":"Polygon","coordinates":[[[11.56749,33.16578],[11.56494,33.13808],[11.53152,32.63938],[11.60877,32.52047],[11.59744,32.42576],[10.79956,31.99643],[10.72139,31.96235],[10.66424,31.97069],[10.63133,31.91254],[10.64541,31.8761],[10.54001,31.72642],[10.28869,31.51534],[10.31891,31.09058],[10.34294,30.86569],[10.10399,30.49957],[9.890441,30.32962],[9.554672,30.20864],[9.045327,32.08187],[8.352738,32.49997],[8.302917,32.81729],[7.823638,33.18354],[7.744353,33.32611],[7.520699,33.79695],[7.513961,34.06745],[7.853326,34.40896],[8.156104,34.56931],[8.236812,34.6909],[8.279215,34.76554],[8.240397,34.92193],[8.35691,35.10593],[8.419304,35.17802],[8.332299,35.27522],[8.306889,35.31339],[8.307906,35.37315],[8.310899,35.41587],[8.355058,35.52549],[8.346066,35.61177],[8.305212,35.68742],[8.259912,35.72862],[8.253728,35.76264],[8.267889,35.82189],[8.248598,35.88608],[8.251717,35.91544],[8.258892,35.94037],[8.295184,36.0111],[8.292444,36.04239],[8.307076,36.07119],[8.305399,36.15831],[8.302447,36.1761],[8.335369,36.2605],[8.334438,36.26816],[8.352902,36.29171],[8.371955,36.31785],[8.371644,36.35121],[8.389001,36.39466],[8.402374,36.41394],[8.36915,36.42417],[8.262461,36.4337],[8.20783,36.44322],[8.166399,36.4599],[8.150578,36.47796],[8.148917,36.49811],[8.175728,36.51803],[8.197095,36.51407],[8.323456,36.57789],[8.401917,36.62118],[8.447088,36.66457],[8.461045,36.72413],[8.460879,36.74383],[8.427241,36.74414],[8.427186,36.76354],[8.484873,36.78446],[8.527336,36.78747],[8.554027,36.78372],[8.596138,36.80237],[8.612867,36.79745],[8.61986,36.80522],[8.657952,36.81655],[8.661358,36.84483],[8.620173,36.85281],[8.626317,36.8995],[8.644193,36.91998],[8.585684,37.14397],[8.537157,37.77296],[9.58167,37.77474],[11.33666,37.49818],[11.52232,36.91607],[11.50267,36.70367],[11.75536,35.38906],[12.068,34.79961],[11.9972,34.54049],[11.60092,33.99875],[11.84913,33.99847],[11.67125,33.34739],[11.56749,33.16578]]]}}
