{"type":"Feature","properties":{"sourceId":"tyne-and-wear"},"geometry":{"type":"Polygon","coordinates":[[[-1.481886,54.79775],[-1.493709,54.79868],[-1.495454,54.80168],[-1.489195,54.80764],[-1.488824,54.81054],[-1.495195,54.81518],[-1.495574,54.81954],[-1.505453,54.83081],[-1.504511,54.83613],[-1.511574,54.86012],[-1.510858,54.87175],[-1.525682,54.87587],[-1.531556,54.87586],[-1.542214,54.87227],[-1.562259,54.87456],[-1.565828,54.8788],[-1.578669,54.87684],[-1.585036,54.89104],[-1.594866,54.8999],[-1.611328,54.89367],[-1.618326,54.88582],[-1.636406,54.87973],[-1.645337,54.87749],[-1.652202,54.87928],[-1.648644,54.88744],[-1.650599,54.89104],[-1.660462,54.88958],[-1.6629,54.89334],[-1.676012,54.89686],[-1.679281,54.89945],[-1.679496,54.90453],[-1.686758,54.90651],[-1.689677,54.90181],[-1.692554,54.90156],[-1.702151,54.90788],[-1.716431,54.90653],[-1.725357,54.90765],[-1.728554,54.90958],[-1.73101,54.91422],[-1.737018,54.91673],[-1.750321,54.91576],[-1.760826,54.90714],[-1.769466,54.90543],[-1.780401,54.90942],[-1.789845,54.90725],[-1.795707,54.90224],[-1.804733,54.90324],[-1.821993,54.90465],[-1.828843,54.90907],[-1.850207,54.91365],[-1.853879,54.91796],[-1.841758,54.93086],[-1.829524,54.93286],[-1.827979,54.93884],[-1.832382,54.94431],[-1.834684,54.95403],[-1.826516,54.95812],[-1.825481,54.96321],[-1.822372,54.96728],[-1.815583,54.97074],[-1.813496,54.97731],[-1.791639,54.98507],[-1.778921,54.98478],[-1.77487,55.0048],[-1.759313,55.00548],[-1.757424,55.01651],[-1.751156,55.02479],[-1.739795,55.03072],[-1.721065,55.03539],[-1.717594,55.03964],[-1.712129,55.0423],[-1.701255,55.04458],[-1.699795,55.04716],[-1.701902,55.05089],[-1.711474,55.05199],[-1.714928,55.06484],[-1.714218,55.06662],[-1.705024,55.07208],[-1.690932,55.07417],[-1.671411,55.07793],[-1.648218,55.08063],[-1.636059,55.06699],[-1.621767,55.06772],[-1.601129,55.06641],[-1.57885,55.06436],[-1.573873,55.05743],[-1.566249,55.05587],[-1.543701,55.05967],[-1.539641,55.0628],[-1.531674,55.05575],[-1.510688,55.05629],[-1.505171,55.05099],[-1.491884,55.05632],[-1.490669,55.05901],[-1.493091,55.06698],[-1.480936,55.06869],[-1.471137,55.07571],[-1.460595,55.07589],[-1.387808,55.10949],[-1.262592,54.87298],[-1.368287,54.8563],[-1.381005,54.84605],[-1.407235,54.84437],[-1.411494,54.84076],[-1.417534,54.83917],[-1.419202,54.83541],[-1.411714,54.8231],[-1.413311,54.81861],[-1.420681,54.81046],[-1.421424,54.80251],[-1.440992,54.79848],[-1.444469,54.8005],[-1.481886,54.79775]]]}}
