{"type":"Feature","properties":{"sourceId":"tianjin"},"geometry":{"type":"Polygon","coordinates":[[[116.6944,38.89397],[116.6985,38.93805],[116.7253,38.98717],[116.7486,39.05145],[116.7795,39.06345],[116.8557,39.05892],[116.9079,39.129],[116.9031,39.1463],[116.8846,39.1519],[116.8599,39.1511],[116.8454,39.21523],[116.8705,39.23412],[116.8533,39.29738],[116.8774,39.31783],[116.8769,39.33078],[116.8588,39.34704],[116.8434,39.3343],[116.819,39.33642],[116.8097,39.37544],[116.8245,39.41126],[116.8568,39.43169],[116.8468,39.43832],[116.8272,39.43195],[116.78,39.445],[116.7751,39.46641],[116.8077,39.48391],[116.7984,39.52391],[116.7764,39.54747],[116.7974,39.57685],[116.7874,39.59564],[116.8036,39.6168],[116.8238,39.62579],[116.815,39.635],[116.8423,39.66861],[116.8793,39.67555],[116.899,39.67681],[116.897,39.6883],[116.8955,39.68936],[116.9051,39.69689],[116.9101,39.69814],[116.9093,39.70587],[116.947,39.70626],[116.9484,39.67965],[116.9739,39.63874],[117.0098,39.65461],[117.069,39.64013],[117.1167,39.62024],[117.1614,39.64152],[117.1494,39.66253],[117.1573,39.70666],[117.1443,39.72066],[117.1455,39.73808],[117.1568,39.75036],[117.1939,39.76303],[117.1726,39.78044],[117.1635,39.79442],[117.1501,39.79522],[117.1482,39.80735],[117.1457,39.81882],[117.1872,39.8349],[117.2418,39.83438],[117.2483,39.84664],[117.2406,39.85441],[117.2195,39.84927],[117.1419,39.8689],[117.1458,39.88919],[117.1408,39.89604],[117.1431,39.90559],[117.1365,39.91],[117.1349,39.91691],[117.1278,39.9175],[117.1373,39.93455],[117.1383,39.94541],[117.153,39.96495],[117.1739,39.9787],[117.1897,39.99297],[117.1802,40.02492],[117.173,40.05745],[117.1785,40.06546],[117.1891,40.06585],[117.2082,40.06546],[117.2018,40.07768],[117.2042,40.09672],[117.2355,40.11602],[117.2751,40.1197],[117.3026,40.14043],[117.3433,40.14883],[117.3427,40.17192],[117.3726,40.17677],[117.3941,40.18438],[117.3766,40.18504],[117.3736,40.1912],[117.3685,40.22017],[117.3896,40.23512],[117.4136,40.2511],[117.438,40.25307],[117.4753,40.24232],[117.5563,40.23132],[117.5728,40.21768],[117.5788,40.17651],[117.605,40.16536],[117.6473,40.12482],[117.6564,40.10079],[117.6661,40.10027],[117.6754,40.09475],[117.7072,40.09528],[117.7515,40.08385],[117.7686,40.06375],[117.7714,40.05259],[117.7516,40.03721],[117.7436,40.01907],[117.7625,40.02512],[117.7832,40.02354],[117.7935,40.00789],[117.7911,39.98264],[117.7774,39.96199],[117.7281,39.96449],[117.691,39.98107],[117.6648,39.96752],[117.6222,39.96436],[117.6059,39.97146],[117.5887,39.98962],[117.558,39.98685],[117.54,39.99106],[117.5453,39.97659],[117.5288,39.94673],[117.5108,39.93988],[117.5209,39.92988],[117.5099,39.89946],[117.5362,39.85415],[117.5456,39.84519],[117.5475,39.82119],[117.5642,39.79851],[117.56,39.785],[117.5494,39.7629],[117.5932,39.74455],[117.5884,39.71867],[117.6207,39.71141],[117.6404,39.70177],[117.6634,39.6665],[117.6629,39.65011],[117.6595,39.6328],[117.6394,39.62063],[117.637,39.6119],[117.6392,39.59987],[117.6516,39.58677],[117.6703,39.59034],[117.6972,39.58426],[117.6957,39.56203],[117.7048,39.54853],[117.7125,39.53807],[117.7321,39.54231],[117.7276,39.55912],[117.7259,39.57407],[117.7461,39.57831],[117.7374,39.59061],[117.7443,39.5955],[117.7652,39.60079],[117.7952,39.60344],[117.822,39.59286],[117.8581,39.60225],[117.8989,39.59286],[117.9278,39.5787],[117.9296,39.56679],[117.9195,39.55991],[117.9061,39.53198],[117.9094,39.51808],[117.9022,39.49755],[117.9003,39.47198],[117.8723,39.43937],[117.8622,39.37505],[117.8524,39.36854],[117.8617,39.36085],[117.8471,39.33722],[117.885,39.33416],[117.9642,39.31783],[118.0298,39.28728],[118.0331,39.26429],[118.063,39.25785],[118.0582,39.22095],[118.0083,39.05758],[117.8675,38.63886],[117.5757,38.60882],[117.5479,38.6111],[117.5262,38.59755],[117.4864,38.60963],[117.4212,38.58897],[117.3925,38.57407],[117.3637,38.56186],[117.3125,38.55367],[117.2459,38.55327],[117.2255,38.58481],[117.2209,38.62277],[117.2124,38.63726],[117.2028,38.62022],[117.1544,38.60721],[117.1198,38.58199],[117.0916,38.5785],[117.0658,38.59487],[117.0418,38.64074],[117.0473,38.6772],[117.0188,38.68953],[116.9127,38.67452],[116.8657,38.67693],[116.8629,38.69623],[116.852,38.73614],[116.783,38.73507],[116.7452,38.7415],[116.7349,38.74926],[116.7284,38.78942],[116.7328,38.84853],[116.7088,38.84987],[116.7115,38.8929],[116.6944,38.89397]]]}}
