{"type":"Feature","properties":{"sourceId":"turkmenistan"},"geometry":{"type":"Polygon","coordinates":[[[54.23401,42.41535],[54.42309,42.33574],[55.07817,41.94715],[55.50033,41.31608],[55.982790434336266,41.36133953550283],[55.98289,41.29769],[57.06825,41.24534],[57.17735,41.3643],[57.01583,41.86861],[57.45353,42.09666],[57.90499,42.17028],[58.0383,42.44143],[58.29589,42.40841],[58.3786,42.258],[58.58322,42.25495],[58.55438,42.32606],[58.23444,42.64244],[58.762,42.63147],[59.1232,42.3973],[59.38506,42.26753],[59.95748,42.20272],[59.89609,41.97328],[60.08697,41.85575],[60.02861,41.76261],[60.07227,41.40484],[60.47488,41.20246],[61.35287,41.1265],[61.48116,41.2743],[61.86868,41.06291],[61.9519,40.81901],[62.10748,40.55394],[62.29523,40.39781],[62.3996,39.99817],[62.48749,39.92343],[64.16977,38.93378],[65.62513,38.23587],[66.54063,37.97553],[66.48926,37.58485],[66.50299,37.29809],[66.5200123262792,37.29952463502784],[66.51812,37.29784],[66.21998,37.28361],[65.77875,37.46841],[65.58198,37.20292],[64.84857,37.10312],[64.63391,36.22306],[63.96013,35.90977],[63.22672,35.79862],[63.28635,35.68246],[63.12536,35.37676],[62.54101,35.14306],[62.22499,35.12355],[61.33059,35.52248],[61.18152,35.67762],[61.08612,36.01595],[61.13979,36.57821],[60.26924,36.59257],[59.83704,37.08422],[59.55414,37.1231],[59.39209,37.27843],[59.35089,37.45524],[58.83223,37.62914],[58.31944,37.61497],[57.80069,37.85547],[57.35349,37.92135],[57.20581,38.22524],[56.99981,38.16264],[56.43127,38.22955],[56.37085,38.07188],[56.22058,38.04354],[55.54084,38.05293],[55.21763,37.93878],[55.12493,37.93553],[55.06176,37.85127],[54.8786,37.75226],[54.81216,37.66425],[54.79191,37.63422],[54.82332,37.60934],[54.81457,37.52579],[54.78298,37.51436],[54.77371,37.49788],[54.71706,37.46069],[54.67243,37.43261],[54.62711,37.43452],[54.59312,37.45033],[54.39674,37.3576],[54.03824,37.23616],[51.83271,37.29629],[51.84645,41.59974],[53.04015,42.22804],[54.23401,42.41535]]]}}
