{"type":"Feature","properties":{"sourceId":"tohoku"},"geometry":{"type":"Polygon","coordinates":[[[140.4597,36.79591],[140.4562,36.79758],[140.4388,36.81756],[140.4356,36.81824],[140.4307,36.81584],[140.427,36.819],[140.4224,36.81946],[140.4133,36.829],[140.3926,36.8312],[140.3761,36.83715],[140.3736,36.84978],[140.3677,36.85893],[140.3671,36.86663],[140.3693,36.87223],[140.3646,36.88217],[140.3612,36.88393],[140.345,36.88399],[140.3257,36.89034],[140.3226,36.89353],[140.3204,36.90679],[140.3069,36.91831],[140.3055,36.92179],[140.3,36.92677],[140.285,36.934],[140.2727,36.92894],[140.2399,36.9448],[140.2403,36.95304],[140.2498,36.96339],[140.2491,36.96644],[140.2424,36.97374],[140.243,36.97943],[140.2474,36.98304],[140.2479,36.98564],[140.2427,36.99096],[140.239,37.00019],[140.2439,37.00454],[140.2441,37.01114],[140.248,37.01343],[140.2469,37.02146],[140.2443,37.02283],[140.2269,37.02255],[140.2196,37.01722],[140.2117,37.01859],[140.2021,37.02311],[140.1943,37.03619],[140.1978,37.04116],[140.1982,37.04675],[140.1896,37.05606],[140.1918,37.06112],[140.1911,37.0636],[140.1845,37.06705],[140.1722,37.06912],[140.1647,37.07773],[140.1564,37.08042],[140.1519,37.0853],[140.1515,37.08935],[140.148,37.09219],[140.1454,37.0984],[140.1388,37.1028],[140.1276,37.10293],[140.1246,37.10641],[140.0978,37.12248],[140.0888,37.12029],[140.0695,37.12526],[140.0593,37.12421],[140.0483,37.13058],[140.0455,37.13472],[140.0375,37.13794],[140.0284,37.1383],[140.0227,37.14092],[140.0169,37.13828],[139.9963,37.14243],[139.9901,37.14146],[139.9792,37.14546],[139.9625,37.14733],[139.9594,37.15177],[139.9547,37.15356],[139.9438,37.1513],[139.9292,37.14981],[139.9161,37.14631],[139.9076,37.14756],[139.9017,37.15216],[139.8946,37.15181],[139.8777,37.14482],[139.8675,37.14572],[139.8568,37.13661],[139.8516,37.13588],[139.8473,37.1374],[139.842,37.13527],[139.8394,37.13201],[139.8288,37.12536],[139.8215,37.12134],[139.8183,37.11246],[139.8226,37.10847],[139.8199,37.09703],[139.8225,37.08402],[139.8093,37.08356],[139.7875,37.08937],[139.7811,37.08853],[139.7744,37.08683],[139.7639,37.07482],[139.7558,37.0726],[139.7521,37.06897],[139.7402,37.07067],[139.7327,37.06738],[139.7207,37.06826],[139.7119,37.06642],[139.7012,37.05833],[139.6919,37.06074],[139.6863,37.05913],[139.6741,37.0544],[139.67,37.04311],[139.6651,37.03867],[139.6567,37.03992],[139.6525,37.03629],[139.6444,37.03479],[139.639,37.03089],[139.629,37.03146],[139.6204,37.01594],[139.6172,37.01397],[139.6113,37.01243],[139.6031,37.01361],[139.5959,37.01045],[139.5854,37.01353],[139.577,37.00093],[139.5651,36.99569],[139.555,36.99143],[139.5363,36.97982],[139.5232,36.97909],[139.5148,36.97603],[139.5045,36.96842],[139.4943,36.96661],[139.4841,36.97335],[139.4731,36.97011],[139.4635,36.96983],[139.46,36.9656],[139.4603,36.95877],[139.4583,36.95369],[139.4378,36.94184],[139.4314,36.92512],[139.4275,36.92296],[139.4201,36.92291],[139.4091,36.92551],[139.4008,36.91993],[139.394,36.90971],[139.3824,36.91038],[139.3731,36.91658],[139.3566,36.91521],[139.3489,36.91192],[139.3479,36.91854],[139.3404,36.92625],[139.3331,36.92326],[139.3112,36.92563],[139.3045,36.92451],[139.2942,36.93299],[139.2877,36.93268],[139.2816,36.92991],[139.2659,36.93768],[139.2554,36.93124],[139.241,36.92804],[139.23412720590755,36.9335932176267],[139.2504,36.93675],[139.2699,37.04474],[139.2469,37.11131],[139.2632,37.16736],[139.2283,37.21579],[139.2031,37.21104],[139.1798,37.23743],[139.2208,37.28117],[139.2442,37.34577],[139.2475,37.37641],[139.2169,37.40513],[139.22,37.42843],[139.3603,37.4564],[139.4008,37.45065],[139.4359,37.50334],[139.5661,37.49184],[139.5931,37.50702],[139.5997,37.53147],[139.5817,37.54647],[139.5649,37.64017],[139.6343,37.68153],[139.6359,37.70415],[139.6789,37.75787],[139.7511,37.81688],[139.7199,37.86115],[139.6717,37.86747],[139.6385,37.91177],[139.6658,38.02616],[139.7022,38.05519],[139.6874,38.08886],[139.7036,38.11425],[139.6964,38.17042],[139.7143,38.19398],[139.79,38.18314],[139.8666,38.2238],[139.909,38.27237],[139.9077,38.29737],[139.8541,38.35119],[139.7531,38.37211],[139.7213,38.40523],[139.7287,38.50331],[139.6014,38.53583],[139.5526,38.56272],[139.4876,38.5535],[139.3946,38.57789],[139.3416,38.6932],[139.2824,38.78408],[139.1875,38.89402],[139.1371,38.90717],[139.0596309549252,38.72627137581056],[138.9325,38.79407],[138.9863,40.68053],[140.8685,41.63819],[141.7702,41.64179],[142.8782,39.20548],[142.8664,39.16712],[141.2589,36.52861],[140.7937,36.85776],[140.7872,36.85492],[140.7846,36.856],[140.7831,36.8611],[140.7804,36.86264],[140.7758,36.86417],[140.7662,36.86037],[140.7452,36.87012],[140.7334,36.87044],[140.7208,36.86968],[140.7135,36.87172],[140.7046,36.87752],[140.6878,36.88718],[140.6562,36.89586],[140.6357,36.89641],[140.6277,36.90037],[140.6146,36.90234],[140.6121,36.90844],[140.6067,36.91157],[140.5978,36.92302],[140.5916,36.92596],[140.5925,36.93334],[140.5844,36.94186],[140.5777,36.9405],[140.5721,36.93662],[140.5687,36.91738],[140.5697,36.91492],[140.5818,36.90503],[140.5819,36.89529],[140.5944,36.88045],[140.5932,36.87246],[140.581,36.86579],[140.5726,36.86286],[140.5402,36.85674],[140.5294,36.8392],[140.5179,36.82603],[140.5147,36.82243],[140.5067,36.82088],[140.5023,36.81722],[140.4905,36.809],[140.4822,36.8026],[140.4792,36.79592],[140.465,36.79004],[140.4621,36.7913],[140.4597,36.79591]]]}}
