{"type":"Feature","properties":{"sourceId":"tibet"},"geometry":{"type":"Polygon","coordinates":[[[79.06105,34.43863],[79.14276,34.45335],[79.27528,34.44599],[79.41536,34.45562],[79.54102,34.48901],[79.64882,34.47203],[79.701,34.50203],[79.81361,34.5009],[79.89532,34.85382],[79.98734,34.87974],[80.01686,35.04742],[80.06699,35.08733],[80.20637,35.14406],[80.27641,35.3745],[80.36911,35.4092],[80.43709,35.46235],[80.53253,35.42151],[80.64239,35.41983],[80.73852,35.35098],[80.93903,35.35434],[81.02211,35.33922],[81.01456,35.41256],[81.09283,35.42151],[81.25557,35.34538],[81.4492,35.36666],[81.57898,35.25235],[81.99,35.36],[82.03079,35.45508],[82.30751,35.57748],[82.32124,35.66288],[82.42836,35.7231],[82.56775,35.72422],[82.73,35.68],[82.80189,35.70638],[82.96944,35.67794],[83.0381,35.49031],[83.43361,35.39185],[83.50227,35.412],[84.03168,35.43102],[84.38599,35.47074],[84.44092,35.5596],[85.02113,35.75933],[85.28137,35.80445],[85.56084,35.67571],[85.62744,35.73481],[85.68581,35.77437],[85.97969,35.84231],[86.09093,35.92965],[86.14,36.05],[86.16,36.15],[86.34,36.21],[86.59,36.26],[86.83937,36.32619],[87.29393,36.37817],[87.35847,36.44007],[87.4601,36.43731],[87.56447,36.36214],[87.98332,36.45387],[88.37,36.53],[88.60474,36.4605],[88.7709,36.35163],[88.92403,36.37596],[89.15474,36.27639],[89.22958,36.30959],[89.5,36.19],[89.72429435898742,36.10580154687394],[89.40124,36.06131],[89.39,35.96],[89.41154,35.9163],[89.54544,35.84454],[89.75693,35.83285],[89.67728,35.63498],[89.69581,35.45787],[89.49051,35.38513],[89.43008,35.23216],[89.55,35.08],[89.55,34.88],[89.78508,34.86002],[90.14557,34.85945],[90.33646,34.9231],[90.57815,34.9124],[90.67085,34.89156],[90.81093,34.85945],[90.93727,34.76136],[91.00525,34.73146],[91.45981,34.70211],[91.93359,34.476],[92.35519,34.00258],[92.35382,33.93653],[92.38403,33.8841],[92.48428,33.86015],[92.63122,33.86357],[92.78091,34.01169],[92.9512,34.0629],[93.12286,34.13],[93.16681,33.92627],[93.45245,33.61348],[93.40164,33.16285],[93.90564,32.85191],[94.18442,32.85883],[94.3753,32.68793],[94.617,32.64574],[94.90951,32.39852],[95.02007,32.3933],[95.0956,32.24126],[95.21919,32.27901],[95.33798,31.95682],[95.44716,31.80231],[95.53162,31.72349],[95.65384,31.76437],[95.81795,31.67442],[95.9539,31.78305],[96.15028,31.58673],[96.24229,31.60544],[96.27319,31.72174],[96.19,31.82],[96.24298,31.91021],[96.37001,31.9003],[96.39,31.8],[96.56845,31.7048],[96.72157,31.66332],[96.78749,31.65514],[96.86645,31.72408],[96.81,31.84],[96.85,31.88],[96.75522,31.98304],[96.78955,31.99934],[96.86783,31.96483],[96.96121,31.99381],[96.98833,32.06526],[97.02421,32.04824],[97.16446,32.02583],[97.23295,32.04431],[97.25218,32.07196],[97.31295,32.07297],[97.31638,32.13332],[97.2793,32.19871],[97.29475,32.25433],[97.42538,32.28307],[97.43843,32.38518],[97.39105,32.453],[97.41646,32.5445],[97.55241,32.50339],[97.67601,32.50455],[97.73021615885213,32.52300500972143],[97.80888,32.49789],[97.99187,32.45705],[98.0801,32.39388],[98.21262,32.23139],[98.30257,32.1134],[98.39458,31.91195],[98.40935,31.83002],[98.5556,31.64958],[98.70873,31.50334],[98.85773,31.38237],[98.7719,31.28207],[98.7022,31.3378],[98.6356,31.34572],[98.60264,31.29469],[98.59852,31.19401],[98.60058,31.1852],[98.6701,31.157],[98.70306,31.11439],[98.71216,31.05882],[98.78975,30.98938],[98.75868,30.9009],[98.79104,30.88587],[98.79404,30.88342],[98.79614,30.88177],[98.80146,30.879],[98.80692,30.87733],[98.80992,30.87584],[98.81344,30.87521],[98.82028,30.87298],[98.82337,30.86643],[98.8308,30.86083],[98.83781,30.85744],[98.85138,30.84683],[98.85378,30.83533],[98.85876,30.82855],[98.8706,30.82752],[98.87524,30.82265],[98.87249,30.80865],[98.88554,30.79553],[98.9094,30.78019],[98.94819,30.76868],[98.95351,30.75172],[98.95454,30.73416],[98.89635,30.70022],[98.92021,30.58354],[98.92914,30.52427],[98.95454,30.37584],[98.96965,30.16472],[99.04175,29.91269],[98.98544,29.76617],[98.98064,29.64808],[99.04175,29.55494],[99.03763,29.44139],[99.06097,29.29239],[99.10073235588193,29.23389154597591],[99.08466,29.23159],[99.04346,29.2187],[99.01909,29.21031],[98.97,29.225],[98.945,29.2],[98.94,29.145],[98.99,29.08],[99.0,29.055],[98.905,28.995],[98.895,28.905],[98.925,28.865],[98.955,28.855],[98.95,28.85],[98.91,28.845],[98.9,28.825],[98.88,28.83],[98.86,28.825],[98.835,28.955],[98.815,28.995],[98.78,29.025],[98.765,29.03],[98.73,29.02],[98.695,28.985],[98.64727,28.98772],[98.61706,28.9697],[98.62461,28.94507],[98.63,28.925],[98.625,28.885],[98.645,28.845],[98.625,28.83],[98.625,28.815],[98.645,28.785],[98.65,28.73],[98.62,28.71],[98.585,28.705],[98.575,28.665],[98.6,28.625],[98.61,28.56],[98.6,28.5],[98.62,28.475],[98.66,28.465],[98.67,28.425],[98.69,28.415],[98.73,28.345],[98.695,28.315],[98.69,28.245],[98.635,28.215],[98.615,28.185],[98.585,28.205],[98.54,28.2],[98.495,28.17],[98.455,28.165],[98.415,28.125],[98.41,28.185],[98.395,28.2],[98.395,28.26],[98.38,28.3],[98.345,28.33],[98.345,28.355],[98.325,28.38],[98.32,28.405],[98.305,28.415],[98.285,28.415],[98.185,28.365],[98.185,28.33],[98.22,28.3],[98.24,28.255],[98.215,28.24],[98.16,28.23],[98.145,28.21],[98.15,28.18],[98.12147100927574,28.167773289689602],[97.9226,28.3923],[97.81522,28.3628],[97.73981,28.5167],[97.67069,28.56505],[97.57188,28.57476],[97.47338,28.49927],[97.4642,28.33692],[97.3347755034205,28.25521415381712],[97.23312,28.3346],[97.06558,28.39744],[96.96121,28.38174],[96.32812,29.20012],[96.16882,29.36542],[96.06583,29.42883],[95.81451,29.3738],[95.20615,29.12817],[94.64584,29.34507],[94.25308,29.14617],[94.23523,28.99493],[93.22998,28.58452],[93.07068,28.37086],[92.93747,28.31043],[92.63947,28.16282],[92.56599,27.89432],[92.22198,27.89796],[91.97479,27.78867],[91.89651,27.74188],[91.83403,27.79535],[91.68228,27.84636],[91.57930911340291,27.848034472959316],[91.58274,27.85154],[91.62001,27.8554],[91.63254,27.89482],[91.5939,27.91497],[91.56186,27.9078],[91.55194,27.92538],[91.49644,27.94796],[91.49701,27.97083],[91.46938,28.01246],[91.38429,28.04158],[91.34213,28.07242],[91.26295,28.07849],[91.24537,28.07134],[91.20131,27.99442],[91.16864,28.00897],[91.14846,28.00023],[91.0762,28.01153],[91.06364,28.00543],[91.02204,28.03176],[90.99314,28.02791],[90.97752,28.01256],[90.9302,28.05164],[90.90828,28.03751],[90.85966,28.06053],[90.78329,28.05324],[90.74661,28.06099],[90.69169,28.08814],[90.58704,28.03551],[90.56333,28.0555],[90.51219,28.07286],[90.46157,28.05613],[90.42792,28.07504],[90.38123,28.07199],[90.36638,28.10358],[90.29283,28.1709],[90.2561,28.15824],[90.21335,28.15677],[90.16762,28.19698],[90.12509,28.20185],[90.11168,28.19465],[90.11095,28.1732],[90.0885,28.16188],[90.05135,28.16164],[90.03832,28.14758],[90.02029,28.17341],[89.98036,28.20113],[89.90394,28.19315],[89.86438,28.23657],[89.84193,28.23536],[89.79096,28.25372],[89.76264,28.22653],[89.76899,28.20521],[89.75979,28.19532],[89.73901,28.19667],[89.72089,28.18214],[89.68222,28.19217],[89.65844,28.17795],[89.59188,28.16957],[89.56557,28.12985],[89.54613,28.12178],[89.53162,28.09899],[89.50572,28.1],[89.45407,28.03867],[89.45773,28.02141],[89.44428,28.00912],[89.44237,27.97835],[89.39297,27.9239],[89.38006,27.89535],[89.32901,27.86447],[89.29694,27.86076],[89.26113,27.83149],[89.25541,27.81614],[89.22939,27.80636],[89.21238,27.76187],[89.21321,27.73184],[89.19138,27.72606],[89.1681,27.67708],[89.12308,27.63682],[89.11835,27.6221],[89.0593,27.61297],[89.02702,27.58802],[88.97106,27.48817],[88.95939,27.40408],[88.93467,27.34707],[88.92608698033128,27.340969145977],[88.80833,27.47172],[88.8842,27.69265],[88.92991,28.05021],[88.63616,28.18012],[88.08495,27.9471],[88.09936909856333,27.920405450117862],[87.82877,27.98273],[87.70949,27.84814],[87.56091,27.89847],[87.18424,27.85599],[87.05061,27.97825],[86.79718,28.06069],[86.75374,28.13064],[86.57899,28.14332],[86.42651,27.94691],[86.25625,28.01225],[86.24964,28.11779],[86.18401,28.20462],[86.05433,28.10006],[86.07589,27.95233],[86.00581,27.94872],[85.87338,28.20199],[85.77914,28.26274],[85.72802,28.41155],[85.66137,28.40289],[85.62141,28.32031],[85.50694,28.36487],[85.37382,28.32273],[85.15478,28.36607],[85.146,28.45407],[85.21743,28.53029],[85.20117,28.66846],[85.05366,28.71338],[84.95797,28.62433],[84.85518,28.61444],[84.74347,28.65224],[84.6502,28.75901],[84.48635,28.78162],[84.42173,28.8794],[84.26041,28.93062],[84.27965,29.0412],[84.20122,29.16883],[84.23132,29.24686],[84.10834,29.32062],[83.9004,29.35718],[83.62474,29.21041],[83.55538,29.23855],[83.285,29.60121],[82.94569,29.73361],[82.85296,29.7277],[82.57134,29.98702],[82.21737,30.10248],[82.23489,30.1641],[82.08568,30.39237],[81.99323,30.36697],[81.6295,30.47746],[81.52088,30.41511],[81.39828,30.44943],[81.3517,30.19504],[81.23257,30.16875],[81.26701,30.07507],[81.14402,30.03071],[81.06893358843715,30.201801771264563],[81.06949,30.20211],[81.06700414031232,30.206198208520902],[81.04043,30.26675],[81.02789709832406,30.27051307837287],[81.02692,30.27212],[80.33083,30.66331],[80.21255,30.82501],[79.74701,31.03646],[79.57397,31.02234],[79.11117,31.49075],[78.91836794766738,31.397447601842185],[78.91837,31.39745],[78.81935,31.34953],[78.85712,31.60427],[78.80081,32.00225],[78.6961,32.11021],[78.44101,32.54334],[78.67584,32.59542],[78.78982,32.43677],[78.9299,32.31731],[79.10019,32.34516],[79.43939,32.5005],[79.48883,32.70873],[79.18396,33.19273],[78.85017,33.5854],[78.83879,34.0256],[79.13551,34.23658],[79.12999,34.39852],[79.0476004873633,34.432274534001316],[79.06105,34.43863]]]}}
