{"type":"Feature","properties":{"sourceId":"us/minnesota"},"geometry":{"type":"Polygon","coordinates":[[[-95.18433,49.40714],[-94.74314,49.35585],[-94.6486,48.77774],[-94.14963,48.69807],[-93.77147,48.62175],[-93.76096,48.54183],[-93.52986,48.54878],[-93.52461,48.60786],[-93.23574,48.66686],[-92.51618,48.59744],[-92.36386,48.27686],[-92.27982,48.39208],[-91.90691,48.36068],[-91.46047,48.09477],[-90.86171,48.28385],[-90.69889,48.13334],[-90.06953,48.14727],[-89.48612,48.04243],[-89.64534,47.71089],[-90.41271096421853,47.3864186653313],[-90.57059,47.41451],[-91.94191433879332,46.73981789065453],[-92.00347,46.71379],[-92.01294913232572,46.70760738156967],[-92.02041,46.70732],[-92.03185,46.71185],[-92.08829,46.75199],[-92.10837,46.75214],[-92.13515,46.74201],[-92.14419,46.73475],[-92.14391,46.72187],[-92.14965,46.71578],[-92.167,46.72056],[-92.19071,46.71801],[-92.20659,46.70344],[-92.20602,46.69767],[-92.19572,46.67739],[-92.2075,46.66668],[-92.20277,46.6565],[-92.20772,46.65288],[-92.22935,46.65339],[-92.24155,46.64984],[-92.25656,46.65948],[-92.27002,46.65156],[-92.27357,46.65747],[-92.28319,46.66011],[-92.28723,46.66835],[-92.29274,46.66852],[-92.29522,46.07457],[-92.31834,46.0702],[-92.3348,46.06503],[-92.34414,46.04296],[-92.35472,46.01554],[-92.37247,46.01563],[-92.41034,46.03024],[-92.42947,46.0271],[-92.44459,46.01807],[-92.46723,45.98631],[-92.52813,45.98605],[-92.55209,45.96993],[-92.60322,45.94372],[-92.63985,45.93699],[-92.70936,45.8974],[-92.73636,45.87001],[-92.76769,45.83178],[-92.78713,45.76606],[-92.81138,45.74676],[-92.85018,45.73144],[-92.86399,45.7249],[-92.87213,45.71817],[-92.87838,45.68981],[-92.89089,45.6395],[-92.88601,45.57352],[-92.87192,45.5647],[-92.82326,45.55793],[-92.77156,45.56424],[-92.72835,45.53898],[-92.72912,45.51272],[-92.70456,45.49115],[-92.68209,45.46199],[-92.64963,45.44103],[-92.65326,45.4189],[-92.64988,45.41282],[-92.65349,45.40071],[-92.67135,45.39148],[-92.68192,45.37177],[-92.70116,45.36149],[-92.70493,45.35566],[-92.69943,45.33799],[-92.70413,45.3285],[-92.73947,45.30049],[-92.76276,45.28947],[-92.76375,45.2851],[-92.75329,45.26174],[-92.76119,45.25118],[-92.75797,45.22925],[-92.75258,45.21755],[-92.76432,45.20638],[-92.76922,45.18726],[-92.75563,45.17254],[-92.7594,45.15804],[-92.74264,45.11208],[-92.79234,45.0795],[-92.80361,45.06885],[-92.80439,45.0605],[-92.79667,45.04817],[-92.76518,45.02731],[-92.77396,45.00062],[-92.7701,44.96917],[-92.75705,44.95034],[-92.76049,44.91085],[-92.77482,44.90383],[-92.77678,44.88902],[-92.76649,44.87378],[-92.77209,44.86196],[-92.76813,44.83877],[-92.78366,44.81375],[-92.79113,44.78988],[-92.80791,44.76981],[-92.81073,44.75108],[-92.79817,44.73978],[-92.76838,44.7294],[-92.7598,44.72387],[-92.73546,44.71534],[-92.70213,44.69295],[-92.65995,44.65833],[-92.63535,44.63499],[-92.62149,44.61227],[-92.58666,44.59712],[-92.55263,44.5799],[-92.55446,44.57107],[-92.54791,44.56658],[-92.54161,44.56592],[-92.52083,44.57427],[-92.49745,44.56582],[-92.48136,44.56525],[-92.45491,44.55889],[-92.36176,44.55594],[-92.31676,44.5366],[-92.30497,44.49911],[-92.2933,44.48353],[-92.22397,44.42636],[-92.09871,44.41086],[-92.07687,44.40342],[-92.05751,44.3999],[-92.0394,44.38803],[-91.98693,44.36809],[-91.96707,44.36269],[-91.94295,44.33846],[-91.92122,44.32115],[-91.92745,44.29084],[-91.89893,44.27302],[-91.89871,44.26156],[-91.89556,44.23021],[-91.87677,44.19907],[-91.82281,44.16406],[-91.75288,44.13201],[-91.70926,44.10148],[-91.64605,44.06205],[-91.63611,44.05979],[-91.61192,44.04667],[-91.59485,44.03176],[-91.58098,44.02618],[-91.54839,44.02146],[-91.51616,44.01835],[-91.44246,43.9924],[-91.40777,43.96427],[-91.36882,43.93537],[-91.35908,43.9173],[-91.31219,43.86626],[-91.28112,43.83914],[-91.26648,43.79483],[-91.24488,43.77344],[-91.26961,43.71281],[-91.27167,43.69667],[-91.27613,43.66688],[-91.2751,43.62116],[-91.25107,43.55054],[-91.24732814096475,43.501710645922856],[-96.45257602419073,43.501816949627695],[-96.45023,44.70967],[-96.45206,45.29697],[-96.45424,45.30539],[-96.46763,45.32322],[-96.48691,45.35916],[-96.51802,45.37524],[-96.61687,45.41097],[-96.6799,45.41347],[-96.69096,45.4187],[-96.73119,45.46157],[-96.74172,45.48455],[-96.76313,45.52056],[-96.78996,45.54779],[-96.80035,45.55799],[-96.85425,45.60686],[-96.85276,45.60927],[-96.84377,45.63608],[-96.83081,45.64986],[-96.71002,45.71478],[-96.65359,45.73842],[-96.63589,45.76908],[-96.62572,45.78402],[-96.61045,45.79226],[-96.59481,45.80944],[-96.58549,45.81391],[-96.58076,45.81813],[-96.57687,45.82493],[-96.57453,45.83725],[-96.56322,45.90936],[-96.55996,45.93589],[-96.56052894131096,45.93589110748656],[-96.55904,45.94287],[-96.56502,45.95437],[-96.57187,46.00112],[-96.57476,46.02973],[-96.55292,46.06874],[-96.55753,46.11238],[-96.56794,46.13132],[-96.57347,46.16486],[-96.57639,46.1764],[-96.58603,46.18131],[-96.5827,46.20054],[-96.58339,46.20809],[-96.5951,46.24198],[-96.58556,46.24647],[-96.58336,46.24907],[-96.5832,46.25078],[-96.58575,46.25085],[-96.58967,46.25035],[-96.59252,46.25159],[-96.59427,46.25406],[-96.5924,46.2556],[-96.59224,46.25748],[-96.59497,46.26048],[-96.59914,46.26229],[-96.59612,46.26885],[-96.59443,46.27599],[-96.5967,46.27923],[-96.59405,46.28548],[-96.59555,46.28816],[-96.59619,46.32784],[-96.61642,46.34778],[-96.62863,46.35472],[-96.66663,46.39158],[-96.70061,46.43907],[-96.71355,46.47282],[-96.72357,46.47471],[-96.73359,46.50731],[-96.74106,46.56415],[-96.74598,46.58199],[-96.77004,46.61516],[-96.78115,46.6316],[-96.79191,46.66825],[-96.78253,46.68487],[-96.78061,46.71953],[-96.77806,46.72768],[-96.78043,46.73244],[-96.77897,46.75649],[-96.77465,46.76732],[-96.78576,46.78344],[-96.79494,46.80538],[-96.79543,46.8216],[-96.78009,46.82469],[-96.78121,46.82813],[-96.78673,46.83079],[-96.77994,46.83883],[-96.77688,46.83812],[-96.77434,46.83914],[-96.77449,46.84078],[-96.78024,46.84703],[-96.77561,46.84862],[-96.7724,46.85072],[-96.77531,46.85532],[-96.77815,46.85875],[-96.7824,46.86111],[-96.77964,46.86787],[-96.78053,46.8714],[-96.77568,46.8736],[-96.77546,46.87514],[-96.77844,46.87631],[-96.78024,46.87862],[-96.77598,46.87831],[-96.7724,46.88041],[-96.77292,46.87775],[-96.76994,46.87698],[-96.76881,46.8782],[-96.76662,46.88432],[-96.76844,46.88599],[-96.77337,46.88757],[-96.77285,46.88962],[-96.76919,46.891],[-96.76859,46.8931],[-96.7712,46.89453],[-96.77412,46.89499],[-96.77374,46.89863],[-96.76986,46.90001],[-96.76956,46.90164],[-96.77195,46.90313],[-96.77061,46.90569],[-96.76546,46.9042],[-96.76322,46.90737],[-96.76187,46.91341],[-96.75441,46.91341],[-96.75411,46.91622],[-96.76031,46.9197],[-96.7612,46.9221],[-96.75374,46.92159],[-96.7521,46.92384],[-96.75486,46.92594],[-96.75545,46.9264],[-96.75657,46.93044],[-96.76158,46.93504],[-96.76479,46.93499],[-96.78352,46.92752],[-96.78486,46.9308],[-96.79016,46.92947],[-96.7892,46.93932],[-96.79505,46.96859],[-96.81819,46.96909],[-96.81801,46.99727],[-96.82403,47.0146],[-96.81528,47.0212],[-96.80926,47.04064],[-96.81619,47.04052],[-96.81892,47.06954],[-96.81489,47.0786],[-96.81455,47.10463],[-96.81965,47.12715],[-96.81819,47.16433],[-96.83387,47.26713],[-96.82931,47.30532],[-96.82769,47.32764],[-96.83004,47.34027],[-96.8366,47.34312],[-96.83587,47.38608],[-96.84152,47.41367],[-96.85428,47.43766],[-96.85125,47.48146],[-96.85056,47.60487],[-96.87159,47.62575],[-96.88143,47.65617],[-96.8964,47.69],[-96.90428,47.69426],[-96.93753,47.7709],[-96.96762,47.80322],[-96.99394,47.85526],[-97.00448,47.87305],[-97.01622,47.87693],[-97.01805,47.89016],[-97.01911,47.90159],[-97.0136,47.90818],[-97.01762,47.9142],[-97.01701,47.91732],[-97.01697,47.91966],[-97.01975,47.92179],[-97.02456,47.92463],[-97.02855,47.9275],[-97.03191,47.92904],[-97.03547,47.93081],[-97.03587,47.93341],[-97.03477,47.93612],[-97.03514,47.93899],[-97.03829,47.94114],[-97.04426,47.94183],[-97.05009,47.94381],[-97.05366,47.94708],[-97.0519,47.95437],[-97.05092,47.99019],[-97.07256,48.05208],[-97.1071,48.10647],[-97.1337,48.14376],[-97.14141,48.19075],[-97.13764,48.19617],[-97.13797,48.20444],[-97.13473,48.20633],[-97.11169,48.29616],[-97.1211,48.41781],[-97.12565,48.52043],[-97.14929,48.566],[-97.10828,48.63059],[-97.08927,48.68573],[-97.1322,48.74013],[-97.15456,48.80877],[-97.17577,48.8761],[-97.22804,48.95666],[-97.22502,48.96034],[-97.22476,48.9632],[-97.22605,48.96527],[-97.22834,48.96676],[-97.23616,48.96838],[-97.23507,48.97174],[-97.23536,48.98218],[-97.23468,48.9841],[-97.23225,48.98668],[-97.22533,48.99024],[-97.22395,48.99196],[-97.22407,48.99546],[-97.22754,48.99766],[-97.22616,48.99874],[-97.22562,49.00041],[-97.2261,49.0021],[-97.22745,49.00323],[-97.22775,49.01671],[-97.24986993695572,49.01666715533255],[-97.24987,49.01667],[-95.18458,49.02067],[-95.18433,49.40714]]]}}
