{"type":"Feature","properties":{"sourceId":"us/louisiana"},"geometry":{"type":"Polygon","coordinates":[[[-93.84131,29.6869],[-93.87365,29.73181],[-93.89557,29.74154],[-93.89787,29.76419],[-93.93021,29.7862],[-93.93291,29.81053],[-93.9194,29.82893],[-93.86649,29.86125],[-93.8423,29.88596],[-93.79065,29.99393],[-93.74454,30.02399],[-93.73626,30.04144],[-93.72365,30.05716],[-93.7047,30.05974],[-93.72446,30.07652],[-93.73184,30.08111],[-93.73456,30.08575],[-93.7341,30.08882],[-93.73275,30.09024],[-93.72995,30.09035],[-93.72811,30.08839],[-93.72528,30.08323],[-93.72349,30.08826],[-93.72513,30.09264],[-93.72409,30.09599],[-93.71634,30.10192],[-93.71396,30.10939],[-93.70929,30.11216],[-93.70845,30.1224],[-93.70279,30.12446],[-93.70297,30.13568],[-93.69949,30.14388],[-93.71406,30.1447],[-93.70683,30.1665],[-93.72595,30.20981],[-93.71043,30.24314],[-93.71168,30.28074],[-93.74196,30.3],[-93.77082,30.33313],[-93.76132,30.35724],[-93.76169,30.39337],[-93.70281,30.44165],[-93.72147,30.49257],[-93.7184,30.51507],[-93.74521,30.54023],[-93.73341,30.54837],[-93.73126,30.57772],[-93.71495,30.59281],[-93.68558,30.59873],[-93.68757,30.64301],[-93.65807,30.67411],[-93.63378,30.68322],[-93.61457,30.72386],[-93.62368,30.74406],[-93.59718,30.76757],[-93.58824,30.79969],[-93.56584,30.81066],[-93.55871,30.83325],[-93.57005,30.8838],[-93.5559,30.9217],[-93.53306,30.92517],[-93.53564,30.9528],[-93.56762,30.9759],[-93.57677,30.98876],[-93.56883,31.0087],[-93.5407,31.01013],[-93.51859,31.02495],[-93.53396,31.05523],[-93.5246,31.06493],[-93.53849,31.07531],[-93.55092,31.08597],[-93.55309,31.09897],[-93.54596,31.11599],[-93.54561,31.15161],[-93.53477,31.18432],[-93.54909,31.18596],[-93.56005,31.18199],[-93.57252,31.1708],[-93.58527,31.16384],[-93.60456,31.17353],[-93.62343,31.26918],[-93.64209,31.26789],[-93.67221,31.29399],[-93.69154,31.30336],[-93.66798,31.3577],[-93.67539,31.39729],[-93.70675,31.41131],[-93.70231,31.4377],[-93.75055,31.46841],[-93.75093,31.481],[-93.73852,31.48596],[-93.72704,31.50422],[-93.74961,31.523],[-93.78249,31.52405],[-93.79853,31.53279],[-93.81898,31.55375],[-93.83965,31.58457],[-93.84019,31.6047],[-93.82008,31.64844],[-93.82849,31.66696],[-93.80749,31.69372],[-93.83542,31.74431],[-93.82829,31.7723],[-93.84339,31.79478],[-93.87867,31.81855],[-93.87981,31.83811],[-93.90604,31.88659],[-93.931,31.89087],[-93.93558,31.90119],[-93.97392,31.92036],[-94.01734,31.98795],[-94.04346,31.99126],[-94.04376,32.50855],[-94.04366031269838,33.01864992243969],[-93.49565,33.01804],[-93.32618,33.01774],[-93.07538,33.01656],[-92.68238,33.01364],[-92.22285,33.00408],[-91.58412,33.00577],[-91.17115972358098,33.0038237518073],[-91.17356,32.99432],[-91.20603,32.96393],[-91.21892,32.93135],[-91.21554,32.91655],[-91.17654,32.89513],[-91.14655,32.84874],[-91.1664,32.81407],[-91.16638,32.743],[-91.05963,32.72078],[-91.06757,32.70645],[-91.12085,32.67835],[-91.15576,32.64489],[-91.1562,32.61485],[-91.14459,32.59358],[-91.11935,32.57982],[-91.10209,32.54745],[-91.12141,32.50185],[-91.12077,32.48162],[-91.09793,32.45448],[-91.05394,32.43355],[-91.02946,32.42854],[-90.99844,32.40632],[-91.00748,32.35911],[-90.98823,32.34701],[-90.91393,32.3347],[-90.90618,32.32441],[-90.9492,32.28839],[-90.96271,32.30166],[-90.98333,32.29688],[-90.98795,32.26973],[-90.9754,32.25432],[-90.99125,32.22014],[-91.0398,32.24729],[-91.05353,32.24177],[-91.0618,32.22523],[-91.08519,32.23123],[-91.11147,32.2124],[-91.13484,32.21827],[-91.16774,32.20039],[-91.17947,32.15411],[-91.16431,32.12792],[-91.11156,32.12004],[-91.08552,32.08074],[-91.08438,32.05266],[-91.10126,32.05468],[-91.13779,32.08652],[-91.16478,32.07259],[-91.15916,32.04855],[-91.09068,32.0301],[-91.08383,32.01523],[-91.10597,31.99505],[-91.16598,31.9873],[-91.18842,31.96902],[-91.19821,31.93548],[-91.18808,31.91986],[-91.23794,31.88091],[-91.27215,31.86496],[-91.2913,31.86469],[-91.33501,31.85812],[-91.34716,31.84966],[-91.3698,31.76514],[-91.37503,31.74677],[-91.40283,31.71026],[-91.4048,31.62412],[-91.43558,31.61754],[-91.47186,31.62973],[-91.49711,31.65034],[-91.51952,31.63329],[-91.5212,31.60994],[-91.49275,31.5872],[-91.46987,31.58305],[-91.42288,31.59204],[-91.40924,31.58717],[-91.41034,31.5774],[-91.41482,31.56567],[-91.43925,31.54904],[-91.45181,31.54434],[-91.47964,31.53563],[-91.51491,31.53699],[-91.52723,31.52381],[-91.52001,31.50765],[-91.51806,31.44267],[-91.5432,31.43768],[-91.56832,31.42734],[-91.58106,31.41193],[-91.58328,31.39831],[-91.57275,31.37438],[-91.55317,31.38042],[-91.55317,31.34455],[-91.51314,31.31271],[-91.51959,31.28131],[-91.56462,31.26662],[-91.63871,31.27257],[-91.65857,31.25783],[-91.64803,31.23102],[-91.6049,31.20478],[-91.59392,31.1883],[-91.6013,31.16616],[-91.62871,31.13592],[-91.63059,31.11494],[-91.57093,31.06641],[-91.56496,31.05386],[-91.58129,31.02815],[-91.63878,30.99905],[-91.38981,30.99884],[-90.57162,30.9996],[-89.75427,31.00157],[-89.74599,30.99508],[-89.73901,30.99982],[-89.73508,30.98159],[-89.7615,30.94265],[-89.77788,30.89981],[-89.78408,30.87412],[-89.78869,30.85719],[-89.79578,30.83164],[-89.80259,30.82394],[-89.8217,30.79252],[-89.83204,30.76795],[-89.82654,30.73791],[-89.83592,30.73718],[-89.83918,30.73162],[-89.83394,30.72177],[-89.84852,30.70556],[-89.83855,30.69173],[-89.85345,30.66127],[-89.82379,30.6446],[-89.82465,30.59399],[-89.81009,30.58832],[-89.81173,30.56965],[-89.79598,30.54624],[-89.77895,30.54193],[-89.76849,30.5143],[-89.755,30.50191],[-89.72542,30.49095],[-89.71616,30.4767],[-89.70267,30.46462],[-89.69476,30.46174],[-89.68466,30.45204],[-89.68523,30.43882],[-89.68502,30.40703],[-89.65754,30.35598],[-89.63262,30.33979],[-89.63452,30.32131],[-89.6295,30.31266],[-89.64202,30.30676],[-89.64882,30.28999],[-89.63538,30.27696],[-89.63606,30.25432],[-89.61456,30.2423],[-89.61887,30.22586],[-89.57322,30.17819],[-89.52723,30.11013],[-88.77388189203977,30.065285510922795],[-88.66684,28.15773],[-93.83972,28.14452],[-93.84131,29.6869]]]}}
