{"type":"Feature","properties":{"sourceId":"us/kansas"},"geometry":{"type":"Polygon","coordinates":[[[-102.05348839924446,40.00029],[-102.0529,40.00029],[-95.34029646148522,40.00015069039347],[-95.34141760963608,40.000713229493456],[-95.34141760963607,40.000713229493456],[-95.30466,39.98227],[-95.27174,39.96699],[-95.25182,39.94608],[-95.20173,39.90313],[-95.14301,39.8799],[-95.12882,39.87124],[-95.08514,39.85889],[-95.03727,39.86258],[-95.00002,39.89221],[-94.94117,39.89263],[-94.94531,39.8618],[-94.94234,39.85039],[-94.91763,39.83322],[-94.88367,39.81714],[-94.93436,39.7888],[-94.93795,39.77421],[-94.91225,39.75634],[-94.87042,39.76994],[-94.86364,39.76211],[-94.86555,39.74456],[-94.87716,39.73311],[-94.89941,39.72705],[-94.94785,39.74846],[-94.96714,39.74145],[-94.9742,39.72924],[-95.01657,39.67698],[-95.02976,39.66758],[-95.05781,39.62583],[-95.05192,39.59107],[-95.08971,39.58402],[-95.10828,39.5776],[-95.11606,39.55941],[-95.11212,39.54126],[-95.08452,39.51432],[-95.04975,39.4735],[-95.03941,39.46137],[-94.97501,39.41952],[-94.94369,39.387],[-94.92341,39.38151],[-94.90095,39.38988],[-94.88717,39.38763],[-94.88386,39.37217],[-94.90402,39.36297],[-94.91284,39.35355],[-94.90813,39.31087],[-94.88878,39.28403],[-94.83382,39.25437],[-94.83802,39.22022],[-94.82771,39.20933],[-94.81287,39.20313],[-94.74277,39.16732],[-94.71377,39.16769],[-94.67534,39.17812],[-94.66317,39.15728],[-94.64408,39.1521],[-94.60741,39.1592],[-94.59278,39.15419],[-94.59122,39.13884],[-94.60773,39.12141],[-94.61249,38.6192],[-94.62098,37.72216],[-94.61957955311834,37.002071396680236],[-94.62316712547079,36.99940937553824],[-96.50236,37.00208],[-102.0371,36.99746],[-102.0434206231403,36.99751098431975],[-102.05348839924446,40.00029]]]}}
