{"type":"Feature","properties":{"sourceId":"us/alaska"},"geometry":{"type":"Polygon","coordinates":[[[-170.9065687394185,64.51516910643906],[-168.7253,65.41487],[-168.6841,65.99009],[-168.99881103404678,67.5958468066469],[-169.1147,71.19564],[-140.9715,72.98845],[-140.97285152879837,70.13271244742901],[-141.2389,70.16293],[-141.0678,60.2442],[-139.3842,60.10331],[-139.2278,59.99885],[-139.22776089982912,59.99884968267788],[-137.4746,58.82791],[-136.6068,59.11254],[-135.4944,59.75501],[-135.0302,59.28833],[-134.2831,58.83223],[-133.4976,58.36716],[-132.4292,57.09001],[-131.9238,56.60184],[-130.2402,56.02909],[-130.1435,55.27452],[-130.7734,54.75597],[-132.4355,54.71514],[-134.5711,54.38827],[-141.7761,53.58405],[-140.5305626395227,52.88638086799923],[-180.0,49.8089],[-180.0,60.09775],[-170.9065687394185,64.51516910643906]]]}}
