{"type":"Feature","properties":{"sourceId":"us/vermont"},"geometry":{"type":"Polygon","coordinates":[[[-72.64092,45.01724],[-72.09933,45.00732],[-71.50344,45.01529],[-71.50412,45.01528],[-71.5027,45.01316],[-71.50467,45.00877],[-71.50951,45.00795],[-71.52959,45.0006],[-71.53721,44.99398],[-71.54215,44.98435],[-71.52399,44.96773],[-71.52472,44.96391],[-71.51812,44.96198],[-71.52116,44.94948],[-71.52446,44.9394],[-71.51789,44.93415],[-71.51722,44.92601],[-71.50497,44.91712],[-71.50149,44.90629],[-71.51526,44.89565],[-71.51392,44.89027],[-71.52421,44.88086],[-71.52978,44.87901],[-71.53387,44.8718],[-71.54656,44.86773],[-71.55117,44.86312],[-71.54986,44.85625],[-71.55783,44.84859],[-71.55284,44.83814],[-71.55869,44.83538],[-71.56317,44.82529],[-71.57414,44.82246],[-71.57878,44.81582],[-71.57806,44.81153],[-71.5707,44.80644],[-71.57479,44.79981],[-71.57453,44.79207],[-71.58038,44.78655],[-71.59565,44.78253],[-71.59732,44.77645],[-71.61258,44.76666],[-71.61718,44.75839],[-71.63144,44.75497],[-71.63429,44.75187],[-71.63341,44.74754],[-71.62792,44.74456],[-71.62767,44.72723],[-71.62013,44.72619],[-71.61997,44.72233],[-71.60074,44.70354],[-71.60203,44.69966],[-71.59607,44.68297],[-71.59873,44.67771],[-71.58984,44.66998],[-71.58753,44.6639],[-71.58926,44.65881],[-71.57702,44.64855],[-71.56813,44.64849],[-71.56017,44.64252],[-71.56643,44.63783],[-71.55772,44.63104],[-71.55822,44.61747],[-71.55523,44.60715],[-71.56288,44.60442],[-71.56357,44.60027],[-71.55744,44.59849],[-71.55343,44.58571],[-71.55648,44.57905],[-71.5496,44.57173],[-71.55868,44.57179],[-71.56071,44.56434],[-71.59087,44.56626],[-71.59847,44.56027],[-71.59974,44.55354],[-71.57357,44.53751],[-71.59238,44.52426],[-71.59581,44.52168],[-71.58849,44.50829],[-71.59168,44.50316],[-71.59529,44.50203],[-71.61735,44.48772],[-71.63233,44.48582],[-71.64677,44.47641],[-71.65017,44.46613],[-71.65536,44.46059],[-71.66222,44.4421],[-71.66678,44.43876],[-71.67993,44.43685],[-71.68152,44.43399],[-71.67702,44.42844],[-71.68382,44.42922],[-71.68614,44.42513],[-71.70765,44.41286],[-71.72523,44.4118],[-71.73738,44.41056],[-71.74437,44.40142],[-71.75428,44.40614],[-71.76241,44.40843],[-71.77669,44.40129],[-71.79348,44.40024],[-71.8046,44.39215],[-71.80159,44.38544],[-71.81601,44.38255],[-71.81797,44.36713],[-71.81325,44.35614],[-71.83335,44.35052],[-71.87025,44.33777],[-71.90713,44.3493],[-71.91704,44.34752],[-71.93124,44.33793],[-71.98141,44.3378],[-71.98462,44.33652],[-71.9878,44.33082],[-72.01587,44.32102],[-72.02975,44.3227],[-72.03384,44.32005],[-72.03432,44.30309],[-72.03944,44.29788],[-72.06027,44.28732],[-72.06949,44.27113],[-72.06706,44.2675],[-72.06174,44.26773],[-72.06336,44.26339],[-72.06131,44.25582],[-72.0484,44.23968],[-72.05458,44.22507],[-72.05299,44.21824],[-72.06045,44.2101],[-72.05835,44.20487],[-72.06471,44.19805],[-72.06651,44.18974],[-72.05955,44.18123],[-72.05236,44.16647],[-72.04703,44.16114],[-72.0452,44.16123],[-72.04379,44.1565],[-72.04018,44.15605],[-72.04325,44.15232],[-72.04255,44.12981],[-72.04576,44.12627],[-72.05435,44.12071],[-72.05702,44.11034],[-72.05355,44.09921],[-72.04878,44.09514],[-72.043,44.09516],[-72.04405,44.0905],[-72.04698,44.08732],[-72.0436,44.08094],[-72.05404,44.07753],[-72.05379,44.07354],[-72.04997,44.0702],[-72.05829,44.05974],[-72.06943,44.05842],[-72.07044,44.05349],[-72.06483,44.05091],[-72.07972,44.04434],[-72.08107,44.04014],[-72.0826,44.02951],[-72.09084,44.02603],[-72.09518,44.02468],[-72.09736,44.01691],[-72.10718,44.01335],[-72.10542,44.00354],[-72.11817,43.99558],[-72.11849,43.9919],[-72.11374,43.98579],[-72.11582,43.96715],[-72.10234,43.96361],[-72.10065,43.95811],[-72.10583,43.95189],[-72.1201,43.94688],[-72.11861,43.93395],[-72.12172,43.9207],[-72.1512,43.90373],[-72.15857,43.8959],[-72.16086,43.88897],[-72.17319,43.88629],[-72.17526,43.87934],[-72.17,43.87004],[-72.1859,43.86531],[-72.18973,43.85515],[-72.18469,43.84408],[-72.18416,43.83419],[-72.19065,43.82121],[-72.18571,43.80682],[-72.19241,43.80142],[-72.19744,43.79207],[-72.20695,43.78553],[-72.20709,43.77179],[-72.21968,43.76673],[-72.23507,43.74742],[-72.26484,43.73557],[-72.27216,43.73525],[-72.27682,43.72837],[-72.30088,43.70735],[-72.3068,43.69565],[-72.30772,43.68325],[-72.30434,43.67895],[-72.30483,43.66926],[-72.31517,43.65766],[-72.31613,43.64276],[-72.33065,43.63631],[-72.32949,43.63021],[-72.33648,43.61836],[-72.33481,43.60977],[-72.3301,43.60648],[-72.32979,43.60204],[-72.35046,43.58933],[-72.37325,43.58147],[-72.38188,43.57385],[-72.38159,43.56735],[-72.38468,43.56359],[-72.38232,43.54088],[-72.38885,43.53085],[-72.39575,43.52822],[-72.40057,43.5126],[-72.39866,43.50798],[-72.3863,43.49948],[-72.38255,43.49321],[-72.38316,43.48043],[-72.38434,43.47623],[-72.39423,43.46726],[-72.39205,43.45118],[-72.39745,43.43796],[-72.40509,43.39224],[-72.41466,43.38461],[-72.41772,43.3772],[-72.41685,43.3651],[-72.41376,43.36099],[-72.40336,43.35607],[-72.40193,43.34721],[-72.41222,43.3315],[-72.39696,43.3132],[-72.40439,43.30303],[-72.40968,43.28453],[-72.41743,43.27123],[-72.42258,43.26474],[-72.43745,43.25833],[-72.4402,43.253],[-72.44116,43.24391],[-72.43588,43.23176],[-72.44273,43.21839],[-72.43992,43.20316],[-72.45215,43.19305],[-72.44566,43.17976],[-72.45432,43.1735],[-72.45381,43.15368],[-72.4583,43.14757],[-72.45279,43.13845],[-72.44763,43.13673],[-72.44176,43.13664],[-72.44109,43.13413],[-72.44286,43.132],[-72.44305,43.1294],[-72.43362,43.12006],[-72.43346,43.11332],[-72.44621,43.10268],[-72.43609,43.08588],[-72.43674,43.08233],[-72.46954,43.05286],[-72.46766,43.04669],[-72.46214,43.04149],[-72.46416,43.02507],[-72.4591,43.01695],[-72.4449,43.00803],[-72.4502,43.00184],[-72.45913,43.00251],[-72.46375,42.99861],[-72.46711,42.98946],[-72.46339,42.98338],[-72.47457,42.97359],[-72.48196,42.97561],[-72.49335,42.96913],[-72.51875,42.96479],[-72.53539,42.9532],[-72.53572,42.94811],[-72.52859,42.94094],[-72.52613,42.91576],[-72.5319,42.91179],[-72.53269,42.89824],[-72.54205,42.88959],[-72.5541,42.88589],[-72.55711,42.8747],[-72.55598,42.86071],[-72.5588,42.85351],[-72.54895,42.83892],[-72.54713,42.82554],[-72.54212,42.80677],[-72.51075,42.77967],[-72.51072,42.77595],[-72.51802,42.76982],[-72.5154,42.76414],[-72.50988,42.76322],[-72.49861,42.76742],[-72.49696,42.77182],[-72.49156,42.77136],[-72.47835,42.75978],[-72.47455,42.74486],[-72.45878,42.72527],[-72.45464102434798,42.72515165084102],[-72.45462,42.72498],[-73.2778,42.74492],[-73.29264,42.8021],[-73.28564,42.8138],[-73.28876,42.82],[-73.287,42.83462],[-73.28028,42.83561],[-73.25819,43.25934],[-73.2494,43.52314],[-73.2432,43.53368],[-73.25178,43.54301],[-73.25034,43.55301],[-73.25984,43.56372],[-73.27001,43.57037],[-73.28066,43.57282],[-73.2961,43.57813],[-73.29482,43.58441],[-73.29862,43.58738],[-73.29446,43.59425],[-73.29393,43.60209],[-73.32356,43.62591],[-73.3683,43.61863],[-73.37403,43.61248],[-73.37086,43.60431],[-73.38174,43.59573],[-73.38176,43.57623],[-73.39538,43.56643],[-73.4063,43.56962],[-73.42128,43.57996],[-73.42942,43.58248],[-73.43293,43.58825],[-73.42341,43.6035],[-73.42535,43.61279],[-73.41942,43.62148],[-73.42953,43.63391],[-73.42797,43.64339],[-73.41712,43.65312],[-73.40576,43.68183],[-73.40623,43.69104],[-73.39674,43.69803],[-73.38724,43.71236],[-73.37937,43.71727],[-73.37218,43.72614],[-73.37125,43.74503],[-73.35234,43.77136],[-73.35905,43.78499],[-73.37754,43.79754],[-73.38215,43.80988],[-73.39407,43.82015],[-73.38966,43.83354],[-73.37407,43.84552],[-73.38374,43.85492],[-73.37578,43.87524],[-73.39738,43.90225],[-73.40914,43.93143],[-73.40849,43.96684],[-73.41431,43.98],[-73.41026,44.00315],[-73.41209,44.02579],[-73.43697,44.03932],[-73.43943,44.04516],[-73.41741,44.13322],[-73.40396,44.14652],[-73.39855,44.17421],[-73.39204,44.19177],[-73.36542,44.21171],[-73.35126,44.23137],[-73.34423,44.23942],[-73.33085,44.24592],[-73.31704,44.26706],[-73.32588,44.30964],[-73.3368,44.36253],[-73.31045,44.49333],[-73.37584,44.57456],[-73.38415,44.58976],[-73.39191,44.61808],[-73.38962,44.63307],[-73.36724,44.70002],[-73.36718,44.7423],[-73.34855,44.77383],[-73.35589,44.82008],[-73.38614,44.83524],[-73.38138,44.85771],[-73.33992,44.96433],[-73.35434,44.97977],[-73.35499,44.99083],[-73.34766,45.01394],[-73.0632,45.01919],[-72.64092,45.01724]]]}}
