{"type":"Feature","properties":{"sourceId":"us/pennsylvania"},"geometry":{"type":"Polygon","coordinates":[[[-79.95073,42.51471],[-79.76001,42.51649],[-79.7607,42.26924],[-79.76121,41.99952],[-79.47247,41.99896],[-79.17857,42.00016],[-79.09324,42.00055],[-78.98306,41.99965],[-78.87476,41.99826],[-78.59666,42.00058],[-78.2712,41.99967],[-78.12472,42.00115],[-77.50494,42.00167],[-76.92078,42.00247],[-76.75118,42.00441],[-76.34372,41.99905],[-75.98265,42.00096],[-75.74164,41.99956],[-75.35913,42.00103],[-75.33986,41.99379],[-75.33536,41.98642],[-75.32703,41.96894],[-75.31949,41.96129],[-75.29334,41.95519],[-75.29076,41.95268],[-75.2785,41.93928],[-75.2649,41.90599],[-75.25827,41.88418],[-75.2367,41.86952],[-75.2033,41.87199],[-75.17404,41.87455],[-75.13739,41.85339],[-75.1125,41.84584],[-75.06838,41.81425],[-75.07387,41.79614],[-75.05653,41.76478],[-75.04975,41.75054],[-75.04314,41.71585],[-75.03988,41.61557],[-75.0131,41.54514],[-74.98426,41.50948],[-74.93551,41.48479],[-74.91234,41.47759],[-74.8865,41.45308],[-74.8617,41.44633],[-74.80805,41.4453],[-74.77518,41.42754],[-74.74617,41.43224],[-74.7357,41.43308],[-74.71476,41.39445],[-74.70566,41.37971],[-74.68899,41.36831],[-74.68761,41.36146],[-74.69410045089421,41.357118609512995],[-74.69624,41.35807],[-74.72112,41.34806],[-74.75351,41.34677],[-74.75637,41.34553],[-74.76092,41.34069],[-74.7641,41.33196],[-74.76716,41.3291],[-74.78167,41.32492],[-74.78928,41.32396],[-74.79241,41.3231],[-74.79544,41.32098],[-74.7965,41.31835],[-74.79304,41.3138],[-74.80718,41.30378],[-74.82223,41.29445],[-74.83058,41.28767],[-74.83893,41.2777],[-74.84175,41.27132],[-74.84698,41.26332],[-74.84719,41.26142],[-74.85636,41.2507],[-74.85775,41.24934],[-74.86227,41.24194],[-74.86681,41.23244],[-74.8681,41.22782],[-74.86726,41.22631],[-74.86132,41.22181],[-74.861,41.21782],[-74.86787,41.20914],[-74.87465,41.19887],[-74.87889,41.19082],[-74.90182,41.16414],[-74.90243,41.16166],[-74.9236,41.13871],[-74.94538,41.12968],[-74.9483,41.12667],[-74.94808,41.12458],[-74.9484,41.12409],[-74.96942,41.11456],[-74.97302,41.11402],[-74.98025,41.11101],[-74.98281,41.1086],[-74.9924,41.09242],[-74.9925,41.08901],[-74.99518,41.07717],[-75.0001,41.07445],[-75.00666,41.06824],[-75.01159,41.06805],[-75.01312,41.06672],[-75.01589,41.06154],[-75.01971,41.05343],[-75.0263,41.04685],[-75.02707,41.0444],[-75.03478,41.0374],[-75.04104,41.03236],[-75.06553,41.02212],[-75.08128,41.01752],[-75.09009,41.01518],[-75.09987,41.00824],[-75.11014,41.00429],[-75.12377,40.99674],[-75.12765,40.99449],[-75.13113,40.99152],[-75.1323,40.98905],[-75.13223,40.98499],[-75.13277,40.98278],[-75.1337,40.98052],[-75.13621,40.97701],[-75.13618,40.97356],[-75.13438,40.97061],[-75.13146,40.96858],[-75.12906,40.96828],[-75.1228,40.9694],[-75.12103,40.96789],[-75.12051,40.9665],[-75.12133,40.96386],[-75.11957,40.95614],[-75.11837,40.95268],[-75.11221,40.94763],[-75.10681,40.93941],[-75.10613,40.93595],[-75.09606,40.92369],[-75.07965,40.91376],[-75.07855,40.91234],[-75.07722,40.90964],[-75.07522,40.89994],[-75.07605,40.89558],[-75.07557,40.89393],[-75.07406,40.89172],[-75.06242,40.8821],[-75.05851,40.87726],[-75.05259,40.8717],[-75.05121,40.86779],[-75.05192,40.86468],[-75.06175,40.85675],[-75.06469,40.84842],[-75.06622,40.84795],[-75.07213,40.84775],[-75.07673,40.85057],[-75.09108,40.8496],[-75.09578,40.84737],[-75.09759,40.8445],[-75.09772,40.84155],[-75.09717,40.83888],[-75.09535,40.83653],[-75.08569,40.82966],[-75.08397,40.82731],[-75.08364,40.82589],[-75.09059,40.81569],[-75.09654,40.81271],[-75.09886,40.81044],[-75.10062,40.80731],[-75.10098,40.80528],[-75.10073,40.80074],[-75.10122,40.79951],[-75.10877,40.79115],[-75.11103,40.79028],[-75.11701,40.79003],[-75.12347,40.78733],[-75.12644,40.78442],[-75.132,40.7764],[-75.13368,40.77474],[-75.13452,40.77446],[-75.13908,40.77431],[-75.15182,40.77583],[-75.16364,40.77909],[-75.16964,40.77916],[-75.17182,40.7784],[-75.17392,40.77653],[-75.17625,40.77323],[-75.17753,40.76892],[-75.17815,40.76448],[-75.17954,40.76241],[-75.18336,40.75997],[-75.19216,40.75643],[-75.1971,40.75205],[-75.19755,40.74997],[-75.19698,40.74689],[-75.19595,40.74512],[-75.18628,40.73677],[-75.18343,40.7333],[-75.18281,40.7315],[-75.18314,40.73024],[-75.18671,40.72525],[-75.18714,40.72097],[-75.18781,40.71951],[-75.19299,40.71646],[-75.19505,40.71433],[-75.19935,40.70561],[-75.20153,40.6993],[-75.20429,40.6941],[-75.20462,40.69158],[-75.20149,40.6851],[-75.19723,40.68067],[-75.19065,40.67868],[-75.18453,40.67927],[-75.18079,40.67869],[-75.17815,40.67724],[-75.17753,40.67566],[-75.17814,40.6729],[-75.1832,40.66654],[-75.18832,40.6644],[-75.19138,40.66239],[-75.19721,40.65558],[-75.20114,40.64935],[-75.20096,40.6464],[-75.19397,40.64175],[-75.19288,40.64043],[-75.1914,40.63676],[-75.18929,40.62465],[-75.18993,40.62183],[-75.19106,40.62059],[-75.19812,40.61999],[-75.20109,40.61894],[-75.2025,40.61732],[-75.20194,40.61426],[-75.19907,40.61108],[-75.19645,40.60632],[-75.19295,40.60236],[-75.19133,40.59305],[-75.19008,40.59085],[-75.19032,40.58798],[-75.19467,40.58331],[-75.19587,40.58057],[-75.19619,40.57851],[-75.19467,40.57566],[-75.18871,40.57001],[-75.18519,40.56767],[-75.17756,40.56486],[-75.17048,40.56347],[-75.1623,40.56349],[-75.15876,40.5642],[-75.14807,40.57141],[-75.14423,40.5734],[-75.14002,40.57468],[-75.13508,40.57496],[-75.11574,40.57219],[-75.10018,40.56679],[-75.09636,40.56401],[-75.09257,40.56001],[-75.07848,40.54733],[-75.07556,40.54502],[-75.07078,40.54289],[-75.06873,40.54117],[-75.06774,40.5383],[-75.0658,40.52632],[-75.06638,40.52167],[-75.06551,40.50887],[-75.06554,40.50348],[-75.06399,40.49956],[-75.06328,40.49404],[-75.06337,40.48052],[-75.06535,40.47691],[-75.06839,40.47386],[-75.06872,40.47138],[-75.06771,40.46545],[-75.06882,40.46243],[-75.07094,40.45902],[-75.07137,40.45671],[-75.06663,40.44512],[-75.06626,40.44169],[-75.06487,40.43812],[-75.06505,40.43618],[-75.06307,40.43046],[-75.0625,40.42388],[-75.06134,40.42106],[-75.05911,40.41774],[-75.05795,40.41672],[-75.05507,40.4154],[-75.04586,40.41306],[-75.04272,40.41043],[-75.03601,40.40692],[-75.03476,40.40545],[-75.03206,40.40417],[-75.02878,40.40329],[-75.02578,40.40278],[-75.02293,40.403],[-75.00735,40.4069],[-75.00392,40.40684],[-74.99977,40.40911],[-74.99591,40.40969],[-74.98871,40.40786],[-74.9834,40.40395],[-74.97762,40.40138],[-74.96901,40.39875],[-74.967,40.39761],[-74.96457,40.39484],[-74.96208,40.38857],[-74.95639,40.37968],[-74.94955,40.36478],[-74.94779,40.36],[-74.94651,40.35493],[-74.94606,40.34875],[-74.94518,40.34484],[-74.94344,40.34114],[-74.94023,40.33754],[-74.93353,40.33254],[-74.9272,40.32882],[-74.91783,40.32184],[-74.90867,40.31631],[-74.90336,40.31491],[-74.89658,40.31442],[-74.89192,40.31238],[-74.88104,40.30505],[-74.86872,40.29472],[-74.8611,40.28423],[-74.85713,40.27709],[-74.85371,40.26935],[-74.84861,40.26135],[-74.84272,40.24994],[-74.83655,40.24555],[-74.82424,40.24088],[-74.81975,40.23785],[-74.7956,40.22877],[-74.78156,40.22091],[-74.77121,40.21441],[-74.76749,40.20732],[-74.7612,40.19853],[-74.76015,40.19662],[-74.75754,40.18911],[-74.75624,40.18641],[-74.75483,40.18475],[-74.7524,40.18339],[-74.75195,40.18265],[-74.74435,40.18035],[-74.7376,40.17702],[-74.73431,40.17403],[-74.72247,40.15782],[-74.72499,40.14687],[-74.73218,40.14247],[-74.74149,40.1358],[-74.74511,40.13509],[-74.75423,40.13567],[-74.75994,40.13447],[-74.7659,40.13178],[-74.78188,40.12208],[-74.78432,40.12116],[-74.78819,40.12127],[-74.79926,40.12338],[-74.81535,40.12838],[-74.81961,40.1283],[-74.82286,40.12746],[-74.82606,40.12532],[-74.83001,40.11954],[-74.83373,40.11229],[-74.83493,40.10672],[-74.83642,40.1039],[-74.83866,40.10156],[-74.84252,40.09913],[-74.85314,40.09504],[-74.85503,40.09383],[-74.85816,40.09067],[-74.8603,40.08571],[-74.86216,40.08404],[-74.86445,40.08307],[-74.8777,40.08064],[-74.88621,40.07763],[-74.90521,40.07352],[-74.92419,40.07193],[-74.93943,40.06759],[-74.97586,40.04865],[-75.01981,40.01912],[-75.02765,40.01776],[-75.05039,40.01017],[-75.06517,39.98755],[-75.07164,39.98109],[-75.09647,39.97467],[-75.11728,39.96748],[-75.13111,39.95908],[-75.13427,39.95503],[-75.13593,39.95078],[-75.13808,39.93153],[-75.12896,39.91304],[-75.12923,39.90922],[-75.13074,39.90256],[-75.13198,39.89948],[-75.13526,39.89504],[-75.13784,39.89042],[-75.14049,39.88878],[-75.14408,39.88563],[-75.14752,39.88461],[-75.15072,39.8842],[-75.1629,39.88335],[-75.18143,39.88282],[-75.18897,39.8815],[-75.1951,39.87832],[-75.20024,39.87382],[-75.20444,39.87181],[-75.22147,39.86171],[-75.23537,39.85725],[-75.24368,39.85527],[-75.27135,39.85013],[-75.2932,39.84949],[-75.30973,39.85087],[-75.32335,39.8505],[-75.33068,39.84967],[-75.34198,39.84673],[-75.35486,39.84045],[-75.37232,39.82813],[-75.39101,39.81585],[-75.40414,39.80809],[-75.41326531079584,39.80372642751793],[-75.44715,39.82172],[-75.47942,39.83102],[-75.5389,39.84262],[-75.5916,39.8415],[-75.63847,39.83372],[-75.67589,39.82093],[-75.72842,39.79165],[-75.78266,39.72686],[-75.78929,39.72684],[-75.78929002372298,39.726834863973686],[-76.69753,39.72343],[-77.46941,39.72221],[-77.88963,39.72409],[-78.33012,39.7262],[-79.4781,39.72594],[-79.47956,39.72594],[-80.50802,39.73002],[-80.5163,40.64636],[-80.5164053589197,40.646318601122],[-80.51674,41.2276],[-80.5052234761974,42.33454469548958],[-79.95073,42.51471]]]}}
