{"type":"Feature","properties":{"sourceId":"us/oklahoma"},"geometry":{"type":"Polygon","coordinates":[[[-94.61485804133639,36.51582487398622],[-94.62217,36.51577],[-94.61814,36.48008],[-94.5828,36.24857],[-94.43639,35.3948],[-94.43891,35.3874],[-94.43682,35.36288],[-94.46253,34.64313],[-94.49079,33.63697],[-94.48684,33.63296],[-94.48264614255548,33.63089562633552],[-94.55452,33.61348],[-94.72378,33.68464],[-94.8666,33.73862],[-95.05646,33.86471],[-95.20889,33.94792],[-95.24837,33.8821],[-95.27756,33.86586],[-95.40218,33.85616],[-95.55325,33.87498],[-95.63358,33.8992],[-95.76267,33.83934],[-95.83848,33.8328],[-95.89829,33.85844],[-96.11011,33.82708],[-96.16676,33.7606],[-96.35319,33.67778],[-96.42906,33.7683],[-96.49395,33.76944],[-96.51661,33.77544],[-96.5276,33.81938],[-96.57566,33.81453],[-96.63574,33.84362],[-96.62167,33.88695],[-96.65256,33.90234],[-96.68106,33.85046],[-96.70887,33.82223],[-96.77032,33.81994],[-96.82114,33.867],[-96.8359,33.85245],[-96.85272,33.84333],[-96.87744,33.85103],[-96.95229,33.93681],[-97.06627,33.71977],[-97.14043,33.70778],[-97.20463,33.75689],[-97.2139,33.8898],[-97.24754,33.85987],[-97.35878,33.81709],[-97.44839,33.81652],[-97.58778,33.8898],[-97.65163,33.96842],[-97.86621,33.83848],[-97.99942,33.89265],[-98.09435,34.00158],[-98.2037,34.11053],[-98.3539,34.14775],[-98.40008,34.08181],[-98.48385,34.06005],[-98.50624,34.07019],[-98.53025,34.09278],[-98.58427,34.13454],[-98.64744,34.14775],[-98.73396,34.10782],[-98.90511,34.14761],[-99.04655,34.19363],[-99.19762,34.20726],[-99.28963,34.3783],[-99.4376,34.35903],[-99.61441,34.35648],[-99.71466,34.37461],[-99.84306,34.49425],[-100.0046,34.55725],[-100.0034,36.4967],[-103.0068,36.49639],[-103.0068,36.50325],[-103.0047,36.50329],[-103.0076,36.92536],[-103.0078,37.00529],[-102.0371,36.99746],[-96.50236,37.00208],[-94.61657,36.9994],[-94.61485804133639,36.51582487398622]]]}}
