{"type":"Feature","properties":{"sourceId":"us-midwest"},"geometry":{"type":"MultiPolygon","coordinates":[[[[-89.50298992313827,48.007302162308356],[-89.4912,48.00922],[-89.48884677639664,48.00843239353932],[-89.53969220131417,47.93087788579513],[-89.50298992313827,48.007302162308356]]],[[[-89.69871435638504,47.68832145172169],[-89.9505558903064,47.304187653557996],[-90.41271096421853,47.3864186653313],[-89.69871435638504,47.68832145172169]]],[[[-87.5205200251121,41.76138768605025],[-87.52052,41.7614],[-87.53237620289772,42.49122506108031],[-87.26672725546976,42.49134999290178],[-87.20922789226049,41.76266804894714],[-87.5205200251121,41.76138768605025]]],[[[-92.00691,46.70784],[-92.01294913232572,46.70760738156967],[-92.00347,46.71379],[-91.94191433879341,46.73981789065449],[-92.00691,46.70784]]],[[[-94.62316712547079,36.99940937553824],[-94.61957955311834,37.002071396680236],[-94.61957436602097,36.999404269669974],[-94.62316712547079,36.99940937553824]]]]}}
