{"type":"Feature","properties":{"sourceId":"us/iowa"},"geometry":{"type":"Polygon","coordinates":[[[-91.49378,40.39241],[-91.52676,40.40867],[-91.52952,40.42034],[-91.53662,40.43841],[-91.55328,40.45583],[-91.57645,40.4632],[-91.59291,40.4901],[-91.62389,40.50846],[-91.62235,40.5388],[-91.69029,40.55484],[-91.69456,40.56491],[-91.68884,40.57912],[-91.71855,40.59611],[-91.73058,40.61058],[-92.68663,40.58681],[-94.29474,40.56834],[-94.63207,40.56819],[-95.76709,40.5848],[-95.76802,40.58705],[-95.75526,40.59504],[-95.75166,40.60301],[-95.77156,40.61983],[-95.82409,40.66448],[-95.84473,40.6752],[-95.85487,40.70025],[-95.88503,40.71522],[-95.89176,40.73091],[-95.8809,40.75543],[-95.84834,40.81133],[-95.8515,40.86178],[-95.84572,40.87176],[-95.83881,40.91981],[-95.84266,40.93207],[-95.86981,40.99998],[-95.87246,41.00976],[-95.88176,41.05134],[-95.88537,41.05989],[-95.86563,41.08859],[-95.86887,41.11727],[-95.88473,41.14257],[-95.88623,41.15611],[-95.87322,41.17082],[-95.91501,41.18213],[-95.92891,41.19502],[-95.92777,41.21203],[-95.915,41.22526],[-95.91313,41.23828],[-95.92367,41.26095],[-95.91955,41.27309],[-95.9313,41.28355],[-95.92913,41.2994],[-95.91797,41.30272],[-95.90301,41.30124],[-95.90436,41.29097],[-95.91039,41.27972],[-95.90221,41.27674],[-95.88029,41.28559],[-95.87387,41.2975],[-95.88113,41.31233],[-95.89739,41.31818],[-95.92702,41.31951],[-95.94858,41.33162],[-95.95947,41.34436],[-95.95694,41.35399],[-95.94044,41.39363],[-95.93273,41.41157],[-95.9361,41.43006],[-95.96298,41.45988],[-96.01402,41.47425],[-96.02194,41.49057],[-96.04078,41.50408],[-96.05527,41.50631],[-96.07466,41.52247],[-96.09008,41.52824],[-96.09699,41.5385],[-96.09648,41.55914],[-96.11119,41.59447],[-96.12034,41.60887],[-96.11879,41.62315],[-96.1236,41.67639],[-96.1244,41.68869],[-96.11286,41.70064],[-96.10457,41.72575],[-96.1094,41.73826],[-96.10463,41.74869],[-96.08243,41.75964],[-96.10993,41.81881],[-96.14437,41.86697],[-96.16466,41.90105],[-96.14756,41.94192],[-96.1877,41.97478],[-96.23779,41.99372],[-96.24463,41.99941],[-96.24478,42.0079],[-96.26166,42.03602],[-96.27395,42.04336],[-96.28234,42.07049],[-96.31171,42.13],[-96.34468,42.15855],[-96.3525,42.171],[-96.36276,42.21135],[-96.35778,42.21794],[-96.33293,42.23954],[-96.33173,42.25366],[-96.3681,42.28396],[-96.40962,42.33489],[-96.42067,42.35061],[-96.41997,42.36231],[-96.41797,42.39321],[-96.41468,42.40994],[-96.38927,42.43242],[-96.38206,42.4474],[-96.38597,42.47149],[-96.39701,42.48382],[-96.4154,42.48733],[-96.47882,42.49168],[-96.47671,42.50317],[-96.49087,42.51207],[-96.49597,42.5174],[-96.48218,42.52657],[-96.47996,42.55312],[-96.50059,42.55657],[-96.50118,42.57258],[-96.52866,42.60608],[-96.53442,42.61413],[-96.5327,42.61952],[-96.52028,42.62287],[-96.51895,42.62882],[-96.56037,42.65511],[-96.61119,42.69175],[-96.63247,42.70352],[-96.6426,42.7363],[-96.63505,42.76053],[-96.63465,42.77251],[-96.62102,42.78662],[-96.59886,42.81598],[-96.58361,42.83975],[-96.57047,42.84002],[-96.55747,42.84732],[-96.55247,42.87134],[-96.54542,42.90219],[-96.54116,42.91135],[-96.54456,42.92346],[-96.51185,42.94725],[-96.51775,42.97051],[-96.52372,42.98094],[-96.51522,42.9872],[-96.51191,42.99743],[-96.49871,43.0011],[-96.51341,43.02292],[-96.51919,43.03791],[-96.52117,43.04329],[-96.51145,43.05267],[-96.47823,43.06508],[-96.4628,43.06643],[-96.46484,43.08758],[-96.46561,43.09261],[-96.44051,43.1191],[-96.45057,43.13759],[-96.4604,43.14303],[-96.47144,43.15087],[-96.47676,43.18858],[-96.47933,43.21171],[-96.4782,43.21867],[-96.49601,43.2203],[-96.50834,43.21648],[-96.52224,43.21722],[-96.53454,43.22395],[-96.56045,43.22032],[-96.57444,43.23907],[-96.56718,43.24685],[-96.55481,43.25005],[-96.55582,43.25626],[-96.58791,43.26755],[-96.58904,43.27568],[-96.58083,43.27947],[-96.58191,43.28899],[-96.59019,43.29322],[-96.58881,43.2974],[-96.57471,43.29965],[-96.54706,43.29704],[-96.53186,43.30739],[-96.53812,43.33649],[-96.53576,43.34421],[-96.53399,43.36865],[-96.52461,43.38563],[-96.54584,43.3933],[-96.54977,43.40046],[-96.597,43.43272],[-96.60478,43.44758],[-96.60422,43.45646],[-96.59266,43.4678],[-96.58706,43.46748],[-96.58722,43.47366],[-96.58922,43.48843],[-96.60147,43.49334],[-96.60194,43.50182],[-91.2157,43.50171],[-91.2131,43.48054],[-91.23034,43.45545],[-91.19746,43.41348],[-91.19603,43.38915],[-91.2035,43.37343],[-91.21188,43.36711],[-91.13174,43.33083],[-91.1058,43.31628],[-91.07133,43.27657],[-91.05857,43.26183],[-91.05495,43.25583],[-91.06427,43.23718],[-91.11967,43.19552],[-91.14414,43.15023],[-91.17311,43.13242],[-91.1763,43.0678],[-91.15357,42.97886],[-91.1425,42.95885],[-91.14687,42.94178],[-91.14083,42.92329],[-91.14275,42.90904],[-91.09793,42.88451],[-91.09032,42.84549],[-91.07491,42.8359],[-91.07513,42.80701],[-91.0668,42.77119],[-91.05727,42.76206],[-91.06265,42.75373],[-91.05411,42.7494],[-91.05145,42.74045],[-91.03401,42.73999],[-91.02511,42.72675],[-90.9987,42.71883],[-90.97621,42.69942],[-90.94835,42.68845],[-90.92025,42.68827],[-90.88679,42.6754],[-90.69704,42.64157],[-90.66108,42.56927],[-90.63958,42.54296],[-90.63402,42.51245],[-90.63663544657314,42.50940431859236],[-90.6411,42.50941],[-90.65944,42.4899],[-90.65676,42.47727],[-90.64874,42.46968],[-90.55683,42.41375],[-90.47854,42.38103],[-90.4501,42.35517],[-90.42124,42.32644],[-90.41903,42.32248],[-90.43266,42.28087],[-90.41995,42.25386],[-90.38607,42.22047],[-90.35666,42.20443],[-90.31791,42.19357],[-90.27504,42.17478],[-90.25021,42.17076],[-90.21207,42.1533],[-90.20204,42.13011],[-90.19327,42.12514],[-90.17121,42.12473],[-90.16439,42.11646],[-90.16203,42.10462],[-90.16948,42.07567],[-90.16501,42.04114],[-90.14156,42.00047],[-90.16501,41.95825],[-90.16559,41.94593],[-90.15258,41.9307],[-90.15435,41.90618],[-90.17101,41.8761],[-90.18456,41.83893],[-90.18388,41.81016],[-90.27997,41.77004],[-90.31282,41.74435],[-90.33482,41.68142],[-90.34465,41.6473],[-90.34129,41.60148],[-90.34374,41.58842],[-90.38332,41.57748],[-90.41433,41.56709],[-90.46247,41.52362],[-90.50236,41.51911],[-90.53978,41.52691],[-90.5564,41.52505],[-90.5689,41.5179],[-90.59178,41.51358],[-90.60304,41.50701],[-90.60476,41.49938],[-90.65242,41.46589],[-90.74052,41.45075],[-90.84708,41.4581],[-90.89291,41.4369],[-90.93019,41.42446],[-90.98008,41.43594],[-91.02543,41.42589],[-91.04846,41.41564],[-91.05275,41.39111],[-91.06946,41.36583],[-91.08134,41.307],[-91.11671,41.25165],[-91.11653,41.24057],[-91.04276,41.16503],[-90.99682,41.15825],[-90.94944,41.0954],[-90.95017,41.07192],[-90.94653,41.00975],[-90.95953,40.97905],[-90.95446,40.95104],[-91.01136,40.90295],[-91.09279,40.82361],[-91.09918,40.8078],[-91.09218,40.78512],[-91.09687,40.76868],[-91.11333,40.74629],[-91.11873,40.72529],[-91.12578,40.67154],[-91.25332,40.64095],[-91.30711,40.62917],[-91.34088,40.61625],[-91.36176,40.60414],[-91.38192,40.5766],[-91.42133,40.54541],[-91.38871,40.53023],[-91.36716,40.4994],[-91.36783,40.48489],[-91.38476,40.44281],[-91.37333,40.40058],[-91.37667,40.39192],[-91.3854,40.38676],[-91.41501,40.38271],[-91.42470815626571,40.37727588903119],[-91.44029,40.38294],[-91.45144,40.37268],[-91.46394,40.37266],[-91.48379,40.37944],[-91.49378,40.39241]]]}}
