{"type":"Feature","properties":{"sourceId":"ukraine"},"geometry":{"type":"Polygon","coordinates":[[[31.85863,52.11389],[31.90601,52.10461],[32.07012,52.03792],[32.30942,52.1613],[32.32315,52.28664],[32.35199,52.33786],[32.4052,52.34142],[32.55077,52.32863],[32.72346,52.2648],[32.83195,52.28244],[32.97272,52.28202],[33.13957,52.3865],[33.19691,52.38126],[33.30677,52.35757],[33.37578,52.37392],[33.51894,52.36072],[33.83267,52.3752],[33.92647,52.30932],[34.05212,52.2055],[34.12216,52.13939],[34.10637,52.02504],[34.43046,51.82984],[34.44832,51.72745],[34.40231,51.71044],[34.12628,51.67639],[34.24782,51.58347],[34.3206,51.52455],[34.27631,51.39835],[34.35596,51.36192],[34.24507,51.26535],[34.26361,51.2574],[34.38171,51.27631],[34.66495,51.25332],[34.71027,51.18171],[34.97841,51.23849],[35.1178,51.23613],[35.15406,51.22413],[35.20741,51.0524],[35.30971,51.08455],[35.37872,51.07053],[35.41649,51.04355],[35.41202,51.02607],[35.3389,50.95302],[35.39589,50.92576],[35.40653,50.91169],[35.43606,50.79617],[35.49271,50.78185],[35.49854,50.6784],[35.49236,50.64968],[35.41202,50.59043],[35.48653,50.49115],[35.58231,50.46275],[35.59193,50.44548],[35.62179,50.36123],[35.73578,50.35992],[35.78831,50.41946],[35.83225,50.43673],[35.89096,50.44176],[36.08494,50.45444],[36.16768,50.43324],[36.24252,50.36518],[36.28681,50.33889],[36.30947,50.30118],[36.43169,50.33363],[36.58482,50.28912],[36.62258,50.22942],[36.68884,50.27135],[36.86119,50.34064],[36.93535,50.35291],[37.15473,50.36605],[37.32708,50.44002],[37.47745,50.46297],[37.49874,50.46078],[37.47745,50.37853],[37.64397,50.31763],[37.63813,50.19822],[37.64637,50.19207],[37.64259,50.17888],[37.77031,50.09724],[37.92583,50.04391],[37.96841,49.98346],[38.00789,49.97021],[38.05355,49.9278],[38.21148,49.97927],[38.17989,50.02208],[38.17303,50.08248],[38.3023,50.09246],[38.33358,50.08701],[38.37635,50.0029],[38.43376,50.00417],[38.64338,49.97353],[38.68149,50.01127],[38.70209,50.00752],[38.72337,49.98324],[38.74329,49.90171],[38.90636,49.87406],[38.92181,49.85923],[38.93349,49.80631],[39.02618,49.82625],[39.1872,49.89751],[39.23218,49.84197],[39.28917,49.75909],[39.46804,49.76441],[39.61498,49.73624],[39.63249,49.67163],[39.6912,49.61182],[39.75197,49.6007],[39.88964,49.5633],[39.94663,49.59914],[40.12637999541189,49.619874951537376],[39.99011,49.54666],[39.99489,49.54761],[39.98036,49.44172],[40.1341,49.31827],[39.89786,49.11549],[39.62763,49.06151],[39.64642,48.95187],[39.75439,48.87157],[39.65966,48.74513],[39.61548,48.58986],[39.66738,48.53953],[39.80232,48.52768],[39.79789,48.45847],[39.85571,48.39424],[39.79521,48.35044],[39.79541,48.28809],[39.8875,48.22399],[39.73231,48.06436],[39.76046,47.97173],[39.71582,47.88397],[38.87402,47.9262],[38.74584,47.84248],[38.72452,47.75158],[38.32055,47.6572],[38.2375,47.56339],[38.24691,47.42509],[38.17056,47.33226],[38.17948,47.11301],[38.23594,46.98468],[38.11227,46.91138],[37.62322,46.88217],[37.41553,46.76322],[37.00015,46.18517],[36.66199,45.63138],[36.66210024190131,45.629711544185476],[36.40147,45.71506],[36.33254,45.72272],[35.99696,45.67179],[35.78323,45.6953],[35.5479,45.57771],[35.25239,45.8388],[34.95522,45.81513],[34.86024,45.85082],[34.834,45.94033],[34.64487,46.03539],[34.56099,46.04619],[34.48616,45.99791],[34.35945,46.10523],[33.64373,46.28118],[33.57107,46.24987],[33.57418,46.17282],[33.50204,46.05619],[32.76382,45.87799],[32.29008,45.63796],[32.15053,45.4186],[32.24215,45.18556],[32.58196,45.06437],[32.81426,45.08492],[33.1961,44.89718],[33.18807,44.79736],[33.04632,44.63244],[33.08447,44.45073],[33.28842,44.28003],[33.73338,44.13411],[34.25741,44.18416],[34.56984,44.35196],[34.75216,44.53336],[35.19419,44.54824],[35.63792,44.77878],[35.86723,44.74156],[36.3213,44.7814],[36.58723,44.86916],[36.60314744023904,44.91556139405477],[36.60491,44.87499],[36.62697,44.88227],[36.65503225969659,44.87961930048466],[36.66137,44.85587],[33.81591,44.00862],[30.224789425176127,44.95717446319882],[30.27896,45.00665],[29.96098,45.19214],[29.70992,45.22089],[29.67304,45.33767],[29.61021,45.38736],[29.55425,45.41291],[29.4334,45.44929],[29.32217,45.45242],[29.28097,45.4305],[29.24355,45.44159],[28.95412,45.33115],[28.93009,45.28697],[28.87138,45.32053],[28.84495,45.32198],[28.81302,45.34249],[28.77731,45.33429],[28.69938,45.23549],[28.34816,45.32753],[28.29597,45.39893],[28.291,45.43339],[28.28156,45.45182],[28.2383,45.46808],[28.222487301439383,45.47034102085403],[28.25992,45.5126],[28.30627,45.54411],[28.41682,45.51044],[28.41648,45.48132],[28.52291,45.49528],[28.49648,45.56863],[28.54866,45.5768],[28.51776,45.71817],[28.59432,45.72488],[28.60531,45.75938],[28.71551,45.77662],[28.70109,45.81444],[28.79139,45.82904],[28.78452,45.96905],[28.98502,46.00054],[29.01112,46.05155],[28.95893,46.09323],[29.0736,46.19433],[28.9603,46.26131],[29.00974,46.31635],[28.94211,46.45418],[29.03034,46.46128],[29.04339,46.50383],[29.2202,46.51139],[29.20303,46.38389],[29.23943,46.37204],[29.2741,46.39454],[29.32972,46.41088],[29.31976,46.44708],[29.35513,46.48799],[29.39529,46.41632],[29.4492,46.49461],[29.48936,46.42555],[29.5752,46.35901],[29.60266,46.34954],[29.683,46.35688],[29.67167,46.40899],[29.77158,46.44661],[29.79561,46.38483],[29.89414,46.34859],[30.02306,46.38175],[30.05894,46.39407],[30.09687,46.3692],[30.19249,46.4194],[29.9477,46.55296],[29.97757,46.59072],[29.95251,46.64731],[29.9786,46.68454],[29.97173,46.72221],[29.981,46.75445],[29.958,46.79348],[29.98478,46.82003],[29.958,46.84517],[29.88659,46.88906],[29.75166,46.87099],[29.73415,46.9301],[29.60163,46.97112],[29.63322,47.0451],[29.61562,47.10221],[29.52644,47.09303],[29.52284,47.12785],[29.58567,47.13427],[29.55464,47.24996],[29.6018,47.2543],[29.57777,47.3715],[29.48421,47.36371],[29.47546,47.31322],[29.40027,47.3024],[29.40233,47.35383],[29.39392,47.38034],[29.32165,47.45096],[29.24114,47.46384],[29.19565,47.43169],[29.19205,47.52369],[29.15153,47.51094],[29.12235,47.55313],[29.18552,47.56796],[29.24011,47.6337],[29.23548,47.68538],[29.20887,47.71993],[29.25127,47.75006],[29.28148,47.80416],[29.24724,47.81338],[29.21934,47.79949],[29.202,47.81961],[29.22638,47.8498],[29.27513,47.87514],[29.28783,47.89195],[29.20132,47.90299],[29.18037,47.99659],[29.12544,47.99624],[29.08854,47.98636],[29.05335,47.94521],[28.96116,47.98153],[28.92374,47.9659],[28.90486,48.01278],[28.8525,48.03425],[28.86263,48.12932],[28.75362,48.14192],[28.72616,48.13173],[28.68238,48.14856],[28.57681,48.1852],[28.50403,48.15337],[28.47193,48.07728],[28.4273,48.12073],[28.42463,48.12846],[28.44266,48.14169],[28.43871,48.17095],[28.41382,48.17959],[28.38936,48.17896],[28.37339,48.17576],[28.3594,48.1457],[28.34138,48.13596],[28.31383,48.13711],[28.30739,48.14158],[28.30996,48.14971],[28.30902,48.15326],[28.32078,48.16506],[28.35854,48.18085],[28.37322,48.20717],[28.37159,48.22799],[28.36158,48.24377],[28.3528,48.248],[28.34327,48.24885],[28.33065,48.24257],[28.32344,48.23468],[28.31786,48.23519],[28.31005,48.244],[28.30301,48.24354],[28.26387,48.2281],[28.20671,48.20683],[28.18748,48.21998],[28.1904,48.25577],[28.14131,48.26743],[28.13307,48.24754],[28.09708,48.23491],[28.08394,48.24701],[28.09856,48.29564],[28.07793,48.31975],[28.04775,48.32818],[28.02097,48.32818],[27.97943,48.32658],[27.9602,48.32864],[27.9039,48.3575],[27.88639,48.37267],[27.88382,48.39274],[27.88004,48.40015],[27.87558,48.40642],[27.85858,48.41405],[27.82305,48.42043],[27.81687,48.4292],[27.79163,48.44674],[27.75404,48.46017],[27.73567,48.45812],[27.65945,48.44275],[27.59302,48.46302],[27.60847,48.48646],[27.59869,48.49397],[27.58221,48.49329],[27.49208,48.45972],[27.46307,48.4497],[27.44831,48.41747],[27.38256,48.41336],[27.37656,48.44264],[27.35544,48.45255],[27.31665,48.44537],[27.29433,48.40949],[27.28472,48.37666],[27.19374,48.39707],[27.12524,48.38054],[27.08473,48.43649],[27.01023,48.42601],[27.01057,48.41975],[27.04233,48.39468],[26.96011,48.36754],[26.92989,48.3737],[26.89728,48.38373],[26.90294,48.39809],[26.89041,48.41223],[26.87136,48.42282],[26.77437,48.41997],[26.72424,48.41348],[26.7057,48.40664],[26.76218,48.35294],[26.7948,48.34142],[26.82123,48.34153],[26.81282,48.29553],[26.78192,48.29987],[26.75892,48.32453],[26.69077,48.36515],[26.67807,48.35956],[26.6379,48.29073],[26.61232,48.2736],[26.624469365880678,48.26279974003164],[26.58863,48.25006],[26.55052,48.22879],[26.45954,48.21735],[26.43791,48.20683],[26.37543,48.20271],[26.32702,48.18646],[26.26213,48.0868],[26.20892,48.0533],[26.18351,48.00807],[25.86559,47.97384],[25.62904,47.95314],[25.30907,47.91749],[25.23079,47.89977],[25.09964,47.76102],[24.89811,47.73471],[24.83047,47.83044],[24.70962,47.85786],[24.63203,47.95452],[24.57058,47.97636],[24.42947,47.97407],[24.31446,47.92785],[24.19876,47.91761],[24.16443,47.92175],[24.15979,47.91738],[24.11241,47.91801],[24.10109,47.93791],[24.06263,47.95521],[24.00959,47.96935],[23.97251,47.97062],[23.94281,47.962],[23.93732,47.95108],[23.87844,47.94544],[23.86076,47.9367],[23.81056,48.00979],[23.53314,48.04445],[23.47724,48.00003],[23.31847,48.06995],[23.27812,48.12222],[23.15137,48.14049],[23.09438,48.10136],[23.0676,48.03576],[22.91374,48.03919],[22.90126,47.9857],[22.881462791104703,47.9765953066115],[22.85105,47.98877],[22.8883,48.02908],[22.88796,48.05537],[22.86495,48.07567],[22.8344,48.09723],[22.8344,48.11018],[22.82324,48.12416],[22.74822,48.12519],[22.70642,48.11362],[22.67578,48.09574],[22.6236,48.10651],[22.60403,48.1103],[22.60403,48.14375],[22.57502,48.19756],[22.52506,48.23839],[22.49159,48.25748],[22.45537,48.24617],[22.43614,48.2552],[22.40147,48.25417],[22.38567,48.24091],[22.35031,48.276],[22.32422,48.35602],[22.26585,48.36674],[22.25933,48.38749],[22.2686,48.41302],[22.20715,48.42897],[22.16114,48.41849],[22.152062200414502,48.41143793939283],[22.14271,48.41727],[22.1659,48.56596],[22.19363,48.60431],[22.24378,48.62393],[22.25466,48.64311],[22.35369,48.68469],[22.39241,48.79852],[22.38819,48.86298],[22.42493,48.88135],[22.43653,48.91881],[22.49099,48.98554],[22.54964,49.00396],[22.56760816149835,49.07748568241299],[22.58708,49.07926],[22.67411,49.02486],[22.77135,49.03473],[22.84886,48.98642],[22.90651,49.00343],[22.88824,49.06214],[22.9038,49.10512],[22.83978,49.12953],[22.75207,49.1992],[22.76123,49.36705],[22.71177,49.50075],[22.66827,49.52388],[22.80987,49.6752],[22.97194,49.79268],[22.98236,49.82352],[23.29601,50.08574],[23.55359,50.23626],[23.55359031876828,50.236762378808244],[23.55406,50.23654],[23.69628,50.31965],[23.73125,50.37196],[24.00306,50.39743],[24.0454,50.43354],[24.10563,50.55474],[24.11362,50.63976],[24.08414,50.73048],[24.03779,50.73725],[24.03628,50.77575],[23.98052,50.79937],[24.00293,50.82387],[24.10375,50.82078],[24.16102,50.86387],[24.1508,50.88422],[24.01115,50.9397],[23.94221,51.02821],[23.92402,51.08361],[23.87817,51.10977],[23.88023,51.16154],[23.75838,51.22762],[23.70142,51.30577],[23.65868,51.31562],[23.69945,51.35995],[23.71817,51.42267],[23.67929,51.49534],[23.674070781909037,51.498641434069576],[23.6812,51.50426],[23.6697,51.58411],[23.61752,51.6178],[23.71468,51.64785],[23.78059,51.66084],[23.78506,51.63592],[23.87913,51.63677],[23.87054,51.59072],[23.99826,51.576],[24.08237,51.61844],[24.27189,51.71129],[24.32751,51.74935],[24.34673,51.84956],[24.56234,51.88518],[24.73709,51.87755],[24.9345,51.88815],[25.22427,51.95569],[25.40932,51.91547],[25.70492,51.91314],[25.77324,51.91801],[25.79899,51.92479],[25.92911,51.91103],[25.97134,51.91717],[26.10214,51.89726],[26.15501,51.85614],[26.26831,51.86632],[26.45851,51.79651],[26.54675,51.79036],[26.68922,51.81668],[26.7905,51.75233],[26.95084,51.73298],[27.18223,51.75552],[27.21382,51.5984],[27.49706,51.58347],[27.7216,51.59947],[27.65362,51.5128],[27.76897,51.45957],[27.85892,51.54527],[27.84039,51.59883],[27.89635,51.6097],[27.94132,51.54804],[28.10234,51.56341],[28.21289,51.64679],[28.36086,51.52904],[28.44704,51.57046],[28.62625,51.57003],[28.67981,51.43304],[28.77388,51.4067],[28.81645,51.54377],[29.01009,51.57109],[29.14364,51.64295],[29.32079,51.37285],[29.50004,51.39065],[29.88762,51.43903],[30.13687,51.4848],[30.49324,51.23441],[30.62782,51.27781],[30.65735,51.33619],[30.67383,51.36428],[30.59898,51.5442],[30.58216,51.6438],[30.62748,51.70767],[30.7037,51.83196],[30.80635,51.89493],[30.89493,51.96796],[30.9454,52.01363],[30.96668,52.07233],[31.1174,52.09027],[31.15654,52.07613],[31.20358,52.06832],[31.21971,52.03327],[31.30451,52.05038],[31.39995,52.12105],[31.71959,52.09237],[31.79993,52.11241],[31.799210107256282,52.11626613002351],[31.85863,52.11389]]]}}
