{"type":"Feature","properties":{"sourceId":"uzbekistan"},"geometry":{"type":"Polygon","coordinates":[[[62.15515,43.68774],[65.0473,43.78894],[65.66722,43.3153],[65.85754,42.88804],[66.14456,42.97652],[66.11937,42.34055],[66.02366,41.95208],[66.57028,41.90534],[66.78039,41.18899],[67.73835,41.21688],[68.11661,41.12695],[68.13618,41.03379],[68.10768,40.93634],[67.9858,40.83511],[68.07609,40.7951],[68.48568,40.59075],[68.61854,40.62933],[68.57735,40.70589],[68.55572,40.80809],[68.55915,40.92674],[68.50868,40.93841],[68.48774,40.98612],[68.51555,41.02498],[68.59932,41.03819],[68.67073,41.01695],[68.79501,41.12566],[68.99963,41.24219],[69.01611,41.35375],[69.03311,41.36534],[69.11585,41.39471],[69.15413,41.39793],[69.14572,41.43205],[69.18228,41.45315],[69.25043,41.4709],[69.28202,41.4507],[69.35223,41.47515],[69.37901,41.46743],[69.39222,41.51051],[69.44389,41.57102],[69.53831,41.60158],[69.60663,41.66188],[70.34271,42.08294],[70.88111672329832,42.26394668785019],[70.88413,42.25876],[70.94022,42.2592],[71.00326,42.24377],[71.06644,42.27223],[71.22986,42.17664],[70.86113,42.06459],[70.53429,41.82762],[70.47386,41.74417],[70.19852,41.6252],[70.14633,41.51423],[70.48691,41.38763],[70.69427,41.4314],[70.77599,41.18434],[70.94627,41.16444],[71.11931,41.13807],[71.2587,41.17271],[71.26659,41.0954],[71.39774,41.09953],[71.45954,41.15462],[71.46572,41.20733],[71.464,41.28503],[71.5694,41.28942],[71.63635,41.33712],[71.65318,41.35903],[71.68236,41.41158],[71.68407,41.43012],[71.67103,41.45199],[71.60854,41.47669],[71.66828,41.48955],[71.693,41.52143],[71.72012,41.53146],[71.70982,41.49469],[71.693,41.44839],[71.69163,41.41441],[71.78879,41.41338],[71.83136,41.35723],[71.89522,41.30102],[71.84578,41.17555],[71.93882,41.14221],[72.01023,41.13885],[72.06894,41.11299],[72.13589,41.15384],[72.14447,41.12359],[72.18224,41.09876],[72.19906,41.03715],[72.1479,41.01812],[72.16833,40.98495],[72.26154,41.00154],[72.29313,41.02394],[72.33038,41.03197],[72.34754,41.05256],[72.37415,41.03171],[72.47543,40.96849],[72.54822,40.94412],[72.55852,40.86939],[72.68623,40.84239],[72.81704,40.84394],[72.8912,40.81329],[72.93703,40.79757],[72.96209,40.80147],[72.97342,40.81602],[72.98269,40.82394],[73.00793,40.83511],[73.13805,40.83381],[73.0711,40.77378],[72.99265,40.76962],[72.94304,40.7401],[72.89703,40.72202],[72.87231,40.7133],[72.84897,40.71864],[72.75627,40.6848],[72.69173,40.60249],[72.48093,40.56233],[72.41569,40.62803],[72.33398,40.60926],[72.37106,40.51067],[72.40265,40.42291],[72.25227,40.49083],[72.174,40.50284],[72.0813,40.45531],[71.94878,40.31618],[72.02431,40.28267],[71.88217,40.26957],[71.83617,40.26224],[71.72905,40.16891],[71.70914,40.2439],[71.6748,40.27848],[71.37817,40.32194],[71.2793,40.35073],[71.00326,40.33032],[70.89065,40.31933],[70.8800423891414,40.236142643970474],[70.91228,40.24756],[70.75865,40.19315],[70.71314,40.19479],[70.63385,40.18243],[70.60364,40.24023],[70.58083,40.28411],[70.56672,40.31592],[70.58887,40.33869],[70.56305,40.35811],[70.48458,40.35592],[70.42347,40.38311],[70.38123,40.39102],[70.35532,40.41153],[70.3524,40.42795],[70.33374,40.44648],[70.33859,40.45426],[70.48745,40.50037],[70.499,40.50864],[70.52467,40.54642],[70.59162,40.55998],[70.66784,40.62803],[70.70118,40.65442],[70.73874,40.65264],[70.77393,40.69053],[70.80482,40.72033],[70.80139,40.73568],[70.73135,40.81823],[70.68478,40.91387],[70.57205,41.02446],[70.44777,41.05502],[70.36812,41.0198],[70.32417,40.90573],[70.11372,40.82108],[70.10813,40.78802],[69.87432,40.72511],[69.77546,40.70011],[69.65607,40.67335],[69.63272,40.68376],[69.58671,40.71031],[69.57745,40.75376],[69.55101,40.77794],[69.49676,40.81563],[69.3718,40.7938],[69.3433,40.77846],[69.35707,40.74218],[69.31995,40.70355],[69.32991,40.65017],[69.2609,40.58163],[69.22348,40.56103],[69.19807,40.54929],[69.26043,40.4613],[69.28459,40.40225],[69.29592,40.3659],[69.32751,40.33111],[69.30141,40.28922],[69.24271,40.30955],[69.24305,40.27955],[69.24882,40.26202],[69.28322,40.24652],[69.28837,40.20222],[69.19807,40.22136],[69.16546,40.21624],[69.03877,40.23813],[68.86093,40.21454],[68.81699,40.19304],[68.78265,40.21192],[68.52447,40.15001],[68.51898,40.11431],[68.63228,40.06021],[68.68242,40.09476],[68.81761,39.88991],[68.78403,39.88603],[68.71462,39.87406],[68.62541,39.86337],[68.57391,39.72514],[68.59657,39.65593],[68.53615,39.59034],[68.40189,39.54888],[68.25625,39.56302],[68.17189,39.56831],[67.78496,39.66491],[67.70119,39.66861],[67.44163,39.58294],[67.38327,39.52682],[67.43546,39.41763],[67.45949,39.38473],[67.45811,39.32899],[67.3201,39.31411],[67.32697,39.22587],[67.60437,39.16893],[67.68539,38.99144],[67.73346,38.99037],[68.09257,39.00585],[68.05927,38.80226],[68.09189,38.73507],[68.05206,38.71927],[68.05103,38.56615],[68.0579,38.53044],[68.10562,38.46999],[68.06408,38.42401],[68.05756,38.39146],[68.14785,38.37531],[68.20519,38.33331],[68.29617,38.24789],[68.39745,38.19071],[68.36522,38.08083],[68.31674,38.04086],[68.29102,38.01916],[68.2799,37.98585],[68.27282,37.96396],[68.26595,37.92064],[68.22544,37.93905],[68.13206,37.93824],[68.03181,37.74764],[67.85362,37.63843],[67.82341,37.55057],[67.78633,37.42007],[67.79011,37.21201],[67.77535,37.18767],[67.7738318348159,37.167904373670915],[67.23858,37.16636],[67.02257,37.34188],[66.50299,37.29809],[66.48926,37.58485],[66.54063,37.97553],[65.62513,38.23587],[64.16977,38.93378],[62.48749,39.92343],[62.3996,39.99817],[62.29523,40.39781],[62.10748,40.55394],[61.9519,40.81901],[61.86868,41.06291],[61.48116,41.2743],[61.35287,41.1265],[60.47488,41.20246],[60.07227,41.40484],[60.02861,41.76261],[60.08697,41.85575],[59.89609,41.97328],[59.95748,42.20272],[59.38506,42.26753],[59.1232,42.3973],[58.762,42.63147],[58.23444,42.64244],[58.55438,42.32606],[58.58322,42.25495],[58.3786,42.258],[58.29589,42.40841],[58.0383,42.44143],[57.90499,42.17028],[57.45353,42.09666],[57.01583,41.86861],[57.17735,41.3643],[57.06825,41.24534],[55.98289,41.29769],[55.97708,45.01186],[58.59009,45.61884],[60.78735,44.73503],[62.15515,43.68774]]]}}
