{"type":"Feature","properties":{"sourceId":"us/georgia"},"geometry":{"type":"Polygon","coordinates":[[[-82.09526,30.35775],[-82.10535,30.3647],[-82.13998,30.36128],[-82.16249,30.3542],[-82.17344,30.35752],[-82.19512,30.37717],[-82.20954,30.40574],[-82.21382,30.42487],[-82.21069,30.4607],[-82.20526,30.48499],[-82.22944,30.5086],[-82.2434,30.53757],[-82.23686,30.55902],[-82.22779,30.56637],[-83.50011,30.64268],[-84.86481,30.70854],[-84.91596,30.75055],[-84.92304,30.7653],[-84.93105,30.79185],[-84.94038,30.8204],[-84.93796,30.83633],[-84.93881,30.85564],[-84.94277,30.87202],[-84.98581,30.93344],[-85.00839,30.97452],[-85.00386917384951,31.000042722928995],[-84.99969,31.00008],[-84.9967,31.01396],[-85.00712,31.04574],[-85.00998,31.0545],[-85.02444,31.08468],[-85.03417,31.10908],[-85.06253,31.1433],[-85.07555,31.15824],[-85.09155,31.16195],[-85.09868,31.16653],[-85.09686,31.18056],[-85.10116,31.18618],[-85.10586,31.18714],[-85.10535,31.20203],[-85.09714,31.21062],[-85.09507,31.22581],[-85.11071,31.26007],[-85.11022,31.27274],[-85.09819,31.28273],[-85.08812,31.29464],[-85.08208,31.31827],[-85.0825,31.32874],[-85.08426,31.35353],[-85.07597,31.39851],[-85.06424,31.43013],[-85.06421,31.48321],[-85.04344,31.51752],[-85.0396,31.54099],[-85.05359,31.57723],[-85.05428,31.60535],[-85.05882,31.60884],[-85.06074131556244,31.613911580718874],[-85.06072,31.61857],[-85.06316013173753,31.620296383775667],[-85.07658,31.65572],[-85.10387,31.69078],[-85.13128,31.79195],[-85.12963,31.81749],[-85.12842,31.84337],[-85.11082,31.89357],[-85.10003,31.91662],[-85.07735,31.93954],[-85.06427,31.97077],[-85.0691,31.9815],[-85.06405,31.99898],[-85.05263,32.01011],[-85.04637,32.02205],[-85.05229,32.03585],[-85.04536,32.08739],[-85.05983,32.13294],[-85.04434,32.14261],[-85.01035,32.17905],[-84.95956,32.19535],[-84.96354765822561,32.21474058867292],[-84.96280043306012,32.2155792603581],[-84.92992,32.21736],[-84.9243,32.22028],[-84.92129,32.22429],[-84.91499,32.2355],[-84.91115,32.24614],[-84.90293,32.24959],[-84.88336,32.2588],[-84.90297,32.27509],[-84.93304,32.29978],[-85.00094,32.32355],[-85.00635,32.33644],[-84.9686,32.37605],[-84.96603,32.39352],[-84.97933,32.40304],[-84.9779,32.41113],[-84.96241,32.42118],[-84.96143,32.42482],[-84.9706,32.44402],[-84.99352,32.45271],[-84.99624,32.46929],[-84.9929,32.47552],[-84.99573,32.50368],[-85.00088,32.52055],[-85.01899,32.54428],[-85.04414,32.56367],[-85.06319,32.58139],[-85.07564,32.60113],[-85.08139,32.62195],[-85.07967,32.63807],[-85.0928,32.63793],[-85.09931918894722,32.64554046511742],[-85.0986060832428,32.64672493293466],[-85.08568,32.65614],[-85.09237,32.67097],[-85.10928,32.68981],[-85.11735,32.72216],[-85.11057,32.72837],[-85.111,32.73877],[-85.13645,32.75432],[-85.1207,32.77147],[-85.12198,32.77941],[-85.14258,32.79406],[-85.16639,32.81239],[-85.16215,32.81851],[-85.16584,32.82854],[-85.15057,32.8395],[-85.15099,32.84772],[-85.16121,32.85911],[-85.17657,32.85558],[-85.18301,32.862],[-85.18275,32.87126],[-85.23071,33.1084],[-85.4278,34.12544],[-85.46879,34.3286],[-85.55975,34.75042],[-85.60403182748493,34.98382501916623],[-85.46605,34.98269],[-85.37175,34.98288],[-85.2658,34.98474],[-85.15975,34.98605],[-85.04308,34.98661],[-84.68254,34.98738],[-84.32151,34.98811],[-84.32114045900627,34.99081544565113],[-83.8627,34.99003],[-83.6231,34.98962],[-83.6202,34.99509],[-83.1089448463732,35.00353481288509],[-83.11033,35.00317],[-83.10947,34.98466],[-83.13001,34.95417],[-83.1313,34.93979],[-83.15458,34.92903],[-83.17033,34.92027],[-83.20512,34.89614],[-83.23907,34.87962],[-83.25695,34.8484],[-83.27033,34.84665],[-83.29126,34.82716],[-83.29599,34.8175],[-83.30502,34.8147],[-83.31549,34.80237],[-83.32638,34.79134],[-83.32328,34.76072],[-83.3507,34.73954],[-83.35622,34.72901],[-83.3528,34.69815],[-83.34115,34.68028],[-83.31753,34.66654],[-83.29468,34.6518],[-83.25683,34.63507],[-83.24451,34.62297],[-83.2458,34.61622],[-83.23328,34.6087],[-83.17274,34.60346],[-83.17248,34.59036],[-83.15712,34.58566],[-83.15447,34.57597],[-83.12466,34.55762],[-83.10685,34.53882],[-83.10411,34.52988],[-83.08859,34.52918],[-83.08222,34.52452],[-83.08938,34.51944],[-83.08903,34.51357],[-83.07077,34.49944],[-83.05634,34.50026],[-83.03579,34.4807],[-83.00279,34.46914],[-82.99381,34.46977],[-82.9909,34.47645],[-82.97921,34.47969],[-82.95377,34.47444],[-82.93982,34.48291],[-82.92267,34.47841],[-82.90304,34.48286],[-82.87888,34.47302],[-82.8779,34.46175],[-82.86374,34.45614],[-82.85865,34.44282],[-82.83745,34.36433],[-82.79667,34.33811],[-82.78299,34.29537],[-82.75048,34.26659],[-82.74475,34.20906],[-82.72006,34.14894],[-82.70522,34.13821],[-82.67883,34.12899],[-82.66136,34.1016],[-82.64673,34.07103],[-82.6375,34.06235],[-82.62877,34.06101],[-82.61195,34.03798],[-82.59853,34.01527],[-82.59194,33.9988],[-82.5824,33.97874],[-82.57087,33.96718],[-82.5589,33.94317],[-82.54323,33.93795],[-82.52554,33.9405],[-82.50993,33.92951],[-82.49487,33.90747],[-82.45662,33.87906],[-82.42374,33.8609],[-82.405,33.86264],[-82.3262,33.81755],[-82.30258,33.7987],[-82.30022,33.78123],[-82.28746,33.77753],[-82.25021,33.75103],[-82.23741,33.69925],[-82.20328,33.66276],[-82.19947,33.62977],[-82.1882,33.61868],[-82.15793,33.6061],[-82.14399,33.59149],[-82.12891,33.58693],[-82.108,33.59303],[-82.09522,33.58184],[-82.04811,33.56131],[-82.0236,33.53704],[-82.01294,33.52879],[-82.00316,33.51838],[-81.9937,33.50108],[-81.98969,33.48573],[-81.96611,33.47972],[-81.95258,33.47284],[-81.93416,33.46689],[-81.92877,33.46111],[-81.9164,33.43827],[-81.9296,33.42762],[-81.92265,33.41254],[-81.93994,33.40454],[-81.93427,33.38066],[-81.92795,33.37329],[-81.94388,33.37534],[-81.94917,33.37164],[-81.9473,33.36249],[-81.93765,33.35496],[-81.94285,33.34309],[-81.92127,33.33999],[-81.92102,33.3315],[-81.91051,33.32144],[-81.89963,33.32041],[-81.88516,33.30762],[-81.84989,33.26791],[-81.85472,33.24601],[-81.82928,33.22606],[-81.80629,33.20864],[-81.77525,33.17941],[-81.76561,33.15776],[-81.74583,33.13921],[-81.70572,33.11366],[-81.68448,33.1098],[-81.6474,33.09171],[-81.60086,33.06929],[-81.5584,33.04244],[-81.54018,33.03653],[-81.51315,33.0253],[-81.4944,33.00713],[-81.50225,32.96593],[-81.51143,32.9586],[-81.50305,32.94381],[-81.50528,32.93444],[-81.48572,32.91999],[-81.48191,32.87937],[-81.45548,32.87131],[-81.45634,32.84795],[-81.42662,32.81146],[-81.432,32.78519],[-81.42898,32.7672],[-81.42136,32.73362],[-81.42412,32.71295],[-81.43051,32.70176],[-81.40969,32.69084],[-81.40407,32.67786],[-81.41916,32.63825],[-81.42148,32.62835],[-81.39105,32.59297],[-81.37963,32.58605],[-81.36863,32.57456],[-81.32936,32.55829],[-81.29832,32.55999],[-81.28293,32.55388],[-81.27791,32.54369],[-81.27932,32.53337],[-81.25414,32.51561],[-81.24169,32.50844],[-81.2358,32.49647],[-81.20458,32.45246],[-81.20436,32.44262],[-81.21111,32.43734],[-81.20779,32.42241],[-81.18402,32.37986],[-81.1719,32.36763],[-81.1725,32.35948],[-81.15596,32.3435],[-81.14051,32.32735],[-81.12565,32.30594],[-81.14827,32.26514],[-81.15891,32.24077],[-81.13908,32.2118],[-81.13034,32.20634],[-81.12119,32.18851],[-81.12303,32.17723],[-81.13263,32.16555],[-81.12475,32.16024],[-81.11981,32.11607],[-81.11199,32.10913],[-81.09412,32.10822],[-81.0685,32.08781],[-81.05044,32.08232],[-81.03216,32.0825],[-81.01079,32.09734],[-81.00324,32.09719],[-80.98525,32.07749],[-80.95626,32.06617],[-80.9244,32.03662],[-80.88412,32.03172],[-80.76019814305502,32.03141442863893],[-81.28907,30.6942],[-81.47272,30.71016],[-81.48847,30.72331],[-81.53119,30.72122],[-81.5312,30.7104],[-81.53731,30.70566],[-81.56135,30.70867],[-81.59689,30.71575],[-81.61078,30.71307],[-81.61598,30.71971],[-81.64987,30.72462],[-81.65675,30.7305],[-81.69041,30.73891],[-81.7212,30.74192],[-81.73459,30.748],[-81.73571,30.75323],[-81.745,30.75802],[-81.77014,30.76141],[-81.78375,30.75867],[-81.79891,30.77893],[-81.80753,30.78709],[-81.83934,30.78359],[-81.8696,30.79011],[-81.88491,30.79828],[-81.90841,30.81276],[-81.9296,30.81464],[-81.95952,30.79546],[-81.97696,30.77373],[-82.00931,30.7858],[-82.00823,30.76281],[-82.01625,30.75231],[-82.03648,30.74841],[-82.03978,30.72792],[-82.03294,30.70594],[-82.04729,30.67522],[-82.043,30.66665],[-82.0458,30.65647],[-82.02559,30.62339],[-82.01243,30.60199],[-82.0032,30.57775],[-82.00245,30.56306],[-82.01461,30.5325],[-82.01158,30.51261],[-82.01405,30.47419],[-82.02564,30.4456],[-82.0346,30.43581],[-82.03108,30.41975],[-82.04119,30.40322],[-82.03287,30.38543],[-82.03431,30.37109],[-82.04072,30.36277],[-82.06356,30.35365],[-82.07277,30.35833],[-82.09526,30.35775]]]}}
