{"type":"Feature","properties":{"sourceId":"ustecky"},"geometry":{"type":"Polygon","coordinates":[[[13.02365,50.51506],[13.04796,50.51567],[13.06178,50.50597],[13.10085,50.50748],[13.12754,50.52355],[13.14803,50.51567],[13.18235,50.51203],[13.22285,50.59197],[13.2667,50.60346],[13.28862,50.59469],[13.29577,50.58138],[13.3134,50.58471],[13.31531,50.60921],[13.36312,50.6277],[13.3626,50.65526],[13.39537,50.65637],[13.42172,50.62372],[13.4593,50.61113],[13.53262,50.67691],[13.51356,50.7077],[13.54453,50.72037],[13.59648,50.71796],[13.65414,50.74119],[13.69453,50.72357],[13.72086,50.73727],[13.80188,50.74089],[13.83238,50.73033],[13.85144,50.73184],[13.85573,50.7442],[13.86812,50.74873],[13.88432,50.7439],[13.89624,50.75023],[13.88156,50.77032],[13.89099,50.80146],[13.93579,50.79664],[13.95676,50.81923],[14.0055,50.82587],[14.04492,50.81592],[14.22411,50.87249],[14.22649,50.89023],[14.27177,50.89955],[14.29607,50.89143],[14.33706,50.89745],[14.34754,50.90526],[14.3728,50.90316],[14.389,50.9302],[14.31323,50.94942],[14.25369,50.98522],[14.25243,51.00982],[14.27406,51.04888],[14.31132,51.06426],[14.3423,51.04749],[14.36089,51.05258],[14.39091,51.0406],[14.3952,51.02921],[14.41664,51.02471],[14.45334,51.04449],[14.51577,51.05079],[14.50957,51.02561],[14.57248,51.01782],[14.60917,50.99023],[14.59202,50.94641],[14.57153,50.92659],[14.58106,50.92028],[14.65826,50.94101],[14.66418,50.91306],[14.649150776287955,50.895295193901774],[14.63383,50.88748],[14.622365897596513,50.863634997378334],[14.61858,50.85916],[14.60367,50.84272],[14.56535,50.83885],[14.55555,50.80003],[14.527,50.79751],[14.49552,50.8113],[14.48443,50.81744],[14.44966,50.81418],[14.44166,50.81236],[14.44569,50.80551],[14.45106,50.80438],[14.4496,50.8008],[14.45269,50.79829],[14.44788,50.79594],[14.45288,50.79381],[14.45451,50.79407],[14.45652,50.79156],[14.44904,50.78814],[14.44724,50.7841],[14.45579,50.77845],[14.4308,50.77363],[14.41805,50.74884],[14.41655,50.74295],[14.40913,50.73741],[14.40282,50.72654],[14.37574,50.72102],[14.372,50.71518],[14.36469,50.69993],[14.3766,50.69148],[14.34651,50.67511],[14.34201,50.66834],[14.34225,50.6577],[14.34892,50.65572],[14.35834,50.65495],[14.35859,50.6282],[14.36621,50.61957],[14.37604,50.61557],[14.38115,50.60811],[14.37939,50.60059],[14.3908,50.59057],[14.40032,50.58892],[14.40287,50.58137],[14.40745,50.58067],[14.41471,50.56593],[14.41707,50.55718],[14.43595,50.53534],[14.43998,50.52925],[14.44664,50.528],[14.45466,50.52759],[14.45788,50.52674],[14.45981,50.52551],[14.46535,50.52581],[14.46942,50.52571],[14.46959,50.5241],[14.47406,50.51678],[14.47874,50.51313],[14.48419,50.50789],[14.484784078528294,50.5048601995057],[14.47118,50.50808],[14.47487,50.49839],[14.45681,50.49664],[14.47067,50.4799],[14.47269,50.47499],[14.47273,50.4734],[14.47112,50.47138],[14.47174,50.46884],[14.47444,50.46259],[14.47419,50.46059],[14.47264,50.45821],[14.47384,50.45469],[14.47273,50.45174],[14.47397,50.44895],[14.46075,50.4486],[14.44951,50.45283],[14.44942,50.44608],[14.44323,50.44536],[14.42639,50.45019],[14.42681,50.43963],[14.42378,50.43815],[14.42275,50.4354],[14.42286,50.42796],[14.42411,50.42115],[14.41851,50.42243],[14.41715,50.41938],[14.40531,50.42263],[14.39368,50.42542],[14.38531,50.4293],[14.37729,50.43422],[14.36411,50.42888],[14.37063,50.42221],[14.37992,50.41063],[14.37494,50.40826],[14.36561,50.40704],[14.38189,50.395],[14.37814,50.37598],[14.37273,50.35865],[14.36637,50.35022],[14.35141,50.34839],[14.32424,50.35075],[14.29527,50.34883],[14.28308,50.34957],[14.27531,50.35271],[14.24907,50.32622],[14.24476,50.33034],[14.21764,50.33856],[14.20609,50.3319],[14.19253,50.33906],[14.18542,50.34355],[14.18248,50.33302],[14.14298,50.32923],[14.07498,50.33457],[14.064,50.33957],[14.0549,50.34001],[14.04954,50.341],[14.03138,50.34001],[14.00942,50.34512],[13.99559,50.33648],[13.9839,50.33261],[13.99186,50.31815],[13.99139,50.31442],[13.99452,50.30719],[13.99126,50.30329],[13.98169,50.30179],[13.97912,50.30168],[13.96997,50.30151],[13.95611,50.30414],[13.95916,50.29165],[13.94174,50.27898],[13.92702,50.27637],[13.92517,50.27513],[13.92114,50.27324],[13.91796,50.27204],[13.91144,50.27102],[13.90986,50.27334],[13.87948,50.26877],[13.86455,50.24255],[13.83878,50.23882],[13.81457,50.2613],[13.76996,50.23098],[13.76234,50.23238],[13.76065,50.238],[13.75248,50.22241],[13.6996,50.22066],[13.67089,50.2211],[13.66903,50.22487],[13.66919,50.23632],[13.64717,50.21833],[13.63536,50.2136],[13.63429,50.20948],[13.63202,50.20792],[13.60872,50.19049],[13.58762,50.18734],[13.57466,50.18632],[13.572,50.18483],[13.56917,50.18451],[13.56848,50.1848],[13.56698,50.18583],[13.56206,50.18793],[13.53781,50.18765],[13.53567,50.18366],[13.5144,50.16757],[13.49181,50.16229],[13.49525,50.14856],[13.49319,50.12658],[13.47816,50.1248],[13.47015,50.12835],[13.47214,50.11364],[13.4645,50.10449],[13.45386,50.10376],[13.42796,50.10801],[13.42623,50.10354],[13.40606,50.08384],[13.39457,50.07964],[13.3719,50.07552],[13.35487,50.09375],[13.35268,50.09851],[13.33461,50.08617],[13.32329,50.08606],[13.32199,50.09961],[13.302421971976981,50.098696432426635],[13.30247,50.09977],[13.30049,50.10054],[13.29829,50.1134],[13.2749,50.1294],[13.24217,50.12792],[13.2426,50.13689],[13.2528,50.14326],[13.27831,50.13684],[13.2844,50.13632],[13.28479,50.14448],[13.27869,50.15001],[13.26909,50.15735],[13.28476,50.15595],[13.28829,50.16809],[13.27758,50.16923],[13.28118,50.17629],[13.27327,50.18734],[13.24751,50.20904],[13.23169,50.21528],[13.22221,50.21777],[13.25172,50.2192],[13.25773,50.22913],[13.24452,50.2333],[13.22821,50.23604],[13.24012,50.24782],[13.23559,50.27291],[13.23103,50.27371],[13.21656,50.27465],[13.22095,50.2779],[13.22149,50.28353],[13.23515,50.29615],[13.235,50.30248],[13.22816,50.30657],[13.22816,50.30659],[13.22814,50.30659],[13.22303,50.31268],[13.23628,50.32112],[13.23967,50.3252],[13.23799,50.3363],[13.23535,50.33812],[13.23084,50.33828],[13.22293,50.35246],[13.20891,50.36191],[13.16805,50.35263],[13.14881,50.35775],[13.13312,50.36026],[13.11919,50.35354],[13.1207,50.3515],[13.11703,50.35055],[13.11608,50.3486],[13.11145,50.35399],[13.09965,50.35704],[13.09774,50.35724],[13.09403,50.35619],[13.09334,50.35774],[13.09553,50.35811],[13.09671,50.35881],[13.09789,50.36023],[13.09862,50.3624],[13.09911,50.36541],[13.09984,50.36656],[13.10029,50.36769],[13.10141,50.36903],[13.10323,50.36961],[13.10542,50.36961],[13.10847,50.36965],[13.10907,50.37264],[13.09936,50.38331],[13.08283,50.38228],[13.07,50.3899],[13.04629,50.38941],[13.04212,50.38617],[13.02146,50.39605],[12.98678,50.39366],[12.97461,50.39017],[12.97009,50.39763],[12.9646,50.40111],[12.94855,50.40494],[12.94632,50.40463],[12.939662264331485,50.40688547779791],[12.939004161493754,50.409479875988524],[12.939219945287213,50.424386220440695],[13.00459,50.44592],[13.02365,50.51506]]]}}
