{"type":"Feature","properties":{"sourceId":"us/wisconsin"},"geometry":{"type":"Polygon","coordinates":[[[-91.25107,43.55054],[-91.2751,43.62116],[-91.27613,43.66688],[-91.27167,43.69667],[-91.26961,43.71281],[-91.24488,43.77344],[-91.26648,43.79483],[-91.28112,43.83914],[-91.31219,43.86626],[-91.35908,43.9173],[-91.36882,43.93537],[-91.40777,43.96427],[-91.44246,43.9924],[-91.51616,44.01835],[-91.54839,44.02146],[-91.58098,44.02618],[-91.59485,44.03176],[-91.61192,44.04667],[-91.63611,44.05979],[-91.64605,44.06205],[-91.70926,44.10148],[-91.75288,44.13201],[-91.82281,44.16406],[-91.87677,44.19907],[-91.89556,44.23021],[-91.89871,44.26156],[-91.89893,44.27302],[-91.92745,44.29084],[-91.92122,44.32115],[-91.94295,44.33846],[-91.96707,44.36269],[-91.98693,44.36809],[-92.0394,44.38803],[-92.05751,44.3999],[-92.07687,44.40342],[-92.09871,44.41086],[-92.22397,44.42636],[-92.2933,44.48353],[-92.30497,44.49911],[-92.31676,44.5366],[-92.36176,44.55594],[-92.45491,44.55889],[-92.48136,44.56525],[-92.49745,44.56582],[-92.52083,44.57427],[-92.54161,44.56592],[-92.54791,44.56658],[-92.55446,44.57107],[-92.55263,44.5799],[-92.58666,44.59712],[-92.62149,44.61227],[-92.63535,44.63499],[-92.65995,44.65833],[-92.70213,44.69295],[-92.73546,44.71534],[-92.7598,44.72387],[-92.76838,44.7294],[-92.79817,44.73978],[-92.81073,44.75108],[-92.80791,44.76981],[-92.79113,44.78988],[-92.78366,44.81375],[-92.76813,44.83877],[-92.77209,44.86196],[-92.76649,44.87378],[-92.77678,44.88902],[-92.77482,44.90383],[-92.76049,44.91085],[-92.75705,44.95034],[-92.7701,44.96917],[-92.77396,45.00062],[-92.76518,45.02731],[-92.79667,45.04817],[-92.80439,45.0605],[-92.80361,45.06885],[-92.79234,45.0795],[-92.74264,45.11208],[-92.7594,45.15804],[-92.75563,45.17254],[-92.76922,45.18726],[-92.76432,45.20638],[-92.75258,45.21755],[-92.75797,45.22925],[-92.76119,45.25118],[-92.75329,45.26174],[-92.76375,45.2851],[-92.76276,45.28947],[-92.73947,45.30049],[-92.70413,45.3285],[-92.69943,45.33799],[-92.70493,45.35566],[-92.70116,45.36149],[-92.68192,45.37177],[-92.67135,45.39148],[-92.65349,45.40071],[-92.64988,45.41282],[-92.65326,45.4189],[-92.64963,45.44103],[-92.68209,45.46199],[-92.70456,45.49115],[-92.72912,45.51272],[-92.72835,45.53898],[-92.77156,45.56424],[-92.82326,45.55793],[-92.87192,45.5647],[-92.88601,45.57352],[-92.89089,45.6395],[-92.87838,45.68981],[-92.87213,45.71817],[-92.86399,45.7249],[-92.85018,45.73144],[-92.81138,45.74676],[-92.78713,45.76606],[-92.76769,45.83178],[-92.73636,45.87001],[-92.70936,45.8974],[-92.63985,45.93699],[-92.60322,45.94372],[-92.55209,45.96993],[-92.52813,45.98605],[-92.46723,45.98631],[-92.44459,46.01807],[-92.42947,46.0271],[-92.41034,46.03024],[-92.37247,46.01563],[-92.35472,46.01554],[-92.34414,46.04296],[-92.3348,46.06503],[-92.31834,46.0702],[-92.29522,46.07457],[-92.29274,46.66852],[-92.28723,46.66835],[-92.28319,46.66011],[-92.27357,46.65747],[-92.27002,46.65156],[-92.25656,46.65948],[-92.24155,46.64984],[-92.22935,46.65339],[-92.20772,46.65288],[-92.20277,46.6565],[-92.2075,46.66668],[-92.19572,46.67739],[-92.20602,46.69767],[-92.20659,46.70344],[-92.19071,46.71801],[-92.167,46.72056],[-92.14965,46.71578],[-92.14391,46.72187],[-92.14419,46.73475],[-92.13515,46.74201],[-92.10837,46.75214],[-92.08829,46.75199],[-92.03185,46.71185],[-92.02041,46.70732],[-92.00691,46.70784],[-90.57059,47.41451],[-89.93191,47.30087],[-90.41756,46.56656],[-90.38905,46.53628],[-90.34535,46.55484],[-90.33146,46.55633],[-90.31386,46.54722],[-90.30668,46.53846],[-90.31401,46.51991],[-90.27635,46.52739],[-90.26938,46.52168],[-90.23094,46.51288],[-90.21539,46.50441],[-90.18795,46.46884],[-90.19081,46.46171],[-90.17822,46.4585],[-90.17485,46.44046],[-90.16734,46.44278],[-90.15437,46.42177],[-90.12989,46.38308],[-90.13147,46.37492],[-90.11459,46.35765],[-90.11618,46.3373],[-89.09367,46.14021],[-88.81337,46.02614],[-88.79646,46.03512],[-88.72997,46.0297],[-88.67747,46.01625],[-88.66046,45.99186],[-88.63836,45.98809],[-88.63426,45.99115],[-88.61527,46.00603],[-88.60153,46.02075],[-88.5919,46.01734],[-88.56616,46.01864],[-88.5346,46.02401],[-88.51452,46.02301],[-88.50424,46.01973],[-88.47705,46.00067],[-88.47176,46.00383],[-88.45778,46.00238],[-88.44864,45.99278],[-88.38684,45.9927],[-88.38052,45.99479],[-88.33298,45.97108],[-88.31885,45.96653],[-88.24682,45.96653],[-88.18917,45.95505],[-88.14635,45.94013],[-88.119,45.92333],[-88.10202,45.92244],[-88.09193,45.91513],[-88.10376,45.90119],[-88.09825,45.88094],[-88.08097,45.88083],[-88.06828,45.87344],[-88.07497,45.86345],[-88.07974,45.86329],[-88.10547,45.84118],[-88.13406,45.82039],[-88.12746,45.81161],[-88.10554,45.80522],[-88.09294,45.78567],[-88.07903,45.78537],[-88.0723,45.78083],[-88.04328,45.78433],[-88.04034,45.79022],[-87.98999,45.79651],[-87.97973,45.78376],[-87.97797,45.7762],[-87.96581,45.76679],[-87.96029,45.76053],[-87.92899,45.76337],[-87.90658,45.76252],[-87.87567,45.75712],[-87.8597,45.74665],[-87.86125,45.73785],[-87.80839,45.71266],[-87.80247,45.70696],[-87.78025,45.68531],[-87.77984,45.67087],[-87.81953,45.66009],[-87.82164,45.65268],[-87.77831,45.6162],[-87.77176,45.6027],[-87.77435,45.58757],[-87.78432,45.58103],[-87.78588,45.56526],[-87.80102,45.54011],[-87.79926,45.51394],[-87.79075,45.50674],[-87.78996,45.49891],[-87.81099,45.46191],[-87.85852,45.43303],[-87.84636,45.40338],[-87.85744,45.38597],[-87.83285,45.35524],[-87.79034,45.35645],[-87.72063,45.37991],[-87.69404,45.39289],[-87.68434,45.39125],[-87.65514,45.37078],[-87.64491,45.35174],[-87.64532,45.33834],[-87.66966,45.3061],[-87.69583,45.26862],[-87.70874,45.23848],[-87.72343,45.20824],[-87.73301,45.17412],[-87.68185,45.14632],[-87.67319,45.13657],[-87.67483,45.13101],[-87.66991,45.12308],[-87.65817,45.11055],[-87.62953,45.10806],[-87.59054,45.09737],[-87.44258,45.22098],[-87.105,45.46443],[-86.75118,45.46423],[-86.20021,45.25427],[-86.56383,44.94825],[-87.01155,42.49147],[-87.53237620289772,42.49122506108031],[-87.53249,42.49823],[-87.7923,42.49488],[-88.1155,42.49923],[-88.78687,42.49499],[-89.69026,42.5082],[-90.63663544657314,42.50940431859236],[-90.63402,42.51245],[-90.63958,42.54296],[-90.66108,42.56927],[-90.69704,42.64157],[-90.88679,42.6754],[-90.92025,42.68827],[-90.94835,42.68845],[-90.97621,42.69942],[-90.9987,42.71883],[-91.02511,42.72675],[-91.03401,42.73999],[-91.05145,42.74045],[-91.05411,42.7494],[-91.06265,42.75373],[-91.05727,42.76206],[-91.0668,42.77119],[-91.07513,42.80701],[-91.07491,42.8359],[-91.09032,42.84549],[-91.09793,42.88451],[-91.14275,42.90904],[-91.14083,42.92329],[-91.14687,42.94178],[-91.1425,42.95885],[-91.15357,42.97886],[-91.1763,43.0678],[-91.17311,43.13242],[-91.14414,43.15023],[-91.11967,43.19552],[-91.06427,43.23718],[-91.05495,43.25583],[-91.05857,43.26183],[-91.07133,43.27657],[-91.1058,43.31628],[-91.13174,43.33083],[-91.21188,43.36711],[-91.2035,43.37343],[-91.19603,43.38915],[-91.19746,43.41348],[-91.23034,43.45545],[-91.2131,43.48054],[-91.2157,43.50171],[-91.24732814096475,43.501710645922856],[-91.25107,43.55054]]]}}
