{"type":"Feature","properties":{"sourceId":"us/montana"},"geometry":{"type":"Polygon","coordinates":[[[-104.05299491819828,49.00168275176302],[-104.0444,45.94506],[-104.0443907598683,45.94505997190265],[-104.04172829849098,45.008593417750916],[-104.0567,45.00002],[-105.0182,45.00114],[-105.9125,45.00225],[-105.9309,44.99508],[-106.2636,44.99449],[-107.0849,44.9973],[-107.1342,45.00081],[-107.3514,45.00211],[-107.7507,45.00148],[-107.9974,45.00227],[-108.2185,45.00124],[-108.2712,45.00095],[-108.5659,45.00128],[-109.0807,45.00014],[-109.1034,45.00659],[-109.3864,45.00559],[-109.8757,45.00397],[-110.1101,45.0046],[-110.2867,44.99755],[-110.3626,45.00129],[-110.403,44.99451],[-110.4881,44.99306],[-110.7052,44.99302],[-110.785,45.00365],[-111.0558,45.00167],[-111.0576,44.86666],[-111.0559,44.62492],[-111.05443165771239,44.47933506574245],[-111.1274,44.50323],[-111.14,44.53929],[-111.1871,44.57536],[-111.22,44.62622],[-111.2931,44.70616],[-111.3214,44.72892],[-111.3855,44.7601],[-111.398,44.75536],[-111.4031,44.72609],[-111.4394,44.72552],[-111.494,44.70671],[-111.4891,44.68486],[-111.4776,44.66823],[-111.5089,44.63874],[-111.5307,44.60406],[-111.5229,44.57963],[-111.5003,44.54508],[-111.5851,44.56779],[-111.7051,44.56513],[-111.7476,44.54562],[-111.8201,44.51461],[-111.8698,44.56898],[-112.0694,44.54209],[-112.1352,44.54474],[-112.1653,44.54662],[-112.2266,44.56632],[-112.2416,44.57294],[-112.2864,44.57347],[-112.3169,44.55742],[-112.3583,44.53849],[-112.3889,44.45371],[-112.4727,44.485],[-112.7185,44.50931],[-112.7833,44.48947],[-112.8319,44.44581],[-112.8839,44.40039],[-112.949,44.42122],[-112.9994,44.45397],[-113.0155,44.53115],[-113.0389,44.5688],[-113.0505,44.61725],[-113.0444,44.62889],[-113.0632,44.68158],[-113.0981,44.73197],[-113.1279,44.77637],[-113.1923,44.80671],[-113.2469,44.82794],[-113.3412,44.79032],[-113.3516,44.8221],[-113.3742,44.83893],[-113.4205,44.84739],[-113.451,44.86871],[-113.4704,44.91364],[-113.4475,44.94875],[-113.439,44.95837],[-113.4327,45.00695],[-113.4474,45.06123],[-113.4597,45.06981],[-113.5113,45.11977],[-113.5954,45.19393],[-113.6546,45.2458],[-113.6853,45.28644],[-113.7339,45.33152],[-113.7284,45.39184],[-113.7598,45.43298],[-113.7551,45.47969],[-113.7618,45.52323],[-113.8278,45.52551],[-113.8155,45.56355],[-113.7984,45.58316],[-113.8041,45.60637],[-113.86,45.62846],[-113.896,45.65018],[-113.9305,45.68558],[-113.9881,45.70936],[-114.0232,45.69604],[-114.0709,45.63152],[-114.0861,45.61389],[-114.1815,45.55623],[-114.2509,45.55005],[-114.2739,45.48998],[-114.334,45.46437],[-114.3663,45.49718],[-114.4131,45.51422],[-114.4588,45.56598],[-114.5263,45.57576],[-114.5539,45.56863],[-114.5533,45.58346],[-114.5331,45.60685],[-114.4949,45.66753],[-114.4904,45.70372],[-114.5012,45.72552],[-114.5325,45.74305],[-114.56,45.77441],[-114.4078,45.84694],[-114.3833,45.88156],[-114.3909,45.90416],[-114.4149,45.95547],[-114.4211,45.97582],[-114.439,45.99294],[-114.4725,46.00335],[-114.4644,46.05968],[-114.4411,46.17251],[-114.4209,46.28603],[-114.4093,46.33375],[-114.4057,46.36006],[-114.3809,46.40857],[-114.3377,46.51727],[-114.3438,46.53295],[-114.3176,46.61021],[-114.3207,46.65678],[-114.3613,46.67402],[-114.4263,46.6653],[-114.456,46.65342],[-114.502,46.64783],[-114.5418,46.65709],[-114.5837,46.63997],[-114.6102,46.6424],[-114.6111,46.65875],[-114.6188,46.68911],[-114.6168,46.71034],[-114.6475,46.73754],[-114.7619,46.76201],[-114.7883,46.78341],[-114.8624,46.81847],[-114.9177,46.83207],[-114.9245,46.85771],[-114.9269,46.87525],[-114.9267,46.92335],[-114.9581,46.93444],[-114.9997,46.97663],[-115.0287,46.98065],[-115.0459,46.97481],[-115.0837,47.0484],[-115.1374,47.09707],[-115.1986,47.14374],[-115.2597,47.18623],[-115.2872,47.20909],[-115.2902,47.22289],[-115.324,47.25997],[-115.3709,47.27013],[-115.427,47.28354],[-115.4558,47.28275],[-115.5439,47.33445],[-115.5476,47.35344],[-115.5758,47.37115],[-115.6162,47.3874],[-115.6382,47.38387],[-115.6557,47.40523],[-115.7251,47.43253],[-115.7162,47.44842],[-115.6614,47.45257],[-115.648,47.47626],[-115.6834,47.48994],[-115.7039,47.51496],[-115.7073,47.53349],[-115.7428,47.54603],[-115.7315,47.5635],[-115.7035,47.57325],[-115.6845,47.59441],[-115.6905,47.62668],[-115.7306,47.65467],[-115.7194,47.69916],[-115.7506,47.72144],[-115.7761,47.7459],[-115.7948,47.76188],[-115.8426,47.78787],[-115.8405,47.81542],[-115.849,47.83174],[-115.8795,47.85423],[-115.9035,47.85034],[-115.9655,47.9177],[-115.9891,47.92872],[-116.0272,47.9769],[-116.0439,47.98004],[-116.04568316853825,48.994781776165276],[-114.1499,48.99487],[-114.0679,48.99482],[-114.06002006547907,49.00669410238922],[-104.05299491819828,49.00168275176302]]]}}
