{"type":"Feature","properties":{"sourceId":"us/new-york"},"geometry":{"type":"Polygon","coordinates":[[[-73.63363,40.96525],[-73.62475793024234,40.96655522322951],[-73.61994,40.96401],[-73.58678829023367,40.972141163997506],[-73.40721,40.99856],[-72.02124161645474,41.29696508826779],[-71.91144,41.30215],[-71.90896791665938,41.30303440259304],[-71.7203,40.9992],[-71.68575024860046,41.01655736326423],[-71.6608,40.97317],[-73.55627,40.43922],[-73.8199453596405,40.46966334765618],[-73.94956,40.52615],[-74.25284,40.48795],[-74.25762,40.50769],[-74.25423,40.51493],[-74.24538,40.52084],[-74.24811,40.5332],[-74.24988,40.54177],[-74.23152,40.55774],[-74.21793,40.55676],[-74.21462,40.55999],[-74.20829,40.57638],[-74.19884,40.59736],[-74.19879,40.60052],[-74.20117,40.6185],[-74.203,40.62424],[-74.20177,40.62832],[-74.20157,40.63058],[-74.19652,40.63532],[-74.19514,40.63718],[-74.18794,40.64369],[-74.18539,40.64532],[-74.18139,40.64577],[-74.1432,40.64145],[-74.13384,40.64299],[-74.12537,40.64335],[-74.10974,40.64735],[-74.09363,40.64755],[-74.08652,40.65095],[-74.05574,40.65106],[-74.05516,40.65137],[-74.02563,40.69964],[-74.02043,40.72726],[-74.01314,40.75631],[-73.99682,40.77989],[-73.97432,40.81038],[-73.96263,40.82647],[-73.92917,40.88843],[-73.91491,40.92469],[-73.89581,40.98148],[-73.8934,40.9976],[-73.90483,40.99827],[-73.91986,41.00582],[-73.96451,41.02594],[-74.12691,41.09774],[-74.14199,41.10483],[-74.18213,41.12224],[-74.23271,41.14284],[-74.30169,41.17323],[-74.32061,41.18299],[-74.3786,41.20963],[-74.45729,41.24886],[-74.49931,41.26798],[-74.60705,41.31841],[-74.69410045089421,41.357118609512995],[-74.68761,41.36146],[-74.68899,41.36831],[-74.70566,41.37971],[-74.71476,41.39445],[-74.7357,41.43308],[-74.74617,41.43224],[-74.77518,41.42754],[-74.80805,41.4453],[-74.8617,41.44633],[-74.8865,41.45308],[-74.91234,41.47759],[-74.93551,41.48479],[-74.98426,41.50948],[-75.0131,41.54514],[-75.03988,41.61557],[-75.04314,41.71585],[-75.04975,41.75054],[-75.05653,41.76478],[-75.07387,41.79614],[-75.06838,41.81425],[-75.1125,41.84584],[-75.13739,41.85339],[-75.17404,41.87455],[-75.2033,41.87199],[-75.2367,41.86952],[-75.25827,41.88418],[-75.2649,41.90599],[-75.2785,41.93928],[-75.29076,41.95268],[-75.29334,41.95519],[-75.31949,41.96129],[-75.32703,41.96894],[-75.33536,41.98642],[-75.33986,41.99379],[-75.35913,42.00103],[-75.74164,41.99956],[-75.98265,42.00096],[-76.34372,41.99905],[-76.75118,42.00441],[-76.92078,42.00247],[-77.50494,42.00167],[-78.12472,42.00115],[-78.2712,41.99967],[-78.59666,42.00058],[-78.87476,41.99826],[-78.98306,41.99965],[-79.09324,42.00055],[-79.17857,42.00016],[-79.47247,41.99896],[-79.76121,41.99952],[-79.7607,42.26924],[-79.76001,42.51649],[-79.76343632849877,42.516458021892156],[-79.76483,42.57511],[-78.95637,42.8378],[-78.9087,42.90282],[-78.90733,42.91357],[-78.91368,42.93506],[-78.93397,42.95207],[-78.96709,42.95554],[-79.02215,42.98025],[-79.02958,43.01998],[-79.00854,43.05761],[-79.07725,43.07621],[-79.07806,43.0817],[-79.06436,43.09681],[-79.05952,43.11095],[-79.07295,43.12112],[-79.0555,43.13014],[-79.04556,43.14151],[-79.05685,43.17677],[-79.05147,43.20008],[-79.05872,43.20908],[-79.05926,43.23805],[-79.05791,43.25174],[-79.07537,43.26426],[-79.21691,43.45496],[-78.6726,43.65219],[-76.77796,43.68476],[-76.44562,44.09844],[-76.31516,44.19993],[-76.16856,44.28355],[-76.00719,44.35282],[-75.95467,44.34988],[-75.82695,44.43231],[-75.81631,44.48499],[-75.50285,44.71039],[-75.313,44.83737],[-75.1355,44.91838],[-74.98272,44.98435],[-74.83514,45.01766],[-74.77467,45.01555],[-74.75132,44.99807],[-74.67098,45.00948],[-74.49098,45.00335],[-74.14879,44.99345],[-73.85216,45.00462],[-73.34179,45.01405],[-73.34178992503304,45.01404833823236],[-73.34766,45.01394],[-73.35499,44.99083],[-73.35434,44.97977],[-73.33992,44.96433],[-73.38138,44.85771],[-73.38614,44.83524],[-73.35589,44.82008],[-73.34855,44.77383],[-73.36718,44.7423],[-73.36724,44.70002],[-73.38962,44.63307],[-73.39191,44.61808],[-73.38415,44.58976],[-73.37584,44.57456],[-73.31045,44.49333],[-73.3368,44.36253],[-73.32588,44.30964],[-73.31704,44.26706],[-73.33085,44.24592],[-73.34423,44.23942],[-73.35126,44.23137],[-73.36542,44.21171],[-73.39204,44.19177],[-73.39855,44.17421],[-73.40396,44.14652],[-73.41741,44.13322],[-73.43943,44.04516],[-73.43697,44.03932],[-73.41209,44.02579],[-73.41026,44.00315],[-73.41431,43.98],[-73.40849,43.96684],[-73.40914,43.93143],[-73.39738,43.90225],[-73.37578,43.87524],[-73.38374,43.85492],[-73.37407,43.84552],[-73.38966,43.83354],[-73.39407,43.82015],[-73.38215,43.80988],[-73.37754,43.79754],[-73.35905,43.78499],[-73.35234,43.77136],[-73.37125,43.74503],[-73.37218,43.72614],[-73.37937,43.71727],[-73.38724,43.71236],[-73.39674,43.69803],[-73.40623,43.69104],[-73.40576,43.68183],[-73.41712,43.65312],[-73.42797,43.64339],[-73.42953,43.63391],[-73.41942,43.62148],[-73.42535,43.61279],[-73.42341,43.6035],[-73.43293,43.58825],[-73.42942,43.58248],[-73.42128,43.57996],[-73.4063,43.56962],[-73.39538,43.56643],[-73.38176,43.57623],[-73.38174,43.59573],[-73.37086,43.60431],[-73.37403,43.61248],[-73.3683,43.61863],[-73.32356,43.62591],[-73.29393,43.60209],[-73.29446,43.59425],[-73.29862,43.58738],[-73.29482,43.58441],[-73.2961,43.57813],[-73.28066,43.57282],[-73.27001,43.57037],[-73.25984,43.56372],[-73.25034,43.55301],[-73.25178,43.54301],[-73.2432,43.53368],[-73.2494,43.52314],[-73.25819,43.25934],[-73.28028,42.83561],[-73.287,42.83462],[-73.28876,42.82],[-73.28564,42.8138],[-73.29264,42.8021],[-73.2778,42.74492],[-73.26832486607793,42.744690482554965],[-73.51096,42.08729],[-73.49812,42.04694],[-73.48859457045748,42.0467525196158],[-73.52274,41.6199],[-73.55266,41.29534],[-73.48543,41.21341],[-73.72889,41.10185],[-73.65661,41.01158],[-73.66193,41.0005],[-73.65931,40.99101],[-73.6613,40.98742],[-73.65689,40.98353],[-73.64650823623484,40.97804550666587],[-73.63363,40.96525]]]}}
