{"type":"Feature","properties":{"sourceId":"us-west"},"geometry":{"type":"MultiPolygon","coordinates":[[[[-128.95706696586424,49.34143903963926],[-128.6798,48.12648],[-126.46619660192003,48.134869371436665],[-125.17458781936162,46.26582252728354],[-126.2453,46.26953],[-126.3879,41.9634],[-125.89323591612647,41.96784817847659],[-125.8203,35.82776],[-121.43930039255976,35.79554441497359],[-121.4401,32.48438],[-117.7506,32.48665],[-117.242,32.52511],[-125.9201,31.86887],[-133.0637,49.45605],[-128.95706696586424,49.34143903963926]]],[[[-109.5576,31.3315],[-109.0497,31.3311],[-108.2013,31.33043],[-109.5576,31.3315]]]]}}
