{"type":"Feature","properties":{"sourceId":"us/delaware"},"geometry":{"type":"Polygon","coordinates":[[[-75.72842,39.79165],[-75.67589,39.82093],[-75.63847,39.83372],[-75.5916,39.8415],[-75.5389,39.84262],[-75.47942,39.83102],[-75.44715,39.82172],[-75.39606,39.79459],[-75.45593,39.76031],[-75.47366,39.71417],[-75.50354,39.69398],[-75.50903,39.66875],[-75.55366,39.62473],[-75.54937,39.60648],[-75.50182,39.5828],[-75.52002,39.49821],[-75.54668,39.46496],[-75.35385,39.30402],[-75.15266,39.09117],[-75.00327,38.80356],[-75.01469,38.7891],[-75.01656,38.7869],[-75.01407,38.77771],[-75.01199,38.76293],[-75.01346,38.7463],[-75.00174,38.68393],[-75.00019,38.64097],[-75.00075,38.63331],[-74.99341,38.61438],[-74.98401,38.50023],[-74.98437,38.45109],[-75.21277,38.45043],[-75.41698,38.4518],[-75.58362,38.4556],[-75.6943,38.45977],[-75.78974,39.65974],[-75.78931,39.72251],[-75.78929,39.72684],[-75.78266,39.72686],[-75.72842,39.79165]]]}}
