{"type":"Feature","properties":{"sourceId":"us/connecticut"},"geometry":{"type":"Polygon","coordinates":[[[-73.65661,41.01158],[-73.72889,41.10185],[-73.48543,41.21341],[-73.55266,41.29534],[-73.52274,41.6199],[-73.48825,42.05106],[-73.43277,42.05229],[-73.05321,42.04156],[-72.81352,42.03819],[-72.81185,42.03636],[-72.81488,41.99951],[-72.76825,42.00454],[-72.76201,42.01657],[-72.76368,42.02228],[-72.75823,42.02273],[-72.75378,42.02994],[-72.75917,42.03283],[-72.75585,42.03789],[-72.69594,42.03849],[-72.60786,42.03249],[-72.6055,42.02667],[-72.59022,42.0264],[-72.5828,42.0264],[-72.57339,42.03183],[-72.52812,42.03599],[-72.13567,42.03195],[-71.79917,42.0244],[-71.79857184416684,42.008515016612435],[-71.79984,42.00844],[-71.79862,41.93537],[-71.78769,41.65599],[-71.79842,41.4173],[-71.8013,41.41624],[-71.80349,41.4181],[-71.80674,41.4174],[-71.81198,41.41989],[-71.81822,41.42054],[-71.82409,41.41788],[-71.82563,41.41536],[-71.83427,41.41229],[-71.83941,41.41307],[-71.84302,41.41063],[-71.84429,41.4053],[-71.84172,41.40044],[-71.8429,41.39524],[-71.83918,41.39051],[-71.83334,41.38691],[-71.8342,41.38209],[-71.83143,41.37869],[-71.83335,41.37591],[-71.83236,41.37133],[-71.83826,41.3658],[-71.83851,41.35895],[-71.83663,41.35361],[-71.83188,41.35082],[-71.82968,41.34136],[-71.84829,41.32971],[-71.85974,41.32017],[-71.89299,41.3319],[-71.91456,41.31204],[-71.90896791665938,41.30303440259304],[-71.91144,41.30215],[-72.02262,41.2969],[-72.71588,41.18575],[-73.61994,40.96401],[-73.65689,40.98353],[-73.6613,40.98742],[-73.65931,40.99101],[-73.66193,41.0005],[-73.65661,41.01158]]]}}
