{"type":"Feature","properties":{"sourceId":"us/south-dakota"},"geometry":{"type":"Polygon","coordinates":[[[-104.0417,44.99864],[-104.0443907598683,45.94505997190265],[-103.3801,45.94304],[-102.6516,45.94245],[-101.423,45.94294],[-100.4381,45.94238],[-99.786,45.94067],[-99.01622,45.93923],[-98.66203,45.93752],[-98.42746,45.93592],[-97.79479,45.93449],[-97.16628,45.93457],[-97.00093,45.93478],[-96.80425,45.93459],[-96.56083,45.93448],[-96.56052894131096,45.93589110748656],[-96.55996,45.93589],[-96.56322,45.90936],[-96.57453,45.83725],[-96.57687,45.82493],[-96.58076,45.81813],[-96.58549,45.81391],[-96.59481,45.80944],[-96.61045,45.79226],[-96.62572,45.78402],[-96.63589,45.76908],[-96.65359,45.73842],[-96.71002,45.71478],[-96.83081,45.64986],[-96.84377,45.63608],[-96.85276,45.60927],[-96.85425,45.60686],[-96.80035,45.55799],[-96.78996,45.54779],[-96.76313,45.52056],[-96.74172,45.48455],[-96.73119,45.46157],[-96.69096,45.4187],[-96.6799,45.41347],[-96.61687,45.41097],[-96.51802,45.37524],[-96.48691,45.35916],[-96.46763,45.32322],[-96.45424,45.30539],[-96.45206,45.29697],[-96.45023,44.70967],[-96.45257602419073,43.501816949627695],[-96.60194,43.50182],[-96.60147,43.49334],[-96.58922,43.48843],[-96.58722,43.47366],[-96.58706,43.46748],[-96.59266,43.4678],[-96.60422,43.45646],[-96.60478,43.44758],[-96.597,43.43272],[-96.54977,43.40046],[-96.54584,43.3933],[-96.52461,43.38563],[-96.53399,43.36865],[-96.53576,43.34421],[-96.53812,43.33649],[-96.53186,43.30739],[-96.54706,43.29704],[-96.57471,43.29965],[-96.58881,43.2974],[-96.59019,43.29322],[-96.58191,43.28899],[-96.58083,43.27947],[-96.58904,43.27568],[-96.58791,43.26755],[-96.55582,43.25626],[-96.55481,43.25005],[-96.56718,43.24685],[-96.57444,43.23907],[-96.56045,43.22032],[-96.53454,43.22395],[-96.52224,43.21722],[-96.50834,43.21648],[-96.49601,43.2203],[-96.4782,43.21867],[-96.47933,43.21171],[-96.47676,43.18858],[-96.47144,43.15087],[-96.4604,43.14303],[-96.45057,43.13759],[-96.44051,43.1191],[-96.46561,43.09261],[-96.46484,43.08758],[-96.4628,43.06643],[-96.47823,43.06508],[-96.51145,43.05267],[-96.52117,43.04329],[-96.51919,43.03791],[-96.51341,43.02292],[-96.49871,43.0011],[-96.51191,42.99743],[-96.51522,42.9872],[-96.52372,42.98094],[-96.51775,42.97051],[-96.51185,42.94725],[-96.54456,42.92346],[-96.54116,42.91135],[-96.54542,42.90219],[-96.55247,42.87134],[-96.55747,42.84732],[-96.57047,42.84002],[-96.58361,42.83975],[-96.59886,42.81598],[-96.62102,42.78662],[-96.63465,42.77251],[-96.63505,42.76053],[-96.6426,42.7363],[-96.63247,42.70352],[-96.61119,42.69175],[-96.56037,42.65511],[-96.51895,42.62882],[-96.52028,42.62287],[-96.5327,42.61952],[-96.53442,42.61413],[-96.52866,42.60608],[-96.50118,42.57258],[-96.50059,42.55657],[-96.47996,42.55312],[-96.48218,42.52657],[-96.49597,42.5174],[-96.49087,42.51207],[-96.47671,42.50317],[-96.47882,42.49168],[-96.44788057925125,42.489557854300585],[-96.47891,42.48264],[-96.50037,42.48561],[-96.52682,42.51557],[-96.54813,42.52347],[-96.56862,42.52079],[-96.63258,42.54884],[-96.64145,42.55971],[-96.67972,42.57701],[-96.70681,42.62054],[-96.68485,42.64537],[-96.6842,42.65292],[-96.69001,42.65892],[-96.72791,42.66988],[-96.79237,42.66891],[-96.79753,42.69301],[-96.80479,42.70679],[-96.90616,42.73673],[-96.94936,42.72245],[-96.96689,42.75652],[-96.97867,42.76306],[-97.06554,42.77519],[-97.13009,42.77479],[-97.14957,42.79832],[-97.21485,42.84508],[-97.23106,42.85421],[-97.30655,42.8706],[-97.33685,42.85972],[-97.35945,42.85783],[-97.37536,42.86485],[-97.39193,42.86532],[-97.40689,42.86942],[-97.4189,42.86829],[-97.44272,42.84922],[-97.50471,42.86147],[-97.5324,42.85306],[-97.6118,42.86137],[-97.65846,42.84757],[-97.82784,42.87172],[-97.84556,42.87072],[-97.87751,42.8608],[-97.91093,42.7972],[-97.97794,42.7729],[-98.00069,42.76626],[-98.03392,42.76711],[-98.06549,42.78709],[-98.12596,42.82272],[-98.14595,42.84266],[-98.21854,42.85587],[-98.2511,42.87574],[-98.34489,42.90543],[-98.42003,42.93484],[-98.44653,42.93884],[-98.46532,42.94986],[-98.49856,43.00156],[-104.0559,43.00172],[-104.05614855773578,43.00058129487295],[-104.0576,43.00062],[-104.0588,44.99813],[-104.0417,44.99864]]]}}
