{"type":"Feature","properties":{"sourceId":"us/north-carolina"},"geometry":{"type":"Polygon","coordinates":[[[-78.49998,33.81129],[-78.53794235786904,33.844676118061],[-78.53822,33.85126],[-79.35641,34.54767],[-79.67396,34.80743],[-80.79412,34.82277],[-80.77981,34.93779],[-80.93371,35.11014],[-81.04076,35.04858],[-81.05469,35.06358],[-81.05503,35.07315],[-81.04954,35.09465],[-81.03333,35.10159],[-81.02951,35.10953],[-81.03677,35.12834],[-81.04803,35.13331],[-81.0399,35.1488],[-81.04311,35.15283],[-82.275,35.20307],[-82.31559,35.194],[-82.3442,35.19609],[-82.36199,35.19378],[-82.37802,35.19046],[-82.3758,35.19864],[-82.3814,35.21199],[-82.39292,35.2184],[-82.40499,35.20716],[-82.42203,35.20056],[-82.44039,35.1688],[-82.4492,35.16808],[-82.45082,35.17677],[-82.46076,35.18107],[-82.48501,35.1766],[-82.51677,35.16635],[-82.55127,35.1624],[-82.55787,35.15433],[-82.57908,35.14502],[-82.61055,35.14192],[-82.63007,35.12907],[-82.643,35.13212],[-82.6628,35.12112],[-82.68452,35.1287],[-82.69393,35.11594],[-82.69156,35.10689],[-82.69659,35.10104],[-82.72831,35.09685],[-82.74021,35.08201],[-82.75124,35.08092],[-82.75832,35.07103],[-82.77682,35.06729],[-82.77387,35.08303],[-82.78824,35.088],[-83.10894484637322,35.00353481288509],[-83.6202,34.99509],[-83.6231,34.98962],[-83.8627,34.99003],[-84.32114045900627,34.99081544565113],[-84.32151,34.98811],[-84.29454,35.18556],[-84.29001,35.22176],[-84.22351,35.26601],[-84.20835,35.25828],[-84.20084,35.24122],[-84.1882,35.23699],[-84.09676,35.24448],[-84.05067,35.26769],[-84.01846,35.30087],[-84.02432,35.31133],[-84.02638,35.33318],[-84.02175,35.35175],[-84.0047,35.37085],[-84.01069,35.41269],[-83.95821,35.46119],[-83.94836,35.45835],[-83.91002,35.47359],[-83.88062,35.51472],[-83.82447,35.52105],[-83.76414,35.56001],[-83.72322,35.55888],[-83.6766,35.56718],[-83.64035,35.56308],[-83.5858,35.55995],[-83.4973,35.56017],[-83.4833,35.56619],[-83.45387,35.59568],[-83.44383,35.60878],[-83.42438,35.60929],[-83.29571,35.65512],[-83.22602,35.71959],[-83.18446,35.72715],[-83.15436,35.76166],[-83.11915,35.76342],[-83.07507,35.78688],[-82.99506,35.7711],[-82.96195,35.78787],[-82.9435,35.82236],[-82.91757,35.84016],[-82.91563,35.86248],[-82.89698,35.87337],[-82.9015,35.89308],[-82.90999,35.92537],[-82.90215,35.92803],[-82.89809,35.9433],[-82.87393,35.94959],[-82.82966,35.93193],[-82.82249,35.92123],[-82.80118,35.9278],[-82.77404,35.97235],[-82.78477,35.98075],[-82.77497,35.99968],[-82.75323,36.00375],[-82.71416,36.02041],[-82.63653,36.06279],[-82.62073,36.05386],[-82.62023,36.04483],[-82.59669,36.02841],[-82.61623,36.00372],[-82.61354,35.99234],[-82.60789,35.9877],[-82.61342,35.96731],[-82.55822,35.95263],[-82.50569,35.97662],[-82.45939,36.00757],[-82.40867,36.0831],[-82.35073,36.11514],[-82.33353,36.11404],[-82.27058,36.12415],[-82.24757,36.12987],[-82.21297,36.15782],[-82.18076,36.14256],[-82.14823,36.14774],[-82.13887,36.11865],[-82.13015,36.10404],[-82.08009,36.10482],[-82.0604,36.11281],[-82.03288,36.11909],[-81.90707,36.30185],[-81.88152,36.31077],[-81.85546,36.33486],[-81.80012,36.35504],[-81.76703,36.33566],[-81.73111,36.33817],[-81.71396,36.33121],[-81.70498,36.33345],[-81.70249,36.3429],[-81.71996,36.35618],[-81.72761,36.39123],[-81.718,36.42131],[-81.71231,36.43584],[-81.69247,36.46696],[-81.69776,36.53479],[-81.66030696476071,36.58954410151774],[-81.66332282669732,36.58513509141786],[-81.44232,36.57382],[-81.17698,36.56893],[-81.00382,36.56063],[-80.83776,36.55612],[-80.70492,36.55932],[-80.29538,36.54098],[-80.12222,36.53965],[-78.52971,36.53798],[-77.16986,36.5443],[-76.91606,36.54082],[-76.9141,36.54907],[-76.19266,36.54755],[-75.79496,36.54931],[-75.79192404139575,36.55230806614286],[-73.7396,36.55591],[-74.91622,35.18734],[-77.7808,33.12992],[-78.49998,33.81129]]]}}
