{"type":"Feature","properties":{"sourceId":"us/michigan"},"geometry":{"type":"Polygon","coordinates":[[[-87.26672725546976,42.49134999290178],[-87.01155,42.49147],[-86.56383,44.94825],[-86.20021,45.25427],[-86.75118,45.46423],[-87.105,45.46443],[-87.44258,45.22098],[-87.59054,45.09737],[-87.62953,45.10806],[-87.65817,45.11055],[-87.66991,45.12308],[-87.67483,45.13101],[-87.67319,45.13657],[-87.68185,45.14632],[-87.73301,45.17412],[-87.72343,45.20824],[-87.70874,45.23848],[-87.69583,45.26862],[-87.66966,45.3061],[-87.64532,45.33834],[-87.64491,45.35174],[-87.65514,45.37078],[-87.68434,45.39125],[-87.69404,45.39289],[-87.72063,45.37991],[-87.79034,45.35645],[-87.83285,45.35524],[-87.85744,45.38597],[-87.84636,45.40338],[-87.85852,45.43303],[-87.81099,45.46191],[-87.78996,45.49891],[-87.79075,45.50674],[-87.79926,45.51394],[-87.80102,45.54011],[-87.78588,45.56526],[-87.78432,45.58103],[-87.77435,45.58757],[-87.77176,45.6027],[-87.77831,45.6162],[-87.82164,45.65268],[-87.81953,45.66009],[-87.77984,45.67087],[-87.78025,45.68531],[-87.80247,45.70696],[-87.80839,45.71266],[-87.86125,45.73785],[-87.8597,45.74665],[-87.87567,45.75712],[-87.90658,45.76252],[-87.92899,45.76337],[-87.96029,45.76053],[-87.96581,45.76679],[-87.97797,45.7762],[-87.97973,45.78376],[-87.98999,45.79651],[-88.04034,45.79022],[-88.04328,45.78433],[-88.0723,45.78083],[-88.07903,45.78537],[-88.09294,45.78567],[-88.10554,45.80522],[-88.12746,45.81161],[-88.13406,45.82039],[-88.10547,45.84118],[-88.07974,45.86329],[-88.07497,45.86345],[-88.06828,45.87344],[-88.08097,45.88083],[-88.09825,45.88094],[-88.10376,45.90119],[-88.09193,45.91513],[-88.10202,45.92244],[-88.119,45.92333],[-88.14635,45.94013],[-88.18917,45.95505],[-88.24682,45.96653],[-88.31885,45.96653],[-88.33298,45.97108],[-88.38052,45.99479],[-88.38684,45.9927],[-88.44864,45.99278],[-88.45778,46.00238],[-88.47176,46.00383],[-88.47705,46.00067],[-88.50424,46.01973],[-88.51452,46.02301],[-88.5346,46.02401],[-88.56616,46.01864],[-88.5919,46.01734],[-88.60153,46.02075],[-88.61527,46.00603],[-88.63426,45.99115],[-88.63836,45.98809],[-88.66046,45.99186],[-88.67747,46.01625],[-88.72997,46.0297],[-88.79646,46.03512],[-88.81337,46.02614],[-89.09367,46.14021],[-90.11618,46.3373],[-90.11459,46.35765],[-90.13147,46.37492],[-90.12989,46.38308],[-90.15437,46.42177],[-90.16734,46.44278],[-90.17485,46.44046],[-90.17822,46.4585],[-90.19081,46.46171],[-90.18795,46.46884],[-90.21539,46.50441],[-90.23094,46.51288],[-90.26938,46.52168],[-90.27635,46.52739],[-90.31401,46.51991],[-90.30668,46.53846],[-90.31386,46.54722],[-90.33146,46.55633],[-90.34535,46.55484],[-90.38905,46.53628],[-90.41756,46.56656],[-89.93191,47.30087],[-89.9505558903064,47.304187653557996],[-89.69871435638504,47.6883214517217],[-89.64534,47.71089],[-89.53969220131418,47.93087788579511],[-89.4846,48.01491],[-89.46905,48.03936],[-89.32805,48.01402],[-88.38264,48.35021],[-84.84942,46.89066],[-84.74081,46.64774],[-84.53647,46.47164],[-84.47531,46.45974],[-84.44234,46.49817],[-84.37474,46.51169],[-84.3444,46.51062],[-84.32329,46.50303],[-84.28855,46.49543],[-84.26612,46.49661],[-84.24872,46.51074],[-84.23189,46.53623],[-84.16935,46.5471],[-84.07469,46.5175],[-84.10395,46.26941],[-83.91807,46.07276],[-83.79072,46.15031],[-83.53695,46.14629],[-83.18576,45.69387],[-82.46722,45.36835],[-82.38232,44.88212],[-82.06913,43.59196],[-82.41389,43.00063],[-82.42028,42.98741],[-82.40945,42.97784],[-82.42614,42.94549],[-82.4496,42.92633],[-82.45998,42.88799],[-82.46269,42.76027],[-82.4875,42.69862],[-82.50239,42.66612],[-82.5143,42.60539],[-82.82222,42.37166],[-82.94061,42.34539],[-82.98798,42.32872],[-83.02915,42.32497],[-83.0596,42.31704],[-83.07765,42.30495],[-83.09852,42.282],[-83.12191,42.23138],[-83.11713,42.12702],[-83.14475,42.0396],[-83.10601,41.96317],[-83.1060130919532,41.96316721279783],[-83.10642,41.96397],[-83.11246,41.96111],[-83.41643,41.73548],[-84.80364774290453,41.697126782074285],[-84.80387,41.76196],[-86.83164,41.76174],[-87.12609,41.76301],[-87.20922789226049,41.76266804894714],[-87.26672725546976,42.49134999290178]]]}}
