{"type":"Feature","properties":{"sourceId":"us/texas"},"geometry":{"type":"Polygon","coordinates":[[[-97.14489,25.94631],[-97.34196,25.90957],[-97.35054,25.86386],[-97.36839,25.83203],[-97.40788,25.83111],[-97.46092,25.85212],[-97.46264,25.87374],[-97.475,25.87343],[-97.48632,25.87637],[-97.50023,25.87946],[-97.498,25.89513],[-97.51109,25.88509],[-97.52302,25.8844],[-97.54778,25.91868],[-97.58726,25.92949],[-97.61387,25.96592],[-97.66897,26.01483],[-97.78158,26.02362],[-97.86518,26.04984],[-97.9335,26.04953],[-97.95033,26.05971],[-97.96148,26.04907],[-98.0698,26.03226],[-98.19099,26.04907],[-98.2509,26.07066],[-98.26773,26.08546],[-98.27313,26.09433],[-98.28936,26.10211],[-98.30481,26.09988],[-98.33227,26.12554],[-98.34292,26.14912],[-98.38686,26.1539],[-98.47767,26.19657],[-98.58341,26.23076],[-98.59663,26.24955],[-98.66495,26.23015],[-98.701,26.26155],[-98.7283,26.27233],[-98.81433,26.3472],[-98.89687,26.35004],[-98.94733,26.36742],[-98.98321,26.38818],[-99.01686,26.38956],[-99.02389,26.40448],[-99.03694,26.41047],[-99.05565,26.39571],[-99.08638,26.39356],[-99.11917,26.4323],[-99.10011,26.47949],[-99.17633,26.54124],[-99.23607,26.72813],[-99.3346,26.87523],[-99.45236,27.01601],[-99.46129,27.06891],[-99.45168,27.22304],[-99.54746,27.31093],[-99.49099,27.41079],[-99.49957,27.43806],[-99.49554,27.45604],[-99.48644,27.47112],[-99.48197,27.48254],[-99.49004,27.49381],[-99.50249,27.49875],[-99.53073,27.49388],[-99.52892,27.5292],[-99.51748,27.56426],[-99.5321,27.57859],[-99.54549,27.60445],[-99.57999,27.59974],[-99.66951,27.63183],[-99.72599,27.66346],[-99.75758,27.70876],[-99.84993,27.76573],[-99.88306,27.80067],[-100.0051,27.99622],[-100.2921,28.24935],[-100.3612,28.38883],[-100.354,28.43034],[-100.5081,28.66137],[-100.5137,28.71393],[-100.569,28.81072],[-100.6221,28.89428],[-100.6506,28.91232],[-100.6691,29.07327],[-100.779,29.16266],[-100.7872,29.21211],[-100.8432,29.25945],[-100.8826,29.27742],[-100.8991,29.30526],[-100.9427,29.33071],[-100.9487,29.34223],[-100.9632,29.34388],[-101.0162,29.36841],[-101.0516,29.41986],[-101.0794,29.45335],[-101.1525,29.4683],[-101.2716,29.52268],[-101.4632,29.75215],[-102.646,29.72279],[-102.8539,29.21441],[-103.1254,28.94289],[-103.4091,28.99972],[-103.8944,29.2527],[-104.1762,29.37554],[-104.2623,29.4812],[-104.3856,29.53314],[-104.4062,29.56987],[-104.4807,29.60152],[-104.5346,29.64151],[-104.6207,29.8192],[-104.7201,29.97058],[-104.724,30.21437],[-104.87,30.38295],[-104.9222,30.55783],[-105.1244,30.72546],[-105.4049,30.84358],[-105.4363,30.89176],[-105.58,30.99291],[-105.6394,31.08793],[-105.7716,31.16111],[-105.9487,31.31874],[-105.9597,31.34836],[-106.0091,31.38002],[-106.1149,31.40171],[-106.2148,31.46469],[-106.2556,31.53992],[-106.2826,31.55929],[-106.3062,31.6113],[-106.308,31.6224],[-106.3355,31.65864],[-106.3535,31.6956],[-106.3607,31.70017],[-106.3779,31.71661],[-106.3815,31.72999],[-106.4089,31.74522],[-106.4228,31.75198],[-106.4385,31.75408],[-106.4516,31.76294],[-106.4647,31.75923],[-106.4691,31.75094],[-106.4866,31.74484],[-106.5138,31.76209],[-106.5296,31.78038],[-106.53445849139352,31.78315255232002],[-106.5212,31.78318],[-106.524,31.7918],[-106.5452,31.80887],[-106.5682,31.81573],[-106.5771,31.81312],[-106.5912,31.82586],[-106.6018,31.82652],[-106.5993,31.84723],[-106.6122,31.84986],[-106.6249,31.8605],[-106.6346,31.87152],[-106.6274,31.88315],[-106.6326,31.89002],[-106.644,31.89733],[-106.6099,31.91881],[-106.612,31.92192],[-106.6248,31.92745],[-106.6109,31.94995],[-106.6191,31.97417],[-106.6127,31.99769],[-103.0597,31.99562],[-103.033,34.34069],[-103.0376,36.49754],[-103.0068,36.49724193548387],[-103.0068,36.49639],[-100.0034,36.4967],[-100.0046,34.55725],[-99.84306,34.49425],[-99.71466,34.37461],[-99.61441,34.35648],[-99.4376,34.35903],[-99.28963,34.3783],[-99.19762,34.20726],[-99.04655,34.19363],[-98.90511,34.14761],[-98.73396,34.10782],[-98.64744,34.14775],[-98.58427,34.13454],[-98.53025,34.09278],[-98.50624,34.07019],[-98.48385,34.06005],[-98.40008,34.08181],[-98.3539,34.14775],[-98.2037,34.11053],[-98.09435,34.00158],[-97.99942,33.89265],[-97.86621,33.83848],[-97.65163,33.96842],[-97.58778,33.8898],[-97.44839,33.81652],[-97.35878,33.81709],[-97.24754,33.85987],[-97.2139,33.8898],[-97.20463,33.75689],[-97.14043,33.70778],[-97.06627,33.71977],[-96.95229,33.93681],[-96.87744,33.85103],[-96.85272,33.84333],[-96.8359,33.85245],[-96.82114,33.867],[-96.77032,33.81994],[-96.70887,33.82223],[-96.68106,33.85046],[-96.65256,33.90234],[-96.62167,33.88695],[-96.63574,33.84362],[-96.57566,33.81453],[-96.5276,33.81938],[-96.51661,33.77544],[-96.49395,33.76944],[-96.42906,33.7683],[-96.35319,33.67778],[-96.16676,33.7606],[-96.11011,33.82708],[-95.89829,33.85844],[-95.83848,33.8328],[-95.76267,33.83934],[-95.63358,33.8992],[-95.55325,33.87498],[-95.40218,33.85616],[-95.27756,33.86586],[-95.24837,33.8821],[-95.20889,33.94792],[-95.05646,33.86471],[-94.8666,33.73862],[-94.72378,33.68464],[-94.55452,33.61348],[-94.48264614255548,33.63089562633552],[-94.46494,33.62218],[-94.45858,33.61869],[-94.47594,33.60748],[-94.47462,33.59798],[-94.46104,33.59357],[-94.45254,33.58644],[-94.43234,33.58661],[-94.416,33.56525],[-94.40279,33.56348],[-94.40327,33.55268],[-94.38707,33.54002],[-94.35391,33.53861],[-94.34305,33.54859],[-94.34654,33.56032],[-94.34315,33.56284],[-94.3325,33.54807],[-94.31979,33.54387],[-94.30822,33.54686],[-94.30198,33.55329],[-94.29685,33.57022],[-94.28709,33.57736],[-94.29516,33.56933],[-94.29524,33.55639],[-94.28876,33.55232],[-94.2743,33.55314],[-94.25453,33.5787],[-94.24247,33.58468],[-94.24229,33.58052],[-94.25704,33.56354],[-94.25286,33.55253],[-94.23839,33.5477],[-94.22565,33.54797],[-94.21601,33.55226],[-94.20737,33.56134],[-94.20301,33.55254],[-94.19484,33.55037],[-94.18655,33.55622],[-94.18513,33.564],[-94.19242,33.5783],[-94.1832,33.58823],[-94.16658,33.58451],[-94.16521,33.57618],[-94.15659,33.57075],[-94.1512,33.56146],[-94.13864,33.56298],[-94.1357,33.55042],[-94.13061,33.54635],[-94.11936,33.54956],[-94.1156,33.56199],[-94.08337,33.57047],[-94.0704,33.56542],[-94.07862,33.55938],[-94.07533,33.55],[-94.06226,33.54478],[-94.04378,33.54618],[-94.04346,33.46303],[-94.04335,33.35894],[-94.04346,33.18714],[-94.04373,33.01865],[-94.04366031269838,33.01864992243969],[-94.04376,32.50855],[-94.04346,31.99126],[-94.01734,31.98795],[-93.97392,31.92036],[-93.93558,31.90119],[-93.931,31.89087],[-93.90604,31.88659],[-93.87981,31.83811],[-93.87867,31.81855],[-93.84339,31.79478],[-93.82829,31.7723],[-93.83542,31.74431],[-93.80749,31.69372],[-93.82849,31.66696],[-93.82008,31.64844],[-93.84019,31.6047],[-93.83965,31.58457],[-93.81898,31.55375],[-93.79853,31.53279],[-93.78249,31.52405],[-93.74961,31.523],[-93.72704,31.50422],[-93.73852,31.48596],[-93.75093,31.481],[-93.75055,31.46841],[-93.70231,31.4377],[-93.70675,31.41131],[-93.67539,31.39729],[-93.66798,31.3577],[-93.69154,31.30336],[-93.67221,31.29399],[-93.64209,31.26789],[-93.62343,31.26918],[-93.60456,31.17353],[-93.58527,31.16384],[-93.57252,31.1708],[-93.56005,31.18199],[-93.54909,31.18596],[-93.53477,31.18432],[-93.54561,31.15161],[-93.54596,31.11599],[-93.55309,31.09897],[-93.55092,31.08597],[-93.53849,31.07531],[-93.5246,31.06493],[-93.53396,31.05523],[-93.51859,31.02495],[-93.5407,31.01013],[-93.56883,31.0087],[-93.57677,30.98876],[-93.56762,30.9759],[-93.53564,30.9528],[-93.53306,30.92517],[-93.5559,30.9217],[-93.57005,30.8838],[-93.55871,30.83325],[-93.56584,30.81066],[-93.58824,30.79969],[-93.59718,30.76757],[-93.62368,30.74406],[-93.61457,30.72386],[-93.63378,30.68322],[-93.65807,30.67411],[-93.68757,30.64301],[-93.68558,30.59873],[-93.71495,30.59281],[-93.73126,30.57772],[-93.73341,30.54837],[-93.74521,30.54023],[-93.7184,30.51507],[-93.72147,30.49257],[-93.70281,30.44165],[-93.76169,30.39337],[-93.76132,30.35724],[-93.77082,30.33313],[-93.74196,30.3],[-93.71168,30.28074],[-93.71043,30.24314],[-93.72595,30.20981],[-93.70683,30.1665],[-93.71406,30.1447],[-93.69949,30.14388],[-93.70297,30.13568],[-93.70279,30.12446],[-93.70845,30.1224],[-93.70929,30.11216],[-93.71396,30.10939],[-93.71634,30.10192],[-93.72409,30.09599],[-93.72513,30.09264],[-93.72349,30.08826],[-93.72528,30.08323],[-93.72811,30.08839],[-93.72995,30.09035],[-93.73275,30.09024],[-93.7341,30.08882],[-93.73456,30.08575],[-93.73184,30.08111],[-93.72446,30.07652],[-93.7047,30.05974],[-93.72365,30.05716],[-93.73626,30.04144],[-93.74454,30.02399],[-93.79065,29.99393],[-93.8423,29.88596],[-93.86649,29.86125],[-93.9194,29.82893],[-93.93291,29.81053],[-93.93021,29.7862],[-93.89787,29.76419],[-93.89557,29.74154],[-93.87365,29.73181],[-93.84131,29.6869],[-93.83972,28.14452],[-93.47944006588813,28.145440048006066],[-93.01897,25.69944],[-94.71704,25.69551],[-96.86662,25.94066],[-97.14489,25.94631]]]}}
