{"type":"Feature","properties":{"sourceId":"us-northeast"},"geometry":{"type":"MultiPolygon","coordinates":[[[[-75.01237676620264,38.75855454289124],[-75.01199,38.76293],[-75.01407,38.77771],[-75.01656,38.7869],[-75.0154544673262,38.78820062667507],[-74.94338,38.75433],[-74.44904684811044,38.85113720078098],[-75.00187,38.74287],[-75.01237676620264,38.75855454289124]]],[[[-78.95637,42.8378],[-79.76483,42.57511],[-79.76343632849877,42.516458021892156],[-79.95073,42.51471],[-80.5052234761974,42.33454469548958],[-80.50522347574976,42.3345447385163],[-78.95637,42.8378]]],[[[-71.01048,45.34961],[-71.08667544225271,45.30950611301552],[-71.08667618375576,45.30950674539171],[-71.01048,45.34961]]],[[[-66.93766,44.21031],[-68.73438006475028,41.80835426770513],[-68.75053,42.8728],[-69.95176199835922,42.881255179215756],[-66.9626464533364,44.20928124852645],[-66.93745374667586,44.21212160523477],[-66.93766,44.21031]]],[[[-70.34526,39.65484],[-74.37881964131127,38.86489079100749],[-73.67898,40.40823],[-73.8199453596405,40.46966334765618],[-73.55627,40.43922],[-71.6608,40.97317],[-71.68575024860046,41.01655736326423],[-71.19674,41.26223],[-71.12432993063398,41.34449066880627],[-71.1308,41.02072],[-69.42663415524211,40.88291033601924],[-70.34526,39.65484]]],[[[-70.52521506216436,42.885291575542965],[-70.53679778228343,42.89751445605626],[-70.37508644274659,42.88423485678728],[-70.52521506216436,42.885291575542965]]],[[[-73.63363,40.96525],[-73.64650823623484,40.97804550666587],[-73.62475793024234,40.96655522322951],[-73.63363,40.96525]]],[[[-72.02262,41.2969],[-72.02124161645476,41.29696508826779],[-73.40721,40.99856],[-73.58678829023367,40.972141163997506],[-72.71588,41.18575],[-72.02262,41.2969]]]]}}
