{"type":"Feature","properties":{"sourceId":"us-south"},"geometry":{"type":"MultiPolygon","coordinates":[[[[-74.48542,35.49675],[-75.89579013578057,34.4837858354252],[-74.91622,35.18734],[-73.7396,36.55591],[-75.79192404139575,36.55230806614286],[-74.29751,38.02807],[-75.13722966397249,38.02893568107883],[-74.95408,38.45111],[-74.95578,38.45292],[-74.98435601233813,38.45299931584655],[-74.98401,38.50023],[-74.99341,38.61438],[-75.00075,38.63331],[-75.00019,38.64097],[-75.00174,38.68393],[-75.01346,38.7463],[-75.01237676620264,38.75855454289124],[-75.00187,38.74287],[-74.44904684811044,38.85113720078098],[-74.37882,38.86489],[-74.37881964131127,38.86489079100749],[-71.63207587847808,39.40282459035744],[-74.48542,35.49675]]],[[[-78.16993,32.85044],[-79.97779558921019,24.516767396544417],[-79.97779559030964,24.51676739633092],[-79.43702,27.00959],[-81.33706651248413,30.698371109933277],[-81.28907,30.6942],[-80.76019814305502,32.03141442863893],[-80.05276,32.02967],[-78.51867,33.38766],[-78.53794235786904,33.844676118061],[-78.49998,33.81129],[-77.78080191547768,33.12992181477381],[-78.16993,32.85044]]],[[[-81.60627,24.20031],[-80.38344788029355,24.437558638064594],[-80.38344788029355,24.43755863806459],[-81.60627,24.20031]]],[[[-94.7170100115748,25.69551006940498],[-93.01897,25.69944],[-93.47944006588813,28.145440048006066],[-88.66684,28.15773],[-88.77388189203977,30.065285510922795],[-88.46377363274449,30.04682572281186],[-88.48389,29.95494],[-87.56463895300526,29.990040838867305],[-88.46896,24.98296],[-81.60627,24.20031],[-94.7170100115748,25.69551006940498]]],[[[-85.06074131556244,31.613911580718874],[-85.06316013173753,31.620296383775667],[-85.06072,31.61857],[-85.06074131556244,31.613911580718874]]],[[[-84.96280043306012,32.2155792603581],[-84.96354765822561,32.21474058867292],[-84.96371,32.21553],[-84.96280043306012,32.2155792603581]]],[[[-85.09967,32.64595],[-85.0986060832428,32.64672493293466],[-85.09931918894722,32.64554046511742],[-85.09967,32.64595]]]]}}
