{"type":"Feature","properties":{"sourceId":"us/west-virginia"},"geometry":{"type":"Polygon","coordinates":[[[-82.55523,38.40455],[-82.5331,38.40529],[-82.47435,38.42248],[-82.43989,38.42972],[-82.40519,38.44127],[-82.38988,38.43576],[-82.33179,38.44595],[-82.30585,38.49947],[-82.30459,38.52479],[-82.29745,38.54024],[-82.29534,38.57737],[-82.27559,38.59543],[-82.25618,38.60211],[-82.22189,38.59327],[-82.19722,38.59522],[-82.18189,38.60069],[-82.17475,38.62531],[-82.1945,38.68471],[-82.18525,38.70668],[-82.20038,38.75487],[-82.22223,38.77125],[-82.22409,38.79159],[-82.19155,38.81677],[-82.17054,38.82234],[-82.14995,38.83642],[-82.14155,38.86783],[-82.14701,38.88484],[-82.1472,38.89429],[-82.11634,38.93258],[-82.09268,38.97835],[-82.05247,38.99499],[-82.0386,39.02764],[-82.00792,39.03221],[-81.98817,39.02013],[-81.97828,38.99579],[-81.95498,38.99662],[-81.93727,38.99711],[-81.8921,38.93147],[-81.9211,38.89264],[-81.89332,38.87696],[-81.85623,38.8976],[-81.84489,38.93454],[-81.82487,38.95333],[-81.80413,38.94369],[-81.78942,38.92964],[-81.76552,38.92516],[-81.75916,38.9352],[-81.78438,38.96036],[-81.77807,38.98911],[-81.76925,39.01033],[-81.77765,39.02633],[-81.7995,39.04069],[-81.81379,39.05734],[-81.81841,39.07854],[-81.81008,39.08596],[-81.77387,39.0805],[-81.75408,39.09303],[-81.74782,39.14147],[-81.76025,39.18184],[-81.74194,39.19522],[-81.73009,39.2174],[-81.69529,39.22811],[-81.70017,39.25751],[-81.68369,39.27532],[-81.66155,39.27931],[-81.60698,39.27791],[-81.57121,39.26958],[-81.56233,39.33775],[-81.55066,39.3554],[-81.50743,39.37173],[-81.46978,39.40457],[-81.44858,39.41267],[-81.42594,39.40686],[-81.4055,39.3894],[-81.38775,39.34823],[-81.37116,39.34334],[-81.35225,39.34553],[-81.30949,39.37007],[-81.27238,39.3869],[-81.24737,39.39252],[-81.22163,39.38732],[-81.21322,39.40478],[-81.18579,39.43262],[-81.17476,39.43947],[-81.15271,39.44446],[-81.13765,39.44632],[-81.12803,39.45172],[-81.09872,39.49178],[-81.07533,39.5157],[-81.02297,39.55607],[-80.97731,39.58863],[-80.93783,39.61454],[-80.92474,39.62033],[-80.89072,39.61882],[-80.88001,39.62387],[-80.86872,39.65576],[-80.87033,39.67149],[-80.86468,39.69467],[-80.83384,39.70562],[-80.84344,39.72984],[-80.86791,39.75218],[-80.87176,39.76538],[-80.86676,39.77444],[-80.82999,39.79682],[-80.8238,39.82017],[-80.82918,39.83979],[-80.82542,39.8497],[-80.81466,39.85589],[-80.80229,39.85981],[-80.79315,39.86601],[-80.79637,39.88231],[-80.81278,39.90233],[-80.80982,39.91903],[-80.79728,39.92292],[-80.75936,39.91178],[-80.76867,39.95471],[-80.74273,39.97219],[-80.74097,39.98871],[-80.74447,40.0087],[-80.7399,40.02003],[-80.73828,40.02806],[-80.73183,40.03979],[-80.73264,40.05132],[-80.73947,40.06546],[-80.74058,40.0782],[-80.73156,40.08857],[-80.71175,40.09942],[-80.7122,40.1367],[-80.7079,40.15294],[-80.69149,40.17914],[-80.67089,40.20031],[-80.66702,40.22033],[-80.66454,40.23164],[-80.65003,40.25071],[-80.62059,40.2682],[-80.61922,40.29111],[-80.6042,40.31946],[-80.6181,40.34857],[-80.61027,40.36351],[-80.61269,40.37662],[-80.63639,40.38565],[-80.63604,40.39631],[-80.61768,40.40546],[-80.61682,40.43081],[-80.61287,40.44329],[-80.60005,40.4618],[-80.60042,40.47718],[-80.61716,40.49207],[-80.62587,40.52295],[-80.63394,40.53664],[-80.67003,40.57178],[-80.67072,40.58365],[-80.66505,40.59362],[-80.64754,40.60418],[-80.6351,40.62001],[-80.59879,40.62835],[-80.58154,40.61747],[-80.57176,40.61845],[-80.55931,40.62946],[-80.5163,40.64636],[-80.50802,39.73002],[-79.47956,39.72594],[-79.4781,39.72594],[-79.47812,39.72201],[-79.48055,39.53333],[-79.48401,39.53163],[-79.48857,39.20586],[-79.47334,39.20025],[-79.4686,39.20233],[-79.4526,39.20872],[-79.43943,39.21511],[-79.43188,39.22241],[-79.42492,39.22366],[-79.42242,39.22646],[-79.42291,39.23248],[-79.41892,39.23726],[-79.41121,39.23869],[-79.40656,39.24513],[-79.39863,39.24973],[-79.39216,39.25935],[-79.3861,39.26214],[-79.38527,39.26579],[-79.38078,39.2652],[-79.37352,39.272],[-79.35635,39.27465],[-79.34947,39.2833],[-79.34355,39.28357],[-79.3417,39.28716],[-79.34503,39.29165],[-79.33951,39.29195],[-79.33161,39.29827],[-79.32058,39.29821],[-79.28923,39.29783],[-79.28197,39.30921],[-79.2691,39.32758],[-79.25954,39.33254],[-79.25225,39.33632],[-79.25176,39.3483],[-79.24991,39.35368],[-79.24202,39.35763],[-79.23449,39.35693],[-79.21344,39.36188],[-79.20144,39.37722],[-79.18431,39.38349],[-79.17601,39.38781],[-79.16692,39.38591],[-79.16145,39.38655],[-79.15982,39.39119],[-79.14277,39.40362],[-79.13938,39.40834],[-79.1261,39.41691],[-79.10937,39.43099],[-79.10248,39.44781],[-79.10019,39.45678],[-79.0957,39.46081],[-79.09288,39.46455],[-79.08293,39.46971],[-79.06789,39.47285],[-79.06729,39.47964],[-79.06554,39.47934],[-79.06104,39.47134],[-79.05699,39.47015],[-79.0547,39.47123],[-79.05281,39.48091],[-79.04754,39.48306],[-79.04491,39.47953],[-79.03767,39.47653],[-79.03613,39.46732],[-79.03112,39.4635],[-79.01859,39.46596],[-79.01092,39.45928],[-78.98,39.44779],[-78.96602,39.43661],[-78.95558,39.43886],[-78.95416,39.44777],[-78.95734,39.45052],[-78.95263,39.45468],[-78.95763,39.46132],[-78.94075,39.46874],[-78.93707,39.47451],[-78.94078,39.4799],[-78.93401,39.48436],[-78.91569,39.48499],[-78.91197,39.49311],[-78.90301,39.50205],[-78.89092,39.51305],[-78.87967,39.51963],[-78.87372,39.52142],[-78.86746,39.53179],[-78.86028,39.53976],[-78.85041,39.55045],[-78.84943,39.55913],[-78.84163,39.56165],[-78.83856,39.5666],[-78.8219,39.55879],[-78.81455,39.56164],[-78.81172,39.56816],[-78.81896,39.57762],[-78.8243,39.57823],[-78.81747,39.58924],[-78.81635,39.59317],[-78.81058,39.59683],[-78.79911,39.60321],[-78.79505,39.60479],[-78.79438,39.61523],[-78.79986,39.62705],[-78.79603,39.62844],[-78.7945,39.63589],[-78.78105,39.63578],[-78.77559,39.64527],[-78.76916,39.64578],[-78.76643,39.64804],[-78.76556,39.64608],[-78.76809,39.64032],[-78.77262,39.63764],[-78.77887,39.6242],[-78.77839,39.62194],[-78.76456,39.618],[-78.7472,39.62575],[-78.73768,39.62088],[-78.73493,39.61562],[-78.75107,39.61165],[-78.76202,39.6116],[-78.77775,39.60436],[-78.77851,39.60108],[-78.76856,39.58838],[-78.76159,39.58116],[-78.74527,39.57799],[-78.73927,39.58453],[-78.73317,39.57407],[-78.72545,39.56246],[-78.71433,39.5607],[-78.70803,39.55407],[-78.69607,39.55239],[-78.6911,39.54468],[-78.67609,39.53853],[-78.66892,39.5386],[-78.65372,39.53274],[-78.62337,39.538],[-78.60335,39.53028],[-78.59367,39.53094],[-78.58851,39.52656],[-78.57974,39.5253],[-78.56592,39.51761],[-78.52313,39.52307],[-78.50359,39.51691],[-78.48304,39.51778],[-78.4683,39.51483],[-78.45987,39.52238],[-78.4496,39.53635],[-78.43742,39.53674],[-78.43301,39.54214],[-78.42463,39.54331],[-78.41904,39.54387],[-78.41549,39.5478],[-78.39871,39.57913],[-78.39369,39.58353],[-78.37537,39.60658],[-78.37046,39.61243],[-78.35446,39.6247],[-78.3517,39.63043],[-78.33991,39.6328],[-78.31019,39.62865],[-78.28752,39.61973],[-78.26583,39.61728],[-78.26128,39.62187],[-78.26097,39.62952],[-78.25296,39.63887],[-78.22217,39.65995],[-78.22249,39.66389],[-78.20167,39.67504],[-78.19044,39.68839],[-78.18139,39.69366],[-78.14007,39.68796],[-78.09906,39.6773],[-78.09064,39.66994],[-78.07684,39.66639],[-78.03812,39.63528],[-78.01066,39.60134],[-77.97719,39.59784],[-77.96658,39.6054],[-77.95578,39.60644],[-77.95215,39.60337],[-77.95246,39.58842],[-77.94674,39.5831],[-77.93894,39.58478],[-77.93478,39.59343],[-77.93377,39.60845],[-77.93777,39.61418],[-77.94305,39.61595],[-77.94074,39.61723],[-77.93247,39.61513],[-77.92421,39.60338],[-77.89029,39.59575],[-77.88233,39.59696],[-77.87955,39.60031],[-77.87958,39.60695],[-77.88437,39.61396],[-77.8642,39.60702],[-77.83829,39.60414],[-77.83365,39.60043],[-77.83137,39.59074],[-77.83721,39.56781],[-77.87943,39.56488],[-77.88867,39.56064],[-77.89036,39.55486],[-77.88743,39.55057],[-77.86669,39.53742],[-77.86789,39.51885],[-77.86368,39.51306],[-77.84942,39.50093],[-77.84607,39.49645],[-77.80286,39.48764],[-77.79932,39.46172],[-77.79927,39.45458],[-77.8013,39.44224],[-77.80498,39.43712],[-77.79522,39.42934],[-77.76163,39.42617],[-77.75012,39.38575],[-77.75455,39.38201],[-77.74516,39.35983],[-77.74956,39.35169],[-77.76082,39.3458],[-77.7626,39.34116],[-77.76099,39.33655],[-77.75573,39.33201],[-77.72601,39.31984],[-77.71466109979411,39.31991528292011],[-77.73135,39.30877],[-77.74301,39.29238],[-77.75832,39.25632],[-77.76378,39.25294],[-77.76708,39.23428],[-77.7891,39.20763],[-77.80062,39.172],[-77.81702,39.1497],[-77.81791,39.13739],[-77.82856,39.12772],[-78.34051,39.45596],[-78.34573,39.43591],[-78.34189,39.4263],[-78.35476,39.40962],[-78.3383,39.38788],[-78.35697,39.36172],[-78.33783,39.35773],[-78.33471,39.34658],[-78.35643,39.31431],[-78.41128,39.25957],[-78.39477,39.24287],[-78.40187,39.22783],[-78.42894,39.20083],[-78.41988,39.19452],[-78.42247,39.18617],[-78.40333,39.17434],[-78.39978,39.16434],[-78.42425,39.14859],[-78.43544,39.12913],[-78.45649,39.10967],[-78.49117,39.09753],[-78.51973,39.06705],[-78.53698,39.05679],[-78.56429,39.03171],[-78.54533,39.01832],[-78.56698,38.99795],[-78.60042,38.96111],[-78.62149,38.96995],[-78.63575,38.96259],[-78.65532,38.94405],[-78.68004,38.92149],[-78.71696,38.8993],[-78.72463,38.90457],[-78.75613,38.8965],[-78.78271,38.88342],[-78.86686,38.75861],[-78.87214,38.75889],[-78.99451,38.84378],[-79.0025,38.82079],[-79.02356,38.78875],[-79.08102,38.72224],[-79.07937,38.68611],[-79.08853,38.65719],[-79.10516,38.65136],[-79.1199,38.65519],[-79.14697,38.61794],[-79.15381,38.59111],[-79.16644,38.56598],[-79.20638,38.49021],[-79.22238,38.47271],[-79.23925,38.45049],[-79.25275,38.45021],[-79.26453,38.43424],[-79.27547,38.41899],[-79.28118,38.41343],[-79.28895,38.41555],[-79.31356,38.40704],[-79.4789,38.45277],[-79.52534,38.53065],[-79.54034,38.5472],[-79.64646,38.58523],[-79.65477,38.56025],[-79.66188,38.53802],[-79.6574,38.51375],[-79.6687,38.50304],[-79.6766,38.5055],[-79.67887,38.49847],[-79.69233,38.48674],[-79.68844,38.48067],[-79.69313,38.47339],[-79.68337,38.45699],[-79.68481,38.43029],[-79.72577,38.37632],[-79.72136,38.36117],[-79.7395,38.34923],[-79.76153,38.3519],[-79.7697,38.33185],[-79.79241,38.32028],[-79.78555,38.28381],[-79.78256,38.27373],[-79.78501,38.26562],[-79.81083,38.24861],[-79.81733,38.24379],[-79.83219,38.23784],[-79.84268,38.23653],[-79.84716,38.22946],[-79.88732,38.20163],[-79.89525,38.18918],[-79.9099,38.16708],[-79.91422,38.1525],[-79.92225,38.14595],[-79.92568,38.13606],[-79.93474,38.11502],[-79.92373,38.11142],[-79.92159,38.10557],[-79.96947,38.02989],[-79.99515,37.99318],[-80.04515,37.95369],[-80.07039,37.9389],[-80.09345,37.9142],[-80.101,37.91363],[-80.11309,37.90295],[-80.11447,37.89394],[-80.12305,37.89237],[-80.14001,37.87801],[-80.15869,37.87152],[-80.1783,37.84846],[-80.17539,37.83675],[-80.19622,37.82384],[-80.20282,37.81257],[-80.22285,37.7962],[-80.21146,37.7843],[-80.21177,37.77433],[-80.21691,37.77106],[-80.22727,37.77384],[-80.24417,37.76377],[-80.24566,37.75429],[-80.2537,37.75106],[-80.2574,37.73881],[-80.24773,37.73238],[-80.24798,37.72461],[-80.28976,37.69011],[-80.2753,37.66014],[-80.26496,37.65065],[-80.23691,37.64207],[-80.21601,37.6273],[-80.238,37.60251],[-80.32015,37.56246],[-80.30739,37.54612],[-80.31905,37.53691],[-80.30956,37.5329],[-80.29107,37.54147],[-80.27784,37.53561],[-80.29697,37.50415],[-80.32553,37.49063],[-80.35932,37.47681],[-80.36915,37.46993],[-80.47522,37.41796],[-80.49892,37.43214],[-80.50227,37.4445],[-80.49856,37.4568],[-80.51216,37.47447],[-80.5507,37.46871],[-80.63201,37.42681],[-80.64334,37.41785],[-80.70287,37.3902],[-80.77073,37.37137],[-80.78834,37.39024],[-80.809,37.39398],[-80.81015,37.40423],[-80.83989,37.42076],[-80.86071,37.41202],[-80.88149,37.38403],[-80.84535,37.34405],[-80.86613,37.33443],[-80.8984,37.31048],[-80.97416,37.28645],[-80.98394,37.2892],[-80.98715,37.29595],[-81.09385,37.27773],[-81.15902,37.26344],[-81.22484,37.23313],[-81.32041,37.29819],[-81.36228,37.3361],[-81.363,37.32561],[-81.3721,37.31421],[-81.3909,37.31259],[-81.39249,37.30199],[-81.39886,37.29749],[-81.41396,37.26901],[-81.44574,37.26588],[-81.4794,37.24618],[-81.49928,37.24887],[-81.5041,37.22998],[-81.54176,37.21625],[-81.55171,37.20381],[-81.68226,37.19858],[-81.69736,37.20911],[-81.71912,37.2251],[-81.73972,37.23341],[-81.74708,37.23859],[-81.75048,37.25983],[-81.76265,37.27034],[-81.77629,37.27007],[-81.78531,37.27801],[-81.79827,37.28033],[-81.81974,37.27441],[-81.85825,37.28601],[-81.85945,37.29979],[-81.87024,37.30743],[-81.89631,37.3258],[-81.90362,37.33726],[-81.91964,37.34532],[-81.93254,37.3577],[-81.94174,37.38066],[-81.94521,37.42722],[-81.95248,37.44132],[-81.96742,37.44227],[-81.97789,37.4522],[-81.98922,37.45039],[-82.0006,37.46916],[-82.00134,37.47822],[-81.99556,37.48721],[-81.97862,37.49012],[-81.96673,37.49818],[-81.95929,37.49719],[-81.95689,37.50463],[-81.94915,37.50733],[-81.95228,37.52322],[-81.97324,37.53127],[-81.97205,37.5411],[-81.99273,37.53279],[-82.0,37.53467],[-82.00876,37.52826],[-82.03765,37.53728],[-82.04024,37.52622],[-82.04695,37.5232],[-82.05332,37.53111],[-82.06786,37.53324],[-82.06895,37.54214],[-82.0762,37.55077],[-82.10358,37.54809],[-82.11503,37.55464],[-82.12272,37.54651],[-82.13506,37.54832],[-82.13912,37.5598],[-82.14641,37.56196],[-82.14964,37.56801],[-82.14861,37.58591],[-82.15954,37.58866],[-82.16143,37.60363],[-82.17077,37.60425],[-82.17412,37.61385],[-82.21833,37.62202],[-82.22501,37.63254],[-82.2578,37.6518],[-82.28223,37.66746],[-82.28941,37.66338],[-82.29962,37.67128],[-82.30658,37.67151],[-82.30933,37.67845],[-82.30312,37.68565],[-82.30783,37.69443],[-82.3115,37.70507],[-82.32308,37.73012],[-82.3377,37.73873],[-82.33765,37.74618],[-82.32551,37.75755],[-82.33773,37.76228],[-82.34382,37.78146],[-82.37993,37.7987],[-82.38709,37.81191],[-82.39542,37.80426],[-82.40525,37.80662],[-82.4043,37.82703],[-82.42538,37.8458],[-82.42189,37.85392],[-82.42922,37.86236],[-82.42247,37.86895],[-82.42422,37.88125],[-82.43529,37.88605],[-82.44163,37.89615],[-82.45406,37.90402],[-82.4637,37.90648],[-82.46795,37.89558],[-82.47686,37.89585],[-82.48084,37.90119],[-82.47942,37.90862],[-82.49051,37.91294],[-82.49211,37.92204],[-82.50046,37.92387],[-82.50584,37.93018],[-82.50014,37.95002],[-82.48879,37.96153],[-82.48811,37.97415],[-82.46912,37.98097],[-82.48462,37.9794],[-82.49089,37.9939],[-82.52075,37.99753],[-82.53082,38.02363],[-82.54325,38.03544],[-82.54285,38.04329],[-82.55452,38.06645],[-82.5873,38.08687],[-82.59055,38.10443],[-82.60788,38.11575],[-82.62188,38.11638],[-82.62617,38.12953],[-82.63979,38.13412],[-82.64965,38.16455],[-82.64712,38.17239],[-82.64089,38.17577],[-82.61529,38.175],[-82.60418,38.19872],[-82.6035,38.21483],[-82.61349,38.22158],[-82.617,38.23768],[-82.60739,38.25186],[-82.58677,38.25068],[-82.57965,38.26484],[-82.58805,38.29695],[-82.57742,38.31712],[-82.58092,38.32495],[-82.60286,38.34384],[-82.6025,38.36532],[-82.59823,38.37504],[-82.60473,38.39012],[-82.60026,38.40184],[-82.60095,38.41948],[-82.59443,38.42555],[-82.58058,38.41148],[-82.55523,38.40455]]]}}
