{"type":"Feature","properties":{"sourceId":"us/colorado"},"geometry":{"type":"Polygon","coordinates":[[[-106.8698,36.98943],[-106.8786,36.99714],[-109.04509989499347,36.9989894877051],[-109.0441,37.375],[-109.0402,37.53058],[-109.0394,37.90712],[-109.0401,38.16462],[-109.0584,38.27564],[-109.0525,38.87485],[-109.0498,39.12499],[-109.0463,40.61924],[-109.04877999738945,40.998749040511456],[-106.44,41.00016],[-106.1108,40.99565],[-105.4356,40.99595],[-104.9675,40.99496],[-104.0483,40.99772],[-103.9413,40.98339],[-103.94162475128579,40.99918103127154],[-104.0563,40.99929],[-102.0568,40.99739],[-102.0535,40.00029],[-102.05348839924446,40.00029],[-102.0434206231403,36.99751098431975],[-103.0078,37.00529],[-103.00777544573081,36.99547688631637],[-106.8698,36.98943]]]}}
