{"type":"Feature","properties":{"sourceId":"us/kentucky"},"geometry":{"type":"MultiPolygon","coordinates":[[[[-89.49984,36.58479],[-89.45051,36.56095],[-89.46566,36.49908],[-89.55299,36.49944],[-89.58125,36.5521],[-89.55334,36.59265],[-89.49984,36.58479]]],[[[-89.25397,36.57353],[-89.22145,36.57794],[-89.207,36.63223],[-89.16892,36.66489],[-89.20438,36.70701],[-89.20455,36.74333],[-89.1663,36.76857],[-89.12493,36.77172],[-89.18086,36.79365],[-89.18456,36.842],[-89.13509,36.85558],[-89.10945,36.96626],[-89.15778,36.99141],[-89.18699,37.01752],[-89.18246,37.06934],[-89.14323,37.10198],[-89.1042,37.15003],[-89.0682,37.18988],[-89.0009,37.22882],[-88.93856,37.23339],[-88.89354,37.21979],[-88.79665,37.18713],[-88.72365,37.14298],[-88.69143,37.14411],[-88.5997,37.11323],[-88.55663,37.08237],[-88.51146,37.06839],[-88.46358,37.07842],[-88.4327,37.15302],[-88.50424,37.24735],[-88.525,37.27956],[-88.47889,37.39083],[-88.43488,37.42659],[-88.39835,37.42652],[-88.36468,37.40531],[-88.32983,37.43726],[-88.28151,37.45793],[-88.21887,37.4628],[-88.14664,37.47374],[-88.07792,37.48589],[-88.07538,37.52117],[-88.13794,37.56992],[-88.15664,37.61326],[-88.16318,37.66307],[-88.14442,37.69084],[-88.1159,37.71748],[-88.05735,37.74733],[-88.04101,37.79025],[-88.03422344027088,37.79647431265705],[-88.02899,37.79822],[-88.02919,37.79202],[-88.02744,37.79603],[-87.99725,37.79407],[-87.97162,37.77622],[-87.94807,37.76911],[-87.93316,37.78701],[-87.9025,37.80512],[-87.89934,37.83542],[-87.90656,37.84468],[-87.93634,37.88386],[-87.90113,37.92334],[-87.87769,37.91804],[-87.84295,37.87888],[-87.81716,37.87233],[-87.76715,37.87531],[-87.70264,37.89454],[-87.67151,37.89526],[-87.68369,37.85751],[-87.68459,37.82758],[-87.63867,37.82027],[-87.60699,37.83043],[-87.58533,37.86107],[-87.58263,37.89205],[-87.62007,37.91804],[-87.593,37.96714],[-87.54509,37.91001],[-87.50909,37.90309],[-87.44062,37.94104],[-87.40908,37.93965],[-87.23734,37.85012],[-87.16486,37.83439],[-87.13368,37.78465],[-87.10959,37.77761],[-87.0768,37.78945],[-87.0509,37.82454],[-87.00589,37.91397],[-86.90652,37.93627],[-86.82841,37.98982],[-86.74636,37.89934],[-86.71308,37.88688],[-86.65951,37.91047],[-86.67135,37.8388],[-86.63667,37.83777],[-86.59353,37.85839],[-86.59071,37.9167],[-86.5298,37.91269],[-86.5016,37.92871],[-86.51908,37.97273],[-86.51344,38.0385],[-86.47058,38.03895],[-86.43449,38.05671],[-86.38204,38.11885],[-86.28408,38.13422],[-86.28391,38.07314],[-86.25515,38.03939],[-86.1683,38.00518],[-86.12713,38.01229],[-86.08371,37.99852],[-86.0651,37.96651],[-86.04291,37.95102],[-86.00757,37.9954],[-85.96584,37.9994],[-85.92927,38.01193],[-85.9117,38.0425],[-85.90888,38.06959],[-85.89929,38.09533],[-85.90606,38.14192],[-85.89196,38.18493],[-85.8553,38.21507],[-85.83809,38.23339],[-85.82767,38.27265],[-85.7865,38.28416],[-85.75323,38.26335],[-85.6974,38.28239],[-85.65503,38.30885],[-85.62846,38.36938],[-85.60885,38.43054],[-85.56092,38.44865],[-85.49409,38.45983],[-85.46899,38.50251],[-85.42049,38.52325],[-85.40671,38.55164],[-85.42739,38.61156],[-85.43585,38.66793],[-85.45095,38.69512],[-85.43555,38.71881],[-85.41767,38.73208],[-85.39725,38.7276],[-85.25626,38.72674],[-85.19678,38.6743],[-85.12078,38.69751],[-84.99056,38.77321],[-84.93529,38.77208],[-84.88983,38.78966],[-84.82699,38.77955],[-84.79774,38.784],[-84.82338,38.83149],[-84.79033,38.85552],[-84.78042,38.87524],[-84.79364,38.89582],[-84.85532,38.90696],[-84.87087,38.91977],[-84.82668,38.9558],[-84.82668,38.98492],[-84.86521,39.03368],[-84.88616,39.05851],[-84.82383,39.09569],[-84.81412,39.09997],[-84.81607,39.10692],[-84.81605614454188,39.108924026262706],[-84.78936,39.1151],[-84.7739,39.13267],[-84.7598,39.14574],[-84.74802,39.14831],[-84.7305,39.14551],[-84.71684,39.13686],[-84.69713,39.11336],[-84.68176,39.10046],[-84.66716,39.09849],[-84.65405,39.09515],[-84.63547,39.08036],[-84.61959,39.07412],[-84.60581,39.0748],[-84.59788,39.07717],[-84.57353,39.08275],[-84.56386,39.08937],[-84.5537,39.09951],[-84.54599,39.1002],[-84.5372,39.09852],[-84.52429,39.09267],[-84.51135,39.09382],[-84.49874,39.09943],[-84.49059,39.10814],[-84.48372,39.11564],[-84.47334,39.12159],[-84.45723,39.12266],[-84.44331,39.11475],[-84.4326,39.09878],[-84.43189,39.07152],[-84.42776,39.05736],[-84.41431,39.05016],[-84.38381,39.04655],[-84.351,39.04002],[-84.31963,39.02613],[-84.29754,38.99907],[-84.29379,38.97259],[-84.27972,38.94639],[-84.25563,38.92393],[-84.23377,38.89718],[-84.23051,38.87755],[-84.23089,38.8383],[-84.21357,38.80843],[-84.19341,38.80195],[-84.14498,38.79468],[-84.10449,38.77879],[-84.04273,38.77236],[-83.99008,38.78856],[-83.95438,38.78916],[-83.92412,38.77532],[-83.88628,38.76873],[-83.85201,38.75569],[-83.82819,38.71439],[-83.78325,38.70083],[-83.76603,38.65656],[-83.72971,38.65213],[-83.70684,38.64218],[-83.65062,38.63463],[-83.63866,38.6724],[-83.62867,38.68094],[-83.58174,38.69323],[-83.51768,38.70538],[-83.48676,38.69257],[-83.45571,38.67494],[-83.38937,38.66693],[-83.34613,38.65305],[-83.32046,38.63296],[-83.31717,38.61086],[-83.2999,38.59978],[-83.28878,38.60102],[-83.2657,38.622],[-83.25386,38.62789],[-83.23307,38.62982],[-83.2049,38.61838],[-83.17596,38.62053],[-83.13677,38.63305],[-83.12636,38.6604],[-83.10743,38.67698],[-83.05314,38.69795],[-83.03165,38.72901],[-83.00833,38.73244],[-82.98148,38.72811],[-82.94406,38.74544],[-82.89807,38.7595],[-82.87551,38.7539],[-82.86795,38.73076],[-82.87467,38.68837],[-82.86213,38.67118],[-82.85536,38.64891],[-82.85423,38.62053],[-82.84212,38.59002],[-82.81293,38.57075],[-82.77705,38.5619],[-82.72732,38.56018],[-82.69213,38.54105],[-82.67488,38.51698],[-82.6516,38.49535],[-82.61164,38.47573],[-82.60225,38.46097],[-82.59584,38.42698],[-82.59443145544532,38.4255486450072],[-82.60095,38.41948],[-82.60026,38.40184],[-82.60473,38.39012],[-82.59823,38.37504],[-82.6025,38.36532],[-82.60286,38.34384],[-82.58092,38.32495],[-82.57742,38.31712],[-82.58805,38.29695],[-82.57965,38.26484],[-82.58677,38.25068],[-82.60739,38.25186],[-82.617,38.23768],[-82.61349,38.22158],[-82.6035,38.21483],[-82.60418,38.19872],[-82.61529,38.175],[-82.64089,38.17577],[-82.64712,38.17239],[-82.64965,38.16455],[-82.63979,38.13412],[-82.62617,38.12953],[-82.62188,38.11638],[-82.60788,38.11575],[-82.59055,38.10443],[-82.5873,38.08687],[-82.55452,38.06645],[-82.54285,38.04329],[-82.54325,38.03544],[-82.53082,38.02363],[-82.52075,37.99753],[-82.49089,37.9939],[-82.48462,37.9794],[-82.46912,37.98097],[-82.48811,37.97415],[-82.48879,37.96153],[-82.50014,37.95002],[-82.50584,37.93018],[-82.50046,37.92387],[-82.49211,37.92204],[-82.49051,37.91294],[-82.47942,37.90862],[-82.48084,37.90119],[-82.47686,37.89585],[-82.46795,37.89558],[-82.4637,37.90648],[-82.45406,37.90402],[-82.44163,37.89615],[-82.43529,37.88605],[-82.42422,37.88125],[-82.42247,37.86895],[-82.42922,37.86236],[-82.42189,37.85392],[-82.42538,37.8458],[-82.4043,37.82703],[-82.40525,37.80662],[-82.39542,37.80426],[-82.38709,37.81191],[-82.37993,37.7987],[-82.34382,37.78146],[-82.33773,37.76228],[-82.32551,37.75755],[-82.33765,37.74618],[-82.3377,37.73873],[-82.32308,37.73012],[-82.3115,37.70507],[-82.30783,37.69443],[-82.30312,37.68565],[-82.30933,37.67845],[-82.30658,37.67151],[-82.29962,37.67128],[-82.28941,37.66338],[-82.28223,37.66746],[-82.2578,37.6518],[-82.22501,37.63254],[-82.21833,37.62202],[-82.17412,37.61385],[-82.17077,37.60425],[-82.16143,37.60363],[-82.15954,37.58866],[-82.14861,37.58591],[-82.14964,37.56801],[-82.14641,37.56196],[-82.13912,37.5598],[-82.13506,37.54832],[-82.12272,37.54651],[-82.11503,37.55464],[-82.10358,37.54809],[-82.0762,37.55077],[-82.06895,37.54214],[-82.06786,37.53324],[-82.05332,37.53111],[-82.04695,37.5232],[-82.04024,37.52622],[-82.03765,37.53728],[-82.00876,37.52826],[-82.0,37.53467],[-81.99273,37.53279],[-81.97205,37.5411],[-81.97316166567865,37.53191708099068],[-82.35182,37.26237],[-82.49761,37.22238],[-82.71829,37.11059],[-82.71394,37.03988],[-82.85876,36.96827],[-82.84815,36.92761],[-82.87828,36.88396],[-82.90816,36.87406],[-82.97099,36.85681],[-83.0099,36.84577],[-83.06804,36.85101],[-83.11879,36.77779],[-83.1299,36.74356],[-83.31358,36.70779],[-83.42152,36.66637],[-83.52388,36.66011],[-83.65516,36.61127],[-83.69031,36.58141],[-84.12693,36.59065],[-84.56859,36.59502],[-84.84216,36.60382],[-85.16174,36.62314],[-85.49345,36.6131],[-85.69287,36.61689],[-85.89208,36.62337],[-86.09127,36.6322],[-86.50762,36.65114],[-86.56362,36.63271],[-86.59066,36.65079],[-87.85757,36.63253],[-87.85751,36.66421],[-88.06447,36.67551],[-88.02256,36.54184],[-88.04535,36.49325],[-88.52715,36.50004],[-88.87502,36.50205],[-89.42729,36.49892],[-89.42799,36.49892],[-89.38091,36.62996],[-89.32464,36.63809],[-89.25397,36.57353]]]]}}
