{"type":"Feature","properties":{"sourceId":"us/virginia"},"geometry":{"type":"Polygon","coordinates":[[[-76.91606,36.54082],[-77.16986,36.5443],[-78.52971,36.53798],[-80.12222,36.53965],[-80.29538,36.54098],[-80.70492,36.55932],[-80.83776,36.55612],[-81.00382,36.56063],[-81.17698,36.56893],[-81.44232,36.57382],[-81.66332282669732,36.58513509141786],[-81.64416,36.61315],[-81.92373,36.61698],[-81.93481,36.59573],[-82.1481,36.59503],[-82.21229,36.59607],[-82.59858,36.59635],[-82.71439,36.59454],[-83.26098,36.59504],[-83.27651,36.59881],[-83.62517,36.59939],[-83.66680113035324,36.60138083492609],[-83.66876117456597,36.599715773185196],[-83.66876117456599,36.599715773185196],[-83.65516,36.61127],[-83.52388,36.66011],[-83.42152,36.66637],[-83.31358,36.70779],[-83.1299,36.74356],[-83.11879,36.77779],[-83.06804,36.85101],[-83.0099,36.84577],[-82.97099,36.85681],[-82.90816,36.87406],[-82.87828,36.88396],[-82.84815,36.92761],[-82.85876,36.96827],[-82.71394,37.03988],[-82.71829,37.11059],[-82.49761,37.22238],[-82.35182,37.26237],[-81.97316166567865,37.53191708099068],[-81.97324,37.53127],[-81.95228,37.52322],[-81.94915,37.50733],[-81.95689,37.50463],[-81.95929,37.49719],[-81.96673,37.49818],[-81.97862,37.49012],[-81.99556,37.48721],[-82.00134,37.47822],[-82.0006,37.46916],[-81.98922,37.45039],[-81.97789,37.4522],[-81.96742,37.44227],[-81.95248,37.44132],[-81.94521,37.42722],[-81.94174,37.38066],[-81.93254,37.3577],[-81.91964,37.34532],[-81.90362,37.33726],[-81.89631,37.3258],[-81.87024,37.30743],[-81.85945,37.29979],[-81.85825,37.28601],[-81.81974,37.27441],[-81.79827,37.28033],[-81.78531,37.27801],[-81.77629,37.27007],[-81.76265,37.27034],[-81.75048,37.25983],[-81.74708,37.23859],[-81.73972,37.23341],[-81.71912,37.2251],[-81.69736,37.20911],[-81.68226,37.19858],[-81.55171,37.20381],[-81.54176,37.21625],[-81.5041,37.22998],[-81.49928,37.24887],[-81.4794,37.24618],[-81.44574,37.26588],[-81.41396,37.26901],[-81.39886,37.29749],[-81.39249,37.30199],[-81.3909,37.31259],[-81.3721,37.31421],[-81.363,37.32561],[-81.36228,37.3361],[-81.32041,37.29819],[-81.22484,37.23313],[-81.15902,37.26344],[-81.09385,37.27773],[-80.98715,37.29595],[-80.98394,37.2892],[-80.97416,37.28645],[-80.8984,37.31048],[-80.86613,37.33443],[-80.84535,37.34405],[-80.88149,37.38403],[-80.86071,37.41202],[-80.83989,37.42076],[-80.81015,37.40423],[-80.809,37.39398],[-80.78834,37.39024],[-80.77073,37.37137],[-80.70287,37.3902],[-80.64334,37.41785],[-80.63201,37.42681],[-80.5507,37.46871],[-80.51216,37.47447],[-80.49856,37.4568],[-80.50227,37.4445],[-80.49892,37.43214],[-80.47522,37.41796],[-80.36915,37.46993],[-80.35932,37.47681],[-80.32553,37.49063],[-80.29697,37.50415],[-80.27784,37.53561],[-80.29107,37.54147],[-80.30956,37.5329],[-80.31905,37.53691],[-80.30739,37.54612],[-80.32015,37.56246],[-80.238,37.60251],[-80.21601,37.6273],[-80.23691,37.64207],[-80.26496,37.65065],[-80.2753,37.66014],[-80.28976,37.69011],[-80.24798,37.72461],[-80.24773,37.73238],[-80.2574,37.73881],[-80.2537,37.75106],[-80.24566,37.75429],[-80.24417,37.76377],[-80.22727,37.77384],[-80.21691,37.77106],[-80.21177,37.77433],[-80.21146,37.7843],[-80.22285,37.7962],[-80.20282,37.81257],[-80.19622,37.82384],[-80.17539,37.83675],[-80.1783,37.84846],[-80.15869,37.87152],[-80.14001,37.87801],[-80.12305,37.89237],[-80.11447,37.89394],[-80.11309,37.90295],[-80.101,37.91363],[-80.09345,37.9142],[-80.07039,37.9389],[-80.04515,37.95369],[-79.99515,37.99318],[-79.96947,38.02989],[-79.92159,38.10557],[-79.92373,38.11142],[-79.93474,38.11502],[-79.92568,38.13606],[-79.92225,38.14595],[-79.91422,38.1525],[-79.9099,38.16708],[-79.89525,38.18918],[-79.88732,38.20163],[-79.84716,38.22946],[-79.84268,38.23653],[-79.83219,38.23784],[-79.81733,38.24379],[-79.81083,38.24861],[-79.78501,38.26562],[-79.78256,38.27373],[-79.78555,38.28381],[-79.79241,38.32028],[-79.7697,38.33185],[-79.76153,38.3519],[-79.7395,38.34923],[-79.72136,38.36117],[-79.72577,38.37632],[-79.68481,38.43029],[-79.68337,38.45699],[-79.69313,38.47339],[-79.68844,38.48067],[-79.69233,38.48674],[-79.67887,38.49847],[-79.6766,38.5055],[-79.6687,38.50304],[-79.6574,38.51375],[-79.66188,38.53802],[-79.65477,38.56025],[-79.64646,38.58523],[-79.54034,38.5472],[-79.52534,38.53065],[-79.4789,38.45277],[-79.31356,38.40704],[-79.28895,38.41555],[-79.28118,38.41343],[-79.27547,38.41899],[-79.26453,38.43424],[-79.25275,38.45021],[-79.23925,38.45049],[-79.22238,38.47271],[-79.20638,38.49021],[-79.16644,38.56598],[-79.15381,38.59111],[-79.14697,38.61794],[-79.1199,38.65519],[-79.10516,38.65136],[-79.08853,38.65719],[-79.07937,38.68611],[-79.08102,38.72224],[-79.02356,38.78875],[-79.0025,38.82079],[-78.99451,38.84378],[-78.87214,38.75889],[-78.86686,38.75861],[-78.78271,38.88342],[-78.75613,38.8965],[-78.72463,38.90457],[-78.71696,38.8993],[-78.68004,38.92149],[-78.65532,38.94405],[-78.63575,38.96259],[-78.62149,38.96995],[-78.60042,38.96111],[-78.56698,38.99795],[-78.54533,39.01832],[-78.56429,39.03171],[-78.53698,39.05679],[-78.51973,39.06705],[-78.49117,39.09753],[-78.45649,39.10967],[-78.43544,39.12913],[-78.42425,39.14859],[-78.39978,39.16434],[-78.40333,39.17434],[-78.42247,39.18617],[-78.41988,39.19452],[-78.42894,39.20083],[-78.40187,39.22783],[-78.39477,39.24287],[-78.41128,39.25957],[-78.35643,39.31431],[-78.33471,39.34658],[-78.33783,39.35773],[-78.35697,39.36172],[-78.3383,39.38788],[-78.35476,39.40962],[-78.34189,39.4263],[-78.34573,39.43591],[-78.34051,39.45596],[-77.82856,39.12772],[-77.81791,39.13739],[-77.81702,39.1497],[-77.80062,39.172],[-77.7891,39.20763],[-77.76708,39.23428],[-77.76378,39.25294],[-77.75832,39.25632],[-77.74301,39.29238],[-77.73135,39.30877],[-77.71466109979411,39.31991528292011],[-77.70792,39.31996],[-77.69312,39.31661],[-77.67607,39.32271],[-77.65108,39.30906],[-77.61655,39.30099],[-77.59228,39.29953],[-77.56197,39.2849],[-77.55504,39.27994],[-77.5442,39.26555],[-77.51171,39.25181],[-77.49057,39.2473],[-77.46071,39.22669],[-77.46024,39.22068],[-77.47568,39.20825],[-77.47893,39.19154],[-77.48593,39.18751],[-77.50974,39.18169],[-77.51898,39.17013],[-77.52907,39.14652],[-77.52621,39.12759],[-77.52147,39.11987],[-77.48473,39.10687],[-77.47047,39.08934],[-77.47046,39.0849],[-77.46256,39.07411],[-77.42097,39.06475],[-77.38598,39.06042],[-77.34017,39.06109],[-77.31545,39.05041],[-77.30637,39.05008],[-77.29553,39.04567],[-77.27548,39.03263],[-77.2477,39.02393],[-77.24671,39.01806],[-77.25456,39.01011],[-77.25756,39.00169],[-77.24594,38.98153],[-77.23584,38.97472],[-77.23018,38.97787],[-77.22442,38.97057],[-77.19761,38.96499],[-77.18181,38.96712],[-77.148,38.96314],[-77.13724,38.95412],[-77.12956,38.94111],[-77.12008800174966,38.934259367520596],[-77.1201,38.93425],[-77.11637,38.92796],[-77.10096,38.90973],[-77.08982,38.90269],[-77.06894,38.89916],[-77.06375,38.88571],[-77.05021,38.86918],[-77.04278,38.87264],[-77.03926,38.86885],[-77.03821,38.86518],[-77.04386,38.86391],[-77.03496,38.85841],[-77.03395,38.84359],[-77.0365,38.84124],[-77.04733,38.84171],[-77.04579,38.83453],[-77.04377,38.83082],[-77.03811,38.82999],[-77.04188,38.82329],[-77.03782,38.81408],[-77.03784,38.80922],[-77.0393,38.80094],[-77.0393372329508,38.79167830348684],[-77.04054,38.79074],[-77.04472,38.71887],[-77.05384,38.71111],[-77.07515,38.71272],[-77.10595,38.69855],[-77.12369,38.6868],[-77.13453,38.67378],[-77.1381,38.65049],[-77.13246,38.63616],[-77.20468,38.61925],[-77.24779,38.59429],[-77.25793,38.56187],[-77.27748,38.54846],[-77.27791,38.54039],[-77.28455,38.52626],[-77.30156,38.50337],[-77.31164,38.4958],[-77.32035,38.47411],[-77.32196,38.43662],[-77.32458,38.43457],[-77.32421,38.43028],[-77.31218,38.39946],[-77.30655,38.37467],[-77.29839,38.36975],[-77.28975,38.35866],[-77.28589,38.34152],[-77.26629,38.33119],[-77.24538,38.32922],[-77.20434,38.33886],[-77.17699,38.33995],[-77.15715,38.34703],[-77.13807,38.366],[-77.08374,38.36697],[-77.06966,38.37646],[-77.05507,38.39509],[-77.04245,38.39914],[-77.01476,38.37469],[-77.01803,38.37012],[-77.0163,38.36078],[-77.01877,38.34133],[-77.01657,38.33294],[-77.0322,38.31231],[-77.02923,38.30392],[-77.01878,38.2977],[-77.00226,38.27875],[-76.99053,38.27262],[-76.98208,38.27304],[-76.9637,38.25633],[-76.95854,38.23765],[-76.9638,38.2296],[-76.95005,38.20711],[-76.93677,38.20062],[-76.91187,38.19603],[-76.87747,38.17138],[-76.85946,38.16938],[-76.85558,38.16612],[-76.83986,38.16206],[-76.78766,38.16762],[-76.69014,38.1587],[-76.6119,38.1476],[-76.60215,38.11326],[-76.59572,38.10464],[-76.58142,38.09415],[-76.53657,38.07335],[-76.53499,38.06169],[-76.51791,38.04448],[-76.51786,38.02563],[-76.49591,38.01701],[-76.46575,38.01163],[-76.4349,37.98056],[-76.41344,37.96473],[-76.33774,37.94299],[-76.25932,37.90468],[-76.24781,37.89296],[-76.22881,37.88396],[-76.05176,37.95191],[-75.99339,37.95168],[-75.94575,37.94464],[-75.95427,37.90706],[-75.95285,37.905],[-75.88298,37.90961],[-75.80073,37.91048],[-75.761,37.93969],[-75.70449,37.95282],[-75.69184,37.95355],[-75.65665,37.94351],[-75.64751,37.9451],[-75.64687,37.96566],[-75.63789,37.97752],[-75.6321,37.97381],[-75.62829,37.9748],[-75.62774,37.97807],[-75.63281,37.98365],[-75.62537,37.9877],[-75.62317,37.9927],[-75.13859,38.0258],[-75.13722966397249,38.02893568107883],[-74.29751,38.02807],[-75.79496,36.54931],[-76.19266,36.54755],[-76.9141,36.54907],[-76.91606,36.54082]]]}}
