{"type":"Feature","properties":{"sourceId":"us/ohio"},"geometry":{"type":"Polygon","coordinates":[[[-82.80836,41.76026],[-82.63504,41.70539],[-82.30042,41.75045],[-81.385,42.20145],[-80.50521,42.33584],[-80.51674,41.2276],[-80.5164053589197,40.646318601122],[-80.55931,40.62946],[-80.57176,40.61845],[-80.58154,40.61747],[-80.59879,40.62835],[-80.6351,40.62001],[-80.64754,40.60418],[-80.66505,40.59362],[-80.67072,40.58365],[-80.67003,40.57178],[-80.63394,40.53664],[-80.62587,40.52295],[-80.61716,40.49207],[-80.60042,40.47718],[-80.60005,40.4618],[-80.61287,40.44329],[-80.61682,40.43081],[-80.61768,40.40546],[-80.63604,40.39631],[-80.63639,40.38565],[-80.61269,40.37662],[-80.61027,40.36351],[-80.6181,40.34857],[-80.6042,40.31946],[-80.61922,40.29111],[-80.62059,40.2682],[-80.65003,40.25071],[-80.66454,40.23164],[-80.66702,40.22033],[-80.67089,40.20031],[-80.69149,40.17914],[-80.7079,40.15294],[-80.7122,40.1367],[-80.71175,40.09942],[-80.73156,40.08857],[-80.74058,40.0782],[-80.73947,40.06546],[-80.73264,40.05132],[-80.73183,40.03979],[-80.73828,40.02806],[-80.7399,40.02003],[-80.74447,40.0087],[-80.74097,39.98871],[-80.74273,39.97219],[-80.76867,39.95471],[-80.75936,39.91178],[-80.79728,39.92292],[-80.80982,39.91903],[-80.81278,39.90233],[-80.79637,39.88231],[-80.79315,39.86601],[-80.80229,39.85981],[-80.81466,39.85589],[-80.82542,39.8497],[-80.82918,39.83979],[-80.8238,39.82017],[-80.82999,39.79682],[-80.86676,39.77444],[-80.87176,39.76538],[-80.86791,39.75218],[-80.84344,39.72984],[-80.83384,39.70562],[-80.86468,39.69467],[-80.87033,39.67149],[-80.86872,39.65576],[-80.88001,39.62387],[-80.89072,39.61882],[-80.92474,39.62033],[-80.93783,39.61454],[-80.97731,39.58863],[-81.02297,39.55607],[-81.07533,39.5157],[-81.09872,39.49178],[-81.12803,39.45172],[-81.13765,39.44632],[-81.15271,39.44446],[-81.17476,39.43947],[-81.18579,39.43262],[-81.21322,39.40478],[-81.22163,39.38732],[-81.24737,39.39252],[-81.27238,39.3869],[-81.30949,39.37007],[-81.35225,39.34553],[-81.37116,39.34334],[-81.38775,39.34823],[-81.4055,39.3894],[-81.42594,39.40686],[-81.44858,39.41267],[-81.46978,39.40457],[-81.50743,39.37173],[-81.55066,39.3554],[-81.56233,39.33775],[-81.57121,39.26958],[-81.60698,39.27791],[-81.66155,39.27931],[-81.68369,39.27532],[-81.70017,39.25751],[-81.69529,39.22811],[-81.73009,39.2174],[-81.74194,39.19522],[-81.76025,39.18184],[-81.74782,39.14147],[-81.75408,39.09303],[-81.77387,39.0805],[-81.81008,39.08596],[-81.81841,39.07854],[-81.81379,39.05734],[-81.7995,39.04069],[-81.77765,39.02633],[-81.76925,39.01033],[-81.77807,38.98911],[-81.78438,38.96036],[-81.75916,38.9352],[-81.76552,38.92516],[-81.78942,38.92964],[-81.80413,38.94369],[-81.82487,38.95333],[-81.84489,38.93454],[-81.85623,38.8976],[-81.89332,38.87696],[-81.9211,38.89264],[-81.8921,38.93147],[-81.93727,38.99711],[-81.95498,38.99662],[-81.97828,38.99579],[-81.98817,39.02013],[-82.00792,39.03221],[-82.0386,39.02764],[-82.05247,38.99499],[-82.09268,38.97835],[-82.11634,38.93258],[-82.1472,38.89429],[-82.14701,38.88484],[-82.14155,38.86783],[-82.14995,38.83642],[-82.17054,38.82234],[-82.19155,38.81677],[-82.22409,38.79159],[-82.22223,38.77125],[-82.20038,38.75487],[-82.18525,38.70668],[-82.1945,38.68471],[-82.17475,38.62531],[-82.18189,38.60069],[-82.19722,38.59522],[-82.22189,38.59327],[-82.25618,38.60211],[-82.27559,38.59543],[-82.29534,38.57737],[-82.29745,38.54024],[-82.30459,38.52479],[-82.30585,38.49947],[-82.33179,38.44595],[-82.38988,38.43576],[-82.40519,38.44127],[-82.43989,38.42972],[-82.47435,38.42248],[-82.5331,38.40529],[-82.55523,38.40455],[-82.58058,38.41148],[-82.59443,38.42555],[-82.59443145544532,38.4255486450072],[-82.59584,38.42698],[-82.60225,38.46097],[-82.61164,38.47573],[-82.6516,38.49535],[-82.67488,38.51698],[-82.69213,38.54105],[-82.72732,38.56018],[-82.77705,38.5619],[-82.81293,38.57075],[-82.84212,38.59002],[-82.85423,38.62053],[-82.85536,38.64891],[-82.86213,38.67118],[-82.87467,38.68837],[-82.86795,38.73076],[-82.87551,38.7539],[-82.89807,38.7595],[-82.94406,38.74544],[-82.98148,38.72811],[-83.00833,38.73244],[-83.03165,38.72901],[-83.05314,38.69795],[-83.10743,38.67698],[-83.12636,38.6604],[-83.13677,38.63305],[-83.17596,38.62053],[-83.2049,38.61838],[-83.23307,38.62982],[-83.25386,38.62789],[-83.2657,38.622],[-83.28878,38.60102],[-83.2999,38.59978],[-83.31717,38.61086],[-83.32046,38.63296],[-83.34613,38.65305],[-83.38937,38.66693],[-83.45571,38.67494],[-83.48676,38.69257],[-83.51768,38.70538],[-83.58174,38.69323],[-83.62867,38.68094],[-83.63866,38.6724],[-83.65062,38.63463],[-83.70684,38.64218],[-83.72971,38.65213],[-83.76603,38.65656],[-83.78325,38.70083],[-83.82819,38.71439],[-83.85201,38.75569],[-83.88628,38.76873],[-83.92412,38.77532],[-83.95438,38.78916],[-83.99008,38.78856],[-84.04273,38.77236],[-84.10449,38.77879],[-84.14498,38.79468],[-84.19341,38.80195],[-84.21357,38.80843],[-84.23089,38.8383],[-84.23051,38.87755],[-84.23377,38.89718],[-84.25563,38.92393],[-84.27972,38.94639],[-84.29379,38.97259],[-84.29754,38.99907],[-84.31963,39.02613],[-84.351,39.04002],[-84.38381,39.04655],[-84.41431,39.05016],[-84.42776,39.05736],[-84.43189,39.07152],[-84.4326,39.09878],[-84.44331,39.11475],[-84.45723,39.12266],[-84.47334,39.12159],[-84.48372,39.11564],[-84.49059,39.10814],[-84.49874,39.09943],[-84.51135,39.09382],[-84.52429,39.09267],[-84.5372,39.09852],[-84.54599,39.1002],[-84.5537,39.09951],[-84.56386,39.08937],[-84.57353,39.08275],[-84.59788,39.07717],[-84.60581,39.0748],[-84.61959,39.07412],[-84.63547,39.08036],[-84.65405,39.09515],[-84.66716,39.09849],[-84.68176,39.10046],[-84.69713,39.11336],[-84.71684,39.13686],[-84.7305,39.14551],[-84.74802,39.14831],[-84.7598,39.14574],[-84.7739,39.13267],[-84.78936,39.1151],[-84.81605614454188,39.108924026262706],[-84.81118,39.8142],[-84.79955,40.5018],[-84.80364774290453,41.697126782074285],[-83.41643,41.73548],[-83.11246,41.96111],[-83.10642,41.96397],[-83.05735,41.86716],[-82.80836,41.76026]]]}}
