{"type":"Feature","properties":{"sourceId":"us/missouri"},"geometry":{"type":"Polygon","coordinates":[[[-94.62098,37.72216],[-94.61249,38.6192],[-94.60773,39.12141],[-94.59122,39.13884],[-94.59278,39.15419],[-94.60741,39.1592],[-94.64408,39.1521],[-94.66317,39.15728],[-94.67534,39.17812],[-94.71377,39.16769],[-94.74277,39.16732],[-94.81287,39.20313],[-94.82771,39.20933],[-94.83802,39.22022],[-94.83382,39.25437],[-94.88878,39.28403],[-94.90813,39.31087],[-94.91284,39.35355],[-94.90402,39.36297],[-94.88386,39.37217],[-94.88717,39.38763],[-94.90095,39.38988],[-94.92341,39.38151],[-94.94369,39.387],[-94.97501,39.41952],[-95.03941,39.46137],[-95.04975,39.4735],[-95.08452,39.51432],[-95.11212,39.54126],[-95.11606,39.55941],[-95.10828,39.5776],[-95.08971,39.58402],[-95.05192,39.59107],[-95.05781,39.62583],[-95.02976,39.66758],[-95.01657,39.67698],[-94.9742,39.72924],[-94.96714,39.74145],[-94.94785,39.74846],[-94.89941,39.72705],[-94.87716,39.73311],[-94.86555,39.74456],[-94.86364,39.76211],[-94.87042,39.76994],[-94.91225,39.75634],[-94.93795,39.77421],[-94.93436,39.7888],[-94.88367,39.81714],[-94.91763,39.83322],[-94.94234,39.85039],[-94.94531,39.8618],[-94.94117,39.89263],[-95.00002,39.89221],[-95.03727,39.86258],[-95.08514,39.85889],[-95.12882,39.87124],[-95.14301,39.8799],[-95.20173,39.90313],[-95.25182,39.94608],[-95.27174,39.96699],[-95.30466,39.98227],[-95.38739,40.02378],[-95.40919,40.03081],[-95.41953,40.04194],[-95.42453,40.05974],[-95.41849,40.0672],[-95.39853,40.09572],[-95.43048,40.13313],[-95.43868,40.15675],[-95.46249,40.16673],[-95.48217,40.18461],[-95.48529,40.20106],[-95.52237,40.2465],[-95.55389,40.25926],[-95.55933,40.26776],[-95.55441,40.28744],[-95.56324,40.29455],[-95.58283,40.29677],[-95.61096,40.311],[-95.64501,40.30271],[-95.66013,40.3098],[-95.65574,40.32488],[-95.63146,40.33359],[-95.62572,40.34067],[-95.62949,40.35093],[-95.64374,40.36511],[-95.64677,40.38577],[-95.66444,40.41558],[-95.66035,40.42674],[-95.67232,40.45375],[-95.69522,40.46724],[-95.69925,40.48266],[-95.70296,40.50552],[-95.70756,40.51873],[-95.72243,40.5251],[-95.73734,40.52093],[-95.75771,40.52305],[-95.7716,40.53339],[-95.76639,40.55072],[-95.77751,40.57252],[-95.77602,40.5799],[-95.76778064805458,40.58647092271271],[-95.76709,40.5848],[-94.63207,40.56819],[-94.29474,40.56834],[-92.68663,40.58681],[-91.73058,40.61058],[-91.71855,40.59611],[-91.68884,40.57912],[-91.69456,40.56491],[-91.69029,40.55484],[-91.62235,40.5388],[-91.62389,40.50846],[-91.59291,40.4901],[-91.57645,40.4632],[-91.55328,40.45583],[-91.53662,40.43841],[-91.52952,40.42034],[-91.52676,40.40867],[-91.49378,40.39241],[-91.48379,40.37944],[-91.46394,40.37266],[-91.45144,40.37268],[-91.44029,40.38294],[-91.42470815626571,40.37727588903119],[-91.44833,40.36404],[-91.46922,40.33593],[-91.49555,40.27925],[-91.50873,40.23961],[-91.51608,40.17866],[-91.51474,40.14731],[-91.5122,40.12136],[-91.49276,40.05719],[-91.49772,40.03549],[-91.4677,39.98218],[-91.4223,39.92691],[-91.42321,39.9168],[-91.44606,39.89517],[-91.44987,39.88357],[-91.44933,39.86982],[-91.43859,39.84391],[-91.4309,39.83514],[-91.37295,39.74506],[-91.36978,39.72682],[-91.30395,39.67701],[-91.27796,39.66336],[-91.23115,39.61848],[-91.15532,39.54577],[-91.10195,39.53593],[-91.08198,39.5057],[-91.06205,39.46738],[-91.03993,39.44594],[-90.99506,39.42024],[-90.93025,39.38495],[-90.90656,39.37688],[-90.89564,39.36499],[-90.81859,39.31805],[-90.75362,39.26321],[-90.72002,39.21305],[-90.71078,39.15002],[-90.71633,39.05678],[-90.71447,39.04597],[-90.66589,38.92641],[-90.62711,38.8864],[-90.5837,38.86605],[-90.54494,38.87116],[-90.49782,38.90847],[-90.48428,38.92467],[-90.47977,38.94301],[-90.39668,38.95716],[-90.30998,38.92117],[-90.25139,38.91656],[-90.22458,38.9048],[-90.1991,38.88504],[-90.11534,38.84694],[-90.11213,38.83774],[-90.12543,38.80013],[-90.16832,38.77497],[-90.17908,38.75588],[-90.20705,38.73452],[-90.21427,38.72226],[-90.21279,38.70424],[-90.1877,38.67421],[-90.18266,38.6562],[-90.17986,38.63406],[-90.18704,38.61028],[-90.19811,38.59427],[-90.22631,38.5757],[-90.26278,38.53006],[-90.28807,38.44463],[-90.29771,38.42863],[-90.35202,38.37956],[-90.37362,38.33464],[-90.37683,38.2811],[-90.35888,38.2162],[-90.33319,38.18507],[-90.24537,38.11069],[-90.22051,38.09197],[-90.17309,38.06676],[-90.12874,38.03912],[-90.1119,38.02389],[-90.08886,38.01283],[-90.05327,38.00128],[-90.03408,37.99267],[-89.99832,37.96048],[-89.97776,37.92767],[-89.97624,37.91616],[-89.95197,37.87886],[-89.924,37.86778],[-89.90125,37.86688],[-89.84364,37.90232],[-89.80122,37.87897],[-89.80308,37.86735],[-89.78813,37.8493],[-89.74112,37.84394],[-89.71904,37.82316],[-89.67184,37.79777],[-89.66336,37.78556],[-89.67098,37.75979],[-89.66504,37.74757],[-89.64967,37.7425],[-89.5845,37.7105],[-89.51872,37.69053],[-89.51504,37.68161],[-89.52047,37.64002],[-89.52235,37.58434],[-89.5249,37.56038],[-89.51988,37.53628],[-89.47795,37.46962],[-89.4423,37.43557],[-89.42407,37.38778],[-89.43752,37.3471],[-89.4855,37.33836],[-89.51173,37.31647],[-89.5213,37.29011],[-89.51954,37.28027],[-89.49119,37.2486],[-89.46143,37.24703],[-89.4705,37.22195],[-89.46454,37.19816],[-89.42787,37.1363],[-89.38142,37.09327],[-89.3787,37.081],[-89.38842,37.0548],[-89.37981,37.03703],[-89.32437,37.01343],[-89.29349,36.98952],[-89.27305,36.98772],[-89.26073,36.99898],[-89.25464,37.01506],[-89.25735,37.02469],[-89.23615,37.03513],[-89.19497,36.97913],[-89.18704,36.97095],[-89.16969,36.96731],[-89.13352020700474,36.97878567155326],[-89.13992697088156,36.98211962792616],[-89.10945,36.96626],[-89.13509,36.85558],[-89.18456,36.842],[-89.18086,36.79365],[-89.12493,36.77172],[-89.1663,36.76857],[-89.20455,36.74333],[-89.20438,36.70701],[-89.16892,36.66489],[-89.207,36.63223],[-89.22145,36.57794],[-89.25397,36.57353],[-89.32464,36.63809],[-89.38091,36.62996],[-89.42799,36.49892],[-89.42798951951951,36.49892],[-89.43131,36.48968],[-89.47435,36.46359],[-89.46566533693144,36.499080022000406],[-89.46566,36.49908],[-89.45051,36.56095],[-89.49984,36.58479],[-89.55334,36.59265],[-89.58125,36.5521],[-89.55299,36.49944],[-89.55298650070597,36.49943998557488],[-89.53869,36.47281],[-89.55418,36.42851],[-89.52938,36.36252],[-89.62393,36.34084],[-89.6259,36.30381],[-89.54645,36.26941],[-89.70075,36.25723],[-89.71831,36.23597],[-89.60158,36.15746],[-89.62196,36.12211],[-89.68367,36.09771],[-89.71292,36.00613],[-89.73226,36.00603834123223],[-89.73226,36.00604],[-90.35779,36.00298],[-90.28819,36.08996],[-90.21836,36.13118],[-90.11119,36.2347],[-90.05073,36.29879],[-90.06355,36.40337],[-90.11868,36.41617],[-90.14552,36.50413],[-94.61153,36.50789],[-94.61151,36.51585],[-94.61485804133639,36.51582487398622],[-94.61657,36.9994],[-94.61957436602097,36.999404269669974],[-94.62098,37.72216]]]}}
