{"type":"Feature","properties":{"sourceId":"us/massachusetts"},"geometry":{"type":"Polygon","coordinates":[[[-71.1308,41.02072],[-71.12432993063398,41.34449066880627],[-71.06369,41.41338],[-71.1201,41.49716],[-71.1217,41.5222],[-71.13093,41.59405],[-71.13691,41.60296],[-71.13993,41.60547],[-71.14081,41.61605],[-71.13981,41.62355],[-71.13501,41.62821],[-71.13223,41.66035],[-71.17524,41.66866],[-71.17563,41.6722],[-71.19503,41.67578],[-71.22782,41.71449],[-71.26098,41.75287],[-71.32744,41.78106],[-71.32869,41.78282],[-71.32863,41.78702],[-71.33164,41.79273],[-71.33354,41.7951],[-71.33884,41.79686],[-71.34001,41.79854],[-71.33821,41.80844],[-71.34641,41.82313],[-71.34434,41.82755],[-71.3345,41.83541],[-71.34144,41.84477],[-71.3333,41.86227],[-71.34008,41.88168],[-71.33808,41.89872],[-71.381,41.89402],[-71.38102,42.01938],[-71.49991,42.0179],[-71.52773,42.0157],[-71.76603,42.01044],[-71.79857184416684,42.008515016612435],[-71.79917,42.0244],[-72.13567,42.03195],[-72.52812,42.03599],[-72.57339,42.03183],[-72.5828,42.0264],[-72.59022,42.0264],[-72.6055,42.02667],[-72.60786,42.03249],[-72.69594,42.03849],[-72.75585,42.03789],[-72.75917,42.03283],[-72.75378,42.02994],[-72.75823,42.02273],[-72.76368,42.02228],[-72.76201,42.01657],[-72.76825,42.00454],[-72.81488,41.99951],[-72.81185,42.03636],[-72.81352,42.03819],[-73.05321,42.04156],[-73.43277,42.05229],[-73.48825,42.05106],[-73.48859457045748,42.0467525196158],[-73.49812,42.04694],[-73.51096,42.08729],[-73.26832486607793,42.744690482554965],[-72.45462,42.72498],[-72.45464102434798,42.72515165084102],[-71.99959,42.71214],[-71.29433,42.69669],[-71.2776,42.7114],[-71.26693,42.72573],[-71.24511,42.74152],[-71.22371,42.74591],[-71.18127,42.73671],[-71.18547,42.791],[-71.16619,42.80843],[-71.13252,42.82056],[-71.06407,42.80568],[-71.04428,42.84831],[-71.03072,42.85851],[-70.96648,42.86806],[-70.92942,42.88436],[-70.9041,42.88579],[-70.88627,42.88128],[-70.84787,42.85918],[-70.81992,42.87016],[-70.73086,42.8765],[-70.48692,42.84488],[-70.52521506216436,42.885291575542965],[-68.75053,42.8728],[-68.73438,41.80835],[-69.42663,40.88291],[-71.1308,41.02072]]]}}
