{"type":"Feature","properties":{"sourceId":"ural-fed-district"},"geometry":{"type":"Polygon","coordinates":[[[59.22559,61.80478],[59.34774,61.98399],[59.31074,62.17285],[59.49921,62.4542],[59.27839,62.7116],[59.34238,62.84608],[59.11398,63.04299],[59.48606,63.9596],[59.66542,64.04733],[59.47935,64.19836],[59.52665,64.39852],[59.41045,64.42355],[59.39073,64.55651],[59.53366,64.68093],[59.56258,64.86911],[59.98721,65.10577],[60.40207,65.16129],[60.64948,65.0188],[60.91662,65.11563],[61.81558,65.76644],[62.69752,65.95179],[63.36397,66.53929],[64.99953,66.96246],[65.12938,67.22408],[65.74563,67.47965],[65.71293,67.68824],[65.94355,67.75909],[65.9452,67.85166],[65.39363,67.82627],[65.23813,67.97666],[65.19543,68.27873],[65.46517,68.54267],[65.25469,68.71328],[64.47668,68.82728],[64.4891,69.10373],[65.00521,69.32176],[64.88352,69.52718],[63.13059,70.39847],[63.09451,70.50907],[69.95909,75.011],[77.77675,73.71675],[77.86196,73.08611],[78.70631,72.55708],[78.66843,72.36035],[78.75716,72.25914],[79.83416,72.12584],[80.4507,71.93242],[80.45135,71.82049],[80.24281,71.75289],[80.1924,71.58847],[79.46224,71.50574],[79.39771,71.40231],[80.63415,71.11875],[80.9076,70.65905],[80.95712,70.37284],[80.81903,70.28864],[80.28764,70.33453],[79.17665,69.85788],[79.93574,69.44896],[80.77951,69.40629],[80.99839,69.30523],[81.52011,69.35681],[81.72801,69.54497],[82.02901,69.40952],[82.04108,69.28265],[82.5184,69.22514],[82.63871,68.89873],[82.89091,68.80909],[82.96234,68.66911],[82.76924,68.52969],[82.76508,68.28601],[82.47775,68.05806],[82.41942,67.86932],[81.97481,67.86166],[82.47075,67.57831],[82.39192,67.23146],[83.17888,66.91568],[83.39959,66.71367],[83.37462,66.57206],[83.17878,66.48977],[83.60482,66.24964],[83.61089,66.11199],[83.45073,66.03964],[83.63465,65.87515],[84.02754,65.87344],[84.35709,65.7552],[84.56357,65.55135],[84.64508,65.25307],[84.45363,65.12918],[84.47061,65.01438],[84.92911,65.04453],[85.20624,64.88117],[85.57529,64.94514],[85.92048,64.81187],[86.0952,64.29698],[86.04864,64.01091],[85.57723,63.84148],[85.37011,63.58698],[85.78263,63.40361],[85.64725,63.16632],[85.70208,63.00179],[84.57007,62.14652],[84.72775,61.89125],[86.03032,61.60373],[86.0353,61.40525],[85.79921,61.344],[85.71185,61.1916],[84.26502,60.76935],[83.9681,60.74441],[83.47777,60.93495],[83.16024,60.92782],[82.16639,60.42499],[81.84391,60.54657],[81.10527,60.5485],[80.73826,60.70583],[79.41251,60.5443],[79.1844,60.72568],[77.97075,60.65165],[77.19985,60.75688],[77.14693,60.47198],[76.89891,60.38482],[76.95307,60.24189],[76.71823,59.4977],[76.22638,59.43819],[75.95055,59.28661],[75.78831,59.15079],[75.75581,58.89317],[74.6383,58.19504],[74.20922,58.04339],[73.16761,58.06094],[72.81374,57.9047],[72.17491,57.92142],[71.97228,58.02081],[71.22966,57.96081],[71.11854,58.06139],[71.13846,58.33811],[70.90297,58.43011],[70.51712,57.88933],[70.77788,57.55839],[70.6041,57.36976],[71.03601,57.46357],[71.68333,56.97805],[71.76791,56.7556],[71.58817,56.58632],[71.18927,56.54614],[71.01761,56.37673],[70.89469,55.78217],[70.72892,55.71558],[70.84458,55.56377],[70.58413,55.39489],[70.54671545444042,55.30470014471512],[70.44258,55.30312],[70.20396,55.173],[69.75553,55.38143],[69.71771,55.50799],[68.91258,55.46187],[68.73729,55.40088],[68.59769,55.26617],[68.14483,55.2072],[68.15773,54.9812],[67.92334,55.00604],[67.79238,54.98877],[67.67562,54.88768],[67.32153,54.89333],[66.07329,54.66129],[66.0346,54.75228],[65.78035,54.72387],[65.73474,54.66001],[65.4425,54.68833],[65.39204,54.60417],[65.18139,54.55771],[65.15539,54.37584],[64.98131,54.44835],[64.6216,54.42263],[64.04475,54.33994],[63.81671,54.29456],[63.13636,54.2081],[62.55644,54.08519],[62.07825,54.07647],[61.91905,54.04521],[61.82552,54.04689],[61.77965,54.00478],[61.73154,54.04244],[61.6623,54.03505],[61.59272,54.01294],[61.57851,54.02814],[61.50527,54.03471],[61.48871,54.0892],[61.37189,54.10532],[61.19958,54.04501],[61.21596,53.99208],[61.13477,54.00013],[60.96031,53.95113],[60.96722,53.88861],[61.11893,53.88031],[61.19454,53.83362],[61.1091,53.74606],[61.0343,53.74183],[61.01526,53.68997],[60.87111,53.68852],[60.87156,53.60628],[61.10666,53.59094],[61.21933,53.52025],[61.11399,53.40834],[61.15297,53.28099],[61.36759,53.25288],[61.51206,53.18967],[61.69239,53.2037],[61.82419,53.1513],[62.09267,53.10433],[62.0924,53.00146],[62.00679,52.97525],[61.86079,53.02716],[61.68131,53.01555],[61.46477,53.06198],[61.25563,53.05812],[60.96184,52.98887],[60.9646,52.91281],[60.67907,52.77736],[60.68157,52.64712],[60.80789,52.60727],[60.81185,52.50331],[60.95762,52.48482],[60.95085,52.31974],[60.60051,52.1828],[60.49862,52.18128],[60.23552,52.02254],[60.06138000536826,52.019396201718514],[59.99967,52.08779],[60.22088,52.22865],[60.21185,52.42684],[59.83517,52.53466],[59.51459,52.48359],[59.24096,52.53541],[59.16398,52.34878],[58.89149,52.50463],[58.83645,52.651],[58.82528,52.83263],[59.04821,53.02669],[58.9464,53.24847],[58.97416,53.84457],[59.20907,53.94596],[59.34768,54.1177],[59.75122,54.10476],[59.84591,54.24795],[59.7711,54.49905],[59.90741,54.58596],[60.04914,54.89529],[59.61686,54.96409],[59.24306,54.68102],[59.04071,54.70106],[58.61708,54.52105],[58.36601,54.61503],[57.99837,54.45735],[57.63041,54.72829],[57.25293,54.8448],[57.31716,54.96281],[57.2217,55.07744],[57.31558,55.1985],[57.52271,55.27247],[57.98224,55.22141],[57.93129,55.15848],[57.96433,55.03977],[57.87662,54.95337],[57.98713,54.85245],[58.16766,54.90648],[58.27181,55.10819],[58.41995,54.94979],[58.74903,54.91614],[58.88388,55.03594],[58.80492,55.1319],[58.82885,55.21717],[59.0105,55.1974],[59.22113,55.29758],[59.23528,55.40588],[59.47972,55.41878],[59.70791,55.56973],[59.6634,55.65257],[59.37026,55.69839],[59.36277,55.80199],[59.27813,55.85135],[59.39796,56.10737],[59.3447,56.22014],[59.02681,56.22637],[58.91687,56.1186],[58.55043,56.22911],[58.38559,56.16543],[57.85657,56.20601],[57.55009,56.1547],[57.4122,56.42884],[57.49059,56.69944],[57.32478,56.8518],[57.65967,56.85159],[57.85871,56.91574],[57.90359,56.99735],[58.10439,57.00527],[58.1797,57.1523],[58.02522,57.34507],[58.04824,57.51457],[58.21839,57.62307],[58.39618,57.61399],[58.53826,57.50792],[58.8811,57.6805],[58.91478,57.86055],[58.72024,57.95932],[58.73527,58.07383],[58.96166,58.21464],[59.20882,58.22671],[59.50446,58.45358],[59.43583,58.75071],[59.1465,58.84213],[59.26225,58.94177],[59.18435,59.03103],[59.23635,59.18792],[58.70099,59.3245],[58.46195,59.52736],[58.51833,59.64527],[58.6374,59.64858],[58.72319,59.78454],[59.03111,59.87009],[59.28584,60.42363],[59.47631,60.60554],[59.53262,60.94552],[59.43111,61.00783],[59.32399,61.2707],[59.48272,61.37445],[59.50259,61.51868],[59.44699,61.65483],[59.33542,61.71971],[59.2586435588669,61.69603053969465],[59.22559,61.80478]]]}}
