{"type":"Feature","properties":{"sourceId":"us/illinois"},"geometry":{"type":"Polygon","coordinates":[[[-89.16969,36.96731],[-89.18704,36.97095],[-89.19497,36.97913],[-89.23615,37.03513],[-89.25735,37.02469],[-89.25464,37.01506],[-89.26073,36.99898],[-89.27305,36.98772],[-89.29349,36.98952],[-89.32437,37.01343],[-89.37981,37.03703],[-89.38842,37.0548],[-89.3787,37.081],[-89.38142,37.09327],[-89.42787,37.1363],[-89.46454,37.19816],[-89.4705,37.22195],[-89.46143,37.24703],[-89.49119,37.2486],[-89.51954,37.28027],[-89.5213,37.29011],[-89.51173,37.31647],[-89.4855,37.33836],[-89.43752,37.3471],[-89.42407,37.38778],[-89.4423,37.43557],[-89.47795,37.46962],[-89.51988,37.53628],[-89.5249,37.56038],[-89.52235,37.58434],[-89.52047,37.64002],[-89.51504,37.68161],[-89.51872,37.69053],[-89.5845,37.7105],[-89.64967,37.7425],[-89.66504,37.74757],[-89.67098,37.75979],[-89.66336,37.78556],[-89.67184,37.79777],[-89.71904,37.82316],[-89.74112,37.84394],[-89.78813,37.8493],[-89.80308,37.86735],[-89.80122,37.87897],[-89.84364,37.90232],[-89.90125,37.86688],[-89.924,37.86778],[-89.95197,37.87886],[-89.97624,37.91616],[-89.97776,37.92767],[-89.99832,37.96048],[-90.03408,37.99267],[-90.05327,38.00128],[-90.08886,38.01283],[-90.1119,38.02389],[-90.12874,38.03912],[-90.17309,38.06676],[-90.22051,38.09197],[-90.24537,38.11069],[-90.33319,38.18507],[-90.35888,38.2162],[-90.37683,38.2811],[-90.37362,38.33464],[-90.35202,38.37956],[-90.29771,38.42863],[-90.28807,38.44463],[-90.26278,38.53006],[-90.22631,38.5757],[-90.19811,38.59427],[-90.18704,38.61028],[-90.17986,38.63406],[-90.18266,38.6562],[-90.1877,38.67421],[-90.21279,38.70424],[-90.21427,38.72226],[-90.20705,38.73452],[-90.17908,38.75588],[-90.16832,38.77497],[-90.12543,38.80013],[-90.11213,38.83774],[-90.11534,38.84694],[-90.1991,38.88504],[-90.22458,38.9048],[-90.25139,38.91656],[-90.30998,38.92117],[-90.39668,38.95716],[-90.47977,38.94301],[-90.48428,38.92467],[-90.49782,38.90847],[-90.54494,38.87116],[-90.5837,38.86605],[-90.62711,38.8864],[-90.66589,38.92641],[-90.71447,39.04597],[-90.71633,39.05678],[-90.71078,39.15002],[-90.72002,39.21305],[-90.75362,39.26321],[-90.81859,39.31805],[-90.89564,39.36499],[-90.90656,39.37688],[-90.93025,39.38495],[-90.99506,39.42024],[-91.03993,39.44594],[-91.06205,39.46738],[-91.08198,39.5057],[-91.10195,39.53593],[-91.15532,39.54577],[-91.23115,39.61848],[-91.27796,39.66336],[-91.30395,39.67701],[-91.36978,39.72682],[-91.37295,39.74506],[-91.4309,39.83514],[-91.43859,39.84391],[-91.44933,39.86982],[-91.44987,39.88357],[-91.44606,39.89517],[-91.42321,39.9168],[-91.4223,39.92691],[-91.4677,39.98218],[-91.49772,40.03549],[-91.49276,40.05719],[-91.5122,40.12136],[-91.51474,40.14731],[-91.51608,40.17866],[-91.50873,40.23961],[-91.49555,40.27925],[-91.46922,40.33593],[-91.44833,40.36404],[-91.41501,40.38271],[-91.3854,40.38676],[-91.37667,40.39192],[-91.37333,40.40058],[-91.38476,40.44281],[-91.36783,40.48489],[-91.36716,40.4994],[-91.38871,40.53023],[-91.42133,40.54541],[-91.38192,40.5766],[-91.36176,40.60414],[-91.34088,40.61625],[-91.30711,40.62917],[-91.25332,40.64095],[-91.12578,40.67154],[-91.11873,40.72529],[-91.11333,40.74629],[-91.09687,40.76868],[-91.09218,40.78512],[-91.09918,40.8078],[-91.09279,40.82361],[-91.01136,40.90295],[-90.95446,40.95104],[-90.95953,40.97905],[-90.94653,41.00975],[-90.95017,41.07192],[-90.94944,41.0954],[-90.99682,41.15825],[-91.04276,41.16503],[-91.11653,41.24057],[-91.11671,41.25165],[-91.08134,41.307],[-91.06946,41.36583],[-91.05275,41.39111],[-91.04846,41.41564],[-91.02543,41.42589],[-90.98008,41.43594],[-90.93019,41.42446],[-90.89291,41.4369],[-90.84708,41.4581],[-90.74052,41.45075],[-90.65242,41.46589],[-90.60476,41.49938],[-90.60304,41.50701],[-90.59178,41.51358],[-90.5689,41.5179],[-90.5564,41.52505],[-90.53978,41.52691],[-90.50236,41.51911],[-90.46247,41.52362],[-90.41433,41.56709],[-90.38332,41.57748],[-90.34374,41.58842],[-90.34129,41.60148],[-90.34465,41.6473],[-90.33482,41.68142],[-90.31282,41.74435],[-90.27997,41.77004],[-90.18388,41.81016],[-90.18456,41.83893],[-90.17101,41.8761],[-90.15435,41.90618],[-90.15258,41.9307],[-90.16559,41.94593],[-90.16501,41.95825],[-90.14156,42.00047],[-90.16501,42.04114],[-90.16948,42.07567],[-90.16203,42.10462],[-90.16439,42.11646],[-90.17121,42.12473],[-90.19327,42.12514],[-90.20204,42.13011],[-90.21207,42.1533],[-90.25021,42.17076],[-90.27504,42.17478],[-90.31791,42.19357],[-90.35666,42.20443],[-90.38607,42.22047],[-90.41995,42.25386],[-90.43266,42.28087],[-90.41903,42.32248],[-90.42124,42.32644],[-90.4501,42.35517],[-90.47854,42.38103],[-90.55683,42.41375],[-90.64874,42.46968],[-90.65676,42.47727],[-90.65944,42.4899],[-90.6411,42.50941],[-89.69026,42.5082],[-88.78687,42.49499],[-88.1155,42.49923],[-87.7923,42.49488],[-87.53249,42.49823],[-87.52052,41.7614],[-87.5205200251121,41.76138768605025],[-87.52482,41.76137],[-87.52496,41.68917],[-87.52613,41.56769],[-87.5256,41.56283],[-87.5266,41.47453],[-87.52911,40.49141],[-87.53596,39.88296],[-87.53259,39.35263],[-87.54447,39.35564],[-87.57861,39.34311],[-87.59145,39.33508],[-87.60302,39.31352],[-87.61271,39.28142],[-87.60779,39.25951],[-87.58964,39.19989],[-87.64118,39.16768],[-87.64743,39.14451],[-87.645,39.1278],[-87.63089,39.10381],[-87.6128,39.0839],[-87.59478,39.07753],[-87.57394,39.05622],[-87.57583,39.03362],[-87.572,39.0183],[-87.58066,39.00127],[-87.57929,38.98751],[-87.52989,38.97081],[-87.52066,38.92412],[-87.54419,38.89545],[-87.55548,38.86258],[-87.53302,38.84541],[-87.52424,38.82787],[-87.52913,38.8182],[-87.50017,38.78136],[-87.51673,38.77281],[-87.50423,38.74623],[-87.50576,38.73952],[-87.52201,38.71267],[-87.52329,38.69629],[-87.53289,38.68486],[-87.57855,38.67594],[-87.60417,38.6658],[-87.62261,38.64024],[-87.62929,38.6058],[-87.64045,38.59206],[-87.65398,38.56825],[-87.66169,38.5412],[-87.6809,38.49815],[-87.74176,38.47706],[-87.74607,38.45827],[-87.74257,38.43562],[-87.74648,38.41011],[-87.78284,38.37198],[-87.80723,38.36387],[-87.82413,38.3473],[-87.8342,38.32471],[-87.84077,38.29384],[-87.86701,38.31438],[-87.88046,38.31116],[-87.89016,38.28728],[-87.90786,38.27718],[-87.90476,38.29687],[-87.92134,38.3048],[-87.937,38.2976],[-87.9541,38.27328],[-87.94757,38.26247],[-87.98874,38.26321],[-87.98812,38.23103],[-87.98606,38.22034],[-87.98595,38.21225],[-87.97243,38.19181],[-87.9353,38.16014],[-87.94561,38.13762],[-87.97298,38.13127],[-88.01637,38.1037],[-88.02063,38.08599],[-88.04724,38.04039],[-88.03098,38.02473],[-88.01739,37.9748],[-88.03647,37.95954],[-88.07251,37.92839],[-88.10327,37.90626],[-88.0952,37.81651],[-88.05789,37.78858],[-88.02899,37.79822],[-88.03422344027088,37.79647431265705],[-88.04101,37.79025],[-88.05735,37.74733],[-88.1159,37.71748],[-88.14442,37.69084],[-88.16318,37.66307],[-88.15664,37.61326],[-88.13794,37.56992],[-88.07538,37.52117],[-88.07792,37.48589],[-88.14664,37.47374],[-88.21887,37.4628],[-88.28151,37.45793],[-88.32983,37.43726],[-88.36468,37.40531],[-88.39835,37.42652],[-88.43488,37.42659],[-88.47889,37.39083],[-88.525,37.27956],[-88.50424,37.24735],[-88.4327,37.15302],[-88.46358,37.07842],[-88.51146,37.06839],[-88.55663,37.08237],[-88.5997,37.11323],[-88.69143,37.14411],[-88.72365,37.14298],[-88.79665,37.18713],[-88.89354,37.21979],[-88.93856,37.23339],[-89.0009,37.22882],[-89.0682,37.18988],[-89.1042,37.15003],[-89.14323,37.10198],[-89.18246,37.06934],[-89.18699,37.01752],[-89.15778,36.99141],[-89.13352020700474,36.97878567155326],[-89.16969,36.96731]]]}}
