{"type":"Feature","properties":{"sourceId":"us"},"geometry":{"type":"MultiPolygon","coordinates":[[[[-133.0668,49.4821],[-128.95915930045345,49.3506074626253],[-128.95706696586424,49.34143903963926],[-133.0637,49.45605],[-133.28641048255514,51.22215704044989],[-138.5921,51.80058],[-133.2862877605162,51.222143661369806],[-133.0668,49.4821]]],[[[-68.94275,26.10435],[-77.4068,27.7072],[-77.90626,28.1189],[-78.41267973654152,27.9024455291366],[-78.78879,27.97497],[-78.79300792446728,27.969714162119228],[-79.18945,28.04479],[-79.28597,27.52918],[-79.3282145273546,27.51112490366113],[-78.16993,32.85044],[-77.78080191547768,33.12992181477381],[-77.7808,33.12992],[-75.89579013578057,34.4837858354252],[-74.48542,35.49675],[-68.94275,26.10435]]],[[[-82.79447,23.96978],[-93.12887705715558,25.417169075642796],[-95.78507858718888,25.817315031517484],[-94.71704,25.69551],[-94.71701001157479,25.69551006940498],[-81.60628338889067,24.20031152692146],[-82.79447,23.96978]]],[[[-125.9201,31.86887],[-117.242,32.52511],[-117.85944956066243,32.47841831637235],[-117.85995464196672,32.4782164129826],[-125.9201,31.86887]]],[[[-148.7973,15.92097],[-142.6511,29.02109],[-179.5449,28.42784],[-142.65113787815613,29.021089390921617],[-133.0637,49.45605],[-125.9201,31.86887],[-148.7973,15.92097]]],[[[-172.20668895974555,64.00393528271717],[-172.0742,64.03356],[-168.7253,65.41487],[-170.9065687394185,64.51516910643906],[-180.0,60.09775],[-172.20668895974555,64.00393528271717]]],[[[-140.5305626395227,52.88638086799923],[-141.7761,53.58405],[-138.5921,51.80058],[-140.5305626395227,52.88638086799923]]]]}}
