{"type":"Feature","properties":{"sourceId":"unterfranken"},"geometry":{"type":"Polygon","coordinates":[[[10.06021,49.51796],[10.05137,49.50565],[10.03284,49.50247],[10.01996,49.48352],[9.975243,49.48017],[9.952068,49.47911],[9.927092,49.48279],[9.912249,49.49227],[9.910049,49.5024],[9.920201,49.53707],[9.913476,49.55841],[9.897566,49.55974],[9.897137,49.58412],[9.877481,49.57677],[9.868586,49.54789],[9.85215,49.54299],[9.807619,49.55405],[9.809074,49.55857],[9.841518,49.57733],[9.838772,49.59508],[9.857826,49.60943],[9.866924,49.61082],[9.850788,49.64073],[9.829674,49.64713],[9.818859,49.66568],[9.830274,49.69812],[9.791908,49.72109],[9.756889,49.70933],[9.748918,49.68961],[9.738738,49.68671],[9.727538,49.68774],[9.724191,49.69732],[9.702889,49.7152],[9.681358,49.71543],[9.677698,49.6928],[9.664696,49.68501],[9.654236,49.68618],[9.631576,49.69173],[9.624538,49.70317],[9.622318,49.71123],[9.621009,49.7314],[9.638562,49.74732],[9.636125,49.75532],[9.646854,49.78802],[9.621105,49.78259],[9.57716,49.77716],[9.55905,49.77611],[9.560423,49.76231],[9.571152,49.75077],[9.569607,49.74523],[9.564199,49.74306],[9.558105,49.74345],[9.552956,49.74695],[9.548535,49.76303],[9.544458,49.76619],[9.537334,49.76724],[9.53064,49.762],[9.525404,49.76034],[9.518537,49.76009],[9.511499,49.76447],[9.506435,49.77129],[9.511156,49.78215],[9.501028,49.78791],[9.483175,49.78697],[9.472704,49.7801],[9.470472,49.77317],[9.458628,49.76852],[9.444345,49.76866],[9.431568,49.78699],[9.420433,49.78764],[9.405498,49.77594],[9.38889,49.76816],[9.371982,49.77747],[9.354,49.76821],[9.314604,49.76624],[9.315419,49.75826],[9.323187,49.75177],[9.324818,49.74659],[9.323144,49.74306],[9.320784,49.74112],[9.314775,49.73893],[9.337134,49.73494],[9.379961,49.73307],[9.401669,49.73231],[9.412684,49.72499],[9.419094,49.71808],[9.423381,49.71036],[9.42587,49.69647],[9.414799,49.67602],[9.422370777685678,49.665848534813215],[9.420376,49.66636],[9.408894,49.66568],[9.395849,49.66479],[9.397087,49.66274],[9.30027,49.65696],[9.266624,49.63651],[9.236755,49.58512],[9.103889,49.58223],[9.09582133587851,49.580855679623895],[9.082628,49.59742],[9.064321,49.6017],[9.062013,49.61576],[9.066811,49.62328],[9.098997,49.65946],[9.086981,49.66818],[9.083895,49.68472],[9.088955,49.69623],[9.112846,49.7045],[9.142453,49.74372],[9.105089,49.75788],[9.110413,49.7745],[9.131441,49.78248],[9.125948,49.78797],[9.127579,49.79478],[9.111442,49.79595],[9.094534,49.78919],[9.088955,49.78969],[9.075222,49.81633],[9.057798,49.83178],[9.048185,49.84081],[9.039602,49.83843],[9.033852,49.84618],[9.031706,49.86748],[9.042864,49.87113],[9.03574,49.87638],[9.036426,49.89005],[9.034367,49.89596],[9.02647,49.90763],[9.021792,49.90987],[9.029131,49.92426],[9.025526,49.93401],[9.024153,49.94517],[9.017758,49.94672],[9.024281,49.95525],[9.017672,49.97756],[9.012523,49.99135],[9.034367,50.00666],[9.038401,50.01019],[9.031749,50.01695],[9.029205,50.0216],[9.028827,50.02764],[9.031012,50.03636],[9.024765,50.04248],[9.006729,50.04463],[8.991795,50.04113],[8.984928,50.04071],[8.97789,50.04402],[8.975186,50.04948],[8.976088,50.05279],[8.989679,50.06675],[8.99023,50.0695],[8.997731,50.0702],[8.996395,50.09377],[9.015416,50.11224],[9.051064,50.11762],[9.097362,50.12605],[9.121111,50.12825],[9.154767,50.11828],[9.168474,50.11292],[9.182475,50.13892],[9.222066,50.15072],[9.25898,50.14054],[9.280213,50.144],[9.30985,50.13623],[9.327027,50.14312],[9.381631,50.13137],[9.393189,50.11702],[9.413499,50.0882],[9.47005,50.09652],[9.507876,50.10069],[9.504032,50.14748],[9.493802,50.18597],[9.505461,50.2002],[9.492552,50.2226],[9.498845,50.24344],[9.507533,50.24392],[9.548722,50.23076],[9.576645,50.23392],[9.617969,50.22587],[9.637367,50.24042],[9.634666,50.25253],[9.651661,50.27267],[9.704674,50.28439],[9.710502,50.29168],[9.720145,50.29546],[9.744294,50.31266],[9.741298,50.32771],[9.731985,50.35081],[9.731641,50.35823],[9.741037,50.36353],[9.749679,50.41443],[9.758949,50.42607],[9.769421,50.42689],[9.788475,50.4264],[9.804182,50.42569],[9.810362,50.42224],[9.853449,50.40239],[9.870186,50.41087],[9.917221,50.41207],[9.970269,50.43797],[9.9967,50.46182],[10.0162,50.47085],[10.02975,50.48657],[10.03833,50.51659],[10.07472,50.54115],[10.10433,50.56498],[10.12055,50.56623],[10.17506,50.55298],[10.19445,50.55685],[10.20578,50.55549],[10.23497,50.53133],[10.2572,50.51468],[10.33247,50.49541],[10.34311,50.48449],[10.34672,50.46843],[10.368,50.44433],[10.38191,50.44073],[10.40457,50.427],[10.4074,50.42307],[10.38946,50.40058],[10.42827,50.39574],[10.44099,50.4066],[10.45638,50.40325],[10.46585,50.3793],[10.47992,50.37973],[10.49306,50.37656],[10.50276,50.3609],[10.53203,50.3678],[10.54739,50.36518],[10.55838,50.3568],[10.55907,50.34176],[10.60239,50.33543],[10.60679,50.29422],[10.61434,50.25149],[10.61451,50.22546],[10.65914,50.23332],[10.68781,50.22755],[10.72223,50.2075],[10.72472,50.23101],[10.72405,50.2383],[10.725771407265773,50.23618599107712],[10.72607,50.22897],[10.75634,50.22198],[10.75261,50.21184],[10.76261,50.20753],[10.76921,50.20068],[10.77083,50.19551],[10.77753,50.19171],[10.77717,50.18341],[10.7789,50.17913],[10.77364,50.17544],[10.77096,50.16597],[10.7762,50.14771],[10.7833,50.14458],[10.78838,50.14623],[10.79096,50.14406],[10.79061,50.14094],[10.79331,50.13947],[10.80468,50.13938],[10.80525,50.14472],[10.80922,50.14666],[10.81193,50.14437],[10.81996,50.14651],[10.82426,50.14437],[10.83773,50.1447],[10.84206,50.14217],[10.84866,50.14629],[10.8489,50.15029],[10.84692,50.15333],[10.85257,50.15547],[10.86007,50.14894],[10.87324,50.14599],[10.87613,50.14367],[10.87602,50.14207],[10.8687,50.13711],[10.86822,50.12876],[10.85958,50.12497],[10.86048,50.11919],[10.85735,50.11671],[10.85416,50.10376],[10.85869,50.09336],[10.85734,50.08765],[10.85984,50.08364],[10.85784,50.08074],[10.85788,50.07658],[10.8534,50.07571],[10.84379,50.07807],[10.83569,50.07445],[10.83547,50.07052],[10.83005,50.06495],[10.83367,50.06114],[10.8306,50.05722],[10.83015,50.05237],[10.83319,50.04871],[10.8225,50.04457],[10.82114,50.04121],[10.80761,50.03958],[10.80165,50.04242],[10.799,50.04636],[10.79575,50.04644],[10.79277,50.04892],[10.78233,50.04829],[10.77477,50.04422],[10.77451,50.04014],[10.77062,50.03806],[10.77069,50.03175],[10.76864,50.02632],[10.75806,50.02626],[10.75287,50.02482],[10.74861,50.02103],[10.75183,50.01137],[10.76376,50.01084],[10.76203,50.00201],[10.75264,49.99551],[10.7387,49.9915],[10.74614,49.98596],[10.74753,49.98035],[10.75804,49.97081],[10.75208,49.96424],[10.743,49.96321],[10.72927,49.96452],[10.71966,49.95748],[10.71993,49.9547],[10.72341,49.95279],[10.72691,49.95396],[10.73696,49.9462],[10.73013,49.93841],[10.71456,49.9334],[10.71451,49.92709],[10.71137,49.9257],[10.70635,49.9267],[10.70311,49.92167],[10.69662,49.92054],[10.69274,49.91759],[10.68947,49.91181],[10.69452,49.90464],[10.6925,49.90176],[10.68504,49.89792],[10.68341,49.89218],[10.68784,49.88927],[10.68298,49.88605],[10.67872,49.88929],[10.67112,49.88888],[10.669,49.89198],[10.65644,49.89206],[10.65271,49.88936],[10.65296,49.88556],[10.65044,49.88355],[10.64006,49.88084],[10.63073,49.87574],[10.62761,49.86581],[10.60306,49.85742],[10.59953,49.85803],[10.59865,49.86107],[10.60736,49.86949],[10.60966,49.87512],[10.60784,49.87741],[10.5947,49.87496],[10.58963,49.87208],[10.58405,49.86173],[10.5798,49.86354],[10.58159,49.87196],[10.57921,49.87479],[10.57153,49.87543],[10.56735,49.87053],[10.55995,49.87144],[10.55821,49.87592],[10.56114,49.87892],[10.55726,49.8835],[10.54929,49.88349],[10.54361,49.87849],[10.53214,49.87874],[10.52054,49.87609],[10.50584,49.87914],[10.50139,49.87359],[10.45849,49.88047],[10.45481,49.87402],[10.45129,49.87328],[10.44746,49.8568],[10.43816,49.8453],[10.43993,49.84114],[10.44504,49.84134],[10.45535,49.83656],[10.44526,49.82428],[10.44719,49.81778],[10.46055,49.80675],[10.46835,49.80753],[10.47487,49.80475],[10.47864,49.80847],[10.48096,49.80555],[10.47611,49.79905],[10.46475,49.7927],[10.46534,49.78728],[10.46923,49.78453],[10.47825,49.78336],[10.49032,49.78466],[10.49448,49.78621],[10.4972,49.7903],[10.5068,49.79374],[10.50969,49.79697],[10.51615,49.79982],[10.51707,49.79479],[10.5272,49.79227],[10.52287,49.78477],[10.52751,49.78187],[10.53443,49.7809],[10.53784,49.76996],[10.55179,49.76684],[10.55258,49.76423],[10.54953,49.75864],[10.549704884871078,49.75782330463119],[10.554929491437285,49.75696682921489],[10.54759,49.75817],[10.43808,49.75234],[10.41687,49.749],[10.3352,49.70729],[10.33003,49.69727],[10.34534,49.67807],[10.37723,49.63665],[10.30422,49.62913],[10.21941,49.63581],[10.19268,49.62925],[10.19176,49.61133],[10.1676,49.59496],[10.15248,49.613],[10.11377,49.62483],[10.09773,49.62101],[10.06565,49.59472],[10.06804,49.57368],[10.0745,49.55622],[10.081775569959964,49.53868299005546],[10.08173,49.53862],[10.06528,49.54415],[10.06021,49.51796]],[[9.292358,49.736],[9.291343,49.7338],[9.304841,49.72719],[9.292358,49.736]]]}}
