{"type":"Feature","properties":{"sourceId":"us/alabama"},"geometry":{"type":"Polygon","coordinates":[[[-87.48688,29.99301],[-88.48389,29.95494],[-88.46377363274449,30.04682572281186],[-88.37733,30.04168],[-88.46822,31.89364],[-88.23806,33.795],[-88.09292,34.89161],[-88.15071,34.92557],[-88.19915,35.00055],[-88.20004135693195,35.000549898713274],[-88.20021,35.00729],[-87.79904,35.00385],[-87.39697,35.00156],[-86.8457,34.99165],[-86.19181,34.98866],[-85.60403182748493,34.98382501916623],[-85.55975,34.75042],[-85.46879,34.3286],[-85.4278,34.12544],[-85.23071,33.1084],[-85.18275,32.87126],[-85.18301,32.862],[-85.17657,32.85558],[-85.16121,32.85911],[-85.15099,32.84772],[-85.15057,32.8395],[-85.16584,32.82854],[-85.16215,32.81851],[-85.16639,32.81239],[-85.14258,32.79406],[-85.12198,32.77941],[-85.1207,32.77147],[-85.13645,32.75432],[-85.111,32.73877],[-85.11057,32.72837],[-85.11735,32.72216],[-85.10928,32.68981],[-85.09237,32.67097],[-85.08568,32.65614],[-85.09967,32.64595],[-85.0928,32.63793],[-85.07967,32.63807],[-85.08139,32.62195],[-85.07564,32.60113],[-85.06319,32.58139],[-85.04414,32.56367],[-85.01899,32.54428],[-85.00088,32.52055],[-84.99573,32.50368],[-84.9929,32.47552],[-84.99624,32.46929],[-84.99352,32.45271],[-84.9706,32.44402],[-84.96143,32.42482],[-84.96241,32.42118],[-84.9779,32.41113],[-84.97933,32.40304],[-84.96603,32.39352],[-84.9686,32.37605],[-85.00635,32.33644],[-85.00094,32.32355],[-84.93304,32.29978],[-84.90297,32.27509],[-84.88336,32.2588],[-84.90293,32.24959],[-84.91115,32.24614],[-84.91499,32.2355],[-84.92129,32.22429],[-84.9243,32.22028],[-84.92992,32.21736],[-84.96371,32.21553],[-84.95956,32.19535],[-85.01035,32.17905],[-85.04434,32.14261],[-85.05983,32.13294],[-85.04536,32.08739],[-85.05229,32.03585],[-85.04637,32.02205],[-85.05263,32.01011],[-85.06405,31.99898],[-85.0691,31.9815],[-85.06427,31.97077],[-85.07735,31.93954],[-85.10003,31.91662],[-85.11082,31.89357],[-85.12842,31.84337],[-85.12963,31.81749],[-85.13128,31.79195],[-85.10387,31.69078],[-85.07658,31.65572],[-85.05882,31.60884],[-85.05428,31.60535],[-85.05359,31.57723],[-85.0396,31.54099],[-85.04344,31.51752],[-85.06421,31.48321],[-85.06424,31.43013],[-85.07597,31.39851],[-85.08426,31.35353],[-85.0825,31.32874],[-85.08208,31.31827],[-85.08812,31.29464],[-85.09819,31.28273],[-85.11022,31.27274],[-85.11071,31.26007],[-85.09507,31.22581],[-85.09714,31.21062],[-85.10535,31.20203],[-85.10586,31.18714],[-85.10116,31.18618],[-85.09686,31.18056],[-85.09868,31.16653],[-85.09155,31.16195],[-85.07555,31.15824],[-85.06253,31.1433],[-85.03417,31.10908],[-85.02444,31.08468],[-85.00998,31.0545],[-85.00712,31.04574],[-84.9967,31.01396],[-84.99969,31.00008],[-85.9986,30.99117],[-86.52027,30.99156],[-87.04006,30.99783],[-87.23761,30.9947],[-87.30149,30.99674],[-87.59692,30.99577],[-87.58718,30.966],[-87.58927,30.95318],[-87.62444,30.85811],[-87.61586,30.84152],[-87.57867,30.81234],[-87.54411,30.78045],[-87.53445,30.76192],[-87.50974,30.73435],[-87.44879,30.70047],[-87.42955,30.68986],[-87.40497,30.67595],[-87.39535,30.65571],[-87.39267,30.64595],[-87.39326,30.61386],[-87.39741,30.60436],[-87.4064,30.58317],[-87.41069,30.57292],[-87.41552,30.56924],[-87.41649,30.56134],[-87.43909,30.5366],[-87.43728,30.52987],[-87.44219,30.52304],[-87.44533,30.52174],[-87.44284,30.514],[-87.4386,30.50795],[-87.42946,30.49905],[-87.42672,30.48811],[-87.42925,30.47766],[-87.42313,30.46615],[-87.40728,30.45799],[-87.39909,30.45255],[-87.36763,30.45174],[-87.35755,30.43776],[-87.40267,30.40514],[-87.42826,30.4054],[-87.43274,30.38374],[-87.44348,30.36632],[-87.4494,30.32574],[-87.49768,30.32787],[-87.50313,30.32335],[-87.50326,30.30986],[-87.49458,30.3067],[-87.44843,30.31184],[-87.45115,30.29903],[-87.51666,30.28331],[-87.5164,30.22852],[-87.48688,29.99301]]]}}
