{"type":"Feature","properties":{"sourceId":"us/maine"},"geometry":{"type":"Polygon","coordinates":[[[-70.53679778228343,42.89751445605626],[-70.70567,43.07572],[-70.73774,43.0742],[-70.74142,43.07834],[-70.7561,43.08055],[-70.76474,43.09283],[-70.77865,43.09758],[-70.80346,43.11582],[-70.82438,43.12711],[-70.83191,43.14624],[-70.82623,43.16961],[-70.82191,43.17388],[-70.82658,43.18745],[-70.81767,43.19247],[-70.81524,43.21408],[-70.81107,43.21702],[-70.80835,43.22672],[-70.81507,43.23074],[-70.81385,43.23399],[-70.81673,43.23944],[-70.82692,43.245],[-70.83715,43.24417],[-70.8379,43.25173],[-70.8418,43.25558],[-70.85664,43.25731],[-70.86186,43.26615],[-70.86915,43.26758],[-70.87381,43.27349],[-70.88189,43.27431],[-70.88269,43.28487],[-70.89578,43.28691],[-70.89462,43.29243],[-70.89674,43.29432],[-70.90436,43.29393],[-70.8968,43.29532],[-70.89482,43.2993],[-70.90297,43.30781],[-70.91023,43.30855],[-70.90993,43.32054],[-70.92955,43.33068],[-70.93012,43.33788],[-70.93764,43.33923],[-70.95542,43.33582],[-70.95736,43.34127],[-70.96584,43.34499],[-70.96521,43.34934],[-70.97344,43.36525],[-70.97921,43.37122],[-70.98095,43.37874],[-70.98427,43.38041],[-70.98615,43.39035],[-70.98121,43.3937],[-70.9806,43.39816],[-70.98533,43.41297],[-70.98032,43.41945],[-70.96982,43.42437],[-70.96686,43.42891],[-70.96762,43.43335],[-70.95931,43.43808],[-70.96491,43.45125],[-70.95876,43.46735],[-70.96365,43.47474],[-70.97129,43.47685],[-70.96609,43.48003],[-70.96628,43.48876],[-70.96266,43.49577],[-70.95736,43.49855],[-70.95615,43.50704],[-70.95307,43.50872],[-70.95481,43.51336],[-70.95228,43.52263],[-70.95231,43.53936],[-70.94892,43.55124],[-70.95578,43.56229],[-70.96177,43.56471],[-70.96573,43.57081],[-70.9711,43.57124],[-70.98734,43.79027],[-71.00405,44.2027],[-71.03175,44.69635],[-71.07558,45.25187],[-71.08403,45.30725],[-71.08667544225271,45.30950611301552],[-71.01048,45.34961],[-70.94576,45.33973],[-70.91496,45.31316],[-70.86241,45.23308],[-70.81129,45.37722],[-70.83091,45.3956],[-70.79632,45.43601],[-70.75069,45.42932],[-70.6472,45.3819],[-70.63638,45.41847],[-70.75058,45.49504],[-70.6778,45.59002],[-70.55626,45.66996],[-70.39988,45.73746],[-70.42253,45.79506],[-70.37189,45.83645],[-70.26426,45.89825],[-70.26667,45.95748],[-70.31954,45.95998],[-70.3216,46.01985],[-70.31456,46.07192],[-70.25225,46.15154],[-70.30392,46.18019],[-70.21311,46.33863],[-70.09466,46.41218],[-70.05896,46.41952],[-69.99939,46.69584],[-69.75185,46.94358],[-69.22588,47.46222],[-69.17636,47.45822],[-69.03757,47.43087],[-69.0271,47.40602],[-69.03743,47.33545],[-69.04839,47.29658],[-69.03122,47.2437],[-68.88582,47.18761],[-68.81596,47.2191],[-68.58102,47.29054],[-68.48328,47.30298],[-68.39456,47.29167],[-68.38233,47.36062],[-68.24512,47.36315],[-68.15028,47.32784],[-67.95124,47.19959],[-67.85645,47.10089],[-67.78444,47.06918],[-67.77535,45.94518],[-67.74462,45.91724],[-67.79285,45.86324],[-67.75148,45.8239],[-67.78221,45.69275],[-67.71973,45.69155],[-67.55768,45.60419],[-67.4176,45.61044],[-67.40627,45.50153],[-67.47562,45.4676],[-67.40593,45.37072],[-67.47185,45.27634],[-67.33992,45.12889],[-67.30156,45.16842],[-67.2916,45.19038],[-67.27916,45.19389],[-67.13931,45.16135],[-66.95843,44.91438],[-66.9754,44.86001],[-66.87164,44.79019],[-66.93645,44.22092],[-69.95176199835922,42.881255179215756],[-70.37508644274659,42.88423485678728],[-70.53679778228343,42.89751445605626]]]}}
