{"type":"Feature","properties":{"sourceId":"us/washington"},"geometry":{"type":"Polygon","coordinates":[[[-117.02528486283671,48.994736188558306],[-117.03140499779435,48.99473590374632],[-117.0433,47.96335],[-117.041,47.19558],[-117.0402,46.42782],[-117.0359,46.4209],[-117.0367,46.41028],[-117.0405,46.39824],[-117.0488,46.37947],[-117.063,46.36701],[-117.0637,46.35937],[-117.0625,46.34985],[-117.0549,46.34381],[-117.0308,46.33959],[-117.0244,46.33538],[-117.0245,46.31153],[-116.9907,46.29353],[-116.9951,46.27375],[-116.9703,46.20113],[-116.9388,46.15669],[-116.9548,46.12569],[-116.9817,46.0998],[-116.9867,46.08328],[-116.9478,46.05938],[-116.9231,45.99647],[-116.91942896850777,45.99291757106368],[-118.9851,45.99489],[-119.0247,45.96475],[-119.1255,45.92789],[-119.1956,45.92287],[-119.2575,45.93487],[-119.3111,45.93323],[-119.3642,45.91911],[-119.4494,45.9149],[-119.4873,45.90433],[-119.5263,45.9054],[-119.572,45.92227],[-119.5987,45.91835],[-119.6627,45.85009],[-119.8337,45.8355],[-120.0658,45.7795],[-120.2069,45.72056],[-120.4936,45.68676],[-120.6141,45.74057],[-120.893,45.63961],[-120.9171,45.63649],[-120.9452,45.65499],[-120.9811,45.64453],[-121.0705,45.64717],[-121.1248,45.60791],[-121.1547,45.60299],[-121.184,45.60431],[-121.1983,45.61236],[-121.2199,45.66709],[-121.2686,45.67656],[-121.314,45.69707],[-121.3677,45.70162],[-121.4044,45.68652],[-121.4636,45.69767],[-121.499,45.71529],[-121.5328,45.7214],[-121.6216,45.70354],[-121.715,45.68987],[-121.813,45.7021],[-121.8962,45.67044],[-121.8976,45.65857],[-121.9572,45.63109],[-122.1024,45.58161],[-122.1972,45.55445],[-122.2662,45.53882],[-122.332,45.54326],[-122.3553,45.5649],[-122.3806,45.57087],[-122.4391,45.56242],[-122.4556,45.56675],[-122.477,45.57821],[-122.5494,45.59192],[-122.6588,45.61163],[-122.7584,45.6508],[-122.7776,45.67984],[-122.7638,45.73471],[-122.7651,45.76303],[-122.7957,45.8052],[-122.7948,45.82927],[-122.7861,45.86603],[-122.8023,45.88783],[-122.8145,45.91141],[-122.8087,45.93241],[-122.8184,45.95816],[-122.8788,46.02875],[-122.8863,46.05396],[-122.9067,46.07935],[-122.9644,46.10011],[-123.0067,46.12943],[-123.1176,46.18038],[-123.1657,46.18391],[-123.3088,46.13393],[-123.4067,46.15011],[-123.4396,46.19647],[-123.4702,46.25751],[-123.6899,46.23662],[-123.8805,46.22759],[-124.0102,46.24137],[-124.151,46.22545],[-125.1593,46.2437],[-126.46619660192003,48.134869371436665],[-125.4449,48.13874],[-124.8191,48.44423],[-123.344,48.1467],[-123.2951,48.14689],[-123.0929,48.41918],[-123.1739,48.51069],[-123.2481,48.69005],[-122.9844,48.76072],[-122.9789,48.83015],[-123.2377,48.96897],[-123.26509640140316,48.98059236692579],[-123.2594,48.98059],[-123.2961,49.00027],[-122.7573,49.00027],[-122.2675,49.00072],[-121.7445,48.99452],[-120.847,48.99456],[-120.84700000526536,48.99456013505668],[-119.2951,48.99463],[-119.29509996547486,48.99463055844417],[-117.02528486283671,48.99473618855831],[-117.02528486283671,48.994736188558306]]]}}
