{"type":"Feature","properties":{"sourceId":"us/florida"},"geometry":{"type":"Polygon","coordinates":[[[-79.43702,27.00959],[-79.97779559030964,24.516767396330916],[-80.38255,24.43817],[-80.38344788029355,24.437558638064594],[-81.60627,24.20031],[-88.46896,24.98296],[-87.56463895300526,29.990040838867305],[-87.48688,29.99301],[-87.5164,30.22852],[-87.51666,30.28331],[-87.45115,30.29903],[-87.44843,30.31184],[-87.49458,30.3067],[-87.50326,30.30986],[-87.50313,30.32335],[-87.49768,30.32787],[-87.4494,30.32574],[-87.44348,30.36632],[-87.43274,30.38374],[-87.42826,30.4054],[-87.40267,30.40514],[-87.35755,30.43776],[-87.36763,30.45174],[-87.39909,30.45255],[-87.40728,30.45799],[-87.42313,30.46615],[-87.42925,30.47766],[-87.42672,30.48811],[-87.42946,30.49905],[-87.4386,30.50795],[-87.44284,30.514],[-87.44533,30.52174],[-87.44219,30.52304],[-87.43728,30.52987],[-87.43909,30.5366],[-87.41649,30.56134],[-87.41552,30.56924],[-87.41069,30.57292],[-87.4064,30.58317],[-87.39741,30.60436],[-87.39326,30.61386],[-87.39267,30.64595],[-87.39535,30.65571],[-87.40497,30.67595],[-87.42955,30.68986],[-87.44879,30.70047],[-87.50974,30.73435],[-87.53445,30.76192],[-87.54411,30.78045],[-87.57867,30.81234],[-87.61586,30.84152],[-87.62444,30.85811],[-87.58927,30.95318],[-87.58718,30.966],[-87.59692,30.99577],[-87.30149,30.99674],[-87.23761,30.9947],[-87.04006,30.99783],[-86.52027,30.99156],[-85.9986,30.99117],[-85.00386917384951,31.000042722928995],[-85.00839,30.97452],[-84.98581,30.93344],[-84.94277,30.87202],[-84.93881,30.85564],[-84.93796,30.83633],[-84.94038,30.8204],[-84.93105,30.79185],[-84.92304,30.7653],[-84.91596,30.75055],[-84.86481,30.70854],[-83.50011,30.64268],[-82.22779,30.56637],[-82.23686,30.55902],[-82.2434,30.53757],[-82.22944,30.5086],[-82.20526,30.48499],[-82.21069,30.4607],[-82.21382,30.42487],[-82.20954,30.40574],[-82.19512,30.37717],[-82.17344,30.35752],[-82.16249,30.3542],[-82.13998,30.36128],[-82.10535,30.3647],[-82.09526,30.35775],[-82.07277,30.35833],[-82.06356,30.35365],[-82.04072,30.36277],[-82.03431,30.37109],[-82.03287,30.38543],[-82.04119,30.40322],[-82.03108,30.41975],[-82.0346,30.43581],[-82.02564,30.4456],[-82.01405,30.47419],[-82.01158,30.51261],[-82.01461,30.5325],[-82.00245,30.56306],[-82.0032,30.57775],[-82.01243,30.60199],[-82.02559,30.62339],[-82.0458,30.65647],[-82.043,30.66665],[-82.04729,30.67522],[-82.03294,30.70594],[-82.03978,30.72792],[-82.03648,30.74841],[-82.01625,30.75231],[-82.00823,30.76281],[-82.00931,30.7858],[-81.97696,30.77373],[-81.95952,30.79546],[-81.9296,30.81464],[-81.90841,30.81276],[-81.88491,30.79828],[-81.8696,30.79011],[-81.83934,30.78359],[-81.80753,30.78709],[-81.79891,30.77893],[-81.78375,30.75867],[-81.77014,30.76141],[-81.745,30.75802],[-81.73571,30.75323],[-81.73459,30.748],[-81.7212,30.74192],[-81.69041,30.73891],[-81.65675,30.7305],[-81.64987,30.72462],[-81.61598,30.71971],[-81.61078,30.71307],[-81.59689,30.71575],[-81.56135,30.70867],[-81.53731,30.70566],[-81.5312,30.7104],[-81.53119,30.72122],[-81.48847,30.72331],[-81.47272,30.71016],[-81.33706651248413,30.698371109933277],[-79.43702,27.00959]]]}}
