{"type":"Feature","properties":{"sourceId":"us/tennessee"},"geometry":{"type":"Polygon","coordinates":[[[-89.47435,36.46359],[-89.43131,36.48968],[-89.42798951951951,36.49892],[-89.42729,36.49892],[-88.87502,36.50205],[-88.52715,36.50004],[-88.04535,36.49325],[-88.02256,36.54184],[-88.06447,36.67551],[-87.85751,36.66421],[-87.85757,36.63253],[-86.59066,36.65079],[-86.56362,36.63271],[-86.50762,36.65114],[-86.09127,36.6322],[-85.89208,36.62337],[-85.69287,36.61689],[-85.49345,36.6131],[-85.16174,36.62314],[-84.84216,36.60382],[-84.56859,36.59502],[-84.12693,36.59065],[-83.69031,36.58141],[-83.66680113035324,36.60138083492609],[-83.62517,36.59939],[-83.27651,36.59881],[-83.26098,36.59504],[-82.71439,36.59454],[-82.59858,36.59635],[-82.21229,36.59607],[-82.1481,36.59503],[-81.93481,36.59573],[-81.92373,36.61698],[-81.64416,36.61315],[-81.69776,36.53479],[-81.69247,36.46696],[-81.71231,36.43584],[-81.718,36.42131],[-81.72761,36.39123],[-81.71996,36.35618],[-81.70249,36.3429],[-81.70498,36.33345],[-81.71396,36.33121],[-81.73111,36.33817],[-81.76703,36.33566],[-81.80012,36.35504],[-81.85546,36.33486],[-81.88152,36.31077],[-81.90707,36.30185],[-82.03288,36.11909],[-82.0604,36.11281],[-82.08009,36.10482],[-82.13015,36.10404],[-82.13887,36.11865],[-82.14823,36.14774],[-82.18076,36.14256],[-82.21297,36.15782],[-82.24757,36.12987],[-82.27058,36.12415],[-82.33353,36.11404],[-82.35073,36.11514],[-82.40867,36.0831],[-82.45939,36.00757],[-82.50569,35.97662],[-82.55822,35.95263],[-82.61342,35.96731],[-82.60789,35.9877],[-82.61354,35.99234],[-82.61623,36.00372],[-82.59669,36.02841],[-82.62023,36.04483],[-82.62073,36.05386],[-82.63653,36.06279],[-82.71416,36.02041],[-82.75323,36.00375],[-82.77497,35.99968],[-82.78477,35.98075],[-82.77404,35.97235],[-82.80118,35.9278],[-82.82249,35.92123],[-82.82966,35.93193],[-82.87393,35.94959],[-82.89809,35.9433],[-82.90215,35.92803],[-82.90999,35.92537],[-82.9015,35.89308],[-82.89698,35.87337],[-82.91563,35.86248],[-82.91757,35.84016],[-82.9435,35.82236],[-82.96195,35.78787],[-82.99506,35.7711],[-83.07507,35.78688],[-83.11915,35.76342],[-83.15436,35.76166],[-83.18446,35.72715],[-83.22602,35.71959],[-83.29571,35.65512],[-83.42438,35.60929],[-83.44383,35.60878],[-83.45387,35.59568],[-83.4833,35.56619],[-83.4973,35.56017],[-83.5858,35.55995],[-83.64035,35.56308],[-83.6766,35.56718],[-83.72322,35.55888],[-83.76414,35.56001],[-83.82447,35.52105],[-83.88062,35.51472],[-83.91002,35.47359],[-83.94836,35.45835],[-83.95821,35.46119],[-84.01069,35.41269],[-84.0047,35.37085],[-84.02175,35.35175],[-84.02638,35.33318],[-84.02432,35.31133],[-84.01846,35.30087],[-84.05067,35.26769],[-84.09676,35.24448],[-84.1882,35.23699],[-84.20084,35.24122],[-84.20835,35.25828],[-84.22351,35.26601],[-84.29001,35.22176],[-84.29454,35.18556],[-84.32151,34.98811],[-84.68254,34.98738],[-85.04308,34.98661],[-85.15975,34.98605],[-85.2658,34.98474],[-85.37175,34.98288],[-85.46605,34.98269],[-86.19181,34.98866],[-86.8457,34.99165],[-87.39697,35.00156],[-87.79904,35.00385],[-88.20021,35.00729],[-88.19991,34.9953],[-89.1143,34.9931],[-90.30959,34.99412],[-90.31329,35.00453],[-90.29992,35.03935],[-90.29281,35.04468],[-90.26456,35.0432],[-90.25585,35.03744],[-90.19678,35.06235],[-90.17948,35.11352],[-90.16147,35.13148],[-90.14245,35.13807],[-90.10046,35.11975],[-90.08512,35.12415],[-90.09359,35.15479],[-90.10896,35.16439],[-90.12029,35.18711],[-90.11799,35.20089],[-90.09835,35.19834],[-90.10614,35.25145],[-90.14069,35.2493],[-90.15363,35.25341],[-90.17179,35.27901],[-90.16652,35.2974],[-90.15991,35.30347],[-90.14977,35.30629],[-90.13922,35.30197],[-90.11182,35.30751],[-90.10719,35.33209],[-90.11307,35.34392],[-90.16692,35.37182],[-90.18224,35.38557],[-90.17139,35.42367],[-90.13188,35.44406],[-90.12304,35.46751],[-90.10829,35.47988],[-90.08446,35.48178],[-90.06533,35.46793],[-90.05247,35.41116],[-90.02196,35.46694],[-90.04593,35.49052],[-90.05328,35.51529],[-90.04252,35.54917],[-90.0341,35.55621],[-90.00864,35.56304],[-89.98877,35.56298],[-89.95424,35.54216],[-89.94363,35.55455],[-89.95941,35.58016],[-89.95958,35.59151],[-89.94715,35.60405],[-89.9131,35.61991],[-89.89601,35.61785],[-89.87797,35.62828],[-89.87697,35.63762],[-89.89839,35.64795],[-89.9164,35.65245],[-89.93197,35.65944],[-89.95857,35.68959],[-89.96188,35.72398],[-89.95857,35.73529],[-89.91043,35.76236],[-89.87643,35.74436],[-89.80181,35.77708],[-89.80179,35.79022],[-89.78319,35.80774],[-89.76575,35.8142],[-89.73454,35.80916],[-89.70779,35.82077],[-89.71068,35.83626],[-89.76536,35.85549],[-89.77506,35.86359],[-89.7715,35.88785],[-89.75753,35.89942],[-89.71456,35.90922],[-89.6867,35.89958],[-89.66402,35.89544],[-89.65476,35.91974],[-89.7169,35.96115],[-89.72253,35.96999],[-89.7219,35.98433],[-89.73606,36.00103],[-89.73613,36.00602],[-89.71292,36.00613],[-89.68367,36.09771],[-89.62196,36.12211],[-89.60158,36.15746],[-89.71831,36.23597],[-89.70075,36.25723],[-89.54645,36.26941],[-89.6259,36.30381],[-89.62393,36.34084],[-89.52938,36.36252],[-89.55418,36.42851],[-89.53869,36.47281],[-89.55298650070597,36.49943998557488],[-89.46566533693144,36.499080022000406],[-89.47435,36.46359]]]}}
