{"type":"Feature","properties":{"sourceId":"us/nebraska"},"geometry":{"type":"Polygon","coordinates":[[[-104.0563,40.99929],[-104.0575,42.99439],[-104.0559,43.00172],[-98.49856,43.00156],[-98.46532,42.94986],[-98.44653,42.93884],[-98.42003,42.93484],[-98.34489,42.90543],[-98.2511,42.87574],[-98.21854,42.85587],[-98.14595,42.84266],[-98.12596,42.82272],[-98.06549,42.78709],[-98.03392,42.76711],[-98.00069,42.76626],[-97.97794,42.7729],[-97.91093,42.7972],[-97.87751,42.8608],[-97.84556,42.87072],[-97.82784,42.87172],[-97.65846,42.84757],[-97.6118,42.86137],[-97.5324,42.85306],[-97.50471,42.86147],[-97.44272,42.84922],[-97.4189,42.86829],[-97.40689,42.86942],[-97.39193,42.86532],[-97.37536,42.86485],[-97.35945,42.85783],[-97.33685,42.85972],[-97.30655,42.8706],[-97.23106,42.85421],[-97.21485,42.84508],[-97.14957,42.79832],[-97.13009,42.77479],[-97.06554,42.77519],[-96.97867,42.76306],[-96.96689,42.75652],[-96.94936,42.72245],[-96.90616,42.73673],[-96.80479,42.70679],[-96.79753,42.69301],[-96.79237,42.66891],[-96.72791,42.66988],[-96.69001,42.65892],[-96.6842,42.65292],[-96.68485,42.64537],[-96.70681,42.62054],[-96.67972,42.57701],[-96.64145,42.55971],[-96.63258,42.54884],[-96.56862,42.52079],[-96.54813,42.52347],[-96.52682,42.51557],[-96.50037,42.48561],[-96.47891,42.48264],[-96.44788057925123,42.489557854300585],[-96.4154,42.48733],[-96.39701,42.48382],[-96.38597,42.47149],[-96.38206,42.4474],[-96.38927,42.43242],[-96.41468,42.40994],[-96.41797,42.39321],[-96.41997,42.36231],[-96.42067,42.35061],[-96.40962,42.33489],[-96.3681,42.28396],[-96.33173,42.25366],[-96.33293,42.23954],[-96.35778,42.21794],[-96.36276,42.21135],[-96.3525,42.171],[-96.34468,42.15855],[-96.31171,42.13],[-96.28234,42.07049],[-96.27395,42.04336],[-96.26166,42.03602],[-96.24478,42.0079],[-96.24463,41.99941],[-96.23779,41.99372],[-96.1877,41.97478],[-96.14756,41.94192],[-96.16466,41.90105],[-96.14437,41.86697],[-96.10993,41.81881],[-96.08243,41.75964],[-96.10463,41.74869],[-96.1094,41.73826],[-96.10457,41.72575],[-96.11286,41.70064],[-96.1244,41.68869],[-96.1236,41.67639],[-96.11879,41.62315],[-96.12034,41.60887],[-96.11119,41.59447],[-96.09648,41.55914],[-96.09699,41.5385],[-96.09008,41.52824],[-96.07466,41.52247],[-96.05527,41.50631],[-96.04078,41.50408],[-96.02194,41.49057],[-96.01402,41.47425],[-95.96298,41.45988],[-95.9361,41.43006],[-95.93273,41.41157],[-95.94044,41.39363],[-95.95694,41.35399],[-95.95947,41.34436],[-95.94858,41.33162],[-95.92702,41.31951],[-95.89739,41.31818],[-95.88113,41.31233],[-95.87387,41.2975],[-95.88029,41.28559],[-95.90221,41.27674],[-95.91039,41.27972],[-95.90436,41.29097],[-95.90301,41.30124],[-95.91797,41.30272],[-95.92913,41.2994],[-95.9313,41.28355],[-95.91955,41.27309],[-95.92367,41.26095],[-95.91313,41.23828],[-95.915,41.22526],[-95.92777,41.21203],[-95.92891,41.19502],[-95.91501,41.18213],[-95.87322,41.17082],[-95.88623,41.15611],[-95.88473,41.14257],[-95.86887,41.11727],[-95.86563,41.08859],[-95.88537,41.05989],[-95.88176,41.05134],[-95.87246,41.00976],[-95.86981,40.99998],[-95.84266,40.93207],[-95.83881,40.91981],[-95.84572,40.87176],[-95.8515,40.86178],[-95.84834,40.81133],[-95.8809,40.75543],[-95.89176,40.73091],[-95.88503,40.71522],[-95.85487,40.70025],[-95.84473,40.6752],[-95.82409,40.66448],[-95.77156,40.61983],[-95.75166,40.60301],[-95.75526,40.59504],[-95.76802,40.58705],[-95.76778064805458,40.58647092271271],[-95.77602,40.5799],[-95.77751,40.57252],[-95.76639,40.55072],[-95.7716,40.53339],[-95.75771,40.52305],[-95.73734,40.52093],[-95.72243,40.5251],[-95.70756,40.51873],[-95.70296,40.50552],[-95.69925,40.48266],[-95.69522,40.46724],[-95.67232,40.45375],[-95.66035,40.42674],[-95.66444,40.41558],[-95.64677,40.38577],[-95.64374,40.36511],[-95.62949,40.35093],[-95.62572,40.34067],[-95.63146,40.33359],[-95.65574,40.32488],[-95.66013,40.3098],[-95.64501,40.30271],[-95.61096,40.311],[-95.58283,40.29677],[-95.56324,40.29455],[-95.55441,40.28744],[-95.55933,40.26776],[-95.55389,40.25926],[-95.52237,40.2465],[-95.48529,40.20106],[-95.48217,40.18461],[-95.46249,40.16673],[-95.43868,40.15675],[-95.43048,40.13313],[-95.39853,40.09572],[-95.41849,40.0672],[-95.42453,40.05974],[-95.41953,40.04194],[-95.40919,40.03081],[-95.38739,40.02378],[-95.34029646148522,40.00015069039347],[-102.0529,40.00029],[-102.0535,40.00029],[-102.0568,40.99739],[-104.0563,40.99929]]]}}
