{"type":"Feature","properties":{"sourceId":"us/wyoming"},"geometry":{"type":"Polygon","coordinates":[[[-103.9413,40.98339],[-104.0483,40.99772],[-104.9675,40.99496],[-105.4356,40.99595],[-106.1108,40.99565],[-106.44,41.00016],[-109.04877999738945,40.998749040511456],[-109.0488,41.00181],[-109.2321,41.00286],[-110.2832,40.99655],[-111.045,40.99965],[-111.04639275239383,41.998034605284744],[-111.0431,41.99804],[-111.0444,44.47605],[-111.05443165771239,44.47933506574244],[-111.0559,44.62492],[-111.0576,44.86666],[-111.0558,45.00167],[-110.785,45.00365],[-110.7052,44.99302],[-110.4881,44.99306],[-110.403,44.99451],[-110.3626,45.00129],[-110.2867,44.99755],[-110.1101,45.0046],[-109.8757,45.00397],[-109.3864,45.00559],[-109.1034,45.00659],[-109.0807,45.00014],[-108.5659,45.00128],[-108.2712,45.00095],[-108.2185,45.00124],[-107.9974,45.00227],[-107.7507,45.00148],[-107.3514,45.00211],[-107.1342,45.00081],[-107.0849,44.9973],[-106.2636,44.99449],[-105.9309,44.99508],[-105.9125,45.00225],[-105.0182,45.00114],[-104.0567,45.00002],[-104.04172829849098,45.008593417750916],[-104.0417,44.99864],[-104.0588,44.99813],[-104.0576,43.00062],[-104.05614855773578,43.00058129487295],[-104.0575,42.99439],[-104.0563,40.99929],[-103.94162475128579,40.99918103127154],[-103.9413,40.98339]]]}}
