{"type":"Feature","properties":{"sourceId":"us/oregon"},"geometry":{"type":"Polygon","coordinates":[[[-120.6274,41.98295],[-122.3767,41.99947],[-126.3879,41.9634],[-126.2453,46.26953],[-125.17458781936162,46.26582252728354],[-125.1593,46.2437],[-124.151,46.22545],[-124.0102,46.24137],[-123.8805,46.22759],[-123.6899,46.23662],[-123.4702,46.25751],[-123.4396,46.19647],[-123.4067,46.15011],[-123.3088,46.13393],[-123.1657,46.18391],[-123.1176,46.18038],[-123.0067,46.12943],[-122.9644,46.10011],[-122.9067,46.07935],[-122.8863,46.05396],[-122.8788,46.02875],[-122.8184,45.95816],[-122.8087,45.93241],[-122.8145,45.91141],[-122.8023,45.88783],[-122.7861,45.86603],[-122.7948,45.82927],[-122.7957,45.8052],[-122.7651,45.76303],[-122.7638,45.73471],[-122.7776,45.67984],[-122.7584,45.6508],[-122.6588,45.61163],[-122.5494,45.59192],[-122.477,45.57821],[-122.4556,45.56675],[-122.4391,45.56242],[-122.3806,45.57087],[-122.3553,45.5649],[-122.332,45.54326],[-122.2662,45.53882],[-122.1972,45.55445],[-122.1024,45.58161],[-121.9572,45.63109],[-121.8976,45.65857],[-121.8962,45.67044],[-121.813,45.7021],[-121.715,45.68987],[-121.6216,45.70354],[-121.5328,45.7214],[-121.499,45.71529],[-121.4636,45.69767],[-121.4044,45.68652],[-121.3677,45.70162],[-121.314,45.69707],[-121.2686,45.67656],[-121.2199,45.66709],[-121.1983,45.61236],[-121.184,45.60431],[-121.1547,45.60299],[-121.1248,45.60791],[-121.0705,45.64717],[-120.9811,45.64453],[-120.9452,45.65499],[-120.9171,45.63649],[-120.893,45.63961],[-120.6141,45.74057],[-120.4936,45.68676],[-120.2069,45.72056],[-120.0658,45.7795],[-119.8337,45.8355],[-119.6627,45.85009],[-119.5987,45.91835],[-119.572,45.92227],[-119.5263,45.9054],[-119.4873,45.90433],[-119.4494,45.9149],[-119.3642,45.91911],[-119.3111,45.93323],[-119.2575,45.93487],[-119.1956,45.92287],[-119.1255,45.92789],[-119.0247,45.96475],[-118.9851,45.99489],[-116.91942896850777,45.99291757106368],[-116.8971,45.97131],[-116.8637,45.9041],[-116.8,45.85532],[-116.7848,45.82083],[-116.7596,45.81117],[-116.713,45.82138],[-116.7008,45.81655],[-116.6677,45.77761],[-116.595,45.77385],[-116.5503,45.74742],[-116.5408,45.73338],[-116.5395,45.68888],[-116.4919,45.64661],[-116.4644,45.6032],[-116.4841,45.57754],[-116.4977,45.57234],[-116.5244,45.548],[-116.5501,45.51135],[-116.56,45.48179],[-116.5558,45.46748],[-116.5876,45.44504],[-116.5986,45.41301],[-116.6196,45.39996],[-116.6751,45.32098],[-116.6775,45.27498],[-116.6916,45.26526],[-116.7039,45.2416],[-116.7109,45.21824],[-116.7096,45.20567],[-116.7252,45.17182],[-116.7309,45.1421],[-116.755,45.11517],[-116.7754,45.1068],[-116.7862,45.09088],[-116.7819,45.08139],[-116.8009,45.06377],[-116.8499,45.02468],[-116.846,45.01187],[-116.8608,44.97457],[-116.8422,44.96797],[-116.8536,44.95945],[-116.834,44.93553],[-116.8568,44.88437],[-116.8969,44.84852],[-116.9349,44.8024],[-116.9353,44.78762],[-117.0436,44.74713],[-117.0632,44.72747],[-117.0649,44.70981],[-117.0784,44.69502],[-117.0974,44.66391],[-117.1028,44.64293],[-117.123,44.61403],[-117.1295,44.58049],[-117.1406,44.57588],[-117.1499,44.56619],[-117.1454,44.55195],[-117.1633,44.52972],[-117.1846,44.52227],[-117.2038,44.49563],[-117.2279,44.48199],[-117.2162,44.42662],[-117.246,44.39443],[-117.2354,44.37297],[-117.1912,44.33582],[-117.2217,44.30628],[-117.2242,44.29298],[-117.1995,44.27361],[-117.1743,44.25907],[-117.1432,44.25326],[-117.1252,44.27081],[-117.1053,44.27869],[-117.0897,44.25645],[-117.0584,44.23027],[-117.0469,44.22729],[-117.0392,44.24196],[-117.0295,44.24748],[-117.0195,44.24415],[-116.9944,44.24583],[-116.9766,44.24151],[-116.9722,44.19467],[-116.9288,44.18712],[-116.9035,44.1785],[-116.8953,44.15633],[-116.9117,44.14067],[-116.9278,44.11884],[-116.933,44.10175],[-116.9448,44.09473],[-116.9703,44.09085],[-116.9785,44.08735],[-116.9746,44.04955],[-116.9576,44.04233],[-116.9426,44.03288],[-116.9358,44.02281],[-116.9418,43.99944],[-116.9411,43.99059],[-116.9763,43.96747],[-116.9727,43.95913],[-116.965,43.95237],[-116.9695,43.93744],[-116.9655,43.9308],[-116.984,43.88394],[-116.9849,43.87158],[-116.991,43.8678],[-117.0119,43.86371],[-117.0182,43.86032],[-117.02,43.85181],[-117.0291,43.82979],[-117.028,42.37931],[-117.03038065358884,42.00125229070266],[-117.1978,42.00208],[-118.501,41.99715],[-118.6964,41.99349],[-119.3568,41.99506],[-119.7901,41.99924],[-120.0005,41.99626],[-120.00052030738581,41.98466800265264],[-120.6274,41.98295]]]}}
