{"type":"Feature","properties":{"sourceId":"uruguay"},"geometry":{"type":"Polygon","coordinates":[[[-52.7723,-34.11526],[-55.51942,-36.2487],[-58.00987,-34.69251],[-58.10591,-34.33987],[-58.32661,-34.1545],[-58.35468,-34.04255],[-58.42049,-33.96045],[-58.52589,-33.60032],[-58.4325,-33.18239],[-58.37414,-33.11973],[-58.32813,-33.10132],[-58.25889,-33.09821],[-58.14995,-33.04205],[-58.13014,-32.9048],[-58.19664,-32.5717],[-58.20964,-32.49023],[-58.19965,-32.38414],[-58.11897,-32.31946],[-58.10797,-32.28872],[-58.10976,-32.25882],[-58.1369,-32.21629],[-58.19279,-32.16252],[-58.15555,-31.99616],[-58.20625,-31.91312],[-58.21621,-31.86035],[-58.16655,-31.83213],[-58.07958,-31.80889],[-58.05117,-31.753],[-57.99045,-31.58082],[-58.00747,-31.54533],[-58.00884,-31.53041],[-58.08248,-31.49754],[-58.08746,-31.45869],[-58.07562,-31.44302],[-58.01193,-31.40713],[-57.98292,-31.3872],[-57.98721,-31.37489],[-58.00086,-31.36114],[-57.99013,-31.31653],[-57.9237,-31.21427],[-57.92309,-31.12277],[-57.87872,-31.06882],[-57.86808,-31.03793],[-57.87975,-31.00527],[-57.93091,-30.91519],[-57.88902,-30.90075],[-57.83169,-30.91077],[-57.81281,-30.86923],[-57.81523,-30.70483],[-57.84823,-30.66661],[-57.85598,-30.62477],[-57.89666,-30.58898],[-57.90207,-30.50844],[-57.848,-30.46047],[-57.65247,-30.33762],[-57.62054,-30.25165],[-57.66552,-30.19202],[-57.62208,-30.17726],[-57.55556,-30.20287],[-57.54561,-30.23006],[-57.55656,-30.25322],[-57.46416,-30.25602],[-57.41239,-30.26915],[-57.37351,-30.26382],[-57.17194,-30.23258],[-57.1769,-30.19318],[-57.10241,-30.08319],[-56.83914,-30.07355],[-56.64675,-30.19962],[-56.53599,-30.31036],[-56.48758,-30.39124],[-56.46046,-30.37924],[-56.43652,-30.42235],[-56.41135,-30.42169],[-56.38793,-30.4441],[-55.95818,-30.82855],[-55.98152,-31.05823],[-55.64283,-30.84226],[-55.57395,-30.82386],[-55.53884,-30.88318],[-55.48042,-30.9196],[-55.03716,-31.26212],[-54.99902,-31.25958],[-54.7533,-31.41455],[-54.66672,-31.44411],[-54.58167,-31.44799],[-54.49515,-31.5203],[-54.44391,-31.59583],[-54.44269,-31.64897],[-54.17384,-31.86119],[-54.15629,-31.87391],[-54.14226,-31.88215],[-54.09106,-31.9203],[-54.03301,-31.88543],[-53.96594,-31.90848],[-53.95458,-31.94696],[-53.84307,-31.9933],[-53.73821,-32.07166],[-53.71537,-32.0953],[-53.4577,-32.47652],[-53.44727,-32.51761],[-53.39024,-32.57522],[-53.36665,-32.56037],[-53.28722,-32.61118],[-53.27332,-32.59512],[-53.24477,-32.59553],[-53.23283,-32.62039],[-53.18117,-32.63624],[-53.03856,-32.75725],[-53.21091,-32.94645],[-53.44299,-33.08809],[-53.49587,-33.342],[-53.51921,-33.59131],[-53.52041,-33.68664],[-53.43561,-33.6915],[-53.42531,-33.73533],[-53.39647,-33.74561],[-53.37141,-33.74019],[-52.7723,-34.11526]]]}}
