{"type":"Feature","properties":{"sourceId":"us/arizona"},"geometry":{"type":"Polygon","coordinates":[[[-114.6394,35.02531],[-114.634,35.03614],[-114.6282,35.04569],[-114.6066,35.05982],[-114.6038,35.06612],[-114.6046,35.07247],[-114.6084,35.07795],[-114.6437,35.09506],[-114.6484,35.10235],[-114.6292,35.1205],[-114.6201,35.12332],[-114.5993,35.12275],[-114.5795,35.13004],[-114.5747,35.13892],[-114.5759,35.14547],[-114.5712,35.16293],[-114.5714,35.18613],[-114.5737,35.19996],[-114.5816,35.20934],[-114.5992,35.29675],[-114.6059,35.35298],[-114.6637,35.44354],[-114.6793,35.48949],[-114.6809,35.49999],[-114.6787,35.51429],[-114.6679,35.57754],[-114.6783,35.64026],[-114.6911,35.65098],[-114.6916,35.66525],[-114.707,35.70771],[-114.7007,35.78967],[-114.7138,35.80602],[-114.7015,35.84328],[-114.6993,35.85566],[-114.7014,35.90048],[-114.7327,35.94323],[-114.7421,35.97487],[-114.7451,35.98454],[-114.745,36.0081],[-114.7327,36.02271],[-114.7315,36.02817],[-114.7444,36.04035],[-114.738,36.0581],[-114.7777,36.09871],[-114.6609,36.12557],[-114.6321,36.14397],[-114.5724,36.15328],[-114.5117,36.15266],[-114.4053,36.14906],[-114.3709,36.14435],[-114.3277,36.10684],[-114.307,36.08331],[-114.2794,36.04785],[-114.1385,36.0601],[-114.1245,36.1126],[-114.1118,36.12137],[-114.0695,36.18151],[-114.0613,36.19075],[-114.0501,36.74765],[-114.0504,36.87381],[-114.05216961813585,36.99903997674672],[-111.2783,36.99876],[-110.5007,37.00256],[-110.4702,36.9963],[-110.0019,36.99681],[-109.0451,36.99895],[-109.0450998722791,36.99899802944879],[-109.0450998722791,36.99899802944686],[-109.04509989499347,36.9989894877051],[-109.04509986687751,36.9989894876811],[-109.0437,34.78532],[-109.0481,31.49919],[-109.0497,31.33217],[-109.0497,31.3311],[-109.5576,31.3315],[-110.9211,31.33106],[-110.9626,31.33033],[-111.0741,31.32659],[-114.8224,32.49577],[-114.8222,32.55463],[-114.8126,32.6268],[-114.7781,32.63682],[-114.7576,32.66248],[-114.7272,32.71494],[-114.72715938231164,32.71495795039775],[-114.7298,32.71042],[-114.7161,32.71911],[-114.7011,32.74394],[-114.6888,32.73574],[-114.6151,32.72676],[-114.5805,32.73437],[-114.5259,32.75148],[-114.525,32.76405],[-114.5289,32.79333],[-114.509,32.81453],[-114.4926,32.82358],[-114.467,32.84266],[-114.4612,32.90939],[-114.4631,32.91466],[-114.4786,32.93493],[-114.4639,32.95883],[-114.4699,32.97657],[-114.5084,33.0253],[-114.5267,33.03466],[-114.5849,33.03981],[-114.6693,33.05691],[-114.6981,33.11125],[-114.6747,33.16023],[-114.6706,33.22247],[-114.6706,33.26798],[-114.6918,33.28428],[-114.7243,33.29527],[-114.6954,33.33847],[-114.6936,33.35817],[-114.7171,33.40323],[-114.633,33.41393],[-114.5934,33.49064],[-114.5256,33.53965],[-114.5221,33.5583],[-114.5339,33.5687],[-114.539,33.59084],[-114.5315,33.60296],[-114.526,33.6084],[-114.5203,33.61157],[-114.5235,33.64744],[-114.5126,33.65725],[-114.4925,33.70582],[-114.5041,33.76922],[-114.5217,33.81143],[-114.4997,33.86687],[-114.5123,33.93981],[-114.4369,34.01389],[-114.4154,34.09035],[-114.3212,34.13497],[-114.2908,34.1621],[-114.259,34.16991],[-114.2202,34.18894],[-114.2221,34.20355],[-114.2013,34.21747],[-114.1571,34.25681],[-114.1291,34.25629],[-114.1342,34.30644],[-114.1809,34.35846],[-114.3327,34.45415],[-114.375,34.45368],[-114.3761,34.52936],[-114.4709,34.71778],[-114.5465,34.76482],[-114.5877,34.84439],[-114.6249,34.86439],[-114.6277,35.00427],[-114.63853605348987,35.01286917025419],[-114.6394,35.02531]]]}}
