{"type":"Feature","properties":{"sourceId":"us/new-mexico"},"geometry":{"type":"MultiPolygon","coordinates":[[[[-103.0376,36.49754],[-103.033,34.34069],[-103.0597,31.99562],[-106.6127,31.99769],[-106.6191,31.97417],[-106.6109,31.94995],[-106.6248,31.92745],[-106.612,31.92192],[-106.6099,31.91881],[-106.644,31.89733],[-106.6326,31.89002],[-106.6274,31.88315],[-106.6346,31.87152],[-106.6249,31.8605],[-106.6122,31.84986],[-106.5993,31.84723],[-106.6018,31.82652],[-106.5912,31.82586],[-106.5771,31.81312],[-106.5682,31.81573],[-106.5452,31.80887],[-106.524,31.7918],[-106.5212,31.78318],[-108.2022,31.7797],[-108.2013,31.33043],[-109.0497,31.3311],[-109.0497,31.33217],[-109.0481,31.49919],[-109.0437,34.78532],[-109.04509986687751,36.9989894876811],[-109.04509989499347,36.9989894877051],[-106.8786,36.99714],[-106.8698,36.98943],[-103.00777544573081,36.99547688631637],[-103.00778593369724,36.99966840209541],[-103.00778593369722,36.99966840209541],[-103.0076,36.92536],[-103.0047,36.50329],[-103.0068,36.50325],[-103.0068,36.49724193548387],[-103.0376,36.49754]]],[[[-109.0450998722791,36.99899802944686],[-109.0450998722791,36.99899802944798],[-109.04509925445541,36.9992303620432],[-109.04509989499347,36.9989894877051],[-109.0450998722791,36.99899802944686]]]]}}
