{"type":"Feature","properties":{"sourceId":"us/nevada"},"geometry":{"type":"Polygon","coordinates":[[[-116.9135,36.7795],[-117.5683,37.26807],[-119.3599,38.55438],[-120.0024,38.99865],[-120.0074,39.22347],[-119.9973,40.38166],[-120.002,41.14002],[-120.0005,41.99626],[-119.7901,41.99924],[-119.3568,41.99506],[-118.6964,41.99349],[-118.501,41.99715],[-117.1978,42.00208],[-117.03038065358884,42.00125229070266],[-117.0304,41.99818],[-116.3685,41.99128],[-115.0318,41.99101],[-114.8311,41.99721],[-114.5983,41.98951],[-114.0491,41.98881],[-114.04271255546158,41.988574414329086],[-114.0442,41.21075],[-114.0501,40.1186],[-114.0488,39.49993],[-114.0522,38.49995],[-114.0556,37.60757],[-114.0524,36.99904],[-114.05216961813585,36.99903997674672],[-114.0504,36.87381],[-114.0501,36.74765],[-114.0613,36.19075],[-114.0695,36.18151],[-114.1118,36.12137],[-114.1245,36.1126],[-114.1385,36.0601],[-114.2794,36.04785],[-114.307,36.08331],[-114.3277,36.10684],[-114.3709,36.14435],[-114.4053,36.14906],[-114.5117,36.15266],[-114.5724,36.15328],[-114.6321,36.14397],[-114.6609,36.12557],[-114.7777,36.09871],[-114.738,36.0581],[-114.7444,36.04035],[-114.7315,36.02817],[-114.7327,36.02271],[-114.745,36.0081],[-114.7451,35.98454],[-114.7421,35.97487],[-114.7327,35.94323],[-114.7014,35.90048],[-114.6993,35.85566],[-114.7015,35.84328],[-114.7138,35.80602],[-114.7007,35.78967],[-114.707,35.70771],[-114.6916,35.66525],[-114.6911,35.65098],[-114.6783,35.64026],[-114.6679,35.57754],[-114.6787,35.51429],[-114.6809,35.49999],[-114.6793,35.48949],[-114.6637,35.44354],[-114.6059,35.35298],[-114.5992,35.29675],[-114.5816,35.20934],[-114.5737,35.19996],[-114.5714,35.18613],[-114.5712,35.16293],[-114.5759,35.14547],[-114.5747,35.13892],[-114.5795,35.13004],[-114.5993,35.12275],[-114.6201,35.12332],[-114.6292,35.1205],[-114.6484,35.10235],[-114.6437,35.09506],[-114.6084,35.07795],[-114.6046,35.07247],[-114.6038,35.06612],[-114.6066,35.05982],[-114.6282,35.04569],[-114.634,35.03614],[-114.6394,35.02531],[-114.63853605348987,35.01286917025419],[-115.6433,35.81022],[-115.65262514349128,35.81025359494926],[-115.7061,35.85252],[-116.9135,36.7795]]]}}
