{"type":"Feature","properties":{"sourceId":"us/arkansas"},"geometry":{"type":"Polygon","coordinates":[[[-90.14552,36.50413],[-90.11868,36.41617],[-90.06355,36.40337],[-90.05073,36.29879],[-90.11119,36.2347],[-90.21836,36.13118],[-90.28819,36.08996],[-90.35779,36.00298],[-89.73226,36.00604],[-89.73226,36.00603834123223],[-89.73613,36.00602],[-89.73606,36.00103],[-89.7219,35.98433],[-89.72253,35.96999],[-89.7169,35.96115],[-89.65476,35.91974],[-89.66402,35.89544],[-89.6867,35.89958],[-89.71456,35.90922],[-89.75753,35.89942],[-89.7715,35.88785],[-89.77506,35.86359],[-89.76536,35.85549],[-89.71068,35.83626],[-89.70779,35.82077],[-89.73454,35.80916],[-89.76575,35.8142],[-89.78319,35.80774],[-89.80179,35.79022],[-89.80181,35.77708],[-89.87643,35.74436],[-89.91043,35.76236],[-89.95857,35.73529],[-89.96188,35.72398],[-89.95857,35.68959],[-89.93197,35.65944],[-89.9164,35.65245],[-89.89839,35.64795],[-89.87697,35.63762],[-89.87797,35.62828],[-89.89601,35.61785],[-89.9131,35.61991],[-89.94715,35.60405],[-89.95958,35.59151],[-89.95941,35.58016],[-89.94363,35.55455],[-89.95424,35.54216],[-89.98877,35.56298],[-90.00864,35.56304],[-90.0341,35.55621],[-90.04252,35.54917],[-90.05328,35.51529],[-90.04593,35.49052],[-90.02196,35.46694],[-90.05247,35.41116],[-90.06533,35.46793],[-90.08446,35.48178],[-90.10829,35.47988],[-90.12304,35.46751],[-90.13188,35.44406],[-90.17139,35.42367],[-90.18224,35.38557],[-90.16692,35.37182],[-90.11307,35.34392],[-90.10719,35.33209],[-90.11182,35.30751],[-90.13922,35.30197],[-90.14977,35.30629],[-90.15991,35.30347],[-90.16652,35.2974],[-90.17179,35.27901],[-90.15363,35.25341],[-90.14069,35.2493],[-90.10614,35.25145],[-90.09835,35.19834],[-90.11799,35.20089],[-90.12029,35.18711],[-90.10896,35.16439],[-90.09359,35.15479],[-90.08512,35.12415],[-90.10046,35.11975],[-90.14245,35.13807],[-90.16147,35.13148],[-90.17948,35.11352],[-90.19678,35.06235],[-90.25585,35.03744],[-90.26456,35.0432],[-90.29281,35.04468],[-90.29992,35.03935],[-90.31329,35.00453],[-90.30959,34.99412],[-90.3100136149454,34.99531184637342],[-90.30591,34.97845],[-90.25688,34.95085],[-90.24949,34.93703],[-90.25351,34.91111],[-90.31757,34.87457],[-90.31061,34.85017],[-90.34138,34.86526],[-90.42041,34.83835],[-90.43293,34.88617],[-90.46765,34.89576],[-90.48347,34.88673],[-90.48999,34.86853],[-90.46186,34.82188],[-90.51255,34.80628],[-90.53832,34.80323],[-90.55201,34.78696],[-90.54838,34.75138],[-90.56728,34.74199],[-90.57317,34.72721],[-90.55383,34.70264],[-90.57064,34.69712],[-90.59341,34.67121],[-90.59173,34.61357],[-90.54577,34.54838],[-90.58252,34.51927],[-90.59377,34.49239],[-90.58995,34.45901],[-90.57201,34.43849],[-90.57524,34.42321],[-90.61622,34.39518],[-90.66229,34.37901],[-90.68146,34.3735],[-90.75065,34.37289],[-90.76868,34.36617],[-90.77239,34.34506],[-90.7491,34.32243],[-90.74735,34.3049],[-90.76681,34.28541],[-90.80364,34.28741],[-90.83185,34.27714],[-90.84936,34.21321],[-90.89177,34.22854],[-90.90477,34.24892],[-90.93248,34.24815],[-90.94195,34.2355],[-90.9401,34.21797],[-90.91894,34.19284],[-90.9109,34.17043],[-90.95786,34.14201],[-90.9634,34.1243],[-90.94959,34.10559],[-90.92277,34.08919],[-90.89236,34.05753],[-90.89509,34.03115],[-90.99166,34.02239],[-91.01849,34.00814],[-91.04511,33.99132],[-91.07642,33.98848],[-91.09249,33.97737],[-91.08655,33.95182],[-91.01568,33.92781],[-91.07461,33.87004],[-91.07788,33.85633],[-91.05005,33.81152],[-91.05248,33.7835],[-91.10595,33.7762],[-91.13389,33.78812],[-91.14993,33.76866],[-91.15149,33.73132],[-91.16069,33.71209],[-91.21387,33.70292],[-91.23275,33.6841],[-91.23293,33.66963],[-91.22225,33.65766],[-91.17359,33.64338],[-91.14263,33.62192],[-91.13549,33.60623],[-91.15408,33.58739],[-91.18,33.58728],[-91.23548,33.56351],[-91.23024,33.53809],[-91.1902,33.50099],[-91.21152,33.47267],[-91.23534,33.46049],[-91.24048,33.43854],[-91.2102,33.4288],[-91.20065,33.42315],[-91.21334,33.41059],[-91.20755,33.39468],[-91.16591,33.37472],[-91.14587,33.35297],[-91.14655,33.29876],[-91.13053,33.27835],[-91.13221,33.26568],[-91.10085,33.23318],[-91.09626,33.2229],[-91.08938,33.18056],[-91.09404,33.14264],[-91.13162,33.13411],[-91.14782,33.13541],[-91.1611,33.14675],[-91.18399,33.14668],[-91.20676,33.12552],[-91.20345,33.10316],[-91.12537,33.0555],[-91.13251,33.03735],[-91.16641,33.02263],[-91.17115972358098,33.0038237518073],[-91.58412,33.00577],[-92.22285,33.00408],[-92.68238,33.01364],[-93.07538,33.01656],[-93.32618,33.01774],[-93.49565,33.01804],[-94.04373,33.01865],[-94.04346,33.18714],[-94.04335,33.35894],[-94.04346,33.46303],[-94.04378,33.54618],[-94.06226,33.54478],[-94.07533,33.55],[-94.07862,33.55938],[-94.0704,33.56542],[-94.08337,33.57047],[-94.1156,33.56199],[-94.11936,33.54956],[-94.13061,33.54635],[-94.1357,33.55042],[-94.13864,33.56298],[-94.1512,33.56146],[-94.15659,33.57075],[-94.16521,33.57618],[-94.16658,33.58451],[-94.1832,33.58823],[-94.19242,33.5783],[-94.18513,33.564],[-94.18655,33.55622],[-94.19484,33.55037],[-94.20301,33.55254],[-94.20737,33.56134],[-94.21601,33.55226],[-94.22565,33.54797],[-94.23839,33.5477],[-94.25286,33.55253],[-94.25704,33.56354],[-94.24229,33.58052],[-94.24247,33.58468],[-94.25453,33.5787],[-94.2743,33.55314],[-94.28876,33.55232],[-94.29524,33.55639],[-94.29516,33.56933],[-94.28709,33.57736],[-94.29685,33.57022],[-94.30198,33.55329],[-94.30822,33.54686],[-94.31979,33.54387],[-94.3325,33.54807],[-94.34315,33.56284],[-94.34654,33.56032],[-94.34305,33.54859],[-94.35391,33.53861],[-94.38707,33.54002],[-94.40327,33.55268],[-94.40279,33.56348],[-94.416,33.56525],[-94.43234,33.58661],[-94.45254,33.58644],[-94.46104,33.59357],[-94.47462,33.59798],[-94.47594,33.60748],[-94.45858,33.61869],[-94.46494,33.62218],[-94.48684,33.63296],[-94.49079,33.63697],[-94.46253,34.64313],[-94.43682,35.36288],[-94.43891,35.3874],[-94.43639,35.3948],[-94.5828,36.24857],[-94.61814,36.48008],[-94.62217,36.51577],[-94.61151,36.51585],[-94.61153,36.50789],[-90.14552,36.50413]]]}}
