{"type":"Feature","properties":{"sourceId":"uganda"},"geometry":{"type":"Polygon","coordinates":[[[29.60369,-1.316527],[29.59288,-1.291986],[29.59167,-1.251312],[29.60094,-1.222651],[29.57056,-1.190386],[29.57726,-1.109378],[29.58447,-0.982713],[29.58687,-0.974474],[29.5788,-0.905304],[29.58687,-0.897924],[29.62549,-0.897752],[29.62515,-0.85364],[29.63579,-0.828237],[29.62395,-0.793737],[29.6248,-0.732974],[29.62171,-0.731086],[29.62051,-0.704824],[29.65244,-0.630156],[29.64523,-0.594967],[29.66,-0.578489],[29.65141,-0.568361],[29.65382,-0.540553],[29.66789,-0.497812],[29.67957,-0.454211],[29.72729,-0.082312],[29.72797,-0.041885],[29.72411,-0.003347],[29.71521,0.034804],[29.71879,0.037701],[29.71948,0.043023],[29.71767,0.049181],[29.71579,0.052099],[29.71858,0.060554],[29.71416,0.075359],[29.72849,0.080767],[29.73269,0.091066],[29.73235,0.102224],[29.73372,0.110292],[29.73621,0.119476],[29.73501,0.127029],[29.77243,0.170803],[29.81758,0.172348],[29.86702,0.388982],[29.96246,0.504163],[29.97551,0.516866],[29.96487,0.576773],[29.96761,0.602864],[29.95131,0.637881],[29.95972,0.681136],[29.96744,0.695212],[29.9671,0.723019],[29.9707,0.742243],[29.96075,0.775371],[29.97002,0.822402],[29.99044,0.852954],[30.07164,0.888141],[30.11301,0.899812],[30.14494,0.89432],[30.17659,0.96812],[30.21669,0.995929],[30.22219,1.020387],[30.21721,1.051882],[30.23118,1.141196],[30.2924,1.179231],[30.33047,1.164919],[30.3566,1.208064],[30.42389,1.200169],[30.4771,1.216301],[30.49084,1.237926],[31.30073,2.155901],[31.24769,2.197499],[31.20169,2.219027],[31.20117,2.286266],[31.17259,2.276446],[31.16246,2.274345],[31.14212,2.278462],[31.1344,2.262167],[31.13113,2.260623],[31.12358,2.263367],[31.09715,2.278119],[31.07569,2.295443],[31.06779,2.303761],[31.0774,2.303161],[31.08204,2.304962],[31.08401,2.308736],[31.07586,2.315854],[31.07225,2.322028],[31.06822,2.333006],[31.06788,2.338323],[31.0714,2.344069],[31.02762,2.375628],[31.02582,2.380516],[31.01114,2.38669],[31.0084,2.396381],[31.00479,2.394923],[30.98248,2.402898],[30.96248,2.393979],[30.95209,2.394665],[30.94994,2.383689],[30.94368,2.368081],[30.95046,2.366194],[30.95089,2.361906],[30.94377,2.344154],[30.93698,2.334464],[30.91021,2.32949],[30.88025,2.339952],[30.87038,2.366194],[30.84927,2.378029],[30.82897,2.423608],[30.81948,2.422622],[30.79657,2.424508],[30.77974,2.435056],[30.7512,2.417862],[30.74631,2.440372],[30.74099,2.448004],[30.73902,2.454522],[30.74481,2.493624],[30.75846,2.504257],[30.7461,2.587259],[30.80489,2.685945],[30.80566,2.70515],[30.80867,2.712438],[30.82103,2.729413],[30.8194,2.749646],[30.83622,2.770221],[30.88171,2.816686],[30.88669,2.86315],[30.87193,2.888181],[30.85218,2.958813],[30.77768,3.022584],[30.76489,3.051554],[30.77425,3.061582],[30.79159,3.068353],[30.79253,3.096379],[30.79725,3.106663],[30.79914,3.136403],[30.83639,3.271118],[30.85974,3.279858],[30.87656,3.313791],[30.88428,3.342153],[30.91879,3.389878],[30.93561,3.456535],[30.92068,3.503312],[30.87004,3.471956],[30.84532,3.485493],[30.84772,3.502969],[30.87965,3.53895],[30.8848,3.556598],[30.93835,3.643335],[30.94629,3.676491],[30.97935,3.705992],[31.17027,3.799855],[31.2894,3.799855],[31.51188,3.67892],[31.54415,3.659733],[31.57299,3.685429],[31.70208,3.727227],[31.72165,3.757375],[31.80851,3.839592],[31.87614,3.78855],[31.93888,3.69749],[31.96815,3.658363],[31.96506,3.580926],[32.0533,3.596174],[32.09038,3.562594],[32.09742,3.53638],[32.19269,3.523702],[32.1884,3.619202],[32.40043,3.752771],[32.71454,3.775875],[32.88345,3.824519],[33.03726,3.908785],[33.1842,3.786837],[33.51341,3.762551],[33.98758,4.250552],[34.05624,4.183782],[34.07562,4.145161],[34.10138,4.063438],[34.14436,3.963709],[34.2203,3.889673],[34.23445,3.825652],[34.25114,3.792202],[34.37691,3.741163],[34.4723,3.67369],[34.46071,3.51324],[34.55351,3.14292],[34.78491,2.790833],[34.78631,2.701368],[34.90193,2.59876],[34.96362,2.476295],[35.01,1.964455],[35.01031,1.758687],[35.00035,1.660233],[34.95491,1.575435],[34.85294,1.452184],[34.83856,1.312896],[34.8391,1.263673],[34.79894,1.213853],[34.58359,1.090671],[34.45158,0.859305],[34.41708,0.803349],[34.36386,0.771938],[34.31751,0.757691],[34.31717,0.694353],[34.28696,0.676159],[34.27958,0.636164],[34.23683,0.623634],[34.2025,0.617969],[34.18774,0.602864],[34.14053,0.576773],[34.12474,0.518239],[34.12182,0.482363],[34.09246,0.45507],[34.10294,0.416619],[34.11221,0.372503],[34.10139,0.344522],[34.08268,0.327872],[34.06878,0.317915],[34.04423,0.274486],[34.01024,0.232601],[33.9211,0.105027],[33.98766,-0.133123],[33.93351,-0.461764],[33.93535,-0.902215],[33.93398,-1.000635],[32.87453,-1.007943],[31.85282,-1.00445],[31.79335,-1.002264],[31.00496,-1.001164],[30.79542,-1.000422],[30.76583,-0.992954],[30.63462,-1.078203],[30.58558,-1.068523],[30.52587,-1.083493],[30.479326732540105,-1.0672095982371015],[30.47665,-1.045707],[30.4395,-1.03831],[30.34562,-1.055208],[30.20663,-1.26309],[30.16229,-1.267991],[30.1159,-1.366627],[30.06878,-1.369416],[30.01653,-1.404338],[29.92205,-1.470307],[29.89277,-1.350844],[29.85009,-1.314654],[29.82172,-1.299392],[29.78477,-1.356785],[29.76041,-1.335728],[29.72953,-1.330988],[29.67229,-1.37288],[29.589331465761646,-1.3769905061378338],[29.60369,-1.316527]]]}}
