{"type":"Feature","properties":{"sourceId":"utrecht"},"geometry":{"type":"Polygon","coordinates":[[[5.138792,51.91945],[5.136976,51.9133],[5.13145,51.91168],[5.120552,51.89795],[5.118564,51.89147],[5.113912,51.88709],[5.0914,51.88756],[5.087294,51.87988],[5.081199,51.8744],[5.057255,51.87185],[5.055775,51.86694],[5.063902,51.86285],[5.06487,51.86038],[5.060973,51.85736],[5.052295,51.85615],[5.044223,51.85789],[5.026093,51.8577],[5.025842,51.86261],[5.02056,51.86832],[5.022081,51.87637],[5.024578,51.87992],[4.99772,51.87233],[4.995367,51.87223],[4.993705,51.87596],[4.997588,51.88456],[4.994678,51.89175],[4.994278,51.89859],[4.990323,51.90002],[4.972857,51.89614],[4.971328,51.90692],[4.95535,51.9147],[4.948796,51.92945],[4.946332,51.93059],[4.940184,51.92779],[4.937948,51.92871],[4.931184,51.94632],[4.926963,51.94966],[4.916671,51.9419],[4.876957,51.93713],[4.870641,51.95262],[4.860335,51.96604],[4.844799,51.97408],[4.816601,51.9995],[4.817808,52.00111],[4.850023,52.00591],[4.851641,52.00999],[4.847928,52.01485],[4.845467,52.01628],[4.824891,52.01578],[4.816021,52.01274],[4.803209,52.01277],[4.797493,52.02214],[4.805783,52.02696],[4.806791,52.02976],[4.805747,52.03395],[4.816593,52.03811],[4.828609,52.05066],[4.847396,52.05931],[4.85625,52.06081],[4.857718,52.06482],[4.855874,52.06712],[4.851153,52.06781],[4.829188,52.06576],[4.828876,52.07162],[4.825138,52.0742],[4.820716,52.10753],[4.790849,52.12214],[4.79271,52.12506],[4.805121,52.12845],[4.808109,52.13849],[4.82021,52.14348],[4.826569,52.14357],[4.833487,52.14588],[4.843992,52.14101],[4.851395,52.14099],[4.856138,52.13852],[4.870242,52.13971],[4.87302,52.14355],[4.872603,52.15679],[4.88081,52.15972],[4.881989,52.16379],[4.880025,52.16596],[4.856076,52.17724],[4.843266,52.179],[4.812164,52.19968],[4.802075,52.20016],[4.800315,52.20391],[4.800118,52.21613],[4.79333,52.22287],[4.793809,52.22768],[4.805345,52.22929],[4.813704,52.22845],[4.828911,52.23195],[4.844661,52.23891],[4.852502,52.24381],[4.856517,52.24855],[4.869968,52.25458],[4.874253,52.25284],[4.882471,52.255],[4.887523,52.25328],[4.891573,52.2546],[4.897471,52.25252],[4.903006,52.25451],[4.909976,52.25406],[4.915945,52.258],[4.9171,52.26251],[4.921392,52.26416],[4.924918,52.26894],[4.925796,52.28081],[4.933853,52.28219],[4.943182,52.27968],[4.959744,52.28007],[4.96774,52.28285],[4.983238,52.29159],[4.99679,52.29068],[5.000205,52.2936],[5.002993,52.29939],[5.013962,52.30494],[5.02264,52.30304],[5.023123,52.29177],[5.025211,52.2885],[5.030914,52.28965],[5.03799,52.28551],[5.043423,52.28458],[5.049844,52.28896],[5.059795,52.29054],[5.066605,52.2857],[5.067158,52.281],[5.065954,52.27923],[5.059901,52.28267],[5.057376,52.2825],[5.052509,52.2807],[5.049143,52.27585],[5.042466,52.27661],[5.033962,52.27414],[5.029316,52.26897],[5.029994,52.26402],[5.035389,52.2578],[5.041433,52.25801],[5.044234,52.25655],[5.047877,52.24891],[5.048494,52.24361],[5.058963,52.23544],[5.044809,52.22975],[5.043427,52.22768],[5.043724,52.22331],[5.039026,52.22176],[5.037826,52.21905],[5.037655,52.2007],[5.039463,52.19549],[5.03715,52.1876],[5.043149,52.18405],[5.045836,52.17189],[5.04803,52.16853],[5.121074,52.18224],[5.190361,52.17902],[5.193089,52.18037],[5.214511,52.20512],[5.221722,52.22175],[5.222123,52.22638],[5.265319,52.28298],[5.304611,52.27881],[5.33554,52.29141],[5.405473,52.25053],[5.395989,52.22137],[5.404579,52.21645],[5.410553,52.2196],[5.433262,52.20802],[5.441827,52.20663],[5.440426,52.18332],[5.441484,52.17296],[5.443173,52.17055],[5.48045,52.16693],[5.481346,52.16234],[5.485382,52.15859],[5.485039,52.15287],[5.486604,52.15042],[5.499417,52.14855],[5.50167,52.14173],[5.515124,52.13658],[5.513011,52.13131],[5.500054,52.12817],[5.498265,52.12562],[5.499576,52.12167],[5.506273,52.12058],[5.508637,52.1131],[5.504052,52.11244],[5.498368,52.1146],[5.496039,52.11343],[5.494243,52.1098],[5.486491,52.10423],[5.487163,52.09308],[5.474392,52.08858],[5.46764,52.08418],[5.466179,52.0803],[5.468276,52.07713],[5.484067,52.07123],[5.498852,52.07273],[5.504256,52.0778],[5.509479,52.08022],[5.522817,52.07983],[5.525203,52.08163],[5.525918,52.08606],[5.534477,52.0945],[5.530562,52.10301],[5.551038,52.10643],[5.555436,52.1004],[5.557251,52.0889],[5.561786,52.08511],[5.563941,52.07906],[5.561664,52.07066],[5.560672,52.05121],[5.571729,52.04887],[5.571536,52.04288],[5.572997,52.04078],[5.590879,52.03525],[5.588731,52.02493],[5.591409,52.02064],[5.58976,52.01217],[5.593257,52.00255],[5.603802,51.99594],[5.611028,51.9945],[5.615043,51.99078],[5.617448,51.98207],[5.627452,51.9737],[5.623407,51.96614],[5.62829,51.95625],[5.628091,51.95145],[5.623699,51.95001],[5.621107,51.94712],[5.614772,51.94689],[5.606168,51.94192],[5.58882,51.94899],[5.556571,51.95446],[5.548774,51.95816],[5.538654,51.96654],[5.512232,51.9718],[5.495941,51.97904],[5.483489,51.98262],[5.470973,51.98169],[5.437509,51.98427],[5.418529,51.97536],[5.387256,51.96854],[5.354395,51.96873],[5.347952,51.96599],[5.335689,51.95683],[5.321454,51.95362],[5.31433,51.95443],[5.300467,51.96033],[5.270033,51.96417],[5.256991,51.96908],[5.245728,51.97642],[5.238231,51.97758],[5.231453,51.97518],[5.221496,51.96358],[5.211864,51.95886],[5.199984,51.95867],[5.180011,51.96471],[5.150939,51.93216],[5.149609,51.92886],[5.138792,51.91945]]]}}
