{"type":"Feature","properties":{"sourceId":"vestlandet"},"geometry":{"type":"Polygon","coordinates":[[[4.193966,58.31096],[2.32908,62.10903],[5.626828,65.12362],[6.805047841995127,64.39472583108234],[5.790873,63.85996],[8.040565,63.58451],[8.318699,63.35085],[8.737049,63.44337],[8.761018,63.41472],[8.785593,63.40634],[8.802248,63.40208],[8.793792,63.38207],[8.797216,63.37087],[8.821393,63.37047],[8.848607,63.36568],[8.871372,63.36427],[8.891547,63.3532],[8.903857,63.34912],[8.881803,63.34382],[8.869353,63.33009],[8.862293,63.32189],[8.865039,63.29541],[8.848546,63.29034],[8.814867,63.2662],[8.827039,63.244],[8.860786,63.21997],[8.836891,63.21543],[8.762302,63.19023],[8.671864,63.18768],[8.568774,63.17197],[8.469146,63.15262],[8.333321,63.15836],[8.263359,63.15494],[8.149715,63.14342],[8.101766,63.12938],[8.202169,63.02261],[8.243607,63.01168],[8.274408,63.02562],[8.281976,63.02961],[8.283503,63.0303],[8.285571,63.03151],[8.328245,63.04461],[8.338661,63.03516],[8.402634,63.05637],[8.423524,63.04513],[8.437811,63.05142],[8.438111,63.06537],[8.481053,63.07911],[8.501752,63.04858],[8.547273,63.05564],[8.622294,63.07049],[8.652865,63.06379],[8.689279,63.07308],[8.70643,63.08246],[8.721895,63.08513],[8.738766,63.09402],[8.777895,63.10684],[8.783717,63.11615],[8.79318,63.12244],[8.833228,63.12568],[8.860228,63.11392],[8.898554,63.12168],[8.911371,63.11753],[8.969608,63.13335],[8.979672,63.12474],[8.982509,63.11695],[8.994139,63.1037],[8.958143,63.09316],[8.972614,63.07214],[9.016262,63.07246],[9.031973,63.07897],[9.067278,63.09002],[9.083028,63.08983],[9.090614,63.0682],[9.103411,63.04377],[9.109231,63.04375],[9.112957,63.0404],[9.107547,63.03921],[9.101272,63.0349],[9.103591,63.0289],[9.109812,63.02782],[9.121863,63.02385],[9.13173,63.01628],[9.137212,63.01541],[9.139464,63.01399],[9.152732,63.01419],[9.154135,63.01307],[9.148129,63.00648],[9.139362,63.00509],[9.139807,63.00074],[9.147448,62.99547],[9.151225,62.99463],[9.148677,62.99338],[9.13615,62.98603],[9.130276,62.98529],[9.117449,62.97855],[9.109825,62.97147],[9.111036,62.96361],[9.113682,62.95377],[9.121572,62.93491],[9.124731,62.93383],[9.132487,62.93197],[9.133041,62.92653],[9.148093,62.92672],[9.152597,62.9246],[9.156826,62.9246],[9.167417,62.9182],[9.174128,62.91677],[9.178114,62.91681],[9.2036,62.9247],[9.266348,62.92542],[9.307019,62.90507],[9.31136,62.89174],[9.299309,62.88984],[9.285249,62.87725],[9.330142,62.86197],[9.32368,62.85206],[9.32266,62.8094],[9.324193,62.78968],[9.146567,62.75685],[9.077162,62.76063],[8.985926,62.74218],[8.919087,62.71186],[8.980453,62.66193],[9.079847,62.625],[9.110556,62.60534],[9.125522,62.5856],[9.152813,62.57058],[9.222878,62.56639],[9.202993,62.52147],[9.183416,62.45836],[9.182813,62.42683],[9.048772,62.37312],[9.05555860487135,62.37165778134136],[8.971019,62.35431],[8.931806,62.35361],[8.919569,62.35387],[8.890006,62.37587],[8.79268,62.37882],[8.625844,62.37418],[8.389074,62.36427],[8.274947,62.34839],[8.205211,62.33204],[8.143777,62.2971],[8.130486,62.29088],[8.128899,62.28581],[8.118553,62.28102],[8.10979,62.27459],[8.093493,62.25912],[8.079385,62.25206],[7.983058,62.17784],[7.864341,62.17121],[7.827553,62.19009],[7.734038,62.18496],[7.578593,62.1221],[7.617988,62.08508],[7.554638,62.06986],[7.514613,62.09782],[7.485604,62.08996],[7.450759,62.0885],[7.41412,62.0924],[7.402725,62.08717],[7.394485,62.05903],[7.341673,62.03555],[7.351806,62.02913],[7.348211,62.00765],[7.367206,62.00253],[7.39252,61.9924],[7.398092,61.97792],[7.387904,61.93303],[7.407842,61.85533],[7.49073,61.77822],[7.513052,61.72715],[7.684868,61.74233],[7.897684,61.72016],[7.894754,61.64362],[7.944564,61.5551],[8.108138,61.51588],[8.195652,61.54731],[8.261584,61.53367],[8.286759,61.48937],[8.302923,61.4788],[8.192121,61.43922],[8.149469,61.42679],[8.149795,61.36449],[8.216399,61.33486],[8.107593,61.26807],[8.00352,61.2349],[8.041992,61.17305],[8.072204,61.17603],[8.095397,61.1346],[8.125076,61.10477],[8.238372,61.0729],[8.205383,61.05239],[8.28151,61.03322],[8.266983,61.02109],[8.234814,61.01404],[8.13962,60.97956],[8.040456,60.89373],[7.980188,60.90208],[7.935541,60.89773],[7.913735,60.90996],[7.879475,60.92443],[7.850885,60.92023],[7.802208,60.89691],[7.739524,60.83554],[7.703602,60.79294],[7.704442,60.79278],[7.704432,60.79277],[7.704874,60.7927],[7.720693,60.78975],[7.687682,60.73869],[7.614204,60.74456],[7.504244,60.69455],[7.438012,60.66021],[7.43911,60.66017],[7.438842,60.66004],[7.441117,60.65998],[7.465695,60.65938],[7.546047,60.65697],[7.634875,60.63267],[7.620815,60.59614],[7.631261,60.57476],[7.632268,60.5716],[7.634708,60.56742],[7.635333,60.56643],[7.638774,60.55939],[7.672586,60.53706],[7.731128,60.52073],[7.693132,60.42639],[7.608917,60.24426],[7.487486,60.09916],[7.462693,60.07857],[7.441841,60.05751],[7.428817,60.01924],[7.260933,59.98611],[7.232113,59.96292],[7.184016,59.91903],[7.145637,59.88125],[7.148769,59.87405],[7.138023,59.85223],[7.13974,59.82221],[7.144518,59.81191],[7.095391,59.78281],[7.109563,59.76323],[7.11541,59.71403],[7.10924,59.70044],[7.173866,59.68566],[7.206475310941467,59.67380885460003],[7.138103,59.6627],[7.097924,59.6515],[7.046065,59.58886],[7.01298,59.59689],[6.991052,59.59725],[6.977565,59.54134],[6.979357,59.52361],[6.956405,59.51638],[6.975288,59.50611],[7.012024,59.48206],[6.987648,59.462],[6.878128,59.42919],[6.921043,59.40299],[6.883278,59.39967],[6.830712,59.31746],[6.823637,59.26992],[6.836868,59.19242],[6.8474,59.18222],[6.930656,59.1805],[6.873665,59.14671],[6.899757,59.11272],[6.787081,59.05301],[6.724815,59.01496],[6.705653,59.00188],[6.664866,58.98569],[6.632361,58.94011],[6.559973,58.91008],[6.566904,58.88539],[6.580124,58.87857],[6.599006,58.87893],[6.565079,58.84228],[6.55225,58.826],[6.513371,58.76513],[6.572056,58.76161],[6.571541,58.74033],[6.61568,58.71511],[6.600828,58.68747],[6.579622,58.68475],[6.476684,58.67194],[6.450138,58.6639],[6.435203,58.64945],[6.474895,58.63327],[6.481418,58.62264],[6.497297,58.60947],[6.533001,58.62727],[6.582741,58.61478],[6.60656,58.62031],[6.6043,58.60952],[6.582527,58.60028],[6.585617,58.584],[6.60347,58.5772],[6.604843,58.5602],[6.613083,58.55518],[6.601066,58.53906],[6.605186,58.53386],[6.588363,58.50751],[6.584587,58.49244],[6.599693,58.48993],[6.624412,58.44504],[6.603813,58.4303],[6.594428,58.41636],[6.602483,58.37245],[6.590544,58.35825],[6.575201,58.34482],[6.559618,58.32771],[6.54289,58.3199],[6.515694,58.31402],[6.489547,58.30531],[6.488617,58.30502],[6.483473,58.30346],[6.479936,58.30174],[6.474445,58.30073],[6.464102,58.29871],[6.458366,58.29767],[6.453223,58.29639],[6.452043,58.29553],[6.447837,58.29478],[6.439637,58.29085],[6.437323,58.29102],[6.430886,58.2899],[6.417131,58.28641],[6.414642,58.2851],[6.397434,58.28172],[6.386374,58.27828],[6.372222,58.27678],[5.698662,57.77794],[6.026839324748905,57.74493354957532],[5.952609,57.63122],[4.9677,57.66309],[4.193966,58.31096]]]}}
