{"type":"Feature","properties":{"sourceId":"valencia"},"geometry":{"type":"Polygon","coordinates":[[[-1.321621,40.14936],[-1.326428,40.18595],[-1.317158,40.21113],[-1.297417,40.21637],[-1.252098,40.15028],[-1.241284,40.14923],[-1.24094,40.12075],[-1.150131,40.11707],[-1.143265,40.11405],[-1.083698,40.07939],[-0.914269,39.96739],[-0.836335,39.98317],[-0.75531,40.05127],[-0.629998,40.08411],[-0.636177,40.10434],[-0.610772,40.13033],[-0.577813,40.18228],[-0.549317,40.26224],[-0.507088,40.23918],[-0.392762,40.26748],[-0.408554,40.29681],[-0.382119,40.3154],[-0.315171,40.37166],[-0.353623,40.44486],[-0.343323,40.46001],[-0.289765,40.47908],[-0.306931,40.5151],[-0.312767,40.59675],[-0.384522,40.61187],[-0.390702,40.67908],[-0.33886,40.68793],[-0.310707,40.67804],[-0.246849,40.69678],[-0.244446,40.72827],[-0.205307,40.7925],[-0.138359,40.79328],[-0.126,40.76156],[-0.066605,40.73503],[-0.012703,40.73607],[0.024032,40.73217],[0.039825,40.70146],[0.102996,40.73555],[0.145569,40.73165],[0.173378,40.74231],[0.233459,40.74101],[0.241356,40.70875],[0.267105,40.71292],[0.304527,40.68845],[0.275345,40.66085],[0.269852,40.64385],[0.278177,40.63623],[0.280752,40.63102],[0.291138,40.62588],[0.299206,40.62757],[0.319891,40.6163],[0.348387,40.60907],[0.398941,40.60822],[0.445804,40.57941],[0.439453,40.5502],[0.449753,40.54524],[0.47224,40.53676],[0.495071,40.53076],[0.530433,40.52124],[1.686396,40.21245],[0.664667,39.05332],[0.587763,38.51809],[-0.344697,37.88353],[-0.34564851184309997,37.88344520719571],[-0.346071,37.88569],[-0.758443,37.84904],[-0.775738,37.84473],[-0.78814,37.84795],[-0.79123,37.85063],[-0.803247,37.85988],[-0.829253,37.86456],[-0.838437,37.8716],[-0.853372,37.88464],[-0.85762,37.88654],[-0.898218,37.92318],[-0.920019,37.94481],[-0.932293,37.96924],[-0.957828,37.99975],[-0.965037,38.01371],[-0.981388,38.0315],[-0.997052,38.05198],[-1.002202,38.05472],[-1.007009,38.05627],[-1.014948,38.06668],[-1.023016,38.07691],[-1.023703,38.08364],[-1.025033,38.09005],[-1.029925,38.09738],[-1.030955,38.10663],[-1.029925,38.11599],[-1.034775,38.13834],[-1.025505,38.146],[-1.003747,38.17164],[-0.98731,38.19644],[-0.963364,38.25665],[-0.966625,38.28765],[-0.984135,38.3224],[-1.021557,38.3395],[-1.057091,38.34812],[-1.081639,38.3496],[-1.081295,38.42603],[-1.0746,38.43046],[-1.043873,38.4595],[-1.007996,38.49552],[-1.018982,38.52104],[-0.997524,38.57233],[-1.011429,38.63578],[-1.02396,38.6583],[-1.0259035003398278,38.65884114049746],[-1.009026,38.66058],[-0.963364,38.65938],[-0.932293,38.68109],[-0.918732,38.69563],[-0.929718,38.70574],[-0.942249,38.72851],[-0.961304,38.75823],[-0.964394,38.77777],[-0.934353,38.7858],[-0.937443,38.81216],[-0.93916,38.89237],[-0.973664,38.93898],[-1.102753,38.92616],[-1.140518,38.92777],[-1.156655,38.93952],[-1.23373,39.02425],[-1.270123,39.03959],[-1.273728,39.05332],[-1.258793,39.10809],[-1.242657,39.11608],[-1.230641,39.15402],[-1.200085,39.18237],[-1.194592,39.20486],[-1.177254,39.28064],[-1.167984,39.30588],[-1.223774,39.31239],[-1.303082,39.32992],[-1.336212,39.33178],[-1.356125,39.33934],[-1.387882,39.35129],[-1.457062,39.35952],[-1.481438,39.39322],[-1.508989,39.41703],[-1.526241,39.43268],[-1.531649,39.45747],[-1.514053,39.49795],[-1.507359,39.54132],[-1.50753,39.54449],[-1.522465,39.54595],[-1.523409,39.55588],[-1.498947,39.56984],[-1.4744,39.57361],[-1.449166,39.63306],[-1.404019,39.68262],[-1.365395,39.70138],[-1.306172,39.6809],[-1.279392,39.74165],[-1.245232,39.78348],[-1.216393,39.84202],[-1.206436,39.91513],[-1.221028,39.94094],[-1.209526,39.95252],[-1.253128,39.99106],[-1.338616,40.01158],[-1.374665,40.00632],[-1.387024,40.01631],[-1.428223,40.09252],[-1.421013,40.10486],[-1.454659,40.12062],[-1.465989,40.13768],[-1.453285,40.1487],[-1.378441,40.14201],[-1.321621,40.14936]]]}}
