{"type":"Feature","properties":{"sourceId":"volga-fed-district"},"geometry":{"type":"Polygon","coordinates":[[[47.07921,59.67209],[46.86967,59.74732],[46.94672,60.05646],[46.77602,59.98415],[46.39716,60.0451],[46.21051,60.21544],[46.26728,60.30816],[46.73609,60.30274],[46.71315,60.39904],[46.93235,60.59078],[46.93041,60.74199],[47.15516,61.10864],[47.90485,61.07242],[48.02657,60.93508],[48.45286,60.88279],[48.61243,60.57493],[48.5821,60.50929],[48.84171,60.35287],[48.80174,60.26912],[48.53782,60.13398],[48.57314,59.77696],[49.12808,59.712],[49.13732,59.56326],[49.59743,59.44385],[49.59645,59.28117],[49.71702,59.25965],[49.79065,59.31563],[49.74173,59.48159],[49.80662,59.67549],[49.91982,59.70869],[49.97205,59.82451],[50.20892,59.80794],[50.38083,59.89294],[50.80971,59.921],[51.00605,60.07289],[51.15817,60.10345],[51.47343,59.98205],[51.96389,60.33671],[52.28935,60.3234],[52.27,60.38416],[52.09452,60.41612],[52.07546,60.48974],[51.72583,60.5464],[51.87459,60.93541],[52.31549,60.89611],[52.4156,61.03115],[52.76616,61.00585],[52.88187,61.14731],[53.4153,61.0914],[53.45876,60.93291],[53.66676,60.90523],[53.77248,60.90454],[53.88794,61.03967],[54.93794,60.92664],[55.01284,61.05218],[55.16828,61.06311],[55.25937,61.20319],[55.69363,61.16278],[55.82489,61.30374],[56.24198,61.25898],[56.34146,61.48651],[56.5222,61.48509],[56.63603,61.5783],[58.79593,61.55332],[59.33542,61.71971],[59.44699,61.65483],[59.50259,61.51868],[59.48272,61.37445],[59.32399,61.2707],[59.43111,61.00783],[59.53262,60.94552],[59.47631,60.60554],[59.28584,60.42363],[59.03111,59.87009],[58.72319,59.78454],[58.6374,59.64858],[58.51833,59.64527],[58.46195,59.52736],[58.70099,59.3245],[59.23635,59.18792],[59.18435,59.03103],[59.26225,58.94177],[59.1465,58.84213],[59.43583,58.75071],[59.50446,58.45358],[59.20882,58.22671],[58.96166,58.21464],[58.73527,58.07383],[58.72024,57.95932],[58.91478,57.86055],[58.8811,57.6805],[58.53826,57.50792],[58.39618,57.61399],[58.21839,57.62307],[58.04824,57.51457],[58.02522,57.34507],[58.1797,57.1523],[58.10439,57.00527],[57.90359,56.99735],[57.85871,56.91574],[57.65967,56.85159],[57.32478,56.8518],[57.49059,56.69944],[57.4122,56.42884],[57.55009,56.1547],[57.85657,56.20601],[58.38559,56.16543],[58.55043,56.22911],[58.91687,56.1186],[59.02681,56.22637],[59.3447,56.22014],[59.39796,56.10737],[59.27813,55.85135],[59.36277,55.80199],[59.37026,55.69839],[59.6634,55.65257],[59.70791,55.56973],[59.47972,55.41878],[59.23528,55.40588],[59.22113,55.29758],[59.0105,55.1974],[58.82885,55.21717],[58.80492,55.1319],[58.88388,55.03594],[58.74903,54.91614],[58.41995,54.94979],[58.27181,55.10819],[58.16766,54.90648],[57.98713,54.85245],[57.87662,54.95337],[57.96433,55.03977],[57.93129,55.15848],[57.98224,55.22141],[57.52271,55.27247],[57.31558,55.1985],[57.2217,55.07744],[57.31716,54.96281],[57.25293,54.8448],[57.63041,54.72829],[57.99837,54.45735],[58.36601,54.61503],[58.61708,54.52105],[59.04071,54.70106],[59.24306,54.68102],[59.61686,54.96409],[60.04914,54.89529],[59.90741,54.58596],[59.7711,54.49905],[59.84591,54.24795],[59.75122,54.10476],[59.34768,54.1177],[59.20907,53.94596],[58.97416,53.84457],[58.9464,53.24847],[59.04821,53.02669],[58.82528,52.83263],[58.83645,52.651],[58.89149,52.50463],[59.16398,52.34878],[59.24096,52.53541],[59.51459,52.48359],[59.83517,52.53466],[60.21185,52.42684],[60.22088,52.22865],[59.99967,52.08779],[60.0667,52.0135],[60.28105,51.98053],[60.19803,51.9389],[60.55461,51.83352],[60.55666,51.7417],[60.48638,51.69575],[60.9563,51.66168],[60.97324,51.56357],[61.02821,51.52042],[61.505,51.45935],[61.73371,51.27975],[61.71087,51.2122],[61.6091,51.18039],[61.4775,50.76372],[60.82497,50.60673],[60.30811,50.62164],[60.14419,50.78129],[60.04013,50.76267],[60.03802,50.64431],[59.83658,50.49067],[59.50366,50.44446],[59.41208,50.5204],[59.40752,50.5865],[58.87397,50.64752],[58.75108,50.75904],[58.63651,50.76234],[58.61717,50.82102],[58.55671,50.83518],[58.5548,51.00639],[58.36807,51.02613],[58.29841,51.09797],[58.16644,51.01243],[57.81701,51.06097],[57.79196,50.87955],[57.57432,50.88038],[57.50648,50.82501],[57.2991,50.89787],[57.16343,51.04051],[56.77757,51.03494],[56.79957,50.96934],[56.71622,50.92326],[56.51267,51.00062],[56.49571,50.9305],[56.37383,50.8525],[56.2094,50.861],[56.17464,50.72225],[56.08227,50.65105],[55.71887,50.49804],[55.47464,50.61864],[55.36266,50.60933],[55.02561,50.77932],[55.02412,50.85762],[54.65958,50.97017],[54.74457,50.91284],[54.72781,50.8079],[54.78157,50.61327],[54.64616,50.49797],[54.54151,50.47668],[54.36506,50.61075],[54.42749,50.80938],[54.17041,50.92215],[54.08016,51.06506],[53.99397,51.1117],[53.63629,51.18537],[53.55134,51.28157],[53.53716,51.3739],[53.22514,51.45484],[52.94984,51.40401],[52.78196,51.44728],[52.54097,51.40815],[52.31873,51.68726],[52.09789,51.60852],[51.90648,51.62539],[51.84275,51.56811],[51.85604,51.46959],[51.63571,51.40443],[51.58176,51.45817],[51.26264,51.44307],[51.19473,51.52671],[51.23949,51.62827],[50.87969,51.63323],[50.84618,51.54813],[50.76797,51.52409],[50.62893,51.56545],[50.59199,51.43686],[50.43973,51.36955],[50.38884,51.28291],[50.02016,51.19171],[49.77528,51.05602],[49.46337,51.05153],[49.43494,51.00972],[49.49517,50.88162],[49.45624,50.81043],[49.14368,50.73163],[48.83899,50.54948],[48.71294,50.54935],[48.77469,50.29923],[48.95297,50.02451],[48.76092,49.87291],[48.4479,49.75097],[48.20312,49.82278],[48.05998,50.05301],[47.89502,50.20414],[47.59166,50.40748],[47.51007,50.37976],[47.46417655754249,50.34623456427694],[47.43512,50.38476],[47.27309,50.38706],[47.24795,50.37984],[47.244,50.43268],[47.21303,50.44076],[47.20861,50.51647],[47.03889,50.51768],[47.02491,50.49724],[46.92308,50.49827],[46.92203,50.52865],[46.87901,50.53547],[46.87631,50.58278],[46.82026,50.58791],[46.82508,50.60222],[46.85775,50.61912],[46.86207,50.64666],[46.77901,50.65082],[46.75761,50.66037],[46.74551,50.66933],[46.73456,50.70701],[46.71816,50.71929],[46.67388,50.69626],[46.62502,50.69009],[46.57985,50.71909],[46.56077,50.69374],[46.55909,50.63176],[46.55011,50.62997],[46.53824,50.65211],[46.51384,50.64726],[46.51095,50.63175],[46.49107,50.64232],[46.46829,50.63414],[46.45176,50.62139],[46.4534,50.60371],[46.43489,50.58636],[46.44385,50.55566],[46.35424,50.56406],[46.3439,50.58152],[46.27639,50.58094],[46.26778,50.57212],[46.26885,50.53564],[46.07797,50.53488],[46.07371,50.598],[46.09809,50.61377],[46.09726,50.67045],[46.04517,50.67349],[46.0388,50.6943],[45.99394,50.69682],[45.89796,50.75635],[45.84226,50.76418],[45.74473,50.76533],[45.71004,50.74345],[45.67114,50.66999],[45.69812,50.58952],[45.68467,50.58413],[45.56492,50.59769],[45.54654,50.59041],[45.54984,50.57203],[45.53857,50.56148],[45.50476,50.589],[45.49369,50.61078],[45.40377,50.62113],[45.37628,50.59774],[45.20545,50.59452],[45.20815,50.62977],[45.2254,50.65543],[45.22719,50.67442],[45.24175,50.70002],[45.28518,50.71433],[45.29287,50.76403],[45.32027,50.80677],[45.33384,50.86166],[45.31196,50.9173],[45.26552,50.93342],[45.26219,50.94313],[45.21496,50.9665],[45.22601,50.98025],[45.21007,51.01283],[45.22331,51.02537],[45.22436,51.0466],[45.08756,51.08608],[45.07202,51.12603],[44.99541,51.15443],[44.97705,51.13088],[44.95062,51.12968],[44.93711,51.11612],[44.90402,51.12261],[44.90276,51.16776],[44.86576,51.17905],[44.83893,51.16728],[44.82463,51.17234],[44.78613,51.15796],[44.75696,51.15822],[44.64234,51.18624],[44.60719,51.16607],[44.61847,51.13543],[44.59083,51.12822],[44.5721,51.13343],[44.51198,51.20565],[44.47912,51.21877],[44.45186,51.21793],[44.44129,51.19604],[44.42599,51.18902],[44.38629,51.19839],[44.34519,51.18312],[44.29057,51.19364],[44.28223,51.20364],[44.22912,51.20686],[44.2068,51.19259],[44.20499,51.13222],[44.17959,51.10334],[44.14568,51.1112],[44.1453,51.12499],[44.11595,51.13269],[44.09389,51.10731],[44.05529,51.10979],[44.04455,51.08261],[44.03057,51.08117],[44.02473,51.16469],[43.95958,51.15592],[43.92165,51.16951],[43.9093,51.16454],[43.87832,51.1193],[43.86197,51.11162],[43.7864,51.12876],[43.69669,51.11698],[43.67054,51.12892],[43.6537,51.1122],[43.66609,51.10504],[43.67726,51.07708],[43.66213,51.06478],[43.55998,51.06832],[43.43618,51.03679],[43.419,51.04171],[43.3577,51.00775],[43.3275,51.0206],[43.18797,51.12025],[43.14005,51.13073],[42.925801134579636,51.221928862252796],[42.98258,51.25589],[42.88948,51.34506],[42.88644,51.42231],[42.76736,51.52495],[42.59329,51.57713],[42.54443,51.66793],[42.69527,51.78277],[42.76857,51.97736],[42.84355,51.99997],[42.81108,52.151],[42.91286,52.18364],[42.97086,52.30729],[43.09487,52.36218],[43.09409,52.45869],[43.15841,52.51123],[43.1294,52.53762],[43.28473,52.64348],[43.149,52.82565],[42.97677,52.96259],[42.6039,53.16539],[42.43154,53.36951],[42.32417,53.39343],[42.35013,53.45075],[42.16199,53.60109],[42.19096,53.77779],[42.36904,53.82129],[42.47946,53.92976],[42.47084,54.02118],[42.38914,54.05512],[42.53619,54.03746],[42.59715,54.06007],[42.59393,54.11589],[42.72177,54.11154],[42.68458,54.19058],[42.49204,54.26075],[42.54423,54.33137],[42.65475,54.34911],[42.6223,54.45289],[42.72798,54.58371],[42.66812,54.62668],[42.66317,54.70454],[42.53405,54.73147],[42.48533,54.82538],[42.53039,54.90139],[42.50454,55.04108],[42.06764,55.01672],[42.0099,55.13356],[41.84106,55.11939],[41.89677,55.13704],[42.05993,55.36657],[42.1994,55.42679],[42.12191,55.57698],[42.23459,55.68895],[42.41518,55.75824],[42.54476,55.8982],[42.74218,55.94073],[42.74322,56.06503],[42.9978,56.12485],[43.00563,56.18951],[42.93505,56.23903],[42.81245,56.24369],[42.83095,56.31457],[42.7116,56.42203],[42.92884,56.45159],[42.96312,56.64255],[42.8616,56.68133],[42.88723,56.767],[43.16532,56.82169],[43.28632,56.76444],[43.33258,56.80168],[43.13266,57.17529],[43.35657,57.39755],[43.3474,57.45696],[43.47961,57.5438],[43.7388,57.41926],[43.92279,57.3835],[44.38621,57.49645],[44.60017,57.65985],[44.75846,57.66506],[44.90334,57.83408],[44.85933,57.9528],[44.89349,58.04074],[45.17468,58.05124],[45.28148,57.99683],[45.4586,57.99039],[45.52027,57.91275],[45.6191,57.88183],[45.72848,57.90901],[45.84282,58.00955],[46.36026,58.02833],[46.47519,58.35664],[46.60558,58.37334],[46.65339,58.53404],[47.03695,58.58663],[47.04279,58.67006],[47.11008,58.72565],[47.34047,58.76788],[47.36068,58.82451],[47.31951,58.88667],[47.49244,58.85841],[47.67023,58.89737],[47.5812,59.07948],[47.50582,59.11334],[47.50387,59.18579],[47.27537,59.21404],[47.27418,59.37792],[47.11059,59.41152],[47.13637,59.63105],[47.070042516855224,59.63304231376728],[47.07921,59.67209]]]}}
