{"type":"Feature","properties":{"sourceId":"vysocina"},"geometry":{"type":"Polygon","coordinates":[[[14.90042,49.401],[14.90089,49.41388],[14.90746,49.42077],[14.90008,49.42167],[14.8987,49.42772],[14.92441,49.45771],[14.92467,49.46157],[14.92252,49.46846],[14.91669,49.47448],[14.92518,49.48204],[14.9257,49.4829],[14.92832,49.48299],[14.92969,49.48315],[14.93042,49.48371],[14.92712,49.48706],[14.9228,49.50279],[14.91746,49.5059],[14.90008,49.51459],[14.90154,49.51888],[14.90497,49.5229],[14.94268,49.52672],[14.93776,49.52983],[14.92652,49.54164],[14.92862,49.5478],[14.93042,49.55086],[14.92956,49.5557],[14.93329,49.55865],[14.94278,49.55938],[14.9348,49.56737],[14.93887,49.58061],[14.96122,49.57981],[14.96238,49.57944],[14.96352,49.57917],[14.96448,49.57889],[14.96565,49.57878],[14.96899,49.57878],[14.98933,49.58296],[14.96687,49.59674],[14.97454,49.6047],[14.99705,49.60941],[15.00344,49.608],[15.00797,49.60367],[15.0099,49.60137],[15.01258,49.60028],[15.01361,49.60088],[15.01595,49.60073],[15.02209,49.59929],[15.03649,49.60205],[15.04571,49.60071],[15.05337,49.59599],[15.11799,49.61178],[15.12011,49.60821],[15.12388,49.60392],[15.1389,49.60481],[15.1438,49.60381],[15.148,49.60198],[15.15397,49.59625],[15.16327,49.59087],[15.16242,49.59636],[15.16873,49.60537],[15.16885,49.61452],[15.17744,49.61655],[15.18336,49.61961],[15.18877,49.62039],[15.20293,49.61605],[15.22735,49.61625],[15.22868,49.61972],[15.23847,49.627],[15.24293,49.6389],[15.24772,49.64274],[15.2346,49.65485],[15.18312,49.66673],[15.17907,49.67601],[15.17675,49.69634],[15.18096,49.71099],[15.20516,49.72498],[15.21469,49.73008],[15.21358,49.73968],[15.22284,49.74362],[15.21821,49.74867],[15.22413,49.75748],[15.24937,49.76441],[15.25443,49.76425],[15.25718,49.75632],[15.26241,49.75604],[15.27065,49.75693],[15.28344,49.76569],[15.29932,49.76907],[15.31271,49.76763],[15.33597,49.77611],[15.34738,49.77206],[15.35859,49.77974],[15.36713,49.78096],[15.36726,49.78248],[15.36923,49.7847],[15.3697,49.78628],[15.36966,49.78927],[15.38147,49.80123],[15.38906,49.80052],[15.42289,49.79369],[15.43308,49.80435],[15.4182,49.815],[15.4121,49.82298],[15.42034,49.83389],[15.44589,49.8466],[15.4736,49.84366],[15.4745,49.84537],[15.47437,49.84806],[15.47372,49.84861],[15.47368,49.84887],[15.47326,49.85015],[15.47362,49.85073],[15.47457,49.85109],[15.47622,49.85161],[15.47873,49.85247],[15.48263,49.85388],[15.49456,49.86047],[15.49542,49.86045],[15.49626,49.86083],[15.49669388241257,49.861143730359856],[15.49782,49.85816],[15.51231,49.8524],[15.52016,49.85193],[15.5296,49.84252],[15.5369,49.83989],[15.54467,49.83967],[15.54617,49.83671],[15.55647,49.83178],[15.57123,49.82553],[15.57574,49.8204],[15.58119,49.8178],[15.58986,49.81644],[15.5887,49.81132],[15.59061,49.809],[15.59215,49.80847],[15.60778,49.80942],[15.60843,49.80952],[15.60892,49.80945],[15.61026,49.809],[15.61147,49.80882],[15.62445,49.80977],[15.63183,49.81226],[15.63603,49.81462],[15.63711,49.80949],[15.64131,49.80545],[15.655,49.80658],[15.65916,49.80825],[15.66048,49.81511],[15.66156,49.81609],[15.66234,49.8163],[15.66665,49.81197],[15.66962,49.80971],[15.67607,49.80894],[15.67831,49.80994],[15.68204,49.81077],[15.68204,49.80805],[15.68264,49.80193],[15.69976,49.79944],[15.71114,49.79526],[15.71573,49.79016],[15.72757,49.78243],[15.7386,49.77894],[15.75349,49.78187],[15.76422,49.77763],[15.76999,49.77706],[15.77911,49.77777],[15.77156,49.76525],[15.77332,49.75473],[15.80604,49.75684],[15.80967,49.75486],[15.81214,49.7547],[15.81424,49.7549],[15.81615,49.75349],[15.81864,49.75238],[15.8228,49.75224],[15.82546,49.74517],[15.83175,49.74096],[15.85042,49.7352],[15.86259,49.74105],[15.86318,49.73596],[15.84645,49.71885],[15.85322,49.71146],[15.86843,49.70268],[15.91663,49.68424],[15.94931,49.68567],[15.96131,49.69019],[15.95689,49.70076],[15.96937,49.70028],[15.97453,49.70254],[15.97311,49.71925],[15.99169,49.7295],[15.99677,49.73318],[15.99657,49.73746],[16.00153,49.73727],[16.00487,49.7362],[16.00852,49.72372],[16.01909,49.71563],[16.0247,49.71578],[16.03388,49.71703],[16.03429,49.71556],[16.03583,49.71488],[16.03773,49.71452],[16.03944,49.7142],[16.0407,49.71392],[16.04315,49.71312],[16.04728,49.71132],[16.04914,49.711],[16.05673,49.7146],[16.07716,49.70913],[16.08838,49.69554],[16.09604,49.68683],[16.10172,49.68287],[16.12689,49.68606],[16.13763,49.68926],[16.14861,49.68421],[16.14973,49.67726],[16.16162,49.68024],[16.17703,49.67535],[16.18676,49.67329],[16.19249,49.67648],[16.19904,49.6712],[16.20086,49.67106],[16.20267,49.6705],[16.20389,49.66939],[16.20458,49.66746],[16.20468,49.66661],[16.20571,49.66603],[16.20737,49.66609],[16.21245,49.666],[16.24083,49.65888],[16.26944,49.62931],[16.28566,49.6188],[16.29654,49.61747],[16.30277,49.62186],[16.32427,49.61452],[16.3464,49.61168],[16.35238,49.60415],[16.35993,49.60042],[16.36984,49.6012],[16.37718,49.5896],[16.38808,49.58181],[16.394609769770458,49.576927618737244],[16.39155,49.55927],[16.38319,49.55498],[16.37537,49.55234],[16.378,49.5478],[16.38302,49.54362],[16.38925,49.54028],[16.40996,49.54049],[16.41563,49.5334],[16.41962,49.52462],[16.41053,49.51013],[16.39688,49.50119],[16.38576,49.49213],[16.3625,49.49074],[16.37212,49.48441],[16.3822,49.48486],[16.39006,49.47602],[16.39121,49.47055],[16.37675,49.46377],[16.38615,49.45632],[16.38019,49.45069],[16.36765,49.44837],[16.36246,49.45183],[16.35847,49.45114],[16.35602,49.44807],[16.35095,49.44716],[16.34478,49.46003],[16.35023,49.46734],[16.33658,49.4674],[16.33272,49.47044],[16.32895,49.46712],[16.31689,49.46436],[16.31397,49.45811],[16.30057,49.4504],[16.30094,49.44925],[16.30443,49.44934],[16.30591,49.44925],[16.30676,49.44916],[16.30781,49.44934],[16.30845,49.44932],[16.30902,49.44918],[16.31084,49.44987],[16.31149,49.45043],[16.31324,49.45012],[16.31412,49.44949],[16.31483,49.44863],[16.31722,49.44884],[16.31875,49.44907],[16.32025,49.44991],[16.32124,49.44992],[16.32247,49.45011],[16.32572,49.44985],[16.3285,49.44839],[16.33455,49.44686],[16.33673,49.4397],[16.3297,49.43106],[16.32186,49.42906],[16.2927,49.42711],[16.28667,49.43187],[16.27558,49.42954],[16.26588,49.42677],[16.26243,49.42186],[16.26127,49.41719],[16.25614,49.41432],[16.25886,49.41121],[16.26009,49.40528],[16.2549,49.40371],[16.24204,49.40188],[16.23494,49.39194],[16.23003,49.39177],[16.23342,49.38596],[16.23348,49.38399],[16.23497,49.38258],[16.2364,49.38116],[16.23601,49.37943],[16.23607,49.37786],[16.23804,49.37669],[16.23305,49.36767],[16.22706,49.36033],[16.22492,49.35985],[16.22382,49.36041],[16.22286,49.35936],[16.21902,49.35342],[16.22696,49.34903],[16.22852,49.35026],[16.22992,49.35004],[16.23526,49.35065],[16.23713,49.34958],[16.23947,49.34593],[16.24666,49.34277],[16.25352,49.34036],[16.25801,49.33752],[16.26796,49.33634],[16.272,49.3348],[16.27348,49.33286],[16.27296,49.33149],[16.26899,49.33053],[16.26695,49.33114],[16.24814,49.33006],[16.2408,49.32771],[16.24339,49.32466],[16.2562,49.32256],[16.27026,49.31907],[16.27826,49.32153],[16.2874,49.3224],[16.29296,49.31915],[16.29629,49.31229],[16.29058,49.30796],[16.28491,49.30229],[16.28073,49.29671],[16.27268,49.29344],[16.26049,49.29094],[16.25755,49.2829],[16.25766,49.27751],[16.27122,49.2717],[16.27552,49.27071],[16.27817,49.27033],[16.27805,49.26836],[16.28314,49.26743],[16.28918,49.26411],[16.29041,49.25655],[16.27109,49.25136],[16.25555,49.25226],[16.24462,49.23517],[16.23839,49.22494],[16.2373,49.21304],[16.24646,49.2121],[16.25959,49.20978],[16.27517,49.20148],[16.27285,49.195],[16.26942,49.18574],[16.2765,49.1844],[16.27212,49.17685],[16.25736,49.17393],[16.23512,49.17303],[16.2305,49.1638],[16.23865,49.15811],[16.24766,49.14497],[16.23462,49.13542],[16.2184,49.13416],[16.21033,49.13753],[16.20654,49.13441],[16.24462,49.1147],[16.25659,49.10945],[16.25633,49.10579],[16.24972,49.1011],[16.24702,49.09925],[16.23857,49.09767],[16.22214,49.09623],[16.21835,49.09306],[16.22797,49.08716],[16.22758,49.08286],[16.2114,49.07117],[16.17943,49.06872],[16.1396,49.06708],[16.13295,49.05792],[16.1396,49.05461],[16.14874,49.04743],[16.1175,49.03517],[16.10857,49.03939],[16.10364,49.03896],[16.09973,49.03556],[16.08749,49.03746],[16.08862,49.03131],[16.08694,49.02939],[16.03634,49.04121],[16.0339,49.03536],[16.02472,49.03323],[16.02266,49.02858],[16.01021,49.02647],[15.9939,49.02754],[15.96711,49.03817],[15.96078,49.05469],[15.91817,49.02757],[15.90915,49.02796],[15.90022,49.03111],[15.88642,49.03719],[15.88915,49.03202],[15.88571,49.02909],[15.88203,49.01423],[15.87682,49.00743],[15.86632,49.00618],[15.84752,49.01074],[15.82769,49.00607],[15.81915,49.00883],[15.80667,48.99402],[15.79323,48.98292],[15.78057,48.9792],[15.75989,48.9787],[15.75637,48.96585],[15.74727,48.96692],[15.7392,48.95035],[15.73149,48.94564],[15.7265,48.94832],[15.70439,48.96625],[15.68942,48.96337],[15.68255,48.9601],[15.67792,48.96089],[15.67766,48.96275],[15.66504,48.9632],[15.66599,48.95306],[15.65826,48.94669],[15.64848,48.9362],[15.6235,48.9406],[15.61099,48.9576],[15.60488,48.95379],[15.58617,48.94601],[15.57134,48.95577],[15.57793,48.9641],[15.54574,48.97199],[15.52239,48.9743],[15.51922,48.97898],[15.52162,48.98134],[15.5258,48.99383],[15.49253,48.98816],[15.48512,48.99647],[15.49132,49.00545],[15.50334,49.01046],[15.50755,49.01772],[15.51604,49.02183],[15.52566,49.04029],[15.54392,49.04374],[15.53838,49.06033],[15.55348,49.06282],[15.55115,49.07117],[15.55163,49.07813],[15.58385,49.07404],[15.59226,49.07493],[15.59612,49.07741],[15.59329,49.08084],[15.58943,49.08477],[15.59818,49.08595],[15.60157,49.08825],[15.58014,49.0975],[15.58648,49.10381],[15.57383,49.10068],[15.566,49.10557],[15.55518,49.11057],[15.54686,49.11585],[15.56625,49.12107],[15.56456,49.12755],[15.55144,49.12403],[15.54562,49.13384],[15.54003,49.12678],[15.53656,49.12447],[15.53497,49.12442],[15.51641,49.12971],[15.50351,49.11784],[15.4933,49.11897],[15.46978,49.12237],[15.46866,49.1186],[15.45497,49.12141],[15.4515,49.1254],[15.4409,49.13121],[15.43231,49.12801],[15.42433,49.11647],[15.41832,49.12082],[15.41867,49.12484],[15.41017,49.12675],[15.39901,49.13144],[15.38373,49.13321],[15.37653,49.13854],[15.37846,49.14244],[15.37279,49.1482],[15.36404,49.14755],[15.35464,49.15157],[15.33523,49.16615],[15.34777,49.1913],[15.34421,49.19929],[15.34142,49.20501],[15.34305,49.21505],[15.34064,49.21677],[15.33395,49.21746],[15.31391,49.21429],[15.3064,49.21252],[15.30185,49.21454],[15.29297,49.21645],[15.28623,49.21409],[15.28065,49.20969],[15.27151,49.21014],[15.26517,49.21286],[15.25877,49.2072],[15.25237,49.20593],[15.25121,49.20714],[15.2507,49.21886],[15.22383,49.22404],[15.20461,49.22547],[15.1949,49.23416],[15.19195,49.23069],[15.17697,49.22118],[15.16671,49.21547],[15.13822,49.22071],[15.13431,49.23074],[15.12281,49.24736],[15.09882,49.24002],[15.08041,49.24604],[15.07273,49.25265],[15.07655,49.25296],[15.09936,49.25053],[15.09736,49.25974],[15.10328,49.26582],[15.10118,49.2694],[15.09393,49.27018],[15.0826,49.27122],[15.06766,49.2715],[15.06131,49.27189],[15.04698,49.27811],[15.04312,49.28326],[15.03074,49.29448],[15.0069,49.28553],[14.99153,49.27455],[14.97711,49.27674],[14.96733,49.28771],[14.95243,49.29342],[14.94338,49.30411],[14.92325,49.30988],[14.92724,49.31679],[14.90197,49.33211],[14.91175,49.34453],[14.92248,49.35205],[14.92463,49.35409],[14.92322,49.36205],[14.91242,49.36648],[14.91073,49.3669],[14.91033,49.36702],[14.90983,49.36711],[14.90952,49.3675],[14.90893,49.36756],[14.90789,49.36785],[14.90536,49.36865],[14.89128,49.37301],[14.88686,49.37542],[14.88909,49.38444],[14.89244,49.3945],[14.90042,49.401]]]}}
