{"type":"Feature","properties":{"sourceId":"venezuela"},"geometry":{"type":"Polygon","coordinates":[[[-63.29225,15.90852],[-64.38048,12.17054],[-62.7652,11.70207],[-62.11383,11.67884],[-61.71329,10.92128],[-61.78683,10.71409],[-61.78667,10.57469],[-61.85115,10.57356],[-62.05645,10.05456],[-61.85707,10.00637],[-61.49591,9.989646],[-61.23658,9.905131],[-60.88288,9.775124],[-59.59828078035619,8.753975879983816],[-60.03202,8.536309],[-59.86963,8.274592],[-59.97857,8.247027],[-60.05658,8.089703],[-60.36103,7.890039],[-60.56155,7.858167],[-60.76536,7.552188],[-60.65295,7.346693],[-60.64961,7.169478],[-60.56225,7.081042],[-60.45456,7.14159],[-60.35567,7.067062],[-60.73623,6.813552],[-60.91206,6.863321],[-60.97725,6.773826],[-61.18643,6.74044],[-61.27785,6.568056],[-61.18703,6.236488],[-61.37375,5.981461],[-61.42101,5.97204],[-60.74555,5.208143],[-60.73723,5.198484],[-60.71199,5.216263],[-60.65904624383758,5.2067491464505755],[-60.55668,4.964186],[-60.71022,4.750432],[-60.8801,4.679391],[-60.94467,4.523999],[-61.14502,4.452247],[-61.25171,4.49478],[-61.30569,4.405601],[-61.54431,4.229657],[-61.73818,4.217746],[-61.92422,4.093138],[-61.99658,4.131069],[-62.14709,4.049561],[-62.42354,4.148748],[-62.51281,4.087533],[-62.53945,3.995849],[-62.72689,3.999943],[-62.7186,3.661866],[-62.82273,3.695601],[-62.96457,3.579551],[-63.0995,3.672274],[-63.24097,3.808828],[-63.24905,3.926086],[-63.38755,3.942813],[-63.41063,3.849584],[-63.50079,3.812332],[-63.60927,3.864782],[-63.71212,3.875853],[-63.85729,3.911731],[-63.96824,3.840393],[-64.16782,4.089704],[-64.57373,4.079274],[-64.51752,3.879261],[-64.26421,3.732038],[-64.15149,3.588704],[-64.1491,3.503265],[-64.20833,3.426546],[-64.19117,3.129881],[-63.95457,2.732124],[-64.01169,2.525944],[-63.52737,2.451772],[-63.4133,2.477564],[-63.3443,2.42073],[-63.34064,2.257442],[-63.42308,2.102624],[-63.5623,2.097256],[-63.65528,1.991905],[-63.82905,1.938637],[-63.96345,1.954576],[-64.01998,1.908896],[-64.04698,1.639233],[-64.28098,1.437508],[-64.31869,1.340579],[-64.40807,1.365457],[-64.72496,1.203665],[-64.81509,1.256056],[-64.94119,1.183112],[-65.00078,1.083531],[-65.17156,0.898624],[-65.3059,0.900432],[-65.42108,0.675829],[-65.55736,0.621727],[-65.63486,0.708308],[-65.53659,0.857797],[-65.61172,0.966892],[-65.852,0.909193],[-65.95025,0.792572],[-66.07229,0.733756],[-66.31171,0.71638],[-66.86609,1.202113],[-66.90903,1.282752],[-66.8853,1.354573],[-67.14966,1.967485],[-67.13742,2.096418],[-67.2466,2.23909],[-67.22685,2.349938],[-67.50638,2.633279],[-67.58761,2.642661],[-67.62981,2.775452],[-67.89014,2.779356],[-67.87793,2.894153],[-67.41698,3.280299],[-67.34661,3.386727],[-67.60641,3.724346],[-67.66406,3.781352],[-67.82594,4.228924],[-67.80946,4.404068],[-67.88457,4.527232],[-67.84605,5.041073],[-67.87961,5.297924],[-67.65176,5.500435],[-67.62782,5.828172],[-67.44872,6.004697],[-67.5199,6.115699],[-67.5048,6.191988],[-67.81731,6.288563],[-68.02867,6.167715],[-68.30206,6.134079],[-68.46058,6.154544],[-68.65648,6.100485],[-69.05725,6.186439],[-69.23178,6.051659],[-69.35253,6.103026],[-69.4294,6.079513],[-70.14409,6.946636],[-70.32679,6.906775],[-70.57132,7.040376],[-70.70541,7.063635],[-71.0237,6.94677],[-71.15239,6.997029],[-72.05349,7.010468],[-72.19536,7.230036],[-72.20874,7.345553],[-72.45356,7.378966],[-72.50295,7.47885],[-72.47249,7.796056],[-72.45346,7.828351],[-72.44728,7.85709],[-72.45827,7.881067],[-72.4641,7.914223],[-72.47767,7.922894],[-72.48745,7.930375],[-72.492,7.943449],[-72.41905,8.037869],[-72.36763,8.051752],[-72.39214,8.163936],[-72.40499,8.363141],[-72.40379,8.364712],[-72.4049,8.365115],[-72.40709,8.366898],[-72.4084,8.3652],[-72.41005,8.363735],[-72.41544,8.362589],[-72.4181,8.368024],[-72.41449,8.377194],[-72.42119,8.38178],[-72.42737,8.380506],[-72.4296,8.38178],[-72.65911,8.613271],[-72.77069,9.072603],[-72.83833,9.11803],[-72.96103,9.065902],[-73.02636,9.238061],[-73.24725,9.13003],[-73.36217,9.149235],[-73.38098,9.217018],[-72.99324,9.831228],[-73.02694,9.927733],[-72.9451,10.10881],[-72.89841,10.45],[-72.51291,11.11179],[-72.22982,11.18804],[-71.97571,11.65124],[-70.96486,11.98333],[-70.96412,12.14123],[-71.07389,12.27182],[-71.17451,12.53258],[-71.12276,12.6515],[-71.01381,12.73016],[-70.86825,12.7402],[-70.41362,12.5891],[-70.38455,12.3859],[-70.12379,12.39167],[-69.73507,12.29322],[-69.06828,11.90759],[-68.94484,11.79412],[-68.58218,11.69658],[-68.02062,11.69765],[-68.01652,12.20314],[-65.86739,14.93202],[-63.91847,15.96134],[-63.29225,15.90852]]]}}
