{"type":"Feature","properties":{"sourceId":"victoria"},"geometry":{"type":"Polygon","coordinates":[[[143.5831,-35.21519],[143.5802,-35.23076],[143.5704,-35.24366],[143.5844,-35.26342],[143.5918,-35.27015],[143.592,-35.28066],[143.583,-35.29796],[143.5789,-35.30378],[143.5699,-35.30872],[143.5648,-35.32045],[143.5647,-35.32749],[143.5647,-35.33235],[143.5627,-35.33648],[143.564,-35.33837],[143.5658,-35.34142],[143.568,-35.34278],[143.5694,-35.3424],[143.5713,-35.33711],[143.5738,-35.33641],[143.5801,-35.33753],[143.5879,-35.34468],[143.5911,-35.34839],[143.5938,-35.34909],[143.5982,-35.34986],[143.6171,-35.36805],[143.6377,-35.38569],[143.6456,-35.39703],[143.6644,-35.36988],[143.6849,-35.36498],[143.7607,-35.38765],[143.8134,-35.4334],[143.8564,-35.46081],[143.9063,-35.49226],[143.9317,-35.49743],[143.971,-35.49674],[143.9985,-35.53251],[144.0028,-35.55443],[144.0349,-35.54815],[144.0472,-35.54899],[144.0696,-35.57664],[144.0963,-35.58596],[144.1054,-35.59032],[144.1139,-35.60047],[144.1158,-35.61133],[144.1189,-35.61928],[144.1203,-35.62036],[144.12,-35.62151],[144.1183,-35.62563],[144.121,-35.62688],[144.1232,-35.6295],[144.126,-35.63072],[144.1273,-35.6325],[144.1283,-35.63421],[144.1302,-35.63271],[144.1319,-35.63299],[144.1318,-35.63742],[144.1343,-35.63927],[144.1385,-35.64035],[144.14,-35.64286],[144.1533,-35.64126],[144.1856,-35.66539],[144.222,-35.68853],[144.2489,-35.71795],[144.2927,-35.73327],[144.3173,-35.7454],[144.3471,-35.76197],[144.3777,-35.79136],[144.3859,-35.81837],[144.4132,-35.85775],[144.424,-35.89642],[144.467,-35.93187],[144.52,-35.96689],[144.5717,-36.01467],[144.6166,-36.03036],[144.6269,-36.04327],[144.6475,-36.04945],[144.6809,-36.06114],[144.6898,-36.06097],[144.6935,-36.06932],[144.6866,-36.08729],[144.7188,-36.08511],[144.7265,-36.08955],[144.7259,-36.09936],[144.7221,-36.10099],[144.7207,-36.10588],[144.7181,-36.11052],[144.7253,-36.11191],[144.731,-36.11146],[144.7373,-36.10865],[144.7407,-36.10713],[144.7439,-36.10855],[144.7438,-36.11014],[144.7447,-36.11496],[144.7468,-36.11826],[144.7484,-36.12096],[144.7517,-36.12158],[144.7544,-36.12197],[144.7548,-36.11975],[144.7567,-36.11836],[144.7647,-36.11836],[144.7681,-36.11541],[144.773,-36.11458],[144.7808,-36.1229],[144.8055,-36.10113],[144.825,-36.09697],[144.8389,-36.06742],[144.8685,-36.05298],[144.9076,-36.05354],[144.9502,-36.07297],[144.9756,-36.06298],[144.9502,-36.03633],[144.9179,-35.98467],[144.9449,-35.92645],[144.9622,-35.89781],[144.9668,-35.86053],[144.9994,-35.84801],[145.0599,-35.82867],[145.1165,-35.8167],[145.1557,-35.82686],[145.186,-35.83229],[145.2336,-35.82533],[145.2631,-35.8334],[145.3247,-35.84885],[145.3558,-35.86019],[145.4179,-35.82797],[145.474,-35.80424],[145.5356,-35.80139],[145.5528,-35.81357],[145.5574,-35.81336],[145.5616,-35.81224],[145.564,-35.81287],[145.5642,-35.81642],[145.5625,-35.82241],[145.5678,-35.82533],[145.5949,-35.84774],[145.6267,-35.85998],[145.6759,-35.91331],[145.6853,-35.92068],[145.6983,-35.91901],[145.723,-35.93271],[145.7786,-35.95828],[145.8517,-35.95772],[145.8971,-35.94827],[145.9544,-35.958],[146.0004,-36.00217],[146.0488,-35.99384],[146.137,-36.00051],[146.1947,-36.02744],[146.2697,-36.00176],[146.3,-36.02168],[146.3451,-36.0239],[146.3515,-36.03716],[146.3749,-36.03702],[146.3784,-36.03105],[146.3781,-36.02266],[146.3788,-36.01474],[146.3821,-36.00953],[146.3857,-36.0071],[146.3926,-36.00551],[146.3977,-36.00502],[146.3972,-35.99669],[146.3992,-35.99037],[146.4114,-35.97564],[146.4235,-35.96258],[146.455,-35.95855],[146.4872,-35.98217],[146.5003,-35.95619],[146.5183,-35.95744],[146.5453,-35.98301],[146.56,-35.96634],[146.5971,-35.9687],[146.6174,-35.97134],[146.6208,-35.97523],[146.617,-35.98092],[146.6192,-35.98926],[146.6309,-35.9969],[146.6529,-36.00654],[146.6883,-36.024],[146.7334,-36.02018],[146.7378,-36.04361],[146.7538,-36.03794],[146.779,-36.05653],[146.8056,-36.05203],[146.8292,-36.06856],[146.8287,-36.08255],[146.8549,-36.08113],[146.8571,-36.07543],[146.8638,-36.07198],[146.873,-36.07338],[146.8759,-36.07782],[146.8806,-36.08566],[146.8894,-36.08684],[146.9014,-36.08251],[146.9061,-36.08313],[146.9079,-36.08552],[146.9048,-36.08812],[146.9069,-36.0919],[146.9043,-36.09756],[146.9095,-36.09926],[146.9152,-36.10876],[146.923,-36.09856],[146.9248,-36.09714],[146.9279,-36.09607],[146.9326,-36.10754],[146.9434,-36.11441],[146.9505,-36.11056],[146.9472,-36.10442],[146.949,-36.10026],[146.951,-36.09964],[146.9515,-36.09856],[146.9504,-36.09624],[146.9499,-36.09423],[146.9515,-36.09225],[146.9541,-36.09187],[146.9555,-36.07786],[146.9569,-36.07765],[146.9732,-36.08196],[146.9817,-36.08963],[146.9903,-36.08548],[147.0092,-36.08044],[147.0286,-36.10078],[147.0354,-36.11302],[147.0507,-36.09426],[147.0614,-36.06506],[147.0867,-36.05016],[147.095,-36.00875],[147.1244,-35.99298],[147.1469,-36.02872],[147.1673,-36.03076],[147.1874,-36.03709],[147.2065,-36.04632],[147.2383,-36.03758],[147.2864,-36.03618],[147.322,-36.05357],[147.3445,-36.01995],[147.3513,-35.98835],[147.3706,-35.966],[147.3841,-35.96848],[147.39,-35.94442],[147.4064,-35.9402],[147.4615,-35.94118],[147.496,-35.94039],[147.5277,-35.9603],[147.524,-35.98323],[147.5518,-36.00046],[147.5794,-35.98413],[147.5448,-35.98058],[147.5472,-35.96176],[147.5669,-35.96426],[147.5963,-35.97006],[147.6015,-35.97502],[147.6448,-35.94284],[147.7108,-35.92559],[147.743,-35.95317],[147.7575,-35.95425],[147.8077,-35.96179],[147.8191,-35.97626],[147.8498,-35.98003],[147.8856,-35.99446],[147.8979,-35.99215],[147.9147,-35.99223],[147.9353,-36.04223],[147.9752,-36.03496],[148.0039,-36.04479],[148.0011,-36.06386],[147.9938,-36.08259],[147.9905,-36.08678],[148.0037,-36.09774],[148.0013,-36.11885],[148.0105,-36.13276],[148.0423,-36.14096],[148.0344,-36.16654],[148.0267,-36.17959],[148.0402,-36.19829],[148.0451,-36.20791],[148.0332,-36.2248],[148.0413,-36.26006],[148.0483,-36.29945],[148.0402,-36.30993],[148.0625,-36.31996],[148.0458,-36.38716],[148.0596,-36.40008],[148.0622,-36.41215],[148.0844,-36.42059],[148.0922,-36.44961],[148.128,-36.46171],[148.1274,-36.48556],[148.1241,-36.49401],[148.1402,-36.52543],[148.1362,-36.53564],[148.1342,-36.5384],[148.1324,-36.55695],[148.1365,-36.56391],[148.1532,-36.55521],[148.1908,-36.5763],[148.2064,-36.58645],[148.2219,-36.59759],[148.2213,-36.62673],[148.2149,-36.65235],[148.1742,-36.71436],[148.149,-36.72585],[148.1335,-36.75168],[148.1219,-36.76671],[148.107,-36.78857],[148.1172,-36.79892],[148.1564,-36.78643],[148.1798,-36.79607],[148.1856,-36.79987],[148.1985,-36.79324],[150.0376,-37.52902],[150.4683,-37.55345],[147.2747,-39.1987],[147.0216,-39.19851],[146.9835,-39.1986],[146.2011,-39.2011],[141.0205,-39.23224],[140.962,-38.1103],[140.9574,-35.79981],[140.9597,-33.97931],[140.9735,-33.98052],[140.9853,-34.00939],[140.9857,-34.00946],[140.9865,-34.01011],[140.9868,-34.01088],[140.9866,-34.01165],[140.9864,-34.01192],[140.9904,-34.02169],[140.9983,-34.01873],[141.0158,-34.02231],[141.012,-34.0419],[141.034,-34.03519],[141.0449,-34.03719],[141.0454,-34.05819],[141.0655,-34.0462],[141.0749,-34.06005],[141.0959,-34.04644],[141.1207,-34.06115],[141.1543,-34.05095],[141.1575,-34.08011],[141.1752,-34.06998],[141.1862,-34.08825],[141.1863,-34.07865],[141.2033,-34.0587],[141.2241,-34.05897],[141.2293,-34.06994],[141.2431,-34.0581],[141.3188,-34.11232],[141.3308,-34.12738],[141.3477,-34.11141],[141.3598,-34.10706],[141.3842,-34.12256],[141.3903,-34.13101],[141.411,-34.1249],[141.411,-34.14418],[141.4363,-34.14276],[141.4441,-34.16214],[141.4965,-34.15112],[141.5229,-34.17954],[141.5111,-34.19159],[141.5207,-34.20251],[141.5323,-34.18786],[141.5648,-34.18901],[141.5837,-34.19505],[141.5872,-34.17505],[141.5993,-34.16539],[141.5835,-34.15827],[141.5805,-34.14955],[141.6291,-34.11919],[141.6764,-34.09761],[141.7091,-34.09261],[141.7329,-34.08744],[141.7649,-34.09481],[141.7788,-34.09813],[141.8416,-34.12808],[141.8518,-34.12078],[141.8763,-34.12949],[141.8815,-34.11242],[141.9023,-34.11037],[141.9124,-34.11472],[141.9227,-34.11411],[141.9265,-34.12037],[141.9342,-34.125],[141.9417,-34.12014],[141.9466,-34.11843],[141.9656,-34.13314],[141.9726,-34.11041],[141.9845,-34.11214],[142.0164,-34.12176],[142.0095,-34.10344],[142.0386,-34.09592],[142.047,-34.10567],[142.0335,-34.12423],[142.0588,-34.12408],[142.0788,-34.12882],[142.0787,-34.14091],[142.0698,-34.14998],[142.0785,-34.15655],[142.0861,-34.1694],[142.1169,-34.17091],[142.1172,-34.15405],[142.1362,-34.15669],[142.1494,-34.14508],[142.1705,-34.15218],[142.1617,-34.16555],[142.1606,-34.17169],[142.1629,-34.17123],[142.1661,-34.17066],[142.1673,-34.1724],[142.1646,-34.17829],[142.1685,-34.18316],[142.1757,-34.18369],[142.1793,-34.18174],[142.1797,-34.17677],[142.1826,-34.17496],[142.186,-34.17581],[142.1922,-34.18067],[142.1998,-34.1827],[142.2064,-34.18266],[142.2142,-34.18074],[142.2174,-34.18],[142.2201,-34.18077],[142.2287,-34.18923],[142.2455,-34.2112],[142.2476,-34.24189],[142.2425,-34.25027],[142.2372,-34.25371],[142.2541,-34.26686],[142.2503,-34.28942],[142.2388,-34.3041],[142.2671,-34.29472],[142.2874,-34.29302],[142.3035,-34.30587],[142.2862,-34.32324],[142.299,-34.32253],[142.3312,-34.33566],[142.3695,-34.32331],[142.4005,-34.33575],[142.399,-34.34596],[142.3953,-34.36327],[142.3741,-34.37221],[142.3773,-34.38939],[142.3565,-34.39637],[142.3724,-34.43569],[142.3574,-34.46787],[142.381,-34.46384],[142.3882,-34.47742],[142.3982,-34.49213],[142.3797,-34.51487],[142.3956,-34.5128],[142.4044,-34.52435],[142.3803,-34.52873],[142.3804,-34.53838],[142.4091,-34.53917],[142.427,-34.55858],[142.4534,-34.55377],[142.4724,-34.56312],[142.4765,-34.59367],[142.4886,-34.63741],[142.4759,-34.66571],[142.5064,-34.65274],[142.5203,-34.66141],[142.5239,-34.70272],[142.5262,-34.75622],[142.5355,-34.75005],[142.5679,-34.76356],[142.6364,-34.77766],[142.6418,-34.76422],[142.6176,-34.76015],[142.6114,-34.72744],[142.6618,-34.71822],[142.6795,-34.66817],[142.7066,-34.67471],[142.6848,-34.65249],[142.6873,-34.61692],[142.6965,-34.59704],[142.7235,-34.58864],[142.7568,-34.59693],[142.7463,-34.58849],[142.744,-34.58454],[142.7464,-34.5775],[142.7484,-34.57549],[142.7536,-34.57683],[142.7587,-34.5792],[142.7649,-34.57782],[142.7701,-34.57747],[142.7693,-34.56888],[142.7709,-34.56589],[142.7915,-34.54274],[142.8146,-34.56082],[142.8019,-34.57955],[142.7911,-34.58799],[142.8126,-34.58589],[142.8078,-34.60546],[142.8246,-34.59679],[142.8442,-34.61771],[142.8528,-34.61781],[142.8716,-34.6249],[142.8774,-34.67048],[142.9025,-34.65065],[142.9242,-34.64431],[142.9503,-34.6659],[142.9626,-34.66274],[142.9709,-34.66974],[142.9883,-34.65898],[143.0205,-34.67078],[143.027,-34.67811],[143.0542,-34.69059],[143.071,-34.67464],[143.091,-34.69761],[143.1136,-34.67715],[143.1431,-34.70834],[143.1656,-34.69313],[143.1682,-34.7152],[143.18,-34.70567],[143.199,-34.71143],[143.2036,-34.73042],[143.222,-34.72814],[143.2254,-34.74535],[143.2403,-34.74422],[143.2769,-34.74991],[143.2684,-34.77238],[143.2732,-34.77672],[143.3119,-34.77934],[143.3533,-34.79064],[143.3607,-34.81676],[143.3598,-34.84815],[143.3429,-34.88272],[143.3316,-34.89258],[143.3428,-34.91754],[143.3472,-34.93341],[143.3402,-34.94824],[143.3267,-34.94685],[143.3244,-34.98001],[143.3227,-34.98922],[143.3304,-34.99511],[143.3392,-35.00715],[143.338,-35.01446],[143.3359,-35.01931],[143.3335,-35.02339],[143.3353,-35.02669],[143.3339,-35.02784],[143.3358,-35.02938],[143.335,-35.03165],[143.3348,-35.0339],[143.3361,-35.03601],[143.3541,-35.06689],[143.3474,-35.09566],[143.3616,-35.10137],[143.3913,-35.13621],[143.3975,-35.18695],[143.4514,-35.18577],[143.4657,-35.20161],[143.4729,-35.21513],[143.5446,-35.20646],[143.5618,-35.20168],[143.5741,-35.20523],[143.5831,-35.21519]]]}}
