{"type":"Feature","properties":{"sourceId":"vietnam"},"geometry":{"type":"Polygon","coordinates":[[[108.7772,20.4647],[107.5302,18.78607],[109.55497040622477,16.66929796212275],[109.9328,15.85535],[110.1928,15.47488],[111.43694604175823,14.70180901176259],[114.6423,11.35081],[111.9287,10.66062],[113.2251,7.678352],[112.8955,7.667452],[111.9726,8.71137],[105.1953,7.382239],[103.13363312920488,9.208323678408691],[103.8103,9.927275],[103.8174,10.38202],[103.9271,10.38828],[103.9898,10.47405],[104.0883,10.39597],[104.097,10.23457],[104.2276,10.23296],[104.4729,10.41813],[104.4962,10.39446],[104.6182,10.51544],[104.8752,10.50879],[105.1089,10.71762],[105.0443,10.88823],[105.0814,10.92087],[105.3438,10.84527],[105.4336,10.94885],[105.5216,10.93837],[105.7518,10.98589],[105.8387,10.82556],[106.0092,10.841],[106.06,10.7757],[106.2083,10.75771],[106.2219,11.06716],[105.9503,11.25348],[105.8791,11.62903],[105.9711,11.60671],[106.0578,11.73477],[106.287,11.63661],[106.4677,11.63641],[106.4861,11.9307],[106.7349,11.93313],[106.812,12.03952],[107.0282,12.06104],[107.21,12.25671],[107.337,12.28596],[107.4217,12.20225],[107.5773,12.33276],[107.5923,12.69773],[107.5076,13.01857],[107.6397,13.36675],[107.6276,13.52933],[107.5439,13.75594],[107.4758,13.79683],[107.4751,13.98115],[107.4056,14.03449],[107.3862,14.1263],[107.4382,14.32324],[107.5414,14.44243],[107.5968,14.61742],[107.5789,14.71649],[107.56157772207149,14.717070836025496],[107.5483,14.79295],[107.6024,14.88437],[107.4912,14.95768],[107.4822,15.01274],[107.6468,15.02007],[107.6503,15.41895],[107.5304,15.49268],[107.4063,15.52319],[107.2894,15.71063],[107.2511,15.82839],[107.4149,15.89262],[107.4695,16.0141],[107.4637,16.07481],[107.4525,16.09908],[107.341,16.06512],[107.2659,16.14803],[107.1705,16.17046],[107.1526,16.19189],[107.1605,16.25353],[107.153,16.27496],[107.0926,16.31483],[107.0036,16.31746],[106.9727,16.30659],[106.9703,16.35305],[106.9185,16.39422],[106.8993,16.51473],[106.8697,16.54797],[106.82,16.55456],[106.7489,16.44164],[106.6916,16.46008],[106.672,16.58845],[106.6158,16.60712],[106.6053,16.60844],[106.595,16.60679],[106.5877,16.60367],[106.5838,16.60687],[106.5846,16.6128],[106.5905,16.61526],[106.5917,16.61806],[106.5915,16.62398],[106.5844,16.62875],[106.563,16.6859],[106.5582,16.86078],[106.5535,16.90089],[106.5689,17.02247],[106.5101,17.00404],[106.4528,17.02889],[106.4379,17.09333],[106.3531,17.19462],[106.3241,17.31208],[106.2618,17.31679],[106.2485,17.26185],[106.173,17.30775],[105.8715,17.63131],[105.7672,17.6915],[105.7006,17.83209],[105.6285,17.88503],[105.6525,17.99804],[105.6051,18.032],[105.5049,18.20754],[105.3332,18.27341],[105.2865,18.27211],[105.2075,18.32557],[105.1851,18.3909],[105.1076,18.44953],[105.1649,18.57932],[105.2089,18.58599],[105.2246,18.63911],[105.1539,18.73404],[104.9674,18.76764],[104.9236,18.81084],[104.7621,18.82443],[104.6015,18.92614],[104.5412,19.009],[104.4553,19.01463],[104.4069,19.08028],[104.25,19.14393],[104.1956,19.2179],[104.0747,19.2738],[104.0022,19.26445],[103.9433,19.30582],[103.9906,19.37235],[104.0854,19.3959],[104.1442,19.49158],[104.0931,19.63651],[104.236,19.67931],[104.3231,19.64046],[104.3926,19.66969],[104.5178,19.5911],[104.6445,19.59714],[104.7291,19.72392],[104.854,19.77935],[104.8742,19.91539],[104.996,20.05091],[105.0148,20.11079],[104.9356,20.1837],[104.8641,20.17203],[104.6392,20.26287],[104.6491,20.34628],[104.7461,20.40547],[104.6778,20.49551],[104.4717,20.39898],[104.4341,20.40667],[104.4139,20.46187],[104.6451,20.60835],[104.655,20.69146],[104.5692,20.74232],[104.5181,20.73729],[104.5028,20.78466],[104.3781,20.8554],[104.3054,20.94579],[104.1089,21.00307],[104.0355,20.96921],[104.0222,20.93135],[103.8955,20.9292],[103.7974,20.88467],[103.7041,20.69382],[103.611,20.76742],[103.5282,20.77922],[103.4773,20.85071],[103.3946,20.81556],[103.2606,20.8551],[103.234,20.91686],[103.1316,20.93699],[103.0539,21.07618],[102.9941,21.09332],[102.9326,21.24604],[102.8938,21.27495],[102.968,21.45613],[102.9394,21.48473],[103.0184,21.58322],[102.9931,21.76311],[102.8852,21.74038],[102.8758,21.85151],[102.82,21.86946],[102.7849,21.8309],[102.794,21.74718],[102.7358,21.69166],[102.6952,21.69116],[102.638,21.92996],[102.5271,21.99401],[102.5421,22.04269],[102.4521,22.13667],[102.266,22.26491],[102.22658902446561,22.324004740716656],[102.3037,22.32139],[102.518,22.61841],[103.0751,22.39452],[103.2069,22.55569],[103.3635,22.73819],[103.5489,22.56456],[103.6498,22.73756],[103.8067,22.63097],[103.8647,22.56583],[103.9121,22.53222],[103.9609,22.50225],[104.022,22.51065],[104.1243,22.78378],[104.2383,22.74832],[104.3536,22.65584],[104.7395,22.79011],[104.8933,22.94448],[104.8727,23.08605],[105.3342,23.29938],[105.4829081721261,23.134058783036505],[105.4829,23.13405],[105.5511,23.05825],[105.867,22.90148],[106.3174,22.84327],[106.7816,22.79264],[106.5907,22.60894],[106.5399,22.47449],[106.5358,22.35389],[106.6841,21.96167],[106.7131,21.9561],[106.9828,21.90929],[106.9952,21.82708],[107.3735,21.58466],[107.5424,21.58083],[107.7031,21.60062],[107.8514,21.62743],[107.9439,21.5473],[107.9522,21.53501],[107.9676,21.53389],[107.9963,21.54427],[108.033,21.54411],[108.0698,21.47735],[108.1113,21.17834],[108.33858351766253,21.21752634026225],[108.7772,20.4647]]]}}
