{"type":"Feature","properties":{"sourceId":"wales"},"geometry":{"type":"Polygon","coordinates":[[[-2.715875,51.53992],[-2.786304,51.52392],[-2.99207,51.45366],[-3.1046,51.35638],[-3.1221067052981195,51.34806731013218],[-3.153861,51.3544],[-3.688695,51.31161],[-3.7033489335372516,51.27642616343089],[-3.709805855056994,51.276514710836445],[-3.708306,51.30895],[-4.167345409957727,51.282789208737455],[-4.700452,51.2901],[-6.183241,51.03997],[-5.292829,53.45655],[-4.622680237918456,53.73236],[-4.394832130016188,53.73236],[-3.535582,53.53158],[-3.4095,53.45504],[-3.356101,53.42834],[-3.296497,53.4066],[-3.245448,53.35399],[-3.218354965115071,53.34041668216299],[-3.217628,53.33899],[-3.217378,53.3374],[-3.166157,53.30981],[-3.128477,53.2854],[-3.1278611933025107,53.28573351276632],[-3.088773,53.25619],[-3.084734,53.25507],[-3.061085,53.25119],[-3.036325,53.25012],[-3.026084,53.24673],[-2.950395,53.20982],[-2.94487,53.20362],[-2.93048,53.19194],[-2.923723,53.18819],[-2.922252,53.17853],[-2.928629,53.17299],[-2.943787,53.16722],[-2.945964,53.16829],[-2.950508,53.16749],[-2.966498,53.16174],[-2.971289,53.16244],[-2.97594,53.15907],[-2.990569,53.15913],[-2.995271,53.15469],[-2.996298,53.15332],[-2.98949,53.15107],[-2.985109,53.14617],[-2.979352,53.14802],[-2.964838,53.13136],[-2.947965,53.12587],[-2.944236,53.12002],[-2.934675,53.1198],[-2.903535,53.1101],[-2.88326,53.11917],[-2.885897,53.11276],[-2.893339,53.11002],[-2.895077,53.10394],[-2.890226,53.10342],[-2.891838,53.10065],[-2.900304,53.09939],[-2.903515,53.09128],[-2.901231,53.08935],[-2.900642,53.0891],[-2.894136,53.08995],[-2.891996,53.08613],[-2.878147,53.08074],[-2.883112,53.07353],[-2.879033,53.07217],[-2.8783,53.06742],[-2.870474,53.06848],[-2.871953,53.06352],[-2.867576,53.0617],[-2.874127,53.05907],[-2.867529,53.05359],[-2.871594,53.04447],[-2.867255,53.0423],[-2.867352,53.04018],[-2.864065,53.03816],[-2.859799,53.03729],[-2.857656,53.03427],[-2.861048,53.03034],[-2.86227,53.02624],[-2.862527,53.02205],[-2.852088,53.01536],[-2.845947,53.01667],[-2.841509,53.01194],[-2.842188,53.00655],[-2.836849,52.99565],[-2.803438,52.9879],[-2.79143,52.98946],[-2.789527,52.99397],[-2.781152,52.99199],[-2.777899,52.99182],[-2.767354,52.99273],[-2.760429,52.9848],[-2.744076,52.98545],[-2.7264546963396605,52.981434995332506],[-2.730314,52.97595],[-2.72917,52.97469],[-2.732824,52.96864],[-2.724441,52.96378],[-2.72583,52.95934],[-2.722311,52.95623],[-2.725606,52.95135],[-2.728726,52.92436],[-2.747662,52.92388],[-2.752317109540589,52.92155394224867],[-2.754509,52.92149],[-2.760222745728546,52.91760366649817],[-2.792751,52.90135],[-2.792854,52.89918],[-2.799556,52.89501],[-2.802339,52.89578],[-2.802958,52.89978],[-2.813268,52.91002],[-2.812512,52.91188],[-2.823372,52.9197],[-2.822513,52.92044],[-2.840727,52.9377],[-2.839558,52.94101],[-2.881866,52.94562],[-2.886119,52.95072],[-2.896378,52.94983],[-2.906053,52.94243],[-2.925919,52.94174],[-2.926802,52.93814],[-2.973151,52.95977],[-2.968495,52.96444],[-2.975101,52.96929],[-2.980247,52.96508],[-2.980193,52.96271],[-3.010175,52.9562],[-3.026062,52.93808],[-3.023898,52.93617],[-3.027907,52.93596],[-3.031384,52.93252],[-3.085203,52.92666],[-3.085806,52.9282],[-3.096821,52.93048],[-3.111642,52.91493],[-3.117421,52.90013],[-3.114389,52.89477],[-3.145246,52.89285],[-3.147922,52.89051],[-3.136863,52.88545],[-3.14728,52.88478],[-3.148493,52.88136],[-3.153308,52.87923],[-3.128623,52.86881],[-3.163404,52.84802],[-3.153189,52.84156],[-3.155906,52.83143],[-3.159432,52.83061],[-3.167615,52.82008],[-3.166062,52.81355],[-3.168941,52.80786],[-3.162634,52.80389],[-3.15555,52.808],[-3.15403,52.80594],[-3.155453,52.80377],[-3.154644,52.80307],[-3.162465,52.79944],[-3.159627,52.79417],[-3.145572,52.78915],[-3.144221,52.79056],[-3.119793,52.78637],[-3.120604,52.78492],[-3.117563,52.78412],[-3.108171,52.79009],[-3.109556,52.79168],[-3.08773,52.79603],[-3.085973,52.79262],[-3.09208,52.7877],[-3.088895,52.77867],[-3.081171,52.77784],[-3.079667,52.77147],[-3.07487,52.77002],[-3.071089,52.77187],[-3.071455,52.77241],[-3.068487,52.7745],[-3.063893,52.77088],[-3.064868,52.7699],[-3.062226,52.76951],[-3.05812,52.77396],[-3.048037,52.77263],[-3.052794,52.77074],[-3.047712,52.76751],[-3.040069,52.76943],[-3.034011,52.76751],[-3.037182,52.76491],[-3.026937,52.767],[-3.02649,52.76594],[-3.017225,52.76798],[-3.010696,52.75902],[-3.014358,52.7535],[-3.02145,52.75222],[-3.016931,52.749],[-3.010581,52.75081],[-2.990834,52.7419],[-2.993224,52.74078],[-2.992529,52.73912],[-2.997447,52.73825],[-2.988379,52.73327],[-2.973598,52.73611],[-2.965409,52.73211],[-2.96617,52.72899],[-2.964953,52.72843],[-2.966582,52.72762],[-2.966582,52.72558],[-2.962225,52.72547],[-2.961754,52.71694],[-2.968348,52.71437],[-2.978535,52.71618],[-2.977671,52.72638],[-2.996875,52.72436],[-3.000282,52.72344],[-3.002393,52.72378],[-3.017953,52.72215],[-3.018267,52.72403],[-3.020622,52.72443],[-3.020223,52.72117],[-3.025419,52.71586],[-3.021525,52.70968],[-3.025772,52.70327],[-3.030411,52.70216],[-3.033869,52.69387],[-3.046847,52.69117],[-3.043017,52.68683],[-3.046191,52.67566],[-3.039581,52.67525],[-3.042733,52.67338],[-3.049692,52.65809],[-3.045622,52.65605],[-3.050984,52.65319],[-3.051881,52.64777],[-3.083281,52.64091],[-3.059511,52.63083],[-3.074305,52.6271],[-3.072312,52.62578],[-3.078631,52.62351],[-3.083282,52.6152],[-3.093143,52.60952],[-3.089824,52.59977],[-3.116997,52.58666],[-3.140102,52.58514],[-3.137358,52.57314],[-3.128041,52.56634],[-3.111898,52.54134],[-3.117261,52.54013],[-3.117605,52.53844],[-3.136971,52.53297],[-3.135506,52.52879],[-3.082841,52.53609],[-3.081547,52.53826],[-3.094338,52.54503],[-3.086352,52.54855],[-3.087706,52.55123],[-3.05939,52.55621],[-3.039266,52.57036],[-3.006226,52.57363],[-2.997646,52.5641],[-2.999639,52.55506],[-2.994317,52.55255],[-3.00148,52.53772],[-3.003804,52.5278],[-3.000905,52.52397],[-3.004617,52.5198],[-3.032169,52.52356],[-3.030753,52.51961],[-3.036505,52.51107],[-3.031815,52.50949],[-3.03447,52.50479],[-3.029514,52.50164],[-3.106968,52.49913],[-3.137539888748157,52.48862463535245],[-3.140685,52.48847],[-3.14900115373812,52.48468622091448],[-3.181147,52.47364],[-3.196802,52.47569],[-3.2335,52.4516],[-3.235577,52.44353],[-3.233669,52.43954],[-3.228806,52.43945],[-3.230846,52.43118],[-3.213478,52.41926],[-3.188234,52.413],[-3.188258,52.41199],[-3.16056,52.39995],[-3.160744,52.39156],[-3.157481,52.39122],[-3.154719,52.38764],[-3.112055,52.37717],[-3.10092,52.36771],[-3.099705,52.36872],[-3.065911,52.3533],[-3.065489,52.35002],[-3.0562958908491225,52.35041543877696],[-3.039681,52.34734],[-3.006109572379977,52.352574187908495],[-2.97273,52.35401],[-2.970622,52.35142],[-2.9519479078036683,52.350692081842034],[-2.952423244982629,52.348734386165766],[-2.955006,52.34857],[-2.967049,52.33192],[-2.966751,52.32942],[-3.001161,52.3216],[-3.00367,52.30935],[-3.000221,52.30535],[-3.004479,52.29202],[-3.011818,52.28771],[-3.00954,52.28261],[-3.012711,52.27934],[-3.012072,52.27752],[-2.977336,52.27046],[-2.965983,52.27083],[-2.96664,52.26829],[-2.965085,52.26797],[-2.964595,52.26284],[-2.977609,52.25977],[-2.978176,52.26166],[-2.991597,52.26056],[-2.99976,52.26397],[-3.0258941041670813,52.256112108746855],[-3.035069,52.25389],[-3.0402189722861084,52.25180496834612],[-3.048151,52.24942],[-3.04538,52.24662],[-3.049587,52.24507],[-3.043945,52.24508],[-3.043561,52.23872],[-3.074383,52.23428],[-3.070522,52.22882],[-3.078185,52.21564],[-3.072079,52.21432],[-3.072449,52.21269],[-3.10191,52.20206],[-3.097793,52.19736],[-3.096661,52.18435],[-3.094859,52.18415],[-3.122178,52.16703],[-3.122526,52.16371],[-3.09722,52.15483],[-3.084115,52.16314],[-3.071946,52.15844],[-3.082353,52.14966],[-3.136469,52.13832],[-3.134746,52.13374],[-3.142889,52.12818],[-3.13683,52.12354],[-3.105787,52.11794],[-3.109643,52.11407],[-3.109457,52.11302],[-3.106273,52.10664],[-3.107417,52.10515],[-3.122428,52.1048],[-3.123715,52.10313],[-3.118568,52.08741],[-3.125816,52.07855],[-3.1156641315168057,52.0701106631466],[-3.115,52.06898],[-3.1119166980903743,52.066995389039796],[-3.091653,52.05015],[-3.093319,52.0492],[-3.086292,52.04073],[-3.099286,52.02295],[-3.0817161369733284,52.00666808076876],[-3.081401,52.00566],[-3.067088,51.99137],[-3.06555,51.98558],[-3.0475579549364036,51.97501383507732],[-3.008609,51.93892],[-3.008774,51.92905],[-3.005301,51.92576],[-2.976069,51.9268],[-2.973946,51.92192],[-2.976014,51.92103],[-2.971315,51.91358],[-2.97501,51.90961],[-2.972668,51.90804],[-2.972886,51.90628],[-2.951525,51.9069],[-2.951636,51.90811],[-2.88761,51.9279],[-2.889237,51.93244],[-2.879219,51.93051],[-2.877205,51.93035],[-2.876935,51.93007],[-2.855472,51.92594],[-2.854309,51.92384],[-2.847721,51.92363],[-2.845622,51.92149],[-2.86361,51.91624],[-2.862834,51.91438],[-2.854245,51.91349],[-2.853792,51.91552],[-2.847915,51.91689],[-2.846236,51.91566],[-2.842328,51.91791],[-2.83742,51.91341],[-2.835934,51.9061],[-2.818819,51.90394],[-2.814427,51.89797],[-2.770374,51.87834],[-2.77856,51.86834],[-2.778065,51.86463],[-2.7567034700040414,51.851530757796844],[-2.754587,51.84885],[-2.7515130544205686,51.84834790942991],[-2.741096,51.84196],[-2.741545,51.83886],[-2.73312,51.8391],[-2.732385,51.84075],[-2.726677,51.84036],[-2.71934,51.84844],[-2.717709,51.84753],[-2.717671,51.84287],[-2.707484,51.83943],[-2.70487,51.8453],[-2.69672,51.84413],[-2.693299,51.83418],[-2.687148,51.83314],[-2.686648,51.8366],[-2.65797,51.83125],[-2.657813,51.827],[-2.6569764022103484,51.82684175082179],[-2.661133,51.82531],[-2.661969,51.81314],[-2.662396,51.81308],[-2.673949,51.81158],[-2.680902,51.80362],[-2.678737,51.7998],[-2.678687,51.7993],[-2.678113,51.7987],[-2.675516,51.79411],[-2.683372,51.76825],[-2.677959,51.76363],[-2.677957,51.76363],[-2.671104,51.75777],[-2.671102,51.75777],[-2.666144,51.75354],[-2.674763,51.73822],[-2.689767,51.73072],[-2.681848,51.71246],[-2.671535,51.7054],[-2.683806,51.70598],[-2.684482,51.70479],[-2.68627,51.70017],[-2.67214,51.69228],[-2.674276,51.67878],[-2.669714,51.67718],[-2.669713,51.67718],[-2.660776,51.67405],[-2.66739,51.67334],[-2.667398,51.67333],[-2.684461,51.67147],[-2.685518,51.66977],[-2.689126,51.66329],[-2.685057,51.65874],[-2.683784,51.65754],[-2.67314,51.65818],[-2.68124,51.64735],[-2.682792,51.64528],[-2.675035,51.64403],[-2.675034,51.64403],[-2.670434,51.64329],[-2.671398,51.63315],[-2.659697,51.6221],[-2.665146,51.61616],[-2.668565,51.59474],[-2.700892,51.58381],[-2.705148,51.58054],[-2.711909,51.56972],[-2.7077383297055446,51.56858964089005],[-2.715875,51.53992]]]}}
