{"type":"Feature","properties":{"sourceId":"wielkopolskie"},"geometry":{"type":"Polygon","coordinates":[[[16.12024,53.03864],[16.29619,53.06878],[16.38544,53.18485],[16.48487,53.19351],[16.64084,53.2977],[16.45855,53.36851],[16.41188,53.45333],[16.4387,53.50818],[16.64334,53.51395],[16.69251,53.54375],[16.74481,53.64556],[16.868372863217186,53.67566810858619],[16.88616,53.61598],[16.92638,53.57722],[16.94682,53.53197],[16.98495,53.54177],[16.97819,53.52472],[16.99757,53.5066],[17.05698,53.50908],[17.09247,53.53058],[17.27229,53.52402],[17.3338,53.49045],[17.378533118465498,53.48349904216935],[17.37721,53.48083],[17.28828,53.4304],[17.2851,53.41147],[17.23935,53.38659],[17.25284,53.35352],[17.3296,53.33608],[17.38841,53.28017],[17.42004,53.26758],[17.40154,53.23894],[17.31207,53.22086],[17.31349,53.20405],[17.33072,53.19598],[17.32644,53.15003],[17.34885,53.14139],[17.3492,53.11555],[17.34651,53.09641],[17.31376,53.08152],[17.3241,53.03246],[17.29104,52.99458],[17.31218,52.96451],[17.39326,52.96924],[17.48204,52.93774],[17.49967,52.91953],[17.51356,52.86771],[17.49422,52.79894],[17.45192,52.80786],[17.40713,52.7953],[17.3936,52.75882],[17.4701,52.72195],[17.46273,52.67072],[17.52648,52.6621],[17.5897,52.69309],[17.62185,52.69405],[17.6211,52.64927],[17.6664,52.63339],[17.67436,52.59223],[17.7078,52.59391],[17.75573,52.62445],[17.80704,52.6348],[17.83955,52.61837],[17.87041,52.62011],[17.89698,52.60202],[17.89791,52.5751],[17.97503,52.5523],[17.98257,52.53336],[18.08586,52.54087],[18.0872,52.50987],[18.1875,52.49292],[18.20297,52.47243],[18.26328,52.47092],[18.34923,52.51152],[18.35606,52.53028],[18.37142,52.52559],[18.3652,52.50312],[18.38711,52.46018],[18.46737,52.46658],[18.49463,52.49175],[18.51872,52.4892],[18.55013,52.47223],[18.55689,52.45309],[18.63671,52.442],[18.67306,52.39212],[18.70845,52.38788],[18.75452,52.32112],[18.8095,52.33897],[18.85963,52.33839],[18.9118,52.35485],[18.93547,52.37741],[19.00783,52.32712],[19.023887880211678,52.32683946925851],[19.01913,52.32194],[19.02829,52.2918],[19.01863,52.26618],[19.08542,52.25427],[19.05866,52.22412],[18.99106,52.22716],[18.9161,52.20619],[18.89622,52.15466],[18.89988,52.12771],[18.9208,52.11275],[18.91452,52.09365],[18.86405,52.10028],[18.82643,52.07992],[18.78641,52.07452],[18.75353,52.0891],[18.70968,52.07503],[18.70282,51.96426],[18.74117,51.91975],[18.68724,51.87402],[18.67624,51.83879],[18.59691,51.86082],[18.52463,51.84972],[18.50453,51.86652],[18.46827,51.86297],[18.43158,51.83527],[18.42846,51.81394],[18.39723,51.79521],[18.41322,51.76785],[18.39167,51.75632],[18.3903,51.71423],[18.34512,51.67279],[18.35463,51.6461],[18.33769,51.62794],[18.33683,51.59772],[18.35804,51.58593],[18.34565,51.5352],[18.36631,51.51031],[18.36627,51.4843],[18.34184,51.4776],[18.32341,51.43544],[18.20846,51.46623],[18.17699,51.44721],[18.19241,51.42219],[18.1876,51.40361],[18.14455,51.40323],[18.12145,51.37202],[18.0966,51.37464],[18.06227,51.35305],[18.09699,51.30471],[18.09833,51.25389],[18.15456,51.25001],[18.16248,51.22723],[18.152245323558567,51.178644221771975],[18.10656,51.16439],[18.0757,51.17255],[18.06121,51.1492],[18.03814,51.13813],[17.88627,51.11175],[17.82538,51.12765],[17.85792,51.17058],[17.85196,51.18962],[17.83785,51.19854],[17.79556,51.2014],[17.793881906650782,51.2009687965824],[17.75679,51.25016],[17.77567,51.32104],[17.72799,51.37073],[17.76174,51.39146],[17.76492,51.41286],[17.72028,51.43435],[17.70184,51.4136],[17.63811,51.43555],[17.56143,51.4217],[17.534,51.48952],[17.58171,51.52231],[17.5834,51.57072],[17.50285,51.6267],[17.32681,51.65982],[17.25883,51.65499],[17.20734,51.63811],[17.19857,51.58577],[17.12992,51.57799],[17.10476,51.5875],[17.05265,51.56558],[16.97071,51.55877],[16.92909,51.56561],[16.89242,51.59191],[16.8288,51.58776],[16.78644,51.6227],[16.79482,51.63931],[16.7849,51.65295],[16.6542,51.67072],[16.68526,51.68488],[16.69073,51.7163],[16.65737,51.72984],[16.65197,51.75571],[16.59559,51.76183],[16.54198,51.79296],[16.425423618490825,51.79521697004305],[16.41331,51.84532],[16.35979,51.89278],[16.25179,51.91644],[16.21137,51.88614],[16.14798,51.90897],[16.13142,52.00489],[16.02154,51.99566],[15.9811,52.01869],[16.00514,52.02729],[16.01069,52.07],[15.94867,52.10235],[15.91384,52.0881],[15.86434,52.10409],[15.8975,52.1503],[15.87551,52.18228],[15.8704,52.25532],[15.90647,52.30806],[15.91514,52.38865],[15.86022,52.4186],[15.91321,52.45073],[15.84937,52.59335],[15.80068,52.65132],[15.82813,52.66349],[15.82257,52.69247],[15.90782,52.70016],[15.96108,52.72977],[15.94646,52.81156],[15.92946,52.81679],[15.99398,52.87212],[15.99399,52.93787],[15.96685,52.99552],[16.00012698614841,53.05500330093132],[16.12024,53.03864]]]}}
