{"type":"Feature","properties":{"sourceId":"western-australia"},"geometry":{"type":"Polygon","coordinates":[[[118.7155,-12.89804],[128.84079446277067,-12.978414487302974],[128.996,-14.87937],[128.9968,-26.00085],[128.99930377972657,-26.000849824828844],[129.0019,-29.84726],[129.0019,-30.76362],[129.0014,-31.74161],[129.0015,-31.74158],[129.1851,-35.30176],[129.52766704820095,-35.44411679234353],[130.32,-41.03913],[109.9281,-41.16427],[110.2898,-12.83116],[117.8529,-12.89119],[118.2557,-13.01165],[118.7155,-12.89804]]]}}
