{"type":"Feature","properties":{"sourceId":"wallis-et-futuna"},"geometry":{"type":"Polygon","coordinates":[[[-179.96390189769923,-12.914402216791071],[-179.3082,-12.48558],[-178.2737,-11.80311],[-177.7145,-10.8325],[-176.7863,-9.881183],[-176.757,-9.526444],[-176.7665,-9.158675],[-176.77274817037966,-9.110512466288066],[-174.1553,-10.70377],[-174.17020732646415,-11.003892301220503],[-174.2674,-10.96083],[-174.3658,-12.08371],[-174.5114,-14.15464],[-174.35294720493067,-14.257170658422913],[-177.25874533430684,-16.132635597679695],[-177.3628,-15.99002],[-177.3833,-15.91931],[-179.91991890506074,-13.970174243574538],[-179.96390189769923,-12.914402216791071]]]}}
