{"type":"Feature","properties":{"sourceId":"wiltshire"},"geometry":{"type":"Polygon","coordinates":[[[-2.341281,51.13474],[-2.324458,51.1425],[-2.321368,51.15305],[-2.304545,51.16317],[-2.295276,51.17759],[-2.275363,51.18835],[-2.26266,51.20664],[-2.257167,51.23696],[-2.248584,51.24685],[-2.24927,51.25651],[-2.242747,51.26253],[-2.242404,51.27628],[-2.25133,51.28208],[-2.253047,51.29131],[-2.261973,51.29024],[-2.27605,51.29281],[-2.279139,51.29839],[-2.270213,51.30827],[-2.274766,51.32377],[-2.295966,51.34007],[-2.326951,51.3435],[-2.334504,51.34715],[-2.305923,51.36076],[-2.294078,51.36366],[-2.289014,51.37737],[-2.299915,51.38964],[-2.284637,51.39446],[-2.285753,51.4064],[-2.278972,51.42037],[-2.288413,51.42824],[-2.2899248710670674,51.439292906001164],[-2.288575,51.44297],[-2.287267058823335,51.45008424557447],[-2.287212,51.45023],[-2.287233739041013,51.4502654808763],[-2.286492,51.4543],[-2.283929,51.45761],[-2.285148,51.45922],[-2.291374,51.45935],[-2.293312,51.46171],[-2.289709,51.47549],[-2.287653,51.47791],[-2.28938,51.48729],[-2.2919873618446935,51.48805637573601],[-2.292104,51.48862],[-2.2938223640055315,51.488595733606275],[-2.295572,51.48911],[-2.2985148218515237,51.48852946765258],[-2.303434,51.48846],[-2.304296588555672,51.487984293705985],[-2.310377,51.48952],[-2.316281,51.4935],[-2.317587,51.49749],[-2.3125439897882063,51.501208801911936],[-2.263608,51.51282],[-2.249704,51.51993],[-2.242408,51.52783],[-2.260089,51.53595],[-2.2617472092005593,51.53824648669236],[-2.260539,51.54509],[-2.264809714722813,51.54837516517139],[-2.265063,51.55741],[-2.26626441823417,51.55777778109209],[-2.266512,51.55993],[-2.264567,51.56479],[-2.259055,51.57],[-2.268901,51.5742],[-2.269765,51.5761],[-2.265662,51.57987],[-2.244277,51.57853],[-2.241381294059872,51.583987255555684],[-2.237254,51.58457],[-2.226611,51.59054],[-2.213221,51.59268],[-2.2078042991349482,51.595718401218114],[-2.207085,51.59303],[-2.190027,51.5895],[-2.178724,51.59464],[-2.1669282042415206,51.59164223023855],[-2.164126,51.5899],[-2.1613843196740397,51.59023331388754],[-2.15118,51.58764],[-2.056593,51.66904],[-2.037602,51.65894],[-2.036565,51.65826],[-2.03551,51.65782],[-2.01587,51.64737],[-2.0052664559803035,51.647916828117154],[-1.998644,51.64576],[-1.993501958259909,51.64623154336812],[-1.978047,51.63513],[-1.952332,51.6338],[-1.947619,51.63775],[-1.9504818383146272,51.643135086295594],[-1.948519,51.65044],[-1.953669,51.65939],[-1.9523335272262383,51.66063288829367],[-1.9455310127907726,51.665695315529604],[-1.9409292951322392,51.665388949223406],[-1.922005,51.65445],[-1.895694638350376,51.64773601964915],[-1.893931,51.64676],[-1.893774328008204,51.647245987392026],[-1.888343,51.64586],[-1.87512,51.64898],[-1.873442,51.65389],[-1.8871365483702867,51.66740756580765],[-1.889811,51.67359],[-1.8780300812769932,51.67893811527707],[-1.85196,51.65333],[-1.843021,51.655],[-1.840524,51.6549],[-1.8367417554687215,51.65601456743699],[-1.826297,51.65719],[-1.8231340202004427,51.658705952187795],[-1.813626,51.66048],[-1.814413,51.6626],[-1.814352,51.66262],[-1.8160294009177245,51.66747188808592],[-1.810847,51.68019],[-1.8115771158919107,51.68373779615438],[-1.809465,51.6864],[-1.810209,51.68735],[-1.807856,51.68855],[-1.807129,51.68827],[-1.796641,51.67245],[-1.796525,51.67224],[-1.796473,51.67219],[-1.792606,51.66636],[-1.789697,51.66615],[-1.789672,51.66613],[-1.789562,51.66614],[-1.771744,51.66487],[-1.766101,51.65957],[-1.754032,51.66161],[-1.748492,51.66181],[-1.745265,51.66309],[-1.728701,51.66589],[-1.727455,51.66591],[-1.725735,51.66638],[-1.709655,51.6691],[-1.705812,51.6803],[-1.7010598540785762,51.683978009077],[-1.697551,51.68147],[-1.705104,51.67913],[-1.706477,51.67636],[-1.700297,51.67253],[-1.699241204193614,51.67143832763709],[-1.700093,51.6698],[-1.697155853167194,51.66928211516802],[-1.694117,51.66614],[-1.693431,51.66188],[-1.698581,51.65741],[-1.698237,51.65549],[-1.693774,51.65506],[-1.690684,51.65528],[-1.6904222202174912,51.655214402502054],[-1.694307,51.65188],[-1.687527,51.65182],[-1.67491,51.64154],[-1.6667271212200727,51.6419585219304],[-1.664935,51.64037],[-1.664935,51.63717],[-1.666652,51.6344],[-1.676608,51.62737],[-1.676951,51.62481],[-1.675921,51.62225],[-1.672488,51.62012],[-1.672488,51.61841],[-1.679355,51.615],[-1.685534,51.61586],[-1.694804,51.60797],[-1.692058,51.60328],[-1.692744,51.5892],[-1.702701,51.58259],[-1.6805610781982045,51.57350879615012],[-1.676442,51.56945],[-1.673230210176296,51.57050187013207],[-1.669398,51.56893],[-1.6510607662798884,51.57357884829195],[-1.646191,51.56993],[-1.646792,51.56935],[-1.633145,51.55264],[-1.631943,51.55312],[-1.628853,51.5496],[-1.629282,51.54918],[-1.624733,51.54603],[-1.625163,51.54544],[-1.622931,51.54416],[-1.623617,51.54341],[-1.607739,51.52868],[-1.60422,51.5205],[-1.602847,51.5204],[-1.602417,51.51821],[-1.597903356248754,51.519867807458574],[-1.595241,51.5179],[-1.587687,51.52132],[-1.586886133884623,51.52121335116233],[-1.589073,51.51387],[-1.587098,51.50303],[-1.583578,51.49981],[-1.584391,51.49578],[-1.583103,51.49351],[-1.571329,51.48541],[-1.567642,51.47634],[-1.562569,51.47543],[-1.559153,51.46793],[-1.551642,51.4647],[-1.549485,51.4603],[-1.546176,51.45808],[-1.530241,51.45444],[-1.525953,51.44991],[-1.525046,51.44132],[-1.53303,51.42979],[-1.530254,51.42766],[-1.530468,51.42619],[-1.539586,51.42712],[-1.54637,51.42373],[-1.560084,51.42143],[-1.565617,51.42293],[-1.572139,51.41572],[-1.56413,51.41212],[-1.56264,51.40733],[-1.5560123610812002,51.407893857704394],[-1.5554355044964343,51.40764801050132],[-1.554708,51.40149],[-1.557259,51.39761],[-1.556044,51.39468],[-1.550467,51.39369],[-1.547005,51.38971],[-1.5402637925234632,51.38787651573886],[-1.5398293462367705,51.387183190905525],[-1.538974,51.38478],[-1.538073686426468,51.38438136572564],[-1.536876,51.38247],[-1.5294470158593325,51.380272025157474],[-1.528107,51.37793],[-1.5210466136164094,51.37778664190084],[-1.5156447274655436,51.376188413982064],[-1.515101,51.37568],[-1.513993,51.37123],[-1.501418991710357,51.36858308839177],[-1.4985896204684537,51.36671973225026],[-1.500305,51.36349],[-1.501411,51.35565],[-1.4890420180567665,51.34875161654367],[-1.4930937167610698,51.340186127573226],[-1.498481,51.3336],[-1.4989371794856925,51.33088564237871],[-1.514216,51.33745],[-1.524173,51.33809],[-1.529323,51.32694],[-1.527949,51.31578],[-1.520739,51.30891],[-1.519023,51.28981],[-1.534816,51.28036],[-1.538249,51.26232],[-1.530696,51.25694],[-1.534472,51.24964],[-1.544085,51.24491],[-1.580572,51.25566],[-1.582955,51.255],[-1.584851,51.255],[-1.58634,51.25424],[-1.590356,51.25325],[-1.600825,51.25376],[-1.601953,51.25306],[-1.603778,51.25151],[-1.606475,51.25228],[-1.606917,51.25066],[-1.608542,51.24865],[-1.610392,51.24693],[-1.611114,51.2454],[-1.610843,51.24427],[-1.610121,51.24292],[-1.613641,51.24162],[-1.61513,51.24153],[-1.616754,51.24207],[-1.619597,51.24136],[-1.620139,51.23947],[-1.621718,51.23936],[-1.621312,51.23758],[-1.621718,51.23566],[-1.624423,51.23244],[-1.647426,51.23524],[-1.667682,51.23438],[-1.692744,51.23739],[-1.699267,51.23266],[-1.694117,51.22449],[-1.691371,51.20341],[-1.682788,51.19481],[-1.663218,51.16295],[-1.657382,51.15585],[-1.654979,51.14896],[-1.658755,51.12936],[-1.628886,51.12009],[-1.627513,51.11341],[-1.630259,51.10522],[-1.631289,51.09013],[-1.627513,51.08215],[-1.62781,51.07759],[-1.627896,51.07748],[-1.627856,51.061],[-1.631976,51.04115],[-1.630603,51.03597],[-1.600047,51.0228],[-1.601077,51.01956],[-1.594554,51.01027],[-1.618586,51.00249],[-1.621676,50.99774],[-1.622706,50.99255],[-1.62202,50.98974],[-1.61584,50.9824],[-1.604167,50.97786],[-1.614123,50.95818],[-1.635905,50.95892],[-1.639529,50.95688],[-1.64143,50.95344],[-1.655322,50.94823],[-1.717463,50.97786],[-1.73463,50.97613],[-1.802607,50.99082],[-1.812564,50.98758],[-1.836255,51.00833],[-1.845523,51.00638],[-1.869899,50.98434],[-1.874705,50.99147],[-1.875735,51.00098],[-1.883975,51.00055],[-1.886722,50.99731],[-1.92071,50.99601],[-1.951665,50.98585],[-1.962253,50.99147],[-1.980792,50.98304],[-1.985255,50.97742],[-2.03641,50.96899],[-2.060443,50.9597],[-2.069026,50.95256],[-2.086192,50.9504],[-2.100268,50.9465],[-2.108851,50.95515],[-2.124301,50.96445],[-2.124301,50.97764],[-2.145587,50.98477],[-2.185756,51.01934],[-2.187816,51.02949],[-2.194682,51.04201],[-2.224551,51.05971],[-2.236568,51.07201],[-2.242404,51.07352],[-2.250987,51.07028],[-2.298366,51.07546],[-2.314845,51.08042],[-2.342311,51.07287],[-2.341281,51.08258],[-2.363253,51.1175],[-2.346431,51.12117],[-2.342311,51.1272],[-2.341281,51.13474]]]}}
