{"type":"Feature","properties":{"sourceId":"warminsko-mazurskie"},"geometry":{"type":"MultiPolygon","coordinates":[[[[21.46214,53.4524],[21.44273,53.41958],[21.29541,53.39403],[21.26908,53.40895],[21.06215,53.321],[20.94193,53.34173],[20.93523,53.30804],[20.85622,53.27872],[20.76057,53.2991],[20.59572,53.21934],[20.52335,53.20832],[20.45654,53.22566],[20.37266,53.1579],[20.35997,53.13392],[20.3106,53.12575],[20.17748,53.13923],[20.14223,53.12657],[20.09725,53.15207],[19.97798,53.12954],[19.898,53.16586],[19.89639,53.19462],[19.85128,53.17441],[19.84892,53.12857],[19.75778,53.13761],[19.75656190845749,53.14065305862516],[19.77239,53.15179],[19.75243,53.23435],[19.70143,53.24871],[19.74181,53.26913],[19.7258,53.30943],[19.69948,53.31861],[19.69481,53.34539],[19.63863,53.35503],[19.53987,53.34249],[19.52663,53.3817],[19.45527,53.37407],[19.37489,53.42293],[19.31121,53.42251],[19.28728,53.40344],[19.26621,53.40684],[19.25592,53.46039],[19.20943,53.50955],[19.23113,53.52784],[19.20658,53.57846],[19.11840689518738,53.60109744453878],[19.11998,53.61834],[19.19725,53.6562],[19.19811,53.69678],[19.28361,53.75611],[19.31446,53.82594],[19.46816,53.80283],[19.46682,53.82399],[19.54139,53.9065],[19.5417,53.93023],[19.36744,53.9223],[19.35975,53.98947],[19.31338,54.01051],[19.26444,54.00428],[19.24605,54.04358],[19.20824,54.06214],[19.22442,54.0963],[19.20273,54.11701],[19.23876,54.17948],[19.3052,54.20567],[19.2415,54.2618],[19.25212,54.29509],[19.62248,54.40688],[19.62416230390201,54.463313172638216],[19.647,54.45231],[19.72929,54.44566],[19.81214,54.44127],[20.00725,54.42375],[20.06933,54.42113],[20.22098,54.40776],[20.33225,54.40006],[20.36127,54.39483],[20.40402,54.3918],[20.48952,54.38191],[20.58423,54.37691],[20.61685,54.37153],[20.63116,54.36532],[20.64841,54.37019],[20.69266,54.37112],[20.71735,54.36815],[20.74066,54.36829],[20.81841,54.35901],[20.8484,54.35969],[20.92585,54.35543],[20.951,54.35611],[20.958,54.35369],[21.00708,54.35256],[21.03805,54.3476],[21.09871,54.34575],[21.14291,54.34155],[21.16386,54.33633],[21.19675,54.33678],[21.26129,54.32814],[21.27463,54.32744],[21.30276,54.33252],[21.32359,54.32834],[21.37934,54.33005],[21.39351,54.32691],[21.41422,54.32522],[21.43377,54.32585],[21.43673,54.32514],[21.44632,54.31723],[21.49571,54.32301],[21.53041,54.32447],[21.55115,54.3241],[21.55335,54.32186],[21.57022,54.32104],[21.57408,54.32432],[21.57929,54.32462],[21.63531,54.32641],[21.67714,54.32586],[21.7967,54.33078],[21.85088,54.33028],[21.91361,54.3327],[21.96982,54.33168],[22.01005,54.33521],[22.17963,54.33624],[22.22489,54.34267],[22.22889,54.3396],[22.23182,54.3393],[22.23854,54.34071],[22.31617,54.33958],[22.31866,54.33968],[22.32097,54.34224],[22.32853,54.34346],[22.33089,54.34231],[22.3826,54.34368],[22.4216,54.34742],[22.43415,54.34532],[22.44713,54.34768],[22.52506,54.34814],[22.52981,54.34834],[22.57153,54.35287],[22.59651,54.35259],[22.61644,54.35466],[22.64042,54.35287],[22.64432,54.35303],[22.66079,54.35462],[22.68078,54.35924],[22.78428255570971,54.362181046088196],[22.79115,54.34831],[22.77928,54.34195],[22.77248,54.33278],[22.77993,54.3188],[22.77636,54.31455],[22.77376,54.30227],[22.76859,54.30105],[22.75018,54.30687],[22.73927,54.2986],[22.69283,54.285],[22.64273,54.29629],[22.60885,54.26998],[22.5738,54.27571],[22.5688,54.26696],[22.5564,54.25987],[22.52738,54.25693],[22.51799,54.23639],[22.47054,54.20349],[22.48098,54.18704],[22.4927,54.18381],[22.49703,54.17437],[22.5088,54.16487],[22.5131,54.15522],[22.52632,54.1514],[22.54163,54.13111],[22.58094,54.13293],[22.58673,54.13541],[22.59532,54.12894],[22.60198,54.11835],[22.61395,54.10679],[22.62422,54.10209],[22.61681,54.09558],[22.60651,54.09326],[22.59658,54.08699],[22.59488,54.07662],[22.58812,54.06836],[22.59279,54.04748],[22.62674,54.03847],[22.66136,54.0229],[22.66807,54.00693],[22.68503,53.99009],[22.68472,53.97775],[22.69103,53.96667],[22.70002,53.96122],[22.71164,53.94838],[22.74219,53.93781],[22.76965,53.91709],[22.76631,53.89686],[22.77425,53.88132],[22.77129,53.87219],[22.75538,53.86205],[22.74761,53.85355],[22.71986,53.83874],[22.71571,53.8243],[22.71413,53.80199],[22.69697,53.7742],[22.69172,53.7698],[22.6782,53.76566],[22.64952,53.76439],[22.64553,53.76208],[22.62592,53.76556],[22.61642,53.7563],[22.61385,53.74196],[22.60222,53.72762],[22.59388,53.73157],[22.58282,53.74298],[22.55787,53.72754],[22.51136,53.70667],[22.49035,53.70916],[22.46389,53.70693],[22.45677,53.69104],[22.46011,53.67935],[22.45756,53.6737],[22.45325,53.67379],[22.45037,53.67905],[22.44002,53.68554],[22.41869,53.68913],[22.39923,53.67707],[22.35505,53.66312],[22.32796,53.64301],[22.27736,53.62971],[22.2643,53.61697],[22.22985,53.60109],[22.22068,53.5926],[22.17299,53.56693],[22.10018,53.54241],[22.07671,53.54475],[22.0517,53.53625],[22.04429,53.53124],[22.03898,53.5203],[22.02648,53.50687],[22.02355,53.50777],[22.01558,53.52004],[21.99034,53.53093],[21.95233,53.51931],[21.93276,53.51988],[21.91655,53.51479],[21.91209,53.50901],[21.89589,53.49959],[21.89263,53.48436],[21.88458,53.47348],[21.85921,53.46831],[21.82447,53.47508],[21.79193,53.48782],[21.75475,53.49193],[21.73141,53.49772],[21.68883,53.50161],[21.64531,53.49005],[21.59065,53.48444],[21.59059,53.47249],[21.588003130168822,53.466014115422624],[21.46214,53.4524]]],[[[22.78781,54.3797],[22.78308,54.37938],[22.78308,54.37455432960894],[22.777058307565635,54.37897808690011],[22.78781,54.3797]]]]}}
