{"type":"Feature","properties":{"sourceId":"west-sussex"},"geometry":{"type":"Polygon","coordinates":[[[-0.943127,50.79859],[-0.948127,50.82207],[-0.946881,50.82871],[-0.937799,50.84335],[-0.933991,50.84486],[-0.934417,50.85525],[-0.929072,50.86429],[-0.938754,50.87],[-0.941002,50.8753],[-0.954488,50.88713],[-0.956244,50.89223],[-0.949364,50.9088],[-0.941811,50.919],[-0.926979,50.92514],[-0.935927,50.93957],[-0.942761,50.9432],[-0.93295,50.94749],[-0.929261,50.95352],[-0.930717,50.95922],[-0.919095,50.96922],[-0.917288,50.97239],[-0.919702,50.97906],[-0.909184,50.99512],[-0.902695,51.00183],[-0.895098,51.00444],[-0.899256,51.00967],[-0.898688,51.02258],[-0.882176,51.02924],[-0.852978,51.04729],[-0.849101,51.06324],[-0.837707,51.07101],[-0.827986,51.06957],[-0.825781,51.06359],[-0.818483,51.06293],[-0.81446,51.06858],[-0.810642,51.06516],[-0.800416,51.06541],[-0.785422,51.07148],[-0.781323,51.08113],[-0.7581006168471845,51.08684165953737],[-0.757633,51.08584],[-0.733345,51.08174],[-0.723396,51.07627],[-0.707475,51.07714],[-0.697703,51.0715],[-0.670789,51.07559],[-0.664282,51.0795],[-0.629379,51.08717],[-0.621513,51.08651],[-0.604393,51.0786],[-0.576576,51.08522],[-0.540362,51.08069],[-0.532361,51.08502],[-0.534123,51.09137],[-0.503895,51.08722],[-0.491799,51.0925],[-0.456372,51.09873],[-0.436881,51.09664],[-0.398479,51.10715],[-0.39202,51.11401],[-0.35913,51.11845],[-0.34385,51.11734],[-0.330291,51.1209],[-0.326326,51.12432],[-0.30092,51.12311],[-0.286894,51.12914],[-0.275406,51.1287],[-0.253847,51.13755],[-0.25385,51.14238],[-0.213718,51.14685],[-0.210187,51.14947],[-0.209784,51.15373],[-0.203273,51.15424],[-0.195337,51.16071],[-0.186255,51.16009],[-0.184906,51.16312],[-0.178385,51.16551],[-0.162728,51.1584],[-0.13604,51.15802],[-0.139239,51.14172],[-0.131322,51.13781],[-0.116307,51.13963],[-0.093452,51.13675],[-0.085071,51.14106],[-0.06362,51.13951],[-0.056366,51.13507],[-0.041772,51.13788],[-0.024603,51.13688],[-0.019607957549657024,51.138725115018445],[-0.016341,51.13825],[-0.014944354838413425,51.138479465122096],[-0.006769,51.13588],[0.02603455781066656,51.13785437525515],[0.023564,51.12291],[0.026919,51.11653],[0.037583,51.11123],[0.024571,51.10988],[0.017876,51.10555],[0.009038,51.11204],[0.003773,51.1041],[-0.011371,51.09815],[-0.021741,51.09842],[-0.027104,51.09452],[-0.037834,51.09403],[-0.033526,51.09071],[-0.02798,51.07382],[-0.015272,51.07237],[-0.016555,51.06868],[-0.012096,51.06437],[-0.009769,51.05525],[0.010685,51.0556],[-0.004241,51.04876],[-0.004077,51.04375],[-0.008682,51.04232],[-0.009616,51.03922],[-0.005875,51.03652],[-0.012712,51.03067],[-0.023409,51.02737],[-0.023783,51.01617],[-0.019391,51.014],[-0.021763,51.00918],[-0.021746,51.00297],[-0.019264,51.00109],[-0.022044,50.98579],[-0.025696,50.98161],[-0.035043,50.97922],[-0.036362,50.98145],[-0.04814,50.98171],[-0.062558,50.97967],[-0.066181,50.99042],[-0.07292,50.99197],[-0.084197,50.99086],[-0.086321,50.98948],[-0.094411,50.9814],[-0.108916,50.98058],[-0.116791,50.97533],[-0.116657,50.96699],[-0.111466,50.9673],[-0.109366,50.9648],[-0.106749,50.96397],[-0.108711,50.95982],[-0.108506,50.95711],[-0.106268,50.95284],[-0.105844,50.94382],[-0.118409,50.94556],[-0.121321,50.943],[-0.12188,50.93188],[-0.129872,50.91983],[-0.13244,50.91084],[-0.136786,50.87726],[-0.126022,50.87637],[-0.122014,50.87174],[-0.104785,50.87065],[-0.096617,50.87556],[-0.087548,50.87225],[-0.080423,50.85314],[-0.072965,50.84598],[-0.074086,50.83967],[-0.045881,50.84325],[-0.038941,50.84008],[-0.040688,50.82937],[-0.047151,50.82464],[-0.047347,50.8208],[-0.030488,50.81567],[-0.021122,50.8194],[-0.018473,50.81582],[-0.028857,50.80828],[-0.032704,50.80438],[-0.037037,50.80156],[-0.040372,50.79745],[-0.0403866684723388,50.79696720818085],[-0.125208,50.71599],[-0.933013,50.70685],[-0.934703,50.78407],[-0.943127,50.79859]]]}}
