{"type":"Feature","properties":{"sourceId":"western-zone"},"geometry":{"type":"Polygon","coordinates":[[[68.78952,24.37587],[70.10376,24.3058],[70.56587,24.44402],[70.61565,24.41058],[70.59677,24.25949],[70.64587,24.23476],[70.96687,24.379],[70.97854,24.6027],[70.98297393790803,24.611859750145985],[71.28479,24.59271],[71.54571,24.65076],[71.85196,24.59771],[71.93985,24.62205],[72.07581,24.64577],[72.20764,24.59209],[72.45758,24.39463],[72.73361,24.34897],[72.94922,24.31206],[73.02887,24.42965],[73.11126,24.31957],[73.03711,24.20439],[73.1868,24.03392],[73.2074,23.97873],[73.39004,24.01699],[73.34404,23.8896],[73.34129,23.79477],[73.35571,23.76524],[73.48618,23.62125],[73.52325,23.59545],[73.63243,23.61118],[73.61114,23.44687],[73.71689,23.39646],[73.8192,23.41978],[73.87962,23.32334],[74.15016,23.14162],[74.31221,23.04688],[74.29907002411505,23.054562081550998],[74.32388,22.95207],[74.3692,22.90085],[74.42963,22.81669],[74.36989,22.66091],[74.26277,22.65774],[74.0554,22.57217],[74.01489,22.52271],[74.04991,22.26813],[74.08424,22.00099],[74.14192,21.93158],[74.18655,21.91247],[74.30191,21.91948],[74.42001,21.96788],[74.49074,21.78947],[74.49623,21.71485],[74.56284,21.65615],[74.80179,21.59679],[75.04623,21.54762],[75.09498,21.44987],[75.26733,21.37892],[75.53787,21.35909],[75.95673,21.37124],[76.10573,21.31368],[76.14006,21.2017],[76.09955,21.1588],[76.16478,21.06528],[76.38588,21.06143],[76.63376,21.17545],[76.67702,21.2401],[76.7601,21.42175],[76.88438,21.58083],[77.08282,21.70337],[77.20024,21.68168],[77.46803,21.74547],[77.5264,21.6887],[77.55249,21.56039],[77.40211,21.5655],[77.4234,21.45435],[77.48245,21.36613],[77.61085,21.35142],[77.71111,21.34631],[77.90062,21.36613],[78.08533,21.42814],[78.38539,21.57189],[78.43071,21.4863],[78.71979,21.4486],[78.96217,21.47927],[79.13521,21.61084],[79.18259,21.63573],[79.45244,21.66764],[79.52866,21.52974],[79.66187,21.54634],[79.73808,21.58913],[79.82803,21.52846],[79.91592,21.50355],[79.99832,21.52079],[80.04364,21.54443],[80.07591,21.54698],[80.19676,21.61722],[80.30937,21.55209],[80.39863,21.44668],[80.38559,21.40449],[80.40413,21.36421],[80.64995,21.30089],[80.44807,21.17481],[80.43228,21.11269],[80.41443,21.01016],[80.45631,20.91655],[80.53322,20.91783],[80.54575,20.77136],[80.56,20.69639],[80.46043,20.627],[80.50095,20.57365],[80.59021,20.57815],[80.58197,20.38969],[80.60051,20.34334],[80.37872,20.25576],[80.38422,20.14073],[80.53253,20.10269],[80.51502,19.9669],[80.41237,19.96141],[80.40104,19.91913],[80.39555,19.78641],[80.55725,19.74667],[80.65784,19.60216],[80.84255,19.51546],[80.80788,19.43778],[80.74539,19.29786],[80.57236,19.42127],[80.43228,19.33188],[80.3128,19.15166],[80.25101,18.94006],[80.23041,18.73731],[80.2657817955515,18.6843280654981],[80.10407,18.67259],[79.95266,18.75974],[79.90219,18.82019],[79.85927,19.03389],[79.8452,19.09067],[79.85172,19.11825],[79.94133,19.29494],[79.96021,19.40508],[79.91283,19.48342],[79.85035,19.50867],[79.77447,19.58729],[79.74632,19.5944],[79.60419,19.49993],[79.46651,19.49928],[79.31168,19.56044],[79.25949,19.58146],[79.22859,19.46368],[79.1795,19.45235],[79.10397,19.52032],[79.03599,19.53779],[78.93299,19.54135],[78.93162,19.56141],[78.94741,19.64873],[78.84716,19.65229],[78.80218,19.75119],[78.70708,19.76153],[78.57903,19.81129],[78.48942,19.78673],[78.42007,19.81452],[78.37749,19.84035],[78.37921,19.7764],[78.31398,19.44005],[78.23502,19.41188],[78.18764,19.23336],[78.13614,19.21975],[78.05168,19.23272],[77.92259,19.28781],[77.91092,19.25346],[77.85942,19.08613],[77.78183,19.01084],[77.82577,18.98357],[77.86629,18.95175],[77.89307,18.91213],[77.91298,18.87608],[77.96448,18.85204],[77.94422,18.81564],[77.85736,18.79744],[77.85152,18.77047],[77.79213,18.67584],[77.75745,18.67227],[77.76398,18.58736],[77.74441,18.55058],[77.65686,18.52584],[77.61429,18.53821],[77.61498,18.49035],[77.60124,18.43988],[77.56485,18.42685],[77.56794,18.33628],[77.57996,18.30271],[77.55592,18.28315],[77.44915,18.25022],[77.421,18.29651],[77.35542,18.30564],[77.35062,18.32031],[77.38907,18.36919],[77.36813,18.39981],[77.32796,18.44151],[77.25895,18.37473],[77.21672,18.2825],[77.16042,18.21468],[77.12849,18.14846],[77.08969,18.14063],[76.97914,18.15075],[76.96266,18.04012],[76.92696,17.91047],[76.80405,17.82649],[76.73676,17.73266],[76.69281,17.67019],[76.5699,17.69833],[76.49746,17.65645],[76.42502,17.60018],[76.36631,17.58512],[76.42261,17.3549],[76.38828,17.3077],[76.17096,17.29689],[75.92892,17.3136],[75.79811,17.3608],[75.69202,17.40175],[75.61993,17.42108],[75.66765,17.27525],[75.68584,17.08304],[75.68207,16.94975],[75.63915,16.95172],[75.56911,16.96289],[75.48809,16.94121],[75.29343,16.94975],[75.29926,16.87946],[75.23438,16.83708],[75.17704,16.8397],[75.13069,16.87289],[75.02392,16.92282],[74.97139,16.92578],[74.96761,16.87913],[74.92744,16.76378],[74.84951,16.75688],[74.73724,16.71249],[74.71081,16.70888],[74.6933,16.60428],[74.63699,16.57204],[74.59167,16.55098],[74.56867,16.54735],[74.54773,16.56414],[74.50687,16.6158],[74.4128,16.57598],[74.38843,16.51675],[74.32491,16.54275],[74.34071,16.45881],[74.37332,16.40249],[74.36302,16.36396],[74.35478,16.31157],[74.47907,16.2539],[74.52164,16.23907],[74.52095,16.20215],[74.49898,16.10585],[74.48765,16.04746],[74.41555,15.85633],[74.39083,15.79258],[74.34792,15.7536],[74.32217,15.74963],[74.14364,15.71989],[74.25865,15.66006],[74.29333,15.53474],[74.29298,15.41364],[74.33315,15.3706],[74.34757,15.28849],[74.30843,15.04195],[74.25968,14.95739],[74.20338,14.92123],[74.16286,14.90663],[74.08218,14.88706],[70.24592,14.38929],[67.67457,23.79702],[68.78952,24.37587]]]}}
