{"type":"Feature","properties":{"sourceId":"warwickshire"},"geometry":{"type":"Polygon","coordinates":[[[-1.223369,52.30171],[-1.228043,52.29462],[-1.231561,52.29207],[-1.222755,52.28741],[-1.217726,52.27067],[-1.214898,52.26692],[-1.215039,52.26348],[-1.230463,52.25364],[-1.231543,52.25068],[-1.234947,52.24829],[-1.23918,52.24707],[-1.251712,52.24748],[-1.264543,52.24087],[-1.266381,52.23441],[-1.275567,52.23705],[-1.281124,52.237],[-1.277189,52.22957],[-1.271698,52.2279],[-1.275598,52.22479],[-1.274463,52.2227],[-1.260093,52.21652],[-1.256383,52.20896],[-1.253814,52.19926],[-1.254478,52.19699],[-1.262538,52.19496],[-1.279287,52.19475],[-1.281962,52.19079],[-1.312401,52.1891],[-1.316626,52.18426],[-1.317543,52.18068],[-1.322581,52.18059],[-1.330675,52.17346],[-1.333092,52.1587],[-1.337774,52.15772],[-1.341789,52.15396],[-1.340053,52.14473],[-1.348261,52.1408],[-1.347935,52.13454],[-1.362935,52.13381],[-1.365438,52.13521],[-1.382157,52.12671],[-1.385175,52.12685],[-1.38846,52.1213],[-1.391074,52.11993],[-1.390478,52.11782],[-1.374731,52.1193],[-1.370365,52.11838],[-1.368852,52.11336],[-1.36472,52.11215],[-1.358101,52.10553],[-1.357134,52.10057],[-1.374196,52.09851],[-1.377399,52.09509],[-1.385728,52.0932],[-1.388773,52.09683],[-1.402614,52.10481],[-1.405124,52.10947],[-1.418269,52.11599],[-1.425029,52.11726],[-1.44308,52.11425],[-1.44835,52.11509],[-1.451219,52.1134],[-1.447161,52.10556],[-1.446707,52.09677],[-1.467634,52.09607],[-1.476403,52.10014],[-1.479441,52.09279],[-1.483341,52.09265],[-1.48496,52.08699],[-1.487481,52.08651],[-1.492478,52.08175],[-1.489822,52.07663],[-1.492831,52.07399],[-1.500044,52.07197],[-1.499131,52.06969],[-1.501064,52.06713],[-1.496425,52.06142],[-1.496431,52.05858],[-1.506229,52.03618],[-1.509988,52.02119],[-1.52016,52.00566],[-1.521842,51.9967],[-1.524177,51.99255],[-1.528005,51.99076],[-1.54155,51.99541],[-1.554781,51.99074],[-1.555367,51.9894],[-1.548933,51.98152],[-1.549167,51.98002],[-1.580021,51.97212],[-1.592607,51.97415],[-1.593407,51.97293],[-1.59079,51.96997],[-1.596039,51.96391],[-1.613333,51.95471],[-1.617827,51.95667],[-1.627474,51.96713],[-1.638932,51.97436],[-1.669891,51.98843],[-1.670876,51.99284],[-1.665908,51.99842],[-1.643778,52.00998],[-1.643499,52.01578],[-1.639247,52.02129],[-1.628608,52.02818],[-1.620418,52.02886],[-1.619397,52.03328],[-1.626185,52.03671],[-1.632182,52.03491],[-1.639725,52.03599],[-1.645141,52.03325],[-1.654223,52.03414],[-1.656197,52.0312],[-1.664141,52.03032],[-1.668273,52.0352],[-1.687689,52.03652],[-1.694317,52.03859],[-1.695901,52.04273],[-1.692139,52.04858],[-1.691427,52.05275],[-1.700983,52.05407],[-1.706105,52.05937],[-1.703136,52.07159],[-1.709961,52.07188],[-1.711623,52.06869],[-1.710917,52.06624],[-1.712569,52.06557],[-1.729441,52.07081],[-1.731663,52.07345],[-1.72956,52.0799],[-1.729456,52.08757],[-1.731804,52.09352],[-1.73871,52.0904],[-1.747586,52.09243],[-1.754362,52.09706],[-1.760138,52.10543],[-1.76709,52.10906],[-1.7678165731354099,52.11098635031286],[-1.758654,52.11381],[-1.756496,52.11677],[-1.769287,52.11692],[-1.78038,52.12134],[-1.788869,52.121],[-1.791165,52.12279],[-1.791443,52.12572],[-1.78451,52.13141],[-1.785159,52.1333],[-1.808757,52.14117],[-1.820687,52.13995],[-1.822559,52.14205],[-1.82269,52.14696],[-1.834182,52.1501],[-1.839591,52.15393],[-1.85253,52.14901],[-1.851975,52.14325],[-1.855251,52.14059],[-1.862119,52.14393],[-1.866621,52.15417],[-1.890036,52.15748],[-1.896414,52.15044],[-1.891977,52.14465],[-1.892017,52.14183],[-1.89677,52.13837],[-1.900173,52.13811],[-1.904425,52.1437],[-1.914793,52.14705],[-1.921207,52.15401],[-1.936196,52.1558],[-1.937228,52.15955],[-1.933143,52.16467],[-1.933357,52.1681],[-1.940982,52.17422],[-1.93368,52.1923],[-1.934319,52.20311],[-1.928844,52.20699],[-1.91923,52.20941],[-1.916005,52.21918],[-1.916386,52.22443],[-1.923317,52.23629],[-1.922803,52.24062],[-1.932841,52.25141],[-1.933173,52.26476],[-1.937089,52.27232],[-1.933754,52.27511],[-1.914281,52.2741],[-1.902722,52.27861],[-1.898665,52.28194],[-1.894438,52.28167],[-1.885182,52.28609],[-1.884277,52.28999],[-1.874102,52.30377],[-1.873722,52.30969],[-1.869062,52.31206],[-1.865576,52.31773],[-1.866025,52.32908],[-1.863608,52.33304],[-1.872594,52.33882],[-1.874871,52.34566],[-1.882413,52.35314],[-1.884013,52.3584],[-1.882549,52.36056],[-1.873422,52.36389],[-1.8704743607238956,52.366761014234044],[-1.871423,52.36687],[-1.840697,52.36334],[-1.833875,52.36544],[-1.80843,52.36506],[-1.800577,52.35735],[-1.786109,52.3523],[-1.786274,52.34914],[-1.781307,52.34605],[-1.775021,52.3457],[-1.774022,52.34792],[-1.76914,52.35122],[-1.771799,52.35792],[-1.776082,52.35726],[-1.777316,52.35957],[-1.778185,52.36307],[-1.774773,52.36492],[-1.762089,52.3621],[-1.759837,52.35641],[-1.745042,52.35335],[-1.740397,52.35568],[-1.733558,52.36886],[-1.721134,52.37103],[-1.719225,52.36781],[-1.722192,52.3584],[-1.71929,52.35476],[-1.716312,52.3566],[-1.709736,52.35357],[-1.698281,52.35413],[-1.693062,52.34986],[-1.682711,52.35477],[-1.681305,52.36322],[-1.672586,52.36115],[-1.661084,52.36451],[-1.652135,52.35519],[-1.648012,52.35503],[-1.643532,52.36056],[-1.636335,52.36369],[-1.621289,52.36518],[-1.619466,52.36928],[-1.60683,52.3753],[-1.599476,52.38707],[-1.568631,52.3822],[-1.564659,52.37501],[-1.557202,52.37283],[-1.559973,52.36902],[-1.558842,52.36467],[-1.552895,52.36231],[-1.540811,52.36527],[-1.54304,52.36956],[-1.535455,52.37571],[-1.53244,52.37453],[-1.525256,52.37751],[-1.514107,52.36749],[-1.504283,52.37625],[-1.483719,52.37554],[-1.481211,52.37285],[-1.467603,52.37568],[-1.463532,52.37161],[-1.458813,52.37423],[-1.460544,52.37902],[-1.444575,52.38483],[-1.431176,52.39426],[-1.429452,52.40003],[-1.435902,52.40962],[-1.427929,52.42017],[-1.422524,52.43439],[-1.444084,52.44339],[-1.441503,52.44882],[-1.458431,52.45443],[-1.464658,52.45999],[-1.474212,52.45826],[-1.483996,52.46041],[-1.506152,52.45214],[-1.517543,52.45481],[-1.517883,52.45876],[-1.533949,52.46085],[-1.540513,52.46672],[-1.560886,52.45612],[-1.589481,52.46355],[-1.594957,52.46308],[-1.598332,52.45855],[-1.609825,52.4602],[-1.614426,52.46506],[-1.624771,52.4652],[-1.62862,52.46225],[-1.626998,52.4578],[-1.641722,52.44543],[-1.652687,52.4421],[-1.662462,52.44623],[-1.667521,52.43785],[-1.67501,52.43835],[-1.706561,52.46493],[-1.712225,52.48018],[-1.727325,52.48938],[-1.743753,52.51044],[-1.751641,52.51445],[-1.752399,52.51906],[-1.741547,52.51903],[-1.7372862019945094,52.52299041844246],[-1.732326,52.52438],[-1.731849,52.52566],[-1.739535,52.52788],[-1.74395,52.53127],[-1.7474125340467992,52.53104474757661],[-1.748807,52.53459],[-1.745017,52.54224],[-1.752044,52.54613],[-1.755042,52.5572],[-1.764528,52.55841],[-1.76571,52.56282],[-1.771397,52.56545],[-1.762969,52.56838],[-1.762902,52.57228],[-1.769179,52.57639],[-1.776441,52.57631],[-1.786133,52.58476],[-1.787252807695455,52.58910224334302],[-1.776538,52.59318],[-1.76863,52.5901],[-1.742124,52.59531],[-1.738488,52.59421],[-1.72318,52.58895],[-1.717756,52.59009],[-1.704039,52.59164],[-1.697369,52.59195],[-1.685896,52.59435],[-1.665873,52.59662],[-1.661448,52.59568],[-1.653359,52.59825],[-1.640826,52.60872],[-1.640837,52.61487],[-1.637596,52.61863],[-1.645091,52.62058],[-1.643698,52.62401],[-1.640519,52.62604],[-1.643483,52.63162],[-1.639814,52.63725],[-1.643366,52.64108],[-1.636868,52.64397],[-1.643478,52.65056],[-1.64574,52.65808],[-1.617224,52.66964],[-1.615971,52.67287],[-1.607113,52.67739],[-1.604861,52.67978],[-1.589663,52.68823],[-1.584138,52.68604],[-1.577227,52.67949],[-1.568448,52.6804],[-1.565682,52.67819],[-1.552324,52.66932],[-1.545698,52.66048],[-1.54156,52.65405],[-1.541973,52.64709],[-1.5465,52.6414],[-1.566843,52.63451],[-1.563611,52.63143],[-1.565517,52.62886],[-1.560708,52.62066],[-1.553469,52.61482],[-1.557898,52.598],[-1.555523,52.59509],[-1.548686,52.59375],[-1.537212,52.59051],[-1.526751,52.58363],[-1.524238,52.58056],[-1.524379,52.57523],[-1.519758,52.5705],[-1.458806,52.55287],[-1.426547,52.54153],[-1.418786,52.53874],[-1.415802,52.53542],[-1.306545,52.49502],[-1.26482,52.46142],[-1.242837,52.44096],[-1.239972,52.44075],[-1.201764,52.3987],[-1.17115,52.36123],[-1.173687,52.35951],[-1.17422,52.35563],[-1.17893,52.35345],[-1.186158,52.35307],[-1.191945,52.35007],[-1.19817,52.35175],[-1.210543,52.34782],[-1.219896,52.34871],[-1.224876,52.34586],[-1.233192,52.34552],[-1.257912,52.33615],[-1.261558,52.33346],[-1.262364,52.32905],[-1.247013,52.32299],[-1.222923,52.31954],[-1.208458,52.31581],[-1.211797,52.30976],[-1.219402,52.30484],[-1.220438,52.30249],[-1.223369,52.30171]]]}}
