{"type":"Feature","properties":{"sourceId":"xinjiang"},"geometry":{"type":"Polygon","coordinates":[[[80.08456,42.71187],[80.34051,43.13067],[80.6234,43.24699],[80.63966,43.46165],[80.30102,44.0759],[80.287,44.58868],[79.93427,44.71292],[79.80926,44.97931],[81.72638,45.47457],[82.48469,45.28478],[82.16033,45.63846],[82.96855,47.30111],[84.93988,47.00556],[85.47971,47.16149],[85.58785,47.37434],[85.42691,48.01515],[85.50767,48.25252],[85.75339,48.50885],[86.50327,48.61684],[86.63984,49.03985],[86.88711,49.2344],[87.85186,49.26201],[87.93551,48.8744],[88.69322,48.2781],[89.11067,48.08566],[89.61252,48.12709],[89.83385,47.93048],[90.07953,47.98288],[90.43278,47.73304],[91.1476,46.73244],[91.11655,45.98977],[90.76817,45.54643],[90.97423,45.31122],[93.52022,45.066],[94.76315,44.43989],[95.44358,44.38743],[95.44796,44.10426],[96.35333,42.97937],[96.42756816890898,42.73790955679104],[96.37732,42.7332],[95.91064,42.52677],[95.9436,42.41332],[96.07201,42.14661],[96.0878,41.99726],[95.99579,41.91965],[95.60165,41.8266],[95.26108,41.63803],[95.14023,41.78872],[94.87793,41.69958],[94.7406,41.58669],[94.52774,41.52195],[94.03473,41.18176],[93.77243,40.87614],[93.72024,40.69105],[92.90726,40.59519],[92.60101,39.49768],[92.40051,39.31411],[92.29907,39.20842],[92.33078286846259,39.06045801750444],[91.84,38.92],[91.23596,38.77015],[90.62382,38.68069],[90.46177,38.56374],[90.29869,38.50761],[90.10265,38.49122],[90.10437,38.45251],[90.09888,38.42428],[90.11158,38.40114],[90.16582,38.39388],[90.16342,38.39173],[90.16136,38.37235],[90.12051,38.34327],[90.22659,38.24249],[90.45387,38.19988],[90.49988,37.72619],[90.89,37.48],[91.05,37.44],[91.25862,37.06668],[90.8535,36.92959],[90.69,36.85],[90.68,36.59],[90.99,36.5],[90.98,36.32],[91.08421,36.15063],[91.09108,36.1046],[90.9668,36.12568],[90.9359,36.06464],[90.84457,36.02856],[90.79,36.13],[90.74638,36.13122],[90.44632,36.15617],[90.17235,36.2487],[90.00137,36.29355],[89.9,36.13],[89.72429435898742,36.10580154687394],[89.5,36.19],[89.22958,36.30959],[89.15474,36.27639],[88.92403,36.37596],[88.7709,36.35163],[88.60474,36.4605],[88.37,36.53],[87.98332,36.45387],[87.56447,36.36214],[87.4601,36.43731],[87.35847,36.44007],[87.29393,36.37817],[86.83937,36.32619],[86.59,36.26],[86.34,36.21],[86.16,36.15],[86.14,36.05],[86.09093,35.92965],[85.97969,35.84231],[85.68581,35.77437],[85.62744,35.73481],[85.56084,35.67571],[85.28137,35.80445],[85.02113,35.75933],[84.44092,35.5596],[84.38599,35.47074],[84.03168,35.43102],[83.50227,35.412],[83.43361,35.39185],[83.0381,35.49031],[82.96944,35.67794],[82.80189,35.70638],[82.73,35.68],[82.56775,35.72422],[82.42836,35.7231],[82.32124,35.66288],[82.30751,35.57748],[82.03079,35.45508],[81.99,35.36],[81.57898,35.25235],[81.4492,35.36666],[81.25557,35.34538],[81.09283,35.42151],[81.01456,35.41256],[81.02211,35.33922],[80.93903,35.35434],[80.73852,35.35098],[80.64239,35.41983],[80.53253,35.42151],[80.43709,35.46235],[80.36911,35.4092],[80.27641,35.3745],[80.20637,35.14406],[80.06699,35.08733],[80.01686,35.04742],[79.98734,34.87974],[79.89532,34.85382],[79.81361,34.5009],[79.701,34.50203],[79.64882,34.47203],[79.54102,34.48901],[79.41536,34.45562],[79.27528,34.44599],[79.14276,34.45335],[79.06105,34.43863],[79.0476004873633,34.432274534001316],[78.37472,34.70795],[78.11072,35.26918],[78.17734,35.55346],[77.46185,35.52776],[76.83838,35.73091],[76.82471651477134,35.7221321648531],[76.60766,35.95355],[75.83038,36.78069],[75.4129,36.97513],[74.81003,37.09024],[74.66858,37.10667],[74.55078078942505,37.07174413481382],[74.48748,37.13995],[74.5227,37.22374],[74.57739,37.21831],[74.66088,37.21743],[74.73818,37.26444],[74.79899,37.20079],[74.82869,37.19701],[74.8974,37.20793],[74.89779972435682,37.216871126768254],[75.13756,37.30902],[75.16571,37.40944],[75.00435,37.81738],[74.92538,38.03944],[74.81895,38.20689],[74.70772,38.44122],[74.1481,38.67961],[73.85902,38.69033],[73.89953,38.9466],[73.66848826911769,39.45436513374056],[73.90709,39.46429],[73.96271,39.60357],[73.93009,39.70573],[73.94005,39.88867],[74.1172,40.07702],[74.36096,40.08175],[74.93225,40.34131],[75.26184,40.44642],[75.38921,40.54603],[75.58868,40.59727],[75.66421,40.268],[75.94162,40.27848],[76.36322,40.32456],[76.59393,40.4668],[76.90704,40.98508],[77.85049,40.98094],[78.33389,41.36341],[79.82666,41.88183],[80.2771,42.0442],[80.18302,42.21835],[80.16243,42.29407],[80.05494741960175,42.38414696744386],[80.08456,42.71187]]]}}
