{"type":"Feature","properties":{"sourceId":"yukon"},"geometry":{"type":"Polygon","coordinates":[[[-141.0678,60.2442],[-141.2389,70.16293],[-136.6171,69.63799],[-136.5647,69.40448],[-136.4328,68.8852],[-136.069,67.30201],[-136.136,67.00779],[-133.7956,67.00689],[-133.5635,66.5581],[-133.5306,66.19823],[-133.5306,65.97053],[-133.1474,66.03476],[-132.9868,66.04591],[-132.5665,66.03643],[-132.2932,65.9968],[-132.1449,65.61579],[-132.2699,64.86061],[-131.1603,64.4503],[-130.0836,63.86125],[-129.7595,63.44805],[-129.9338,63.26116],[-129.5563,63.07114],[-129.6634,62.85013],[-129.1223,62.48695],[-128.5248,62.15114],[-127.1242,61.46633],[-126.5845,60.84357],[-125.8731,60.93177],[-124.5218,61.00375],[-123.8021,59.99918],[-139.0479,59.99739],[-139.2278,59.99885],[-139.3842,60.10331],[-141.0678,60.2442]]]}}
