{"type":"Feature","properties":{"sourceId":"yemen"},"geometry":{"type":"Polygon","coordinates":[[[51.41288,12.5236],[50.78018,14.04288],[45.53879,11.8347],[44.74279,11.74135],[43.844806935123195,12.249398769680635],[43.66618,12.53032],[43.64567,12.54943],[43.55261,12.57857],[43.35754,12.63498],[43.34527,12.73414],[43.31966335806171,12.794816464711365],[43.33233,12.80127],[43.14331,13.1455],[43.10032,13.21703],[43.03132,13.27856],[42.67812,13.57693],[42.5073,14.07373],[41.45437926824333,15.405728984398705],[41.06894,16.40953],[42.90788,16.43205],[42.93286,16.52594],[43.08744,16.56633],[43.11795,16.69759],[43.17949,16.70109],[43.21343,16.77812],[43.10904,16.89027],[43.16476,17.05839],[43.12541,17.11789],[43.1771,17.28086],[43.25973,17.32558],[43.20029,17.36933],[43.21281,17.49787],[43.34644,17.58861],[43.49251,17.57838],[43.69442,17.40523],[43.84977,17.37359],[43.94664,17.37114],[44.00735,17.43545],[44.10863,17.41538],[44.38414,17.46884],[45.21274,17.46731],[45.4164,17.36559],[46.10206,17.28399],[46.36879,17.26784],[46.7573,17.31598],[47.01754,16.98862],[47.16492,16.98425],[47.43812,17.14151],[47.57523,17.47342],[48.15458,18.18528],[49.0992,18.646],[50.77742,18.81689],[52.00886,19.03189],[52.80359,17.32035],[55.51167,12.03969],[52.17181,11.36768],[51.62645,12.54865],[51.41288,12.5236]]]}}
