{"type":"Feature","properties":{"sourceId":"yunnan"},"geometry":{"type":"Polygon","coordinates":[[[104.8727,23.08605],[104.8933,22.94448],[104.7395,22.79011],[104.3536,22.65584],[104.2383,22.74832],[104.1243,22.78378],[104.022,22.51065],[103.9609,22.50225],[103.9121,22.53222],[103.8647,22.56583],[103.8067,22.63097],[103.6498,22.73756],[103.5489,22.56456],[103.3635,22.73819],[103.2069,22.55569],[103.0751,22.39452],[102.518,22.61841],[102.3037,22.32139],[102.22658902446561,22.324004740716656],[102.139,22.45534],[102.0457,22.4842],[101.9128,22.46603],[101.883,22.41453],[101.7845,22.52825],[101.6609,22.499],[101.6211,22.33858],[101.5982,22.30078],[101.5503,22.29693],[101.5239,22.23436],[101.5941,22.01122],[101.5782,21.95716],[101.6713,21.90555],[101.7426,21.81259],[101.7201,21.7233],[101.7911,21.60991],[101.7265,21.59423],[101.7346,21.5209],[101.7091,21.48969],[101.7095,21.3125],[101.7939,21.2367],[101.7575,21.18435],[101.728,21.17436],[101.6739,21.2091],[101.6251,21.23727],[101.5476,21.26286],[101.3903,21.23278],[101.2914,21.1995],[101.2475,21.23023],[101.2557,21.29997],[101.1726,21.37672],[101.229,21.48794],[101.229,21.56267],[101.1358,21.58632],[101.1262,21.53553],[101.08034472467284,21.495616956508208],[101.0475,21.61566],[100.6062,21.35506],[100.2131,21.37188],[99.8991,21.66346],[99.86099,21.92686],[99.09953,22.07647],[99.36286,23.00384],[98.80597,23.12184],[98.5772,23.98438],[98.13813,23.99561],[97.64862,23.74522],[97.42851,23.9213],[97.6291,24.17514],[97.42864,24.43768],[97.62947,25.12518],[98.00009,25.40752],[98.10454,25.70339],[98.31319,25.68849],[98.54187,26.14558],[98.67111,26.62125],[98.58664,27.46956],[98.24229,27.45678],[98.05284,28.05519],[98.115,28.165],[98.15,28.18],[98.145,28.21],[98.16,28.23],[98.215,28.24],[98.24,28.255],[98.22,28.3],[98.185,28.33],[98.185,28.365],[98.285,28.415],[98.305,28.415],[98.32,28.405],[98.325,28.38],[98.345,28.355],[98.345,28.33],[98.38,28.3],[98.395,28.26],[98.395,28.2],[98.41,28.185],[98.415,28.125],[98.455,28.165],[98.495,28.17],[98.54,28.2],[98.585,28.205],[98.615,28.185],[98.635,28.215],[98.69,28.245],[98.695,28.315],[98.73,28.345],[98.69,28.415],[98.67,28.425],[98.66,28.465],[98.62,28.475],[98.6,28.5],[98.61,28.56],[98.6,28.625],[98.575,28.665],[98.585,28.705],[98.62,28.71],[98.65,28.73],[98.645,28.785],[98.625,28.815],[98.625,28.83],[98.645,28.845],[98.625,28.885],[98.63,28.925],[98.62461,28.94507],[98.61706,28.9697],[98.64727,28.98772],[98.695,28.985],[98.73,29.02],[98.765,29.03],[98.78,29.025],[98.815,28.995],[98.835,28.955],[98.86,28.825],[98.88,28.83],[98.9,28.825],[98.91,28.845],[98.95,28.85],[98.955,28.855],[98.925,28.865],[98.895,28.905],[98.905,28.995],[99.0,29.055],[98.99,29.08],[98.94,29.145],[98.945,29.2],[98.97,29.225],[99.01909,29.21031],[99.04346,29.2187],[99.08466,29.23159],[99.10973,29.23518],[99.12586,29.2181],[99.12414,29.19053],[99.12449,29.16685],[99.12826,29.06817],[99.13582,28.99373],[99.13616,28.95588],[99.13307,28.90871],[99.125,28.855],[99.125,28.805],[99.1238,28.78571],[99.135,28.765],[99.14097,28.73726],[99.15,28.705],[99.14577,28.68938],[99.165,28.66],[99.16775,28.64088],[99.18972,28.58452],[99.18423,28.57156],[99.18663,28.53024],[99.19556,28.49525],[99.18766,28.40378],[99.2292,28.35908],[99.2934,28.29985],[99.30791,28.24504],[99.30885,28.2323],[99.34224,28.22152],[99.38138,28.18613],[99.38541,28.24255],[99.40962,28.28655],[99.375,28.305],[99.39,28.355],[99.40842,28.40469],[99.38,28.46],[99.38644,28.5604],[99.52,28.7],[99.62,28.835],[99.68,28.84],[99.73251,28.86211],[99.73732,28.74358],[99.75,28.725],[99.79843,28.70685],[99.85405,28.6677],[99.89,28.63],[99.955,28.605],[99.98,28.575],[99.985,28.55],[100.0,28.54],[100.01,28.495],[100.0765,28.44515],[100.0834,28.42945],[100.0786,28.38657],[100.195,28.34],[100.2,28.31],[100.1625,28.28851],[100.191,28.25933],[100.1842,28.23816],[100.135,28.19],[100.05,28.17],[100.045,28.155],[100.106,28.04896],[100.1953,27.9653],[100.2,27.915],[100.24,27.895],[100.3217,27.87672],[100.325,27.825],[100.31,27.81],[100.325,27.76],[100.335,27.775],[100.355,27.78],[100.36,27.795],[100.39,27.845],[100.4,27.86],[100.4353,27.87732],[100.4816,27.87004],[100.5527,27.84211],[100.63,27.93],[100.675,27.94],[100.6894,27.92556],[100.72,27.895],[100.72,27.88],[100.7244,27.86275],[100.7223,27.84545],[100.7117,27.81236],[100.734,27.7914],[100.7388,27.78168],[100.7573,27.7753],[100.7793,27.75009],[100.7937,27.69447],[100.8435,27.68748],[100.87,27.615],[100.88,27.6],[100.9,27.59],[100.925,27.55],[100.9197,27.48056],[100.955,27.48],[101.0265,27.34493],[101.0316,27.3065],[101.044,27.26134],[101.075,27.22],[101.1134,27.21953],[101.1714,27.2067],[101.1755,27.1612],[101.175,27.135],[101.1597,27.11781],[101.165,27.045],[101.235,27.005],[101.25,26.98],[101.285,26.965],[101.275,26.93],[101.28,26.925],[101.335,26.905],[101.385,26.885],[101.42,26.83],[101.3935,26.80385],[101.3887,26.76768],[101.41,26.75],[101.43,26.76],[101.435,26.795],[101.445,26.805],[101.485,26.805],[101.53,26.78],[101.535,26.77],[101.525,26.74],[101.515,26.74],[101.515,26.725],[101.4696,26.69946],[101.4829,26.67599],[101.4721,26.63442],[101.4623,26.60771],[101.4393,26.59758],[101.4007,26.60388],[101.4048,26.5764],[101.4096,26.5549],[101.4385,26.54892],[101.469,26.5099],[101.5178,26.5056],[101.655,26.41],[101.6414,26.36542],[101.6675,26.35742],[101.67,26.33],[101.6647,26.3045],[101.615,26.3],[101.61,26.285],[101.6338,26.24169],[101.7039,26.25771],[101.7615,26.22075],[101.7924,26.17639],[101.8227,26.16838],[101.815,26.145],[101.815,26.13],[101.84,26.1],[101.8591,26.06789],[101.895,26.125],[101.92,26.135],[101.94,26.135],[101.96,26.11],[102.0238,26.11352],[102.09,26.09],[102.12,26.125],[102.14,26.135],[102.175,26.18],[102.195,26.18],[102.225,26.205],[102.225,26.225],[102.24,26.24],[102.305,26.25],[102.345,26.27],[102.3885,26.30388],[102.43,26.325],[102.49,26.35],[102.5313,26.35496],[102.5629,26.37711],[102.645,26.35],[102.725,26.29],[102.75,26.295],[102.775,26.32],[102.83,26.335],[102.85,26.355],[102.86,26.38],[102.875,26.39],[102.9277,26.34658],[102.98,26.35673],[102.965,26.405],[102.9771,26.40901],[102.975,26.45],[102.97,26.495],[102.995,26.51],[103.026,26.49408],[103.036,26.5076],[103.0463,26.52803],[103.0382,26.54846],[103.0152,26.58761],[103.0154,26.5962],[103.0219,26.60925],[103.0203,26.66618],[102.9989,26.67952],[103.0018,26.70866],[102.9948,26.72093],[102.9888,26.74132],[102.9778,26.77351],[102.9697,26.80599],[102.9476,26.83908],[102.8846,26.90584],[102.8811,26.96094],[102.8914,26.98542],[102.8873,27.0102],[102.8643,27.02732],[102.8729,27.04231],[102.8808,27.06249],[102.8935,27.09245],[102.9052,27.13034],[102.9,27.17311],[102.8973,27.19998],[102.8983,27.23754],[102.8822,27.24822],[102.8768,27.2959],[102.9385,27.42816],[102.9591,27.4178],[102.9848,27.37726],[103.0174,27.38823],[103.0524,27.41871],[103.0861,27.41018],[103.1084,27.41292],[103.1335,27.43273],[103.1372,27.46411],[103.1853,27.54024],[103.2028,27.55181],[103.2107,27.57372],[103.233,27.58559],[103.2756,27.57707],[103.2856,27.6008],[103.26,27.645],[103.32,27.685],[103.3638,27.71666],[103.3958,27.72639],[103.4068,27.73672],[103.4552,27.78715],[103.4744,27.80051],[103.5001,27.83604],[103.497,27.91798],[103.531,27.96014],[103.4926,27.9753],[103.4833,28.02865],[103.4428,28.01956],[103.4181,28.04805],[103.4229,28.07834],[103.45,28.09864],[103.4425,28.12377],[103.5046,28.15798],[103.5341,28.18794],[103.5688,28.23665],[103.5843,28.24088],[103.611,28.24814],[103.6303,28.2672],[103.6363,28.26772],[103.677,28.2424],[103.698,28.23819],[103.7082,28.20942],[103.7309,28.24421],[103.7652,28.24482],[103.7848,28.26659],[103.8102,28.27687],[103.829,28.29864],[103.8634,28.30982],[103.8586,28.334],[103.8462,28.35394],[103.8534,28.38687],[103.816,28.44937],[103.8129,28.48107],[103.7762,28.52451],[103.7823,28.53627],[103.7906,28.57005],[103.815,28.595],[103.81,28.62],[103.8225,28.64028],[103.828,28.66288],[103.8421,28.68276],[103.8671,28.67703],[103.8785,28.66589],[103.8874,28.6439],[103.9145,28.6451],[103.9392,28.63636],[103.955,28.61919],[104.0628,28.63576],[104.0972,28.62853],[104.1535,28.65535],[104.2465,28.67252],[104.2778,28.64299],[104.3008,28.64269],[104.3327,28.64872],[104.365,28.65685],[104.3722,28.65542],[104.388,28.64796],[104.4,28.64616],[104.4097,28.64126],[104.4184,28.6335],[104.4266,28.62815],[104.4147,28.59914],[104.3748,28.59658],[104.3586,28.56862],[104.3567,28.56063],[104.3547,28.55855],[104.3263,28.55569],[104.3253,28.54125],[104.2498,28.52904],[104.28,28.49],[104.2664,28.45088],[104.2709,28.40197],[104.295,28.355],[104.3114,28.32131],[104.3464,28.34729],[104.3715,28.34246],[104.3938,28.32735],[104.4127,28.2805],[104.4539,28.27868],[104.4621,28.25177],[104.4573,28.22062],[104.4099,28.18582],[104.4522,28.1831],[104.4707,28.17977],[104.4611,28.15949],[104.4494,28.14557],[104.455,28.11],[104.436,28.10439],[104.41,28.085],[104.3986,28.06713],[104.3832,28.05108],[104.3584,28.04259],[104.3612,28.01986],[104.4189,27.95347],[104.51,27.905],[104.551,27.89158],[104.562,27.87034],[104.5747,27.84818],[104.5926,27.8582],[104.625,27.875],[104.675,27.905],[104.7234,27.90979],[104.7557,27.90797],[104.7533,27.89219],[104.7697,27.8928],[104.8034,27.91677],[104.85,27.925],[104.87,27.935],[104.885,27.95],[104.88,27.965],[104.9273,27.99137],[104.9603,28.02047],[104.9627,28.04744],[104.95,28.065],[104.97,28.085],[105.0,28.09],[105.0468,28.10924],[105.1114,28.08591],[105.1838,28.07531],[105.2,28.015],[105.2411,28.01895],[105.295,27.98],[105.2813,27.92344],[105.249,27.90372],[105.2573,27.83756],[105.3132,27.82602],[105.3156,27.81145],[105.2854,27.79079],[105.2974,27.76376],[105.2919,27.7194],[105.30449272139101,27.712715507480794],[105.2961,27.70177],[105.2885,27.63776],[105.2991,27.61921],[105.2384,27.58559],[105.215,27.53],[105.2178,27.44431],[105.2241,27.4373],[105.1994,27.39631],[105.1718,27.41109],[105.1253,27.42572],[105.0676,27.42618],[105.025,27.40515],[104.9972,27.3768],[104.9575,27.36353],[104.9107,27.33563],[104.8928,27.31245],[104.8557,27.3062],[104.8592,27.33258],[104.8216,27.36338],[104.8027,27.36353],[104.7764,27.33182],[104.7536,27.3521],[104.7188,27.35271],[104.6532,27.33075],[104.6158,27.32252],[104.5785,27.33594],[104.5466,27.34082],[104.5219,27.40698],[104.3881,27.4766],[104.3313,27.46792],[104.3296,27.44004],[104.3021,27.41216],[104.2934,27.39189],[104.268,27.37588],[104.2594,27.35942],[104.2415,27.34432],[104.2407,27.31581],[104.1864,27.29674],[104.1708,27.27416],[104.1224,27.34585],[104.096,27.34646],[104.0692,27.35134],[104.0467,27.36628],[104.0289,27.3736],[104.0201,27.38396],[104.0215,27.39113],[104.0198,27.41002],[104.0163,27.43425],[103.9291,27.4507],[103.8699,27.33594],[103.8335,27.28179],[103.793,27.27004],[103.772,27.23448],[103.746,27.2209],[103.7235,27.18319],[103.7017,27.16746],[103.7,27.14195],[103.6572,27.13202],[103.6237,27.12591],[103.6153,27.10483],[103.6091,27.08389],[103.5982,27.06448],[103.6088,27.04017],[103.6236,27.02113],[103.6099,27.0128],[103.6134,27.00928],[103.6212,27.00859],[103.6502,27.02258],[103.6716,27.04858],[103.7022,27.04827],[103.7429,26.98802],[103.755,26.945],[103.76,26.8985],[103.7734,26.8815],[103.7705,26.87599],[103.7193,26.85731],[103.6965,26.82943],[103.7013,26.8014],[103.7101,26.7804],[103.7135,26.74806],[103.7528,26.71311],[103.7384,26.62598],[103.805,26.515],[104.0689,26.50791],[104.1126,26.62015],[104.1456,26.64117],[104.2204,26.62229],[104.2603,26.62015],[104.2687,26.6203],[104.2726,26.62429],[104.274,26.63426],[104.2872,26.63534],[104.3016,26.62552],[104.3033,26.61723],[104.3097,26.61431],[104.3433,26.61738],[104.3777,26.64669],[104.3923,26.6628],[104.4014,26.70866],[104.4144,26.70759],[104.4571,26.63518],[104.4553,26.60449],[104.4741,26.57625],[104.5298,26.58653],[104.5723,26.56535],[104.561,26.5397],[104.5667,26.52619],[104.5922,26.52204],[104.6135,26.50345],[104.6285,26.48317],[104.6283,26.45398],[104.6381,26.43937],[104.6589,26.43246],[104.6551,26.40801],[104.6592,26.39387],[104.6726,26.37419],[104.6558,26.36373],[104.6569,26.35211],[104.6573,26.34581],[104.6218,26.33681],[104.5874,26.32388],[104.5692,26.2928],[104.5514,26.27864],[104.5342,26.26048],[104.5401,26.22753],[104.4525,26.09379],[104.4326,25.95527],[104.395,25.9],[104.4206,25.87189],[104.3643,25.74424],[104.3293,25.773],[104.3145,25.75506],[104.3035,25.66257],[104.3124,25.62357],[104.3245,25.59943],[104.3595,25.57682],[104.4106,25.58147],[104.425,25.53408],[104.4103,25.49039],[104.4285,25.469],[104.46,25.475],[104.5191,25.52107],[104.539,25.51301],[104.5322,25.40514],[104.6187,25.36078],[104.6341,25.35985],[104.6345,25.29841],[104.6503,25.29034],[104.6692,25.28382],[104.6774,25.29313],[104.7025,25.28537],[104.7316,25.26891],[104.7536,25.26736],[104.7704,25.26954],[104.7845,25.25246],[104.8099,25.25494],[104.8182,25.2419],[104.8034,25.23786],[104.8075,25.17108],[104.7515,25.22265],[104.7279,25.21147],[104.7182,25.19966],[104.677,25.10114],[104.6589,25.07565],[104.6091,25.06508],[104.6194,25.05201],[104.6709,25.05512],[104.6922,25.01593],[104.6324,24.92381],[104.5844,24.89204],[104.5294,24.82039],[104.5368,24.78751],[104.54,24.78011],[104.5375,24.77388],[104.5318,24.76117],[104.5236054929302,24.738558961908296],[104.5177,24.73904],[104.5006,24.70473],[104.4939,24.66839],[104.4848,24.657],[104.4759,24.65747],[104.4681,24.65185],[104.4547,24.65139],[104.4419,24.64452],[104.4915,24.61175],[104.5,24.53],[104.585,24.375],[104.7279,24.30142],[104.725,24.43],[104.83,24.43],[104.895,24.415],[104.9318,24.40214],[104.9881,24.40339],[105.0224,24.42715],[105.0513,24.42902],[105.08,24.415],[105.0932,24.41089],[105.0973,24.36461],[105.1412,24.36399],[105.181,24.33459],[105.146,24.28953],[105.2133,24.18747],[105.1728,24.1762],[105.1687,24.13673],[105.1996,24.09035],[105.255,24.055],[105.2813,24.05273],[105.2971,24.07092],[105.2923,24.09975],[105.315,24.1],[105.4008,24.03392],[105.5154,24.00758],[105.5299,24.10916],[105.615,24.12545],[105.625,24.05],[105.655,24.025],[105.7056,24.05336],[105.77,24.055],[105.775,24.02],[105.8402,24.02702],[105.86,24.04],[105.905,24.035],[105.9171,24.10477],[105.9624,24.1079],[105.9885,24.1173],[106.0047,24.10069],[106.0421,24.08565],[106.0462,24.05054],[106.0757,24.0195],[106.075,23.985],[106.1252,23.95237],[106.1391,23.92327],[106.1496,23.90844],[106.1526,23.89667],[106.1576,23.88191],[106.1789,23.82916],[106.1537,23.82901],[106.1274,23.79697],[106.143,23.68493],[106.1118,23.60363],[106.1193,23.57846],[106.1156,23.54857],[106.0812,23.53692],[106.061,23.50355],[106.0297,23.49159],[106.0026,23.46671],[105.993,23.49977],[105.9346,23.51111],[105.8825,23.54101],[105.8251,23.53314],[105.8045,23.51363],[105.8076,23.47773],[105.7561,23.46955],[105.7324,23.4349],[105.6912,23.40623],[105.6641,23.41663],[105.6222,23.40434],[105.6627,23.35707],[105.5841,23.31924],[105.5584,23.29118],[105.5601,23.26122],[105.5213,23.24608],[105.5287,23.21879],[105.5429,23.19946],[105.534,23.18897],[105.4829081721261,23.134058783036505],[105.3342,23.29938],[104.8727,23.08605]]]}}
