{"type":"Feature","properties":{"sourceId":"zhejiang"},"geometry":{"type":"Polygon","coordinates":[[[118.0651,29.22425],[118.0697,29.26259],[118.0605,29.28984],[118.0764,29.30287],[118.1528,29.28924],[118.1633,29.33026],[118.1985,29.35435],[118.1822,29.38113],[118.1822,29.39257960264901],[118.1919,29.38816],[118.2095,29.40371],[118.2421,29.42495],[118.3004,29.41568],[118.3159,29.42525],[118.3097,29.48653],[118.3348,29.47129],[118.3619,29.48115],[118.3821,29.50326],[118.4106,29.49848],[118.4779,29.50565],[118.4948,29.5194],[118.5044,29.5633],[118.5809,29.63823],[118.6379,29.63674],[118.6918,29.69133],[118.7238,29.7134],[118.7519,29.76497],[118.7354,29.79626],[118.7595,29.8189],[118.7577,29.84154],[118.7852,29.84243],[118.8377,29.8862],[118.846,29.90048],[118.8439,29.935],[118.8927,29.9353],[118.9016,30.02838],[118.8803,30.11157],[118.9047,30.13949],[118.8934,30.15285],[118.8542,30.16235],[118.8992,30.18075],[118.9325,30.20835],[118.8982,30.23119],[118.8844,30.28338],[118.8834,30.31065],[118.9459,30.34562],[119.0376,30.30028],[119.064,30.30324],[119.0866,30.31599],[119.115,30.29],[119.2281,30.28635],[119.26,30.325],[119.2913,30.35125],[119.3194,30.36636],[119.3555,30.34651],[119.4035,30.36428],[119.4063,30.3862],[119.3713,30.39272],[119.3345,30.50903],[119.3307,30.54423],[119.3071,30.54186],[119.2803,30.51879],[119.2401,30.53979],[119.2707,30.5797],[119.2453,30.6125],[119.3122,30.61694],[119.341,30.65977],[119.3802,30.67808],[119.4049,30.63821],[119.4458,30.64677],[119.467,30.68133],[119.4828,30.70435],[119.4914,30.72236],[119.4873,30.74656],[119.5779,30.82619],[119.5759,30.86068],[119.5642,30.88514],[119.5941,30.95877],[119.637,31.01204],[119.6353,31.06764],[119.648,31.10292],[119.6566,31.12967],[119.6449,31.15024],[119.61485914074748,31.135396587568643],[119.6322,31.15318],[119.6617,31.17433],[119.6943,31.16199],[119.7125,31.17873],[119.7743,31.19078],[119.7984,31.1664],[119.8207,31.18167],[119.8595,31.17756],[119.9017,31.17697],[119.935,31.19],[120.295,30.955],[120.3765,30.95583],[120.3597,30.89162],[120.4122,30.90546],[120.4053,30.92314],[120.415,30.93256],[120.4328,30.9305],[120.4524,30.86304],[120.47,30.82],[120.495,30.785],[120.5794,30.86304],[120.6385,30.86127],[120.6795,30.88963],[120.691,30.87807],[120.7022,30.91114],[120.7034,30.92815],[120.68,30.94935],[120.673,30.96135],[120.6968,30.97599],[120.7524,30.98099],[120.7675,31.00601],[120.812,31.013],[120.8317,31.00498],[120.855,30.99652],[120.8829,31.01168],[120.8909,31.02374],[120.89371168339416,31.023064725410777],[120.8939,31.01866],[120.9068,31.01234],[120.938,31.01028],[120.9344,31.01704],[120.955,31.01704],[120.9813,31.01395],[120.9835,30.99792],[120.9907,30.98615],[120.9847,30.96878],[120.9916,30.93727],[120.982,30.9009],[120.9873,30.89059],[121.013,30.88072],[120.9885,30.84594],[120.9782,30.82958],[120.9899,30.82103],[121.0103,30.83312],[121.0328,30.81484],[121.042,30.81676],[121.0479,30.83238],[121.0736,30.84963],[121.1085,30.85081],[121.1107,30.83504],[121.125,30.83445],[121.1167,30.80231],[121.1167,30.7793],[121.1531,30.77252],[121.1977,30.77532],[121.2089,30.7852],[121.2319,30.75246],[121.2592,30.73224],[121.2573,30.70878],[121.2722,30.67867],[121.5376,30.6391],[121.925,30.75],[122.175,30.89],[123.408,30.84447],[123.42316169419237,30.89312672997107],[123.8379,30.88102],[121.43599915285527,26.717122221711833],[121.0226,26.87951],[120.7452,27.04262],[120.6059,27.06004],[120.5039,27.11751],[120.4373,27.16944],[120.4222,27.18823],[120.4096,27.19907],[120.4041,27.21708],[120.4292,27.25967],[120.422,27.27172],[120.4062,27.28026],[120.4038,27.30162],[120.3944,27.31367],[120.3576,27.34371],[120.3513,27.3611],[120.3499,27.38884],[120.3386,27.40499],[120.3281,27.40271],[120.3207,27.41231],[120.313,27.41414],[120.3032,27.39936],[120.2857,27.40225],[120.2713,27.39494],[120.2555,27.41639],[120.2642,27.42393],[120.2567,27.4373],[120.2473,27.44389],[120.2124,27.42465],[120.2012,27.43364],[120.1891,27.43303],[120.1291,27.42663],[120.1223,27.41734],[120.1273,27.39905],[120.119,27.40195],[120.101,27.40286],[120.0885,27.39417],[120.0897,27.38183],[120.0783,27.38076],[120.0462,27.35027],[120.0291,27.34936],[120.0009,27.38488],[119.9831,27.38366],[119.9565,27.37238],[119.951,27.36872],[119.9486,27.35576],[119.9309,27.34051],[119.9323,27.32221],[119.9058,27.32404],[119.8771,27.31718],[119.8639,27.32099],[119.8399,27.32923],[119.8136,27.30421],[119.7906,27.31687],[119.7795,27.31093],[119.7699,27.31596],[119.7839,27.32923],[119.7652,27.35012],[119.7457,27.36033],[119.7487,27.37893],[119.7086,27.41734],[119.6948,27.43928],[119.7079,27.46472],[119.706,27.51467],[119.6835,27.54633],[119.6597,27.54268],[119.676,27.57905],[119.6296,27.58787],[119.6262,27.62286],[119.6461,27.63457],[119.6399,27.67821],[119.6052,27.68094],[119.5337,27.68079],[119.4945,27.65419],[119.4901,27.61282],[119.4816,27.60309],[119.4792,27.58559],[119.4614,27.52867],[119.4473,27.52441],[119.4312,27.51223],[119.4291,27.52913],[119.4078,27.54526],[119.3682,27.53933],[119.3309,27.52106],[119.3333,27.48893],[119.3144,27.48665],[119.2844,27.4667],[119.274,27.45859],[119.2708,27.44594],[119.2712,27.43979],[119.2684,27.4349],[119.2597,27.42526],[119.2445,27.43425],[119.2374,27.43562],[119.2353,27.42511],[119.2051,27.42755],[119.1348,27.43833],[119.1275,27.43673],[119.1242,27.43574],[119.1194,27.44035],[119.1285,27.46746],[119.1266,27.48497],[119.1114,27.48924],[119.0691,27.47797],[119.0142,27.50446],[118.9931,27.50111],[118.9869,27.50995],[118.975,27.5],[118.9603,27.47648],[118.9545,27.47172],[118.9512,27.45832],[118.9318,27.46731],[118.9005,27.47073],[118.8708,27.53803],[118.8951,27.55044],[118.9087,27.57053],[118.913,27.61659],[118.9102,27.62155],[118.9081,27.62476],[118.9036,27.62761],[118.8996,27.6294],[118.9006,27.63413],[118.8979,27.63776],[118.9007,27.64438],[118.8978,27.65097],[118.8876,27.66422],[118.8723,27.68623],[118.8911,27.70724],[118.8979,27.70975],[118.8938,27.72437],[118.8609,27.75685],[118.8499,27.80674],[118.83,27.85137],[118.8391,27.8843],[118.8116,27.92693],[118.7878,27.94194],[118.7528,27.95013],[118.7306,27.98243],[118.7325,28.03744],[118.7176,28.0635],[118.76,28.095],[118.8005,28.11832],[118.8108,28.15616],[118.7929,28.17629],[118.7701,28.18764],[118.8159,28.21472],[118.8065,28.24542],[118.7548,28.25933],[118.737,28.28488],[118.7229,28.32237],[118.6949,28.321],[118.6676,28.28503],[118.5964,28.27763],[118.5734,28.29758],[118.5413,28.28609],[118.5342,28.27747],[118.519,28.28337],[118.4948,28.28579],[118.4839,28.274],[118.4901,28.25102],[118.4671,28.25041],[118.4581,28.24837],[118.4476,28.25449],[118.4462,28.26697],[118.4287,28.28299],[118.4312,28.29184],[118.4274,28.29917],[118.42628474785748,28.299591079174323],[118.4419,28.30801],[118.455,28.34],[118.415,28.385],[118.4273,28.41601],[118.4604,28.46899],[118.4187,28.48589],[118.4043,28.50083],[118.4228,28.51365],[118.4096,28.55241],[118.4015,28.56809],[118.4081,28.58708],[118.4038,28.61014],[118.4228,28.62506],[118.4089,28.64013],[118.4235,28.66303],[118.4048,28.68486],[118.3894,28.69224],[118.3818,28.70625],[118.387,28.72221],[118.3772,28.75517],[118.3705,28.79264],[118.3564,28.80617],[118.2977,28.81926],[118.2876,28.82693],[118.2767,28.86136],[118.2549,28.91592],[118.1938,28.89879],[118.1837,28.903],[118.1851,28.91577],[118.1947,28.92584],[118.2189,28.94672],[118.1931,28.94973],[118.1849,28.9703],[118.1382,28.97766],[118.0883,28.99253],[118.0857,29.00123],[118.0787,29.01219],[118.0522,29.04747],[118.0646,29.06712],[118.0479,29.08393],[118.0282,29.09668],[118.0332,29.14826],[118.0225,29.16056],[118.0206,29.17615],[118.0246,29.20357],[118.039,29.222],[118.0651,29.22425]]]}}
