{"type":"Feature","properties":{"sourceId":"zuid-holland"},"geometry":{"type":"Polygon","coordinates":[[[3.345328,51.94233],[4.009635,52.47611],[4.477468,52.33372],[4.560913,52.31141],[4.563651,52.31172],[4.568739,52.31771],[4.574361,52.31704],[4.583717,52.31966],[4.598697,52.31864],[4.612758,52.31412],[4.612248,52.31096],[4.598515,52.29589],[4.59716,52.29069],[4.589488,52.27972],[4.570307,52.2679],[4.570773,52.2593],[4.564099,52.23417],[4.555107,52.23037],[4.553109,52.22792],[4.553172,52.2253],[4.557555,52.22046],[4.571489,52.21826],[4.583589,52.22017],[4.602198,52.21593],[4.619454,52.21587],[4.632712,52.21758],[4.670164,52.23198],[4.676914,52.22783],[4.684824,52.22773],[4.696176,52.23348],[4.704927,52.23511],[4.725037,52.23322],[4.724984,52.21654],[4.727266,52.21269],[4.73354,52.20917],[4.742999,52.21592],[4.762212,52.21959],[4.77304,52.22511],[4.776135,52.22868],[4.781051,52.23005],[4.789557,52.22917],[4.795019180135063,52.22784889649943],[4.793809,52.22768],[4.79333,52.22287],[4.800118,52.21613],[4.800315,52.20391],[4.802075,52.20016],[4.812164,52.19968],[4.843266,52.179],[4.856076,52.17724],[4.880025,52.16596],[4.881989,52.16379],[4.88081,52.15972],[4.872603,52.15679],[4.87302,52.14355],[4.870242,52.13971],[4.856138,52.13852],[4.851395,52.14099],[4.843992,52.14101],[4.833487,52.14588],[4.826569,52.14357],[4.82021,52.14348],[4.808109,52.13849],[4.805121,52.12845],[4.79271,52.12506],[4.790849,52.12214],[4.820716,52.10753],[4.825138,52.0742],[4.828876,52.07162],[4.829188,52.06576],[4.851153,52.06781],[4.855874,52.06712],[4.857718,52.06482],[4.85625,52.06081],[4.847396,52.05931],[4.828609,52.05066],[4.816593,52.03811],[4.805747,52.03395],[4.806791,52.02976],[4.805783,52.02696],[4.797493,52.02214],[4.803209,52.01277],[4.816021,52.01274],[4.824891,52.01578],[4.845467,52.01628],[4.847928,52.01485],[4.851641,52.00999],[4.850023,52.00591],[4.817808,52.00111],[4.816601,51.9995],[4.844799,51.97408],[4.860335,51.96604],[4.870641,51.95262],[4.876957,51.93713],[4.916671,51.9419],[4.926963,51.94966],[4.931184,51.94632],[4.937948,51.92871],[4.940184,51.92779],[4.946332,51.93059],[4.948796,51.92945],[4.95535,51.9147],[4.971328,51.90692],[4.972857,51.89614],[4.990323,51.90002],[4.994278,51.89859],[4.994678,51.89175],[4.997588,51.88456],[4.993705,51.87596],[4.995367,51.87223],[4.99772,51.87233],[5.024578,51.87992],[5.022081,51.87637],[5.02056,51.86832],[5.025842,51.86261],[5.025994356381759,51.859629642093886],[5.006067,51.85919],[4.995997,51.86315],[4.992647,51.86139],[4.997326,51.85318],[4.998512,51.84364],[5.025662,51.84027],[5.029019,51.83734],[5.024839,51.82153],[5.002912100474959,51.821324820029396],[5.00104,51.82209],[4.98774,51.82237],[4.936007,51.82962],[4.922738,51.82937],[4.889104,51.82017],[4.853784,51.80187],[4.835846,51.79915],[4.797282,51.80108],[4.773279,51.7946],[4.754497,51.78269],[4.739582,51.75954],[4.728642,51.75175],[4.703276,51.73815],[4.673968,51.72531],[4.616964,51.71476],[4.589138,51.70463],[4.542204,51.6961],[4.507045,51.69381],[4.423374,51.7107],[4.393087,51.69449],[4.378951,51.68484],[4.377509,51.6784],[4.373533,51.67292],[4.361059,51.66406],[4.332329,51.65503],[4.275303,51.64513],[4.2427794899879006,51.64827284858684],[4.194428,51.66553],[4.152771,51.68621],[4.123,51.68707],[4.098044,51.69179],[4.048545,51.69582],[4.041627,51.7029],[4.03824,51.71069],[4.036141,51.73077],[4.02015,51.74374],[4.013152,51.76034],[3.975577,51.76498],[3.958682,51.77346],[3.939894,51.77505],[3.921416,51.77206],[3.904836,51.76594],[3.886394,51.75132],[3.875261,51.74914],[3.848507,51.75451],[3.826371,51.76715],[3.773549,51.78274],[3.582556,51.87013],[3.571117313941908,51.85751583116569],[3.345328,51.94233]]]}}
