{"type":"Feature","properties":{"sourceId":"zambia"},"geometry":{"type":"Polygon","coordinates":[[[25.19234,-17.77484],[25.08762,-17.70846],[25.01896,-17.61556],[24.83734,-17.53144],[24.79649,-17.5429],[24.73263,-17.51671],[24.56338,-17.54553],[24.3996,-17.47971],[24.32459,-17.49575],[24.29882,-17.48764],[24.27981,-17.48787],[24.27034,-17.49493],[24.25439,-17.48858],[24.2435,-17.47931],[23.42663,-17.64337],[23.22578,-17.55305],[22.78908,-17.17294],[22.11204,-16.49469],[22.08097,-16.32492],[21.98982,-16.2094],[21.99188,-12.99251],[22.71629,-12.99251],[24.0374,-12.99318],[23.87947,-12.84728],[23.91449,-12.53445],[24.03946,-12.3789],[23.95843,-12.18567],[23.9241,-11.65493],[24.03394,-11.38937],[23.97903,-11.12316],[23.96667,-10.88051],[24.09164,-10.85354],[24.41849,-11.08677],[24.42123,-11.40061],[24.83871,-11.24576],[25.37292,-11.16628],[25.34546,-11.56614],[25.88791,-11.79342],[26.46057,-11.90296],[26.88217,-11.96141],[27.01675,-11.59238],[27.21245,-11.5574],[27.24095,-11.68387],[27.22776,-11.75281],[27.23397,-11.77616],[27.34359,-11.82947],[27.39945,-11.8691],[27.46307,-11.92547],[27.47449,-11.9379],[27.51251,-12.08834],[27.61911,-12.22125],[27.63903,-12.26973],[27.72786,-12.27887],[27.7797,-12.26537],[27.79979,-12.26159],[27.81283,-12.25027],[27.80871,-12.22242],[27.81232,-12.21907],[27.93188,-12.23936],[27.96467,-12.31518],[28.19092,-12.37488],[28.3243,-12.41822],[28.34104,-12.43021],[28.3461,-12.43985],[28.3588,-12.44504],[28.4539,-12.51032],[28.55141,-12.62761],[28.50265,-12.71671],[28.56583,-12.8667],[28.64754,-12.79372],[28.83362,-12.9798],[28.9373,-13.22524],[29.18243,-13.39029],[29.57382,-13.19048],[29.68369,-13.21856],[29.80316,-13.4317],[29.79904,-12.16353],[29.52404,-12.44093],[29.48044,-12.46775],[29.3129,-12.42417],[29.11892,-12.40104],[29.03412,-12.39433],[28.94588,-12.21521],[28.8604,-12.1491],[28.77251,-12.0504],[28.73817,-11.98484],[28.70899,-11.99802],[28.48789,-11.88482],[28.43193,-11.82468],[28.37631,-11.58935],[28.38936,-11.47397],[28.41923,-11.38984],[28.46832,-11.10126],[28.54179,-10.84005],[28.60393,-10.72201],[28.62453,-10.51988],[28.62514,-10.40804],[28.62131,-10.39578],[28.61604,-10.36271],[28.62659,-10.31323],[28.56837,-10.2263],[28.63843,-9.796416],[28.3482,-9.258865],[28.85151,-8.705905],[28.93215,-8.532812],[29.00013,-8.452336],[29.0839,-8.444865],[29.5709,-8.37643],[29.63562,-8.412262],[29.65794,-8.373203],[29.69948,-8.361654],[30.43419,-8.265854],[30.788,-8.239483],[31.09388,-8.580854],[31.21465,-8.579903],[31.37764,-8.584076],[31.54758,-8.680475],[31.59222,-8.724593],[31.58707,-8.796868],[31.69247,-8.906101],[31.80542,-8.869468],[31.94893,-8.931539],[32.16866,-9.060736],[32.2562,-9.126165],[32.43164,-9.115826],[32.47541,-9.137351],[32.49615,-9.150913],[32.54219,-9.249531],[32.58322,-9.241737],[32.61927,-9.254953],[32.64836,-9.272904],[32.71703,-9.275199],[32.75729,-9.284274],[32.76647,-9.3217],[32.79101,-9.320938],[32.80651,-9.331472],[32.89822,-9.362014],[32.95422282056446,-9.396625858452248],[32.95057,-9.399613],[32.93838,-9.418411],[32.94456,-9.488344],[32.99849,-9.513789],[32.99194,-9.559449],[32.98593,-9.623768],[33.02044,-9.638661],[33.05168,-9.61886],[33.07314,-9.655415],[33.08516,-9.666246],[33.10833,-9.66743],[33.12344,-9.597365],[33.18386,-9.606504],[33.223,-9.630368],[33.23536,-9.696536],[33.27124,-9.759983],[33.29887,-9.801598],[33.3181,-9.818682],[33.34059,-9.82105],[33.35552,-9.820205],[33.36016,-9.837457],[33.37818,-9.8679],[33.38711,-9.913729],[33.35724,-9.923706],[33.30883,-10.02667],[33.31089,-10.05912],[33.39488,-10.10824],[33.5471,-10.22303],[33.53645,-10.3514],[33.56461,-10.40746],[33.62778,-10.46486],[33.63087,-10.51718],[33.67756,-10.59515],[33.59894,-10.65049],[33.54298,-10.72403],[33.50315,-10.76518],[33.4465,-10.79992],[33.41423,-10.78643],[33.35346,-10.80397],[33.32977,-10.82117],[33.30368,-10.85253],[33.2793,-10.83803],[33.25218,-10.89164],[33.28651,-10.91793],[33.31364,-11.0642],[33.395,-11.16729],[33.28171,-11.3683],[33.28068,-11.42316],[33.25733,-11.40297],[33.23604,-11.3996],[33.21991,-11.42248],[33.2393,-11.48946],[33.23193,-11.5991],[33.32668,-11.62399],[33.31261,-11.89268],[33.3315,-11.92958],[33.25945,-12.05896],[33.24155,-12.14378],[33.29506,-12.19976],[33.2973,-12.25542],[33.37406,-12.35744],[33.47397,-12.33564],[33.5392,-12.36348],[33.46229,-12.41814],[33.44621,-12.46333],[33.37301,-12.53266],[33.33664,-12.52641],[33.26866,-12.5435],[33.19485,-12.60449],[33.16086,-12.59042],[33.04962,-12.58573],[32.92637,-12.76995],[32.93804,-12.8503],[32.97031,-12.89213],[33.00774,-12.90117],[32.97066,-13.11593],[32.99053,-13.20313],[32.92946,-13.30243],[32.91298,-13.40198],[32.88448,-13.45808],[32.85564,-13.46208],[32.83951,-13.52418],[32.75127,-13.56724],[32.70149,-13.55489],[32.66991,-13.56123],[32.66441,-13.57558],[32.67334,-13.63131],[32.71076,-13.657],[32.78149,-13.656],[32.83333,-13.71904],[32.8014,-13.74539],[32.76535,-13.7664],[32.76741,-13.78374],[32.8062,-13.80574],[32.88105,-13.81108],[32.9171,-13.86175],[32.95315,-13.89674],[32.95315,-13.93074],[32.96448,-13.94406],[32.994,-13.94606],[32.98988,-14.00603],[32.99332,-14.02702],[33.03966,-14.06032],[33.06988,-14.02002],[33.06816,-13.9947],[33.10764,-13.96572],[33.13511,-13.96339],[33.14953,-13.94773],[33.17562,-13.95989],[33.20171,-14.00453],[33.24017,-14.0012],[33.24140093903379,-14.002957105130582],[33.19965,-14.01511],[32.96637,-14.09479],[32.66819,-14.19783],[32.45173,-14.28751],[32.25294,-14.32477],[32.05956,-14.39145],[31.48235,-14.62179],[30.39059,-14.96435],[30.23197,-15.0078],[30.40089,-15.37756],[30.40827,-15.48114],[30.37308,-15.54863],[30.40707,-15.58385],[30.414600401039532,-15.605344542773025],[30.35136,-15.6293],[30.15951,-15.5948],[29.81272,-15.58707],[29.40669,-15.66508],[29.20445,-15.75084],[28.90509,-15.92151],[28.84152,-16.0423],[28.84371,-16.10903],[28.82916,-16.16786],[28.82587,-16.25289],[28.8113,-16.30927],[28.82984,-16.38108],[28.80375,-16.47329],[28.73199,-16.53847],[28.64925,-16.55163],[28.26201,-16.69497],[28.06664,-16.84332],[27.81509,-16.9453],[27.61207,-17.23044],[27.59731,-17.3208],[27.54193,-17.39289],[27.29587,-17.58133],[27.0308,-17.93201],[26.82823,-17.96909],[26.57632,-17.96864],[26.25641,-17.89266],[26.22582,-17.86142],[26.07816,-17.91334],[26.06805,-17.95601],[25.96575,-17.97424],[25.88624,-17.95337],[25.87795,-17.89492],[25.69392,-17.7873],[25.51271,-17.83747],[25.24514,-17.77642],[25.243886405725224,-17.783947765980038],[25.21359345960466,-17.78040721594257],[25.19234,-17.77484]]]}}
