{"type":"Feature","properties":{"sourceId":"zlinsky"},"geometry":{"type":"Polygon","coordinates":[[[18.18635,49.24333],[18.08351,49.00207],[17.93756,49.01158],[17.89456,48.92012],[17.65889,48.8374],[17.64412,48.85385],[17.62204,48.88013],[17.60096,48.90888],[17.58288,48.90968],[17.55907,48.919],[17.5474,48.91483],[17.53634,48.92232],[17.55058,48.94322],[17.53509,48.95097],[17.50778,48.95143],[17.49997,48.96248],[17.49502,48.95777],[17.43369,48.94898],[17.4125,48.96205],[17.39768,48.97399],[17.39214,48.98019],[17.37575,48.97303],[17.35026,48.97809],[17.35816,49.00512],[17.34973,49.00475],[17.32355,49.0104],[17.27449,49.01237],[17.26573,49.03287],[17.25064,49.02943],[17.24965,49.03685],[17.22201,49.03193],[17.21752,49.03809],[17.22975,49.06417],[17.22691,49.06819],[17.22746,49.07215],[17.21654,49.07597],[17.21183,49.09073],[17.14532,49.07171],[17.12455,49.07431],[17.12435,49.07429],[17.12424,49.07434],[17.10807,49.07636],[17.11119,49.10412],[17.13513,49.10397],[17.14873,49.13581],[17.18417,49.14048],[17.20029,49.17571],[17.19563,49.18229],[17.18312,49.17089],[17.15292,49.17119],[17.14485,49.17531],[17.15884,49.19032],[17.15052,49.19337],[17.13356,49.21467],[17.1453,49.23009],[17.12687,49.2462],[17.15766,49.27632],[17.17554,49.27029],[17.1776,49.28734],[17.19326,49.29849],[17.20888,49.29423],[17.23,49.29894],[17.2546,49.30415],[17.27666,49.29685],[17.29918,49.3127],[17.31466,49.33194],[17.34133,49.34238],[17.35325,49.34395],[17.3398,49.3605],[17.33044,49.38222],[17.33382,49.39018],[17.35213,49.40818],[17.36759,49.41415],[17.38774,49.40553],[17.37589,49.38084],[17.38578,49.38187],[17.3903,49.3895],[17.43904,49.38029],[17.4449,49.37933],[17.44647,49.38052],[17.45048,49.38002],[17.4494,49.37778],[17.45533,49.37622],[17.46938,49.36974],[17.47504,49.35666],[17.5032,49.37729],[17.51281,49.38393],[17.50446,49.40062],[17.50436,49.40073],[17.50434,49.40079],[17.50435,49.40084],[17.50348,49.40258],[17.52311,49.40301],[17.52853,49.39808],[17.53325,49.40331],[17.54568,49.40639],[17.56726,49.4075],[17.58085,49.40906],[17.59065,49.4055],[17.59555,49.40036],[17.62894,49.4017],[17.63289,49.40718],[17.63641,49.40778],[17.64761,49.41535],[17.64387,49.41873],[17.62474,49.43961],[17.62301,49.44077],[17.62267,49.44304],[17.62029,49.44716],[17.62329,49.4509],[17.64938,49.45241],[17.66434,49.44123],[17.66724,49.44902],[17.66718,49.4491],[17.66728,49.44915],[17.66727,49.44921],[17.66732,49.44924],[17.66867,49.45288],[17.66859,49.45298],[17.66765,49.45552],[17.67374,49.46285],[17.69247,49.46465],[17.71309,49.45057],[17.72007,49.43958],[17.77794,49.4415],[17.77648,49.44941],[17.77743,49.45854],[17.78944,49.46291],[17.78965,49.46687],[17.79767,49.4715],[17.78472,49.489],[17.79116,49.48815],[17.79974,49.48915],[17.80712,49.49205],[17.81047,49.49539],[17.80875,49.49929],[17.81304,49.50359],[17.81888,49.50175],[17.82549,49.50203],[17.8363,49.50459],[17.83982,49.51618],[17.83527,49.52426],[17.84557,49.52415],[17.86428,49.5188],[17.89312,49.51039],[17.90019,49.51932],[17.91527,49.53925],[17.95661,49.54122],[17.97355,49.5383],[17.98226,49.53067],[17.99445,49.52407],[17.9974,49.50513],[18.03208,49.51256],[18.08816,49.51969],[18.12603,49.52198],[18.13674,49.51104],[18.16483,49.5183],[18.20204,49.49049],[18.21533,49.49389],[18.2325,49.48987],[18.25567,49.48486],[18.26906,49.49556],[18.30238,49.49113],[18.32369,49.45301],[18.35099,49.44726],[18.36828,49.43292],[18.37399,49.42091],[18.36747,49.4067],[18.38317,49.4038],[18.39073,49.39995],[18.39897,49.39933],[18.40392,49.39686],[18.45055,49.38053],[18.36954,49.31314],[18.18635,49.24333]]]}}
