{"type":"Feature","properties":{"sourceId":"zeeland"},"geometry":{"type":"Polygon","coordinates":[[[4.244665,51.3525],[4.167273,51.29012],[4.062695,51.24169],[4.040278,51.23833],[4.014192,51.2418],[3.980126,51.22262],[3.966785,51.22128],[3.959444,51.21294],[3.886517,51.19717],[3.874627,51.20794],[3.837323,51.21064],[3.824674,51.20596],[3.789446,51.21154],[3.785459,51.22651],[3.788309,51.25407],[3.768807,51.2569],[3.753589,51.26683],[3.69315,51.27314],[3.657541,51.2872],[3.640011,51.28518],[3.58992,51.30156],[3.586048,51.29815],[3.590697,51.29181],[3.582435,51.28398],[3.525554,51.27896],[3.531246,51.24537],[3.448568,51.23851],[3.426458,51.24184],[3.420358,51.25367],[3.40601,51.2543],[3.373119,51.27568],[3.377565,51.2858],[3.36301,51.29803],[3.370756,51.30293],[3.355429,51.31553],[3.38192,51.33537],[3.380865,51.33946],[3.371422,51.3471],[3.371675,51.35815],[3.350258,51.37673],[3.306017,51.43103],[3.242792,51.45818],[3.233941,51.48569],[3.582556,51.87013],[3.773549,51.78274],[3.826371,51.76715],[3.848507,51.75451],[3.875261,51.74914],[3.886394,51.75132],[3.904836,51.76594],[3.921416,51.77206],[3.939894,51.77505],[3.958682,51.77346],[3.975577,51.76498],[4.013152,51.76034],[4.02015,51.74374],[4.036141,51.73077],[4.03824,51.71069],[4.041627,51.7029],[4.048545,51.69582],[4.098044,51.69179],[4.123,51.68707],[4.152771,51.68621],[4.194428,51.66553],[4.2436,51.64798],[4.23901,51.63344],[4.214781,51.6264],[4.203581,51.62115],[4.193988,51.61098],[4.191486,51.60085],[4.196782,51.58975],[4.229053,51.56462],[4.236363,51.55454],[4.237586,51.5485],[4.23633,51.54116],[4.221382,51.51395],[4.220115,51.50635],[4.27668,51.42613],[4.276821,51.42431],[4.268118,51.4194],[4.265367,51.41485],[4.270194,51.40107],[4.270155,51.38692],[4.274972,51.38353],[4.278333,51.37522],[4.278407,51.37282],[4.222024,51.37104],[4.244665,51.3525]]]}}
