{"type":"Feature","properties":{"sourceId":"zachodniopomorskie"},"geometry":{"type":"Polygon","coordinates":[[[15.987422876181604,53.0322944416359],[16.00916,53.07115],[15.99025,53.12801],[15.84147,53.12806],[15.7394,53.00581],[15.68108,53.01195],[15.63374,52.99351],[15.54597,53.02896],[15.41543,52.99757],[15.35281,52.95906],[15.28278,52.97172],[15.26974,52.9406],[15.29854,52.90516],[15.08062,52.84838],[15.0419,52.87609],[14.99745,52.86485],[14.90661,52.90143],[14.83793,52.83427],[14.83105,52.79089],[14.78066,52.76704],[14.77557,52.70225],[14.71533,52.64781],[14.62747,52.67487],[14.5529,52.63681],[14.54372535532536,52.63585290975964],[14.53697,52.63869],[14.47787,52.65942],[14.46853,52.67235],[14.44839,52.68275],[14.36309,52.75281],[14.31225,52.76656],[14.21769,52.82373],[14.13975,52.83057],[14.12722,52.84415],[14.16275,52.8683],[14.16721,52.88861],[14.1573,52.93272],[14.15917,52.94373],[14.15209,52.95518],[14.1793,52.97135],[14.22813,52.98549],[14.32616,53.03146],[14.35989,53.04827],[14.39754,53.14575],[14.38151,53.1643],[14.38822,53.19557],[14.4117,53.20651],[14.41916,53.2189],[14.45867,53.2595],[14.45457,53.278],[14.43556,53.28224],[14.42438,53.30853],[14.42236,53.33495],[14.422356535232991,53.334949741052],[14.42177,53.34259],[14.38263,53.42718],[14.38513,53.45359],[14.38502,53.45387],[14.38421,53.45521],[14.36958,53.46226],[14.35896,53.49598],[14.33958,53.50662],[14.32616,53.53476],[14.31647,53.54828],[14.3228,53.56289],[14.32318,53.62096],[14.29149,53.63644],[14.29,53.66118],[14.28143,53.66715],[14.29,53.68061],[14.27935,53.69862],[14.27484,53.72688],[14.28713,53.76589],[14.22724,53.86794],[14.21939,53.90032],[14.21655,53.91019],[14.21692,53.9105],[14.21562,53.91587],[14.23244,53.92739],[14.29761,54.18108],[14.0791,54.76026],[14.050175878684975,54.767978165243484],[16.69114,55.00664],[16.69114017328679,55.00663506286457],[16.68699,55.00626],[16.68848,54.56457],[16.72943,54.52836],[16.75412,54.47646],[16.81002,54.46007],[16.8229,54.43479],[16.81354,54.41145],[16.83397,54.38763],[16.79888,54.37741],[16.81252,54.34341],[16.80269,54.31539],[16.84246,54.29901],[16.8527,54.27814],[16.83139,54.25907],[16.72886,54.24337],[16.70063,54.2114],[16.72265,54.17012],[16.76255,54.14284],[16.76984,54.11206],[16.78433,54.10808],[16.7898,54.06327],[16.77125,54.02368],[16.78465,53.99792],[16.77865,53.97288],[16.81679,53.96818],[16.83287,53.9838],[16.86462,53.96373],[16.84893,53.95327],[16.85107,53.93796],[16.96144,53.89299],[16.8652,53.87789],[16.84932,53.85433],[16.85805,53.82952],[16.91606,53.78593],[16.84635,53.74957],[16.87768705310038,53.64441257915901],[16.868372863217186,53.67566810858619],[16.74481,53.64556],[16.69251,53.54375],[16.64334,53.51395],[16.4387,53.50818],[16.41188,53.45333],[16.45855,53.36851],[16.64084,53.2977],[16.48487,53.19351],[16.38544,53.18485],[16.29619,53.06878],[16.12024,53.03864],[16.00012698614841,53.05500330093132],[15.987422876181606,53.0322944416359],[15.987422876181604,53.0322944416359]]]}}
