{"type":"Feature","properties":{"sourceId":"zimbabwe"},"geometry":{"type":"Polygon","coordinates":[[[28.57862,-21.65943],[28.49514,-21.69104],[28.36167,-21.62958],[28.19093,-21.6257],[28.01474,-21.57802],[27.9667,-21.51898],[27.91726,-21.37245],[27.91431,-21.32942],[27.90101,-21.30241],[27.88216,-21.2907],[27.7965,-21.1829],[27.7567,-21.16662],[27.68044,-21.08062],[27.70316,-20.52995],[27.47566,-20.47715],[27.27819,-20.51999],[27.27903,-20.31987],[27.23321,-20.12539],[27.19252,-20.08404],[27.13973,-20.08248],[27.03867,-20.03505],[26.71687,-19.96122],[26.15258,-19.56169],[26.04894,-19.28467],[25.94274,-19.11677],[25.80542,-18.84827],[25.76277,-18.64264],[25.68902,-18.58859],[25.51512,-18.38373],[25.40098,-18.15321],[25.30923,-18.09015],[25.2229,-17.90997],[25.24514,-17.77642],[25.51271,-17.83747],[25.69392,-17.7873],[25.87795,-17.89492],[25.88624,-17.95337],[25.96575,-17.97424],[26.06805,-17.95601],[26.07816,-17.91334],[26.22582,-17.86142],[26.25641,-17.89266],[26.57632,-17.96864],[26.82823,-17.96909],[27.0308,-17.93201],[27.29587,-17.58133],[27.54193,-17.39289],[27.59731,-17.3208],[27.61207,-17.23044],[27.81509,-16.9453],[28.06664,-16.84332],[28.26201,-16.69497],[28.64925,-16.55163],[28.73199,-16.53847],[28.80375,-16.47329],[28.82984,-16.38108],[28.8113,-16.30927],[28.82587,-16.25289],[28.82916,-16.16786],[28.84371,-16.10903],[28.84152,-16.0423],[28.90509,-15.92151],[29.20445,-15.75084],[29.40669,-15.66508],[29.81272,-15.58707],[30.15951,-15.5948],[30.35136,-15.6293],[30.42702,-15.60064],[30.44915,-15.62983],[30.44859,-15.97401],[31.2863,-15.98346],[31.4558,-16.13293],[31.7161,-16.17487],[31.91479,-16.32457],[31.93717,-16.39367],[32.34715,-16.42531],[32.7168,-16.57703],[32.73271,-16.66828],[32.9943,-16.68927],[33.00189,-16.7403],[32.93487,-16.90231],[32.8756,-16.93852],[33.00796,-17.16842],[33.07576,-17.33957],[33.07754,-17.60471],[33.02095,-18.16856],[33.0352,-18.28608],[33.08395,-18.33986],[33.03368,-18.48748],[32.97802,-18.69359],[32.94646,-18.78115],[32.90248,-18.81704],[32.8277,-18.80275],[32.73358,-18.84804],[32.75848,-18.9304],[32.73011,-18.95893],[32.74215,-19.00037],[32.86101,-19.00827],[32.89981,-19.09233],[32.87405,-19.29381],[32.863,-19.46173],[32.88139,-19.54149],[32.97846,-19.63337],[32.99361,-19.71708],[33.08541,-19.78481],[33.03243,-20.02848],[32.94258,-20.06815],[32.93225,-20.13449],[32.8862,-20.13847],[32.88471,-20.29757],[32.68772,-20.56878],[32.57017,-20.58726],[32.51317,-20.63346],[32.54031,-20.91607],[32.3988,-21.13069],[32.49672,-21.34429],[32.42022,-21.33963],[31.59244,-22.19782],[31.30962,-22.44725],[31.1625,-22.35427],[31.07989,-22.37145],[30.90752,-22.32244],[30.28201,-22.37808],[30.21998,-22.32108],[30.11341,-22.33067],[29.99663,-22.25194],[29.76271,-22.16566],[29.65223,-22.15382],[29.53028,-22.20106],[29.3615,-22.21595],[29.24549,-22.0904],[29.13328,-22.09518],[29.03372,-22.03539],[28.99666,-21.91572],[29.03719,-21.82129],[28.85463,-21.77769],[28.57862,-21.65943]]]}}
