{"type":"Feature","properties":{"id":"us-district-of-columbia","name":"Washington DC · Geofabrik full extract","geofabrikFeatureId":"us/district-of-columbia","coverageKind":"complete-source-extract-clip"},"geometry":{"type":"MultiPolygon","coordinates":[[[[-77.03934,38.79099],[-77.0393,38.80094],[-77.03784,38.80922],[-77.03782,38.81408],[-77.04188,38.82329],[-77.03811,38.82999],[-77.04377,38.83082],[-77.04579,38.83453],[-77.04733,38.84171],[-77.0365,38.84124],[-77.03395,38.84359],[-77.03496,38.85841],[-77.04386,38.86391],[-77.03821,38.86518],[-77.03926,38.86885],[-77.04278,38.87264],[-77.05021,38.86918],[-77.06375,38.88571],[-77.06894,38.89916],[-77.08982,38.90269],[-77.10096,38.90973],[-77.11637,38.92796],[-77.1201,38.93425],[-77.04097,38.99603],[-76.90906,38.89292],[-77.03934,38.79099]]]]}}
